{"type": "FeatureCollection", "crs": {"type": "name", "properties": {"name": "EPSG:32628_local_enu_m_section_centroid", "lng0": -16.272893691148518, "lat0": 28.4547893798825}}, "features": [{"type": "Feature", "geometry": {"type": "Polygon", "coordinates": [[[-205.56101629601326, 255.2990485197519], [-209.76950386907447, 248.95380851955707], [-217.20776097467512, 252.62736851977394], [-222.2970947837886, 241.94064851986212], [-214.76096587406624, 237.4878485196352], [-231.9864033817547, 210.32576851979343], [-226.5055823565021, 206.65220851957656], [-220.43753050721457, 216.00308851969714], [-208.88865763267447, 233.1463685199182], [-204.19081103970012, 240.38216851984203], [-199.5908362508475, 249.0651285196715], [-198.8078618185692, 252.40472851994056], [-197.9270155825169, 259.52920851974994], [-199.88445166286493, 266.43104851972595], [-203.79932382356097, 272.77628851992074], [-207.90993959250045, 276.11588851979434], [-218.6686758435288, 282.9403992253694], [-225.17386853084645, 277.4528921879124], [-230.95535261134242, 271.49284743438056], [-205.56101629601326, 255.2990485197519]]]}, "properties": {"name": "", "kind": "garden", "category": "parque", "extrude": false}}, {"type": "Feature", "geometry": {"type": "Polygon", "coordinates": [[[-242.3608146078774, 235.9293685196151], [-236.68424997472906, 233.3690085197516], [-224.9396334922932, 251.95944851987832], [-237.85871162314646, 259.86316851969775], [-242.3608146078774, 235.9293685196151]]]}, "properties": {"name": "", "kind": "playground", "category": "parque", "extrude": false}}, {"type": "Feature", "geometry": {"type": "Polygon", "coordinates": [[[162.3390950192018, 171.92036851986316], [165.17737733594984, 168.2468085196463], [167.81991604445443, 164.35060851959605], [169.87522392892419, 160.120448519598], [173.5943524817245, 158.78460851980677], [173.20286526558536, 154.88840851975652], [166.74332620015872, 156.78084851972443], [159.7944281148189, 154.99972851987096], [157.64124842622746, 147.3186485198849], [172.90924985356793, 137.07720851963984], [188.86235390906495, 124.83200851970793], [205.0112015724577, 109.24720851990244], [213.5260485223541, 99.45104851971962], [222.62812629628536, 88.09640851991219], [230.94722963793834, 78.52288851956274], [235.15571721099948, 73.7361285197835], [237.5046405074867, 75.73988851986584], [230.066383401886, 86.76056851972547], [223.9004597484768, 97.44728851963728], [214.01540754226724, 115.59244851970178], [207.45799667306662, 129.1734885198204], [201.09632941176167, 142.865848519658], [196.39848281878733, 156.66952851961], [194.14743132607416, 156.00160851971438], [191.21127720555214, 165.7977685198972], [185.7304561802995, 185.61272851970074], [178.5858144867163, 208.76728851977333], [174.18158330575937, 225.68792851976553], [168.79863408462845, 243.27648851965336], [161.75186419516695, 265.9857685196637], [158.22847925026232, 278.45360851982446], [150.23920819959162, 302.72136851985493], [137.24443081445062, 302.72136851985493], [142.07963158686957, 276.56116851985655], [147.4625808080005, 244.50100851972564], [152.6497864212357, 212.88612851965695], [157.64124842622746, 191.95796851989556], [160.6752743508712, 177.15240851970464], [162.3390950192018, 171.92036851986316]]]}, "properties": {"name": "", "kind": "garden", "category": "parque", "extrude": false}}, {"type": "Feature", "geometry": {"type": "Polygon", "coordinates": [[[-146.44644666734717, 217.00496851993606], [-145.8592158433123, 217.67288851983167], [-108.5700585111873, 194.07304851969684], [-109.05941753110045, 193.2938085196868], [-92.22546723955112, 182.82972851960835], [-88.31059507885507, 183.05236851983722], [-79.11064550080211, 166.79964851974063], [-69.51920870661, 170.69584851979087], [-65.89795195793138, 173.81280851983107], [-62.766054229165924, 176.1505285198612], [-58.36182304820902, 177.15240851970464], [-57.08948959601757, 179.8240885196826], [-90.07228755130737, 200.30696851977723], [-130.1997271998327, 225.02000851986992], [-162.59529433073993, 246.17080851986017], [-168.66334618002742, 249.3990885196193], [-176.29734689387152, 250.51228851957717], [-181.68029611500242, 249.17644851978594], [-186.28027090385504, 246.05948851974574], [-184.0292194114896, 244.27836851989227], [-181.09306529061985, 246.95004851987022], [-176.88457771790638, 247.5066485196514], [-172.67609014484518, 247.61796851976584], [-169.25057700406228, 246.50476851980798], [-176.0037314818541, 235.9293685196151], [-146.44644666734717, 217.00496851993606]]]}, "properties": {"name": "", "kind": "garden", "category": "parque", "extrude": false}}, {"type": "Feature", "geometry": {"type": "Polygon", "coordinates": [[[-49.94484790243435, 212.32952851987577], [-58.45969485233073, 210.5484085196268], [-40.0597956962248, 197.19000851973703], [-15.787588299074812, 182.16180851971274], [-6.881254133386993, 177.15240851970464], [-3.74935640462153, 181.93916851987936], [-0.42171506796034847, 191.06740851977108], [-0.9110740878734991, 193.6277685196346], [-24.498178856866915, 202.86732851964075], [-39.47256487218994, 207.87672851964885], [-49.94484790243435, 212.32952851987577]]]}, "properties": {"name": "", "kind": "garden", "category": "parque", "extrude": false}}, {"type": "Feature", "geometry": {"type": "Polygon", "coordinates": [[[-217.50137638669256, 178.2656085196625], [-218.48009442686657, 187.17120851972084], [-205.36527268811756, 189.06364851968874], [-215.93542752213597, 199.97300851982942], [-217.40350458257083, 200.08432851994385], [-220.731145919232, 197.0786885196226], [-227.5821722007978, 187.28252851983527], [-230.0289673014067, 181.49388851981712], [-231.39917255771985, 177.93164851971468], [-217.50137638669256, 178.2656085196625]]]}, "properties": {"name": "", "kind": "garden", "category": "parque", "extrude": false}}, {"type": "Feature", "geometry": {"type": "Polygon", "coordinates": [[[-38.98320585227679, 131.6225285195695], [-16.47269092723139, 134.85080851972413], [-18.234383399683697, 139.7488885196178], [-15.885460103196527, 146.76204851970823], [-15.298229279161662, 151.43748851976852], [-38.00448781175507, 166.24304851956396], [-45.24700130946, 171.02980851973868], [-46.61720656577317, 170.58452851967644], [-43.4853088370077, 158.78460851980677], [-38.98320585227679, 131.6225285195695]]]}, "properties": {"name": "", "kind": "garden", "category": "parque", "extrude": false}}, {"type": "Feature", "geometry": {"type": "Polygon", "coordinates": [[[-216.62053015029255, 132.40176851957955], [-219.75242787905802, 143.97904851961584], [-221.4162485473886, 153.44124851985086], [-224.54814627615406, 170.1392485196142], [-217.79499179871, 171.6977285196343], [-218.48009442686657, 175.59392851968454], [-232.18214698965045, 176.48448851980902], [-233.94383946210274, 167.6902085198651], [-232.76937781403302, 156.3355685196622], [-229.2459928691284, 142.19792851976237], [-225.5268643163281, 133.5149685199329], [-221.02476133124947, 124.83200851970793], [-216.62053015029255, 132.40176851957955]]]}, "properties": {"name": "", "kind": "garden", "category": "parque", "extrude": false}}, {"type": "Feature", "geometry": {"type": "Polygon", "coordinates": [[[12.497363062892942, 174.48072851972668], [11.127157806579783, 173.5901685196022], [7.114413841762023, 167.6902085198651], [176.53050660224653, 59.821128519717064], [178.19432727057713, 60.04376851994593], [179.07517350697714, 62.27016851986164], [173.30073706970708, 69.9512485198477], [166.35183898401957, 81.30588851965513], [159.6965563106972, 96.33408851967943], [154.80296610947943, 110.02644851991249], [153.13914544114883, 114.36792851962949], [153.23701724527055, 121.38108851971992], [137.28391318977353, 130.95460851967388], [126.7137583557551, 136.52060851985865], [110.56491069201464, 143.97904851961584], [92.0671397321347, 150.65824851975847], [77.38636912882912, 154.33180851957985], [62.11836770183636, 157.8940485196823], [47.53546890265248, 160.00912851987906], [37.16105767618208, 160.34308851982686], [31.093005826894583, 161.45628851978472], [25.1228257817288, 164.12796851976267], [19.73987656059788, 169.2486885198852], [15.335645379640972, 174.2580885198933], [12.497363062892942, 174.48072851972668]]]}, "properties": {"name": "", "kind": "garden", "category": "parque", "extrude": false}}, {"type": "Feature", "geometry": {"type": "Polygon", "coordinates": [[[-80.87233797325442, 62.49280851969502], [-66.58305458608797, 64.83052851972516], [-82.73190224948073, 156.1129285198288], [-97.3148010486646, 153.77520851979867], [-80.87233797325442, 62.49280851969502]]]}, "properties": {"name": "", "kind": "garden", "category": "parque", "extrude": false}}, {"type": "Feature", "geometry": {"type": "Polygon", "coordinates": [[[-220.731145919232, 112.80944851960939], [-200.4716824868998, 85.64736851976761], [-196.94829754234289, 81.52852851988399], [-196.3610667179603, 82.75304851956079], [-198.31850279865606, 87.42848851962108], [-201.4504005270738, 103.7925285198321], [-205.658888100135, 127.94896851974812], [-208.00781139662215, 127.61500851980031], [-209.57376026083102, 131.84516851979836], [-213.58650422564878, 132.6244085198084], [-220.731145919232, 112.80944851960939]]]}, "properties": {"name": "", "kind": "garden", "category": "parque", "extrude": false}}, {"type": "Feature", "geometry": {"type": "Polygon", "coordinates": [[[-9.81740825390903, 142.53188851971018], [-8.642946605491588, 135.85268851956755], [-5.315305268830406, 129.1734885198204], [8.680362705970898, 113.36604851978606], [27.27600547032025, 94.44164851971152], [38.922750148634385, 102.67932851987425], [42.250391485295566, 100.00764851989629], [102.83303817439655, 33.54960851960428], [96.17775550107419, 27.649648519867185], [93.43734498844786, 25.645888519784847], [109.58619265184062, 7.500728519720354], [116.3393471292847, 0.3762485199109733], [120.44996289822417, -0.7369514804423716], [124.9520658833028, -0.7369514804423716], [124.75632227505938, 10.172408519698308], [115.06701367709326, 8.502608519563779], [113.59893661665839, 47.01932851960848], [122.60314258681564, 46.68536851966067], [124.65845047128536, 12.176168519780646], [127.39886098391169, 12.064848519666214], [188.56873849704752, 16.07236851983089], [188.76448210494326, 6.610168519595874], [188.56873849704752, 2.4913285197122548], [215.77710001471957, 3.1592485196078712], [216.65794625111957, 4.606408519909024], [131.31373314460774, 58.48528851992583], [52.82054631966169, 108.57928851961134], [23.654748721293927, 127.05840851962364], [-8.153587585578437, 147.09600851965604], [-9.81740825390903, 142.53188851971018]]]}, "properties": {"name": "", "kind": "garden", "category": "parque", "extrude": false}}, {"type": "Feature", "geometry": {"type": "Polygon", "coordinates": [[[-129.61249637579783, 40.674088519809146], [-112.38705886810935, 43.3457685197871], [-113.07216149626592, 44.9042485198072], [-71.08515757116659, 52.47400851967882], [-70.98728576704487, 51.026848519773154], [-53.85972006347811, 54.70040851959453], [-52.00015578690409, 55.03436851993783], [-53.56610465111296, 63.04940851987169], [-139.98690760192054, 47.90988851973296], [-138.2252151294682, 38.44768851989343], [-136.85500987315507, 34.885448519791], [-131.961419672285, 30.098688519616275], [-129.12313735553695, 28.76284851982504], [-129.61249637579783, 40.674088519809146]]]}, "properties": {"name": "", "kind": "garden", "category": "parque", "extrude": false}}, {"type": "Feature", "geometry": {"type": "Polygon", "coordinates": [[[184.45812272810807, 53.80984851986554], [189.74320014511727, 50.58156851971091], [204.03248353228372, 41.898608519881435], [218.90899774348503, 32.325088519927476], [233.19828113065148, 23.19684851964027], [241.90887168844358, 18.18744851963217], [246.70459008553962, 20.970448519724556], [229.087665361712, 38.00240851983119], [214.99412558278897, 52.91928851974106], [204.52184255254457, 63.82864851988174], [200.3133549794834, 60.60036851972711], [197.7686880747528, 63.49468851993393], [184.45812272810807, 53.80984851986554]]]}, "properties": {"name": "", "kind": "garden", "category": "parque", "extrude": false}}, {"type": "Feature", "geometry": {"type": "Polygon", "coordinates": [[[77.77785634496826, 5.051688519575777], [89.52247282740412, -4.187871480430374], [95.3947810687959, -8.418031480428425], [99.21178142571793, -7.972751480366185], [102.24580735036169, -5.968991480283847], [102.24580735036169, -2.740711480129221], [99.40752503361365, 4.717728519627968], [89.3267292195084, 16.96292851955988], [80.02890783768143, 27.538328519752753], [77.77785634496826, 29.208128519887282], [74.54808681242879, 28.65152851971061], [72.78639433997648, 25.534568519670415], [73.96085598804622, 16.96292851955988], [75.72254846049853, 7.946008519782595], [77.77785634496826, 5.051688519575777]]]}, "properties": {"name": "", "kind": "garden", "category": "parque", "extrude": false}}, {"type": "Feature", "geometry": {"type": "Polygon", "coordinates": [[[-260.85858556810507, 4.940368519856833], [-260.95645737222674, 5.1298493711827575], [-260.95645737222674, 4.913455992174107], [-260.85858556810507, 4.940368519856833]]]}, "properties": {"name": "", "kind": "playground", "category": "parque", "extrude": false}}, {"type": "Feature", "geometry": {"type": "Polygon", "coordinates": [[[32.36533927908603, -52.723391480095785], [30.407903198738005, -53.27999148027246], [32.267467475312024, -63.298791480288656], [34.32277535978176, -63.187471480174224], [37.45467308819951, -79.996791480052], [42.250391485295566, -79.44019148027081], [50.56949482729623, -78.21567148019852], [71.31831727954162, -74.65343148009609], [72.59065073208077, -83.7816714803833], [52.13544369150511, -87.2325914803713], [51.74395647536596, -92.79859148016058], [59.573700797105765, -126.41723148031161], [63.88006017394096, -121.74179148025132], [69.94811202322846, -113.83807148043189], [77.58211273707255, -103.26267148023902], [89.81608823976926, -88.7910714803914], [93.82883220458702, -83.33639148032105], [99.99475585799622, -72.5383514802948], [101.5607047222051, -66.86103148039109], [103.71388441079655, -56.73091148026046], [103.71388441079655, -49.049831480274406], [102.14793554623996, -37.80651148018592], [99.50539683773536, -32.79711148017782], [97.1564735412482, -27.231111480388535], [89.52247282740412, -17.546271480320144], [78.16934356110741, -7.527471480303944], [75.52680485260281, -5.523711480221607], [70.73108645550676, -10.31047148039633], [62.314111309732084, -16.98967148014347], [62.02049589771465, -21.219831480141522], [63.58644476192353, -30.125431480199865], [41.956776073278135, -33.57635148018787], [29.527056962685705, -35.580111480270205], [32.36533927908603, -52.723391480095785]]]}, "properties": {"name": "", "kind": "park", "category": "parque", "extrude": false}}, {"type": "Feature", "geometry": {"type": "Polygon", "coordinates": [[[2.4165672487876826, -47.713991480087685], [-9.81740825390903, -49.60643148005559], [-4.4344590327781095, -84.89487148034115], [7.7995164699186015, -83.11375148009219], [2.4165672487876826, -47.713991480087685]]]}, "properties": {"name": "", "kind": "garden", "category": "parque", "extrude": false}}, {"type": "Feature", "geometry": {"type": "Polygon", "coordinates": [[[275.47890046776826, -66.63839148016223], [275.1852850557508, -73.7628714803671], [281.93843953319487, -73.98551148020047], [282.2320549452123, -66.86103148039109], [275.47890046776826, -66.63839148016223]]]}, "properties": {"name": "", "kind": "playground", "category": "parque", "extrude": false}}, {"type": "Feature", "geometry": {"type": "Polygon", "coordinates": [[[20.22923558051103, -81.10999148040534], [19.0547739324413, -73.09495148007599], [10.539926982544918, -74.31947148014828], [11.71438863096236, -82.44583148019657], [20.22923558051103, -81.10999148040534]]]}, "properties": {"name": "", "kind": "playground", "category": "parque", "extrude": false}}, {"type": "Feature", "geometry": {"type": "Polygon", "coordinates": [[[39.9014681888084, -147.12275148023963], [36.67169865626893, -128.97759148017514], [1.8293364247528177, -135.1001914801411], [5.059105957292285, -153.24535148020558], [39.9014681888084, -147.12275148023963]]]}, "properties": {"name": "", "kind": "pitch", "category": "parque", "extrude": false}}, {"type": "Feature", "geometry": {"type": "Polygon", "coordinates": [[[-226.11409514036296, -149.2378314804364], [-220.63327411545802, -176.39991148027818], [-204.9737854719784, -173.50559148007136], [-210.9439655171442, -146.454831480344], [-226.11409514036296, -149.2378314804364]]]}, "properties": {"name": "", "kind": "pitch", "category": "parque", "extrude": false}}, {"type": "Feature", "geometry": {"type": "Polygon", "coordinates": [[[141.88388797897386, -214.58267148037507], [161.5561205872712, -201.11295148037087], [168.50501867261102, -183.52439148008756], [96.76498632510905, -121.74179148025132], [89.13098561161267, -115.17391148022313], [85.0203698426732, -115.28523148033756], [49.39503317887879, -160.92643148019164], [48.318443334583066, -162.0396314801495], [66.13111166665412, -178.29235148024608], [68.5779067669153, -176.39991148027818], [95.68839648081332, -195.8809114801339], [88.5437547872301, -223.82223148038122], [90.30544725968241, -223.93355148010016], [124.46270686304194, -225.38071148040132], [141.88388797897386, -214.58267148037507]]]}, "properties": {"name": "Campo de Fútbol García Escámez", "kind": "pitch", "category": "parque", "extrude": false}}, {"type": "Feature", "geometry": {"type": "Polygon", "coordinates": [[[-174.14416720528007, -221.03923148028883], [-152.7102421245304, -217.69963148041526], [-159.46339660197447, -174.17351148036246], [-180.89732168272414, -177.51311148023603], [-174.14416720528007, -221.03923148028883]]]}, "properties": {"name": "", "kind": "pitch", "category": "parque", "extrude": false}}, {"type": "Feature", "geometry": {"type": "Polygon", "coordinates": [[[-7.762100369439291, -221.81847148029888], [5.6463367813271494, -215.9185114801663], [-11.48122892223962, -177.17915148028823], [-32.62153859062415, -186.5300314804088], [-15.591844691179094, -225.26939148028688], [-7.762100369439291, -221.81847148029888]]]}, "properties": {"name": "", "kind": "pitch", "category": "parque", "extrude": false}}, {"type": "Feature", "geometry": {"type": "Polygon", "coordinates": [[[-180.505834466585, -218.92415148009206], [-186.6717581199942, -178.6263114801939], [-226.30983874860635, -184.86023148027428], [-220.14391509519714, -225.04675148005802], [-180.505834466585, -218.92415148009206]]]}, "properties": {"name": "", "kind": "pitch", "category": "parque", "extrude": false}}, {"type": "Feature", "geometry": {"type": "Polygon", "coordinates": [[[91.77352432011728, -193.54319148010376], [85.9012160787255, -193.4318714803848], [85.9012160787255, -191.65075148013585], [72.49277892795905, -191.31679148018804], [71.90554810392419, -222.59771148030893], [85.31398525469064, -222.8203514801423], [85.60760066670807, -207.01291148010796], [91.47990890809984, -207.1242314802224], [91.77352432011728, -193.54319148010376]]]}, "properties": {"name": "", "kind": "pitch", "category": "parque", "extrude": false}}, {"type": "Feature", "geometry": {"type": "Polygon", "coordinates": [[[100.77773028992681, -221.48451148035107], [95.98201189283076, -213.24683148018835], [94.22031942072616, -210.35251148037702], [93.63308859634358, -212.57891148029273], [99.50539683773536, -222.04111148013226], [100.48411487790938, -222.59771148030893], [101.36496111396167, -222.70903148042336], [105.67132049114458, -221.2618714801222], [110.2712952799972, -218.59019148014426], [110.95639790815379, -218.03359148036307], [109.97767986797977, -216.2524714801141], [100.77773028992681, -221.48451148035107]]]}, "properties": {"name": "", "kind": "garden", "category": "parque", "extrude": false}}, {"type": "Feature", "geometry": {"type": "Polygon", "coordinates": [[[-43.58318064112942, -298.07267148037823], [-40.353411108589945, -290.94819148017336], [-37.80874420385935, -280.372791480376], [-31.740692354571852, -256.66163148012674], [-30.370487098258693, -249.0918714802551], [-30.370487098258693, -240.631551480259], [-32.32792317860672, -233.84103148039742], [-37.3193851839462, -220.48263148011216], [-41.91935997279882, -212.35627148006387], [-49.455488882521195, -195.76959148041496], [-52.39164300304323, -190.8715114801258], [-67.7575162345054, -192.7639514800937], [-65.50646474179224, -201.66955148015205], [-48.96612986226034, -198.21863148016405], [-45.63848852559915, -216.69775148017635], [-41.91935997279882, -217.25435148035302], [-34.28535925895474, -255.43711148005443], [-43.87679605314685, -257.6635114803656], [-40.15766750034652, -276.5879114804402], [-50.04271970655606, -278.1463914800648], [-45.54061672147744, -297.85003148014937], [-43.58318064112942, -298.07267148037823]]]}, "properties": {"name": "", "kind": "garden", "category": "parque", "extrude": false}}, {"type": "Feature", "geometry": {"type": "Polygon", "coordinates": [[[-14.31951123898765, -244.86171148025704], [-11.97058794215277, -259.4446314802191], [-10.991869901978758, -280.92939148015716], [-9.523792841891597, -275.25207148025345], [-3.064253776464951, -248.98055148014066], [2.4165672487876826, -228.27503148021265], [5.6463367813271494, -215.9185114801663], [-7.762100369439291, -221.81847148029888], [-6.685510525143565, -225.26939148028688], [-16.17907551521396, -235.39951148041752], [-14.31951123898765, -244.86171148025704]]]}, "properties": {"name": "", "kind": "garden", "category": "parque", "extrude": false}}, {"type": "Feature", "geometry": {"type": "Polygon", "coordinates": [[[-7.468484957421858, -323.67627148019994], [-5.608920680847839, -345.71763148031465], [-3.847228208395534, -347.0534714801059], [7.114413841762023, -330.2441514802281], [-5.7067924849695535, -321.33855148016977], [-7.468484957421858, -323.67627148019994]]]}, "properties": {"name": "", "kind": "garden", "category": "parque", "extrude": false}}, {"type": "Feature", "geometry": {"type": "Polygon", "coordinates": [[[-88.40846688262907, -334.2516714803928], [-85.0808255459679, -350.9496714801561], [-104.06795552610868, -354.17795148031075], [-103.2849810941781, -361.07979148028676], [-89.68080033516823, -358.6307514801422], [-80.67659436501098, -350.72703148032275], [-73.23833725941033, -340.59691148019215], [-68.05113164652283, -333.69507148021614], [-69.22559329459257, -330.68943148029035], [-88.40846688262907, -334.2516714803928]]]}, "properties": {"name": "", "kind": "garden", "category": "parque", "extrude": false}}, {"type": "Feature", "geometry": {"type": "Polygon", "coordinates": [[[96.17775550107419, -371.7665114801986], [89.62034463152582, -353.17607148007187], [104.986217862988, -346.83083148027254], [104.00749982281398, -343.71387148023234], [116.14360352138898, -338.14787148044303], [116.2414753255107, -333.13847148043493], [93.04585777230872, -333.3611114802683], [88.15226757143866, -335.36487148035064], [84.92249803855148, -338.81579148033865], [82.4757029379426, -342.3780314804411], [81.88847211390774, -346.49687148032467], [83.06293376232517, -351.6175914800517], [87.56503674705608, -361.07979148028676], [92.75224236029129, -373.21367148010427], [96.17775550107419, -371.7665114801986]]]}, "properties": {"name": "", "kind": "garden", "category": "parque", "extrude": false}}, {"type": "Feature", "geometry": {"type": "Polygon", "coordinates": [[[60.94390605341893, -372.54575148020865], [54.092879771853134, -356.29303148011206], [20.71859460077189, -370.5419914801263], [27.569620882337684, -386.6833914801084], [60.94390605341893, -372.54575148020865]]]}, "properties": {"name": "", "kind": "pitch", "category": "parque", "extrude": false}}, {"type": "Feature", "geometry": {"type": "Polygon", "coordinates": [[[46.65462266625248, -407.72287148037975], [72.29703531971563, -396.7021914801246], [64.85877821411498, -379.3362714800702], [39.11849375687782, -390.2456314802109], [46.65462266625248, -407.72287148037975]]]}, "properties": {"name": "", "kind": "pitch", "category": "parque", "extrude": false}}, {"type": "Feature", "geometry": {"type": "Polygon", "coordinates": [[[75.82042026462024, -429.98687148032786], [92.850114164413, -422.63975148028965], [95.68839648081332, -429.2076314803178], [104.39898703895314, -425.422751480382], [106.25855131517945, -424.7548314800909], [95.98201189283076, -399.59651148033146], [93.63308859634358, -401.15499148035155], [85.21611345056891, -404.7172314800585], [87.95652396319524, -411.0624714802533], [71.02470186752419, -418.40959148029157], [75.82042026462024, -429.98687148032786]]]}, "properties": {"name": "", "kind": "garden", "category": "parque", "extrude": false}}]}