{"type": "FeatureCollection", "crs": {"type": "name", "properties": {"name": "EPSG:32628_local_enu_m_section_centroid", "lng0": -15.42972293932801, "lat0": 28.111763065022963}}, "features": [{"type": "Feature", "geometry": {"type": "LineString", "coordinates": [[-12.672157111885936, 260.8299983562162], [-15.225034606099882, 264.7261983562664], [-15.618711287845946, 274.18839835650147]]}, "properties": {"osm_id": null, "type": "footway", "width_m": 2, "extrude": false}}, {"type": "Feature", "geometry": {"type": "LineString", "coordinates": [[-83.21656959012265, 274.18839835650147], [-73.8430293768143, 268.51107835620223], [-54.107322594802994, 261.7205583563407], [-35.05892898414312, 259.3828383563106], [-27.203921309611836, 259.4941583560295], [-20.919915170021692, 260.38471835615394], [-17.87609969617134, 261.9431983561741], [-15.225034606099882, 264.7261983562664]]}, "properties": {"osm_id": null, "type": "footway", "width_m": 2, "extrude": false}}, {"type": "Feature", "geometry": {"type": "LineString", "coordinates": [[-166.88379407717173, 274.18839835650147], [-141.29790778150723, 259.7167983562583], [-67.85358602514553, 218.08311835617346]]}, "properties": {"osm_id": null, "type": "residential", "width_m": 5, "extrude": false}}, {"type": "Feature", "geometry": {"type": "LineString", "coordinates": [[-145.22541161877288, 252.81495835628235], [-142.86890931627397, 256.933798356166], [-141.29790778150723, 259.7167983562583]]}, "properties": {"osm_id": null, "type": "service", "width_m": 3.5, "extrude": false}}, {"type": "Feature", "geometry": {"type": "LineString", "coordinates": [[12.562055042332155, 225.54155835632614], [-0.005957236673717215, 233.33395835603113], [-3.5407106903348864, 235.89431835629014], [-7.7627773153474875, 239.2339183561637], [-9.82471682992503, 241.57163835619386], [-11.101155576944796, 243.79803835610957], [-12.181219132249533, 246.13575835613972], [-12.377594324138977, 248.2508383563365], [-12.181219132249533, 250.92251835631444], [-11.493905960723685, 253.48287835617796], [-4.1298362658288035, 266.395998356401], [-6.584526164185236, 266.5073183561199], [-8.54827808273085, 263.0563983561319], [-10.806592789197836, 260.60735835638286], [-12.672157111885936, 260.8299983562162]]}, "properties": {"osm_id": null, "type": "footway", "width_m": 2, "extrude": false}}, {"type": "Feature", "geometry": {"type": "LineString", "coordinates": [[-194.81014756379378, 257.9356783564049], [-148.07285190073378, 228.99247835631414], [-144.0471604676106, 226.32079835633618]]}, "properties": {"osm_id": null, "type": "residential", "width_m": 5, "extrude": false}}, {"type": "Feature", "geometry": {"type": "LineString", "coordinates": [[-166.53211993572532, 256.59983835621813], [-141.19972018547531, 241.79427835602723], [-131.7737109761773, 236.22827835623795], [-114.09994370856913, 225.54155835632614], [-105.16487247890751, 220.19819835637023]]}, "properties": {"osm_id": null, "type": "service", "width_m": 3.5, "extrude": false}}, {"type": "Feature", "geometry": {"type": "LineString", "coordinates": [[-59.3112651790884, 217.41519835627784], [7.358112458046747, 213.5189983562276], [11.383803891169903, 213.29635835639422], [113.98984163918976, 206.50583835613716], [122.72853767696189, 208.8435583561673], [167.9930194011127, 239.34523835627814], [192.95555253035013, 256.31748688560265]]}, "properties": {"osm_id": null, "type": "residential", "width_m": 5, "extrude": false}}, {"type": "Feature", "geometry": {"type": "LineString", "coordinates": [[62.3300013630209, 274.18839835650147], [59.00478791781959, 272.6299183560859], [42.60745939723118, 266.7299583563488], [23.95181617035019, 263.39035835607973], [4.314296984196398, 262.1658383564029], [-2.264271943140705, 262.8337583562985], [-9.431966446146141, 263.72431835602754], [-15.225034606099882, 264.7261983562664]]}, "properties": {"osm_id": null, "type": "footway", "width_m": 2, "extrude": false}}, {"type": "Feature", "geometry": {"type": "LineString", "coordinates": [[189.00516493049258, 207.17375835603278], [186.05953705249976, 212.07183835632193], [169.8585837238008, 236.6735583563002], [167.9930194011127, 239.34523835627814]]}, "properties": {"osm_id": null, "type": "residential", "width_m": 5, "extrude": false}}, {"type": "Feature", "geometry": {"type": "LineString", "coordinates": [[109.27683703436632, 154.0741183564215], [122.04122450543608, 159.6401183562108], [144.2316211858038, 175.44755835624514], [181.6410952355977, 202.05303835630573], [189.00516493049258, 207.17375835603278], [219.1571498226456, 228.07428243294225]]}, "properties": {"osm_id": null, "type": "residential", "width_m": 5, "extrude": false}}, {"type": "Feature", "geometry": {"type": "LineString", "coordinates": [[142.3660568631157, 152.07035835633917], [144.2316211858038, 175.44755835624514]]}, "properties": {"osm_id": null, "type": "residential", "width_m": 5, "extrude": false}}, {"type": "Feature", "geometry": {"type": "LineString", "coordinates": [[235.49761670906767, 186.9318781296741], [179.48096812516266, 149.6213183561946]]}, "properties": {"osm_id": null, "type": "residential", "width_m": 5, "extrude": false}}, {"type": "Feature", "geometry": {"type": "LineString", "coordinates": [[-213.7844692636177, 268.99824335538244], [-197.16664986611826, 259.2715183561961], [-194.81014756379378, 257.9356783564049]]}, "properties": {"osm_id": null, "type": "residential", "width_m": 5, "extrude": false}}, {"type": "Feature", "geometry": {"type": "LineString", "coordinates": [[-223.87367595941998, 215.52275835630994], [-235.263437087438, 222.09063835633813], [-258.29671818014634, 235.87501541567505]]}, "properties": {"osm_id": null, "type": "tertiary", "width_m": 7, "extrude": false}}, {"type": "Feature", "geometry": {"type": "LineString", "coordinates": [[-282.4916707301344, 119.21892376168742], [-275.12760103541393, 131.25351835629672], [-250.38432686083223, 171.8853183561427], [-230.84499527053597, 203.8341583561592], [-223.87367595941998, 215.52275835630994]]}, "properties": {"osm_id": null, "type": "tertiary", "width_m": 7, "extrude": false}}, {"type": "Feature", "geometry": {"type": "LineString", "coordinates": [[-223.87367595941998, 215.52275835630994], [-216.0186682848887, 221.08875835609922], [-194.81014756379378, 257.9356783564049]]}, "properties": {"osm_id": null, "type": "residential", "width_m": 5, "extrude": false}}, {"type": "Feature", "geometry": {"type": "LineString", "coordinates": [[-141.19972018547531, 241.79427835602723], [-145.22541161877288, 234.2245183561556], [-148.07285190073378, 228.99247835631414]]}, "properties": {"osm_id": null, "type": "service", "width_m": 3.5, "extrude": false}}, {"type": "Feature", "geometry": {"type": "LineString", "coordinates": [[-144.0471604676106, 226.32079835633618], [-139.03959307504024, 223.5377983562438], [-135.5048396215535, 222.3132783561715], [-105.16487247890751, 220.19819835637023], [-97.50623999626568, 219.64159835619355], [-75.51221850761296, 218.41707835612127], [-67.85358602514553, 218.08311835617346]]}, "properties": {"osm_id": null, "type": "residential", "width_m": 5, "extrude": false}}, {"type": "Feature", "geometry": {"type": "LineString", "coordinates": [[7.358112458046747, 213.5189983562276], [7.7508628418256365, 217.74915835622565], [8.143613225604525, 221.9793183562237], [12.562055042332155, 225.54155835632614]]}, "properties": {"osm_id": null, "type": "footway", "width_m": 2, "extrude": false}}, {"type": "Feature", "geometry": {"type": "LineString", "coordinates": [[-67.85358602514553, 218.08311835617346], [-59.3112651790884, 217.41519835627784]]}, "properties": {"osm_id": null, "type": "residential", "width_m": 5, "extrude": false}}, {"type": "Feature", "geometry": {"type": "LineString", "coordinates": [[-144.0471604676106, 226.32079835633618], [-133.54108770283347, 175.22491835641176], [-132.06827376392425, 168.87967835621694]]}, "properties": {"osm_id": null, "type": "residential", "width_m": 5, "extrude": false}}, {"type": "Feature", "geometry": {"type": "LineString", "coordinates": [[-91.41860904856497, 173.7777583561106], [-96.91711442059734, 215.85671835625774], [-97.50623999626568, 219.64159835619355]]}, "properties": {"osm_id": null, "type": "residential", "width_m": 5, "extrude": false}}, {"type": "Feature", "geometry": {"type": "LineString", "coordinates": [[-59.3112651790884, 217.41519835627784], [-53.12544663535577, 171.2173983562471], [-54.892823362186355, 165.42875835622894]]}, "properties": {"osm_id": null, "type": "residential", "width_m": 5, "extrude": false}}, {"type": "Feature", "geometry": {"type": "LineString", "coordinates": [[11.383803891169903, 213.29635835639422], [8.143613225604525, 165.65139835606232], [7.84905043768315, 161.42123835606426]]}, "properties": {"osm_id": null, "type": "residential", "width_m": 5, "extrude": false}}, {"type": "Feature", "geometry": {"type": "LineString", "coordinates": [[-119.99119946438037, 153.0722383561826], [-134.32658847039124, 160.9759583563975], [-142.18159614492254, 165.87403835629118], [-148.26922709262323, 169.77023835634142], [-212.87666521518082, 208.95487835628174], [-223.87367595941998, 215.52275835630994]]}, "properties": {"osm_id": null, "type": "tertiary", "width_m": 7, "extrude": false}}, {"type": "Feature", "geometry": {"type": "LineString", "coordinates": [[-108.99418872014122, 168.87967835621694], [-98.19355316779152, 169.88155835606037], [-94.95336250205172, 170.88343835629928], [-92.59686019972722, 172.2192783560905], [-91.41860904856497, 173.7777583561106]]}, "properties": {"osm_id": null, "type": "residential", "width_m": 5, "extrude": false}}, {"type": "Feature", "geometry": {"type": "LineString", "coordinates": [[-81.89441224323504, 166.76459835641566], [-86.31285406013708, 166.98723835624904], [-88.57116876642965, 167.87779835637352], [-90.33854549326024, 169.54759835611256], [-91.41860904856497, 173.7777583561106]]}, "properties": {"osm_id": null, "type": "residential", "width_m": 5, "extrude": false}}, {"type": "Feature", "geometry": {"type": "LineString", "coordinates": [[-132.06827376392425, 168.87967835621694], [-127.35526915927527, 169.32495835627918], [-108.99418872014122, 168.87967835621694]]}, "properties": {"osm_id": null, "type": "residential", "width_m": 5, "extrude": false}}, {"type": "Feature", "geometry": {"type": "LineString", "coordinates": [[-132.06827376392425, 168.87967835621694], [-137.17402875235214, 167.32119835619685], [-142.18159614492254, 165.87403835629118]]}, "properties": {"osm_id": null, "type": "residential", "width_m": 5, "extrude": false}}, {"type": "Feature", "geometry": {"type": "LineString", "coordinates": [[-54.892823362186355, 165.42875835622894], [-81.89441224323504, 166.76459835641566]]}, "properties": {"osm_id": null, "type": "residential", "width_m": 5, "extrude": false}}, {"type": "Feature", "geometry": {"type": "LineString", "coordinates": [[7.84905043768315, 161.42123835606426], [-50.08163116150543, 165.09479835628113], [-54.892823362186355, 165.42875835622894]]}, "properties": {"osm_id": null, "type": "residential", "width_m": 5, "extrude": false}}, {"type": "Feature", "geometry": {"type": "LineString", "coordinates": [[-81.89441224323504, 166.76459835641566], [-86.60741684788404, 163.53631835626103], [-97.21167720851871, 159.41747835637742], [-100.64824306597353, 158.0816383561907], [-112.82350496154935, 153.0722383561826], [-114.59088168820551, 152.5156383564014], [-117.3401343743089, 152.40431835628698], [-119.99119946438037, 153.0722383561826]]}, "properties": {"osm_id": null, "type": "residential", "width_m": 5, "extrude": false}}, {"type": "Feature", "geometry": {"type": "LineString", "coordinates": [[-86.60741684788404, 163.53631835626103], [-92.00773462405888, 158.86087835620074], [-94.8551749060198, 154.51939835608826], [-95.93523846132453, 151.29111835632912], [-96.32798884510342, 146.39303835603997]]}, "properties": {"osm_id": null, "type": "residential", "width_m": 5, "extrude": false}}, {"type": "Feature", "geometry": {"type": "LineString", "coordinates": [[-108.99418872014122, 168.87967835621694], [-105.85218565043336, 166.207998356239], [-103.98662132774525, 164.20423835615665], [-102.31743219677219, 161.64387835629313], [-100.64824306597353, 158.0816383561907], [-96.32798884510342, 146.39303835603997], [-92.79323539161666, 135.14971835634697], [-89.74941991776632, 127.91391835602766]]}, "properties": {"osm_id": null, "type": "residential", "width_m": 5, "extrude": false}}, {"type": "Feature", "geometry": {"type": "LineString", "coordinates": [[-89.74941991776632, 127.91391835602766], [-94.95336250205172, 134.48179835605586], [-97.50623999626568, 137.26479835614825], [-99.27361672292184, 139.37987835634502], [-119.99119946438037, 153.0722383561826]]}, "properties": {"osm_id": null, "type": "tertiary", "width_m": 7, "extrude": false}}, {"type": "Feature", "geometry": {"type": "LineString", "coordinates": [[-250.38432686083223, 171.8853183561427], [-258.0429593434741, 176.11547835614076], [-279.602196010289, 189.12482731771462]]}, "properties": {"osm_id": null, "type": "residential", "width_m": 5, "extrude": false}}, {"type": "Feature", "geometry": {"type": "LineString", "coordinates": [[-282.4916707301344, 135.7155950227714], [-280.33154361969935, 134.5931183561703], [-275.12760103541393, 131.25351835629672]]}, "properties": {"osm_id": null, "type": "residential", "width_m": 5, "extrude": false}}, {"type": "Feature", "geometry": {"type": "LineString", "coordinates": [[109.27683703436632, 154.0741183564215], [100.04720301695777, 154.51939835608826], [39.367268731491386, 159.19483835614855], [37.010766429166885, 159.30615835626298], [7.84905043768315, 161.42123835606426]]}, "properties": {"osm_id": null, "type": "residential", "width_m": 5, "extrude": false}}, {"type": "Feature", "geometry": {"type": "LineString", "coordinates": [[237.9025877039876, 144.28436526245264], [179.48096812516266, 149.6213183561946], [142.3660568631157, 152.07035835633917], [109.27683703436632, 154.0741183564215]]}, "properties": {"osm_id": null, "type": "residential", "width_m": 5, "extrude": false}}, {"type": "Feature", "geometry": {"type": "LineString", "coordinates": [[233.3859582912281, 103.42351835616384], [144.1334335899463, 110.43667835625428], [139.71499177304426, 110.88195835631652], [37.403516812945774, 118.11775835624033], [34.35970133909542, 118.3403983560737], [-54.794635766328845, 124.24035835620629], [-58.91851479530951, 124.46299835603966]]}, "properties": {"osm_id": null, "type": "residential", "width_m": 5, "extrude": false}}, {"type": "Feature", "geometry": {"type": "LineString", "coordinates": [[-64.71158295526325, 78.5991583563522], [-58.23120162378367, 82.82931835635026], [-55.48194893768028, 83.71987835607925], [27.584757219868873, 78.48783835623777], [31.61044865299203, 78.2651983564044], [135.49292514803165, 71.58599835626177], [137.45667706657724, 71.47467835614734], [226.21826378822266, 65.129438356348], [231.02945598890355, 64.7954783564002]]}, "properties": {"osm_id": null, "type": "residential", "width_m": 5, "extrude": false}}, {"type": "Feature", "geometry": {"type": "LineString", "coordinates": [[37.010766429166885, 159.30615835626298], [34.35970133909542, 118.3403983560737], [31.61044865299203, 78.2651983564044], [29.25394635066753, 38.1899983563396], [27.38838202797943, 8.578878356353243], [26.897444048343026, -0.10408164387172292], [26.70106885645358, -5.892721643889871], [25.81738049303829, -10.90212164389797]]}, "properties": {"osm_id": null, "type": "residential", "width_m": 5, "extrude": false}}, {"type": "Feature", "geometry": {"type": "LineString", "coordinates": [[36.61801604556241, 51.10311835616713], [37.501704408803285, 63.904918356275715], [45.74946246711346, 63.459638356213475], [44.9639616997301, 50.546518356385945], [36.61801604556241, 51.10311835616713]]}, "properties": {"osm_id": null, "type": "pedestrian", "width_m": 4, "extrude": false}}, {"type": "Feature", "geometry": {"type": "LineString", "coordinates": [[64.89604367363086, 50.43519835627151], [65.19060646137781, 55.110638356331805], [65.48516924929919, 60.45399835628771]]}, "properties": {"osm_id": null, "type": "footway", "width_m": 2, "extrude": false}}, {"type": "Feature", "geometry": {"type": "LineString", "coordinates": [[46.044025254860415, 51.54839835622937], [46.33858804260738, 56.335158356404094], [46.63315083052875, 61.67851835636], [65.48516924929919, 60.45399835628771], [84.14081247618017, 59.229478356215424], [102.50189291513978, 58.11627835625757], [121.64847412183158, 56.89175835618528], [121.3539113339102, 51.6597183563438], [121.05934854616325, 46.87295835616908], [101.81457974361393, 48.09747835624137], [83.55168690051184, 49.210678356199224], [64.89604367363086, 50.43519835627151], [46.044025254860415, 51.54839835622937]]}, "properties": {"osm_id": null, "type": "footway", "width_m": 2, "extrude": false}}, {"type": "Feature", "geometry": {"type": "LineString", "coordinates": [[83.55168690051184, 49.210678356199224], [83.8462496882588, 53.99743835637395], [84.14081247618017, 59.229478356215424]]}, "properties": {"osm_id": null, "type": "footway", "width_m": 2, "extrude": false}}, {"type": "Feature", "geometry": {"type": "LineString", "coordinates": [[46.33858804260738, 56.335158356404094], [65.19060646137781, 55.110638356331805], [83.8462496882588, 53.99743835637395], [102.10914253153531, 52.77291835630166], [121.3539113339102, 51.6597183563438]]}, "properties": {"osm_id": null, "type": "footway", "width_m": 2, "extrude": false}}, {"type": "Feature", "geometry": {"type": "LineString", "coordinates": [[-161.03361456351854, 118.11775835624033], [-138.54865509540383, 154.18543835614045], [-136.78127836857328, 157.07975835634727], [-134.32658847039124, 160.9759583563975]]}, "properties": {"osm_id": null, "type": "residential", "width_m": 5, "extrude": false}}, {"type": "Feature", "geometry": {"type": "LineString", "coordinates": [[-54.892823362186355, 165.42875835622894], [-57.24932566451086, 157.30239835618065], [-58.91851479530951, 124.46299835603966], [-60.58770392610817, 98.74807835610355]]}, "properties": {"osm_id": null, "type": "residential", "width_m": 5, "extrude": false}}, {"type": "Feature", "geometry": {"type": "LineString", "coordinates": [[-250.38432686083223, 171.8853183561427], [-162.89917888620664, 119.23095835619819], [-161.03361456351854, 118.11775835624033], [-75.90496889139185, 66.91055835620148], [-68.6390867925289, 62.45775835637005], [-65.30070853093159, 60.45399835628771]]}, "properties": {"osm_id": null, "type": "residential", "width_m": 5, "extrude": false}}, {"type": "Feature", "geometry": {"type": "LineString", "coordinates": [[-74.33396735645071, 96.96695835625007], [-89.74941991776632, 127.91391835602766]]}, "properties": {"osm_id": null, "type": "tertiary", "width_m": 7, "extrude": false}}, {"type": "Feature", "geometry": {"type": "LineString", "coordinates": [[-60.58770392610817, 98.74807835610355], [-62.45326824879627, 95.96507835640665], [-64.12245737976934, 94.29527835627212], [-66.38077208606191, 93.29339835603321], [-69.03183717630779, 93.40471835614764], [-71.38833947863229, 94.5179183561055], [-74.33396735645071, 96.96695835625007]]}, "properties": {"osm_id": null, "type": "residential", "width_m": 5, "extrude": false}}, {"type": "Feature", "geometry": {"type": "LineString", "coordinates": [[-60.58770392610817, 98.74807835610355], [-62.94420622860709, 87.05947835634831], [-64.71158295526325, 78.5991583563522]]}, "properties": {"osm_id": null, "type": "residential", "width_m": 5, "extrude": false}}, {"type": "Feature", "geometry": {"type": "LineString", "coordinates": [[-75.90496889139185, 66.91055835620148], [-70.60283871107451, 67.9124383560449], [-67.55902323722417, 70.36147835618948], [-66.67533487398329, 72.14259835604295], [-65.69345891453607, 74.03503835640635], [-64.71158295526325, 78.5991583563522]]}, "properties": {"osm_id": null, "type": "residential", "width_m": 5, "extrude": false}}, {"type": "Feature", "geometry": {"type": "LineString", "coordinates": [[-54.794635766328845, 58.11627835625757], [-65.30070853093159, 60.45399835628771]]}, "properties": {"osm_id": null, "type": "residential", "width_m": 5, "extrude": false}}, {"type": "Feature", "geometry": {"type": "LineString", "coordinates": [[-8.842840870477808, -23.36996164366326], [-23.374605068378123, -21.032241643633114], [-87.58929280715684, 17.484478356411586], [-91.51679664442248, 19.822198356046243], [-181.849384901009, 75.25955835608315], [-184.30407479919103, 76.81803835610324], [-186.56238950565802, 78.15387835628997], [-268.7454072999663, 127.46863835636091], [-275.12760103541393, 131.25351835629672]]}, "properties": {"osm_id": null, "type": "residential", "width_m": 5, "extrude": false}}, {"type": "Feature", "geometry": {"type": "LineString", "coordinates": [[3.234233428891661, -32.498201643950466], [-8.842840870477808, -23.36996164366326], [-16.108722969515174, -16.802081643635063], [-18.85797565544415, -13.462481643761492], [-21.60722834154754, -8.898361643815633], [-27.302108905643767, 3.1241983562829034], [-46.84144049576563, 42.75411835628546], [-54.794635766328845, 58.11627835625757], [-60.1949535425037, 69.02563835639825], [-64.71158295526325, 78.5991583563522], [-66.96989766173024, 82.82931835635026], [-74.33396735645071, 96.96695835625007]]}, "properties": {"osm_id": null, "type": "tertiary", "width_m": 7, "extrude": false}}, {"type": "Feature", "geometry": {"type": "LineString", "coordinates": [[101.81457974361393, 48.09747835624137], [102.10914253153531, 52.77291835630166], [102.50189291513978, 58.11627835625757]]}, "properties": {"osm_id": null, "type": "footway", "width_m": 2, "extrude": false}}, {"type": "Feature", "geometry": {"type": "LineString", "coordinates": [[129.50348179618848, 45.31447835614898], [130.38717015960376, 58.227598356372], [122.53216248507246, 58.67287835603875], [121.64847412183158, 45.75975835621122], [129.50348179618848, 45.31447835614898]]}, "properties": {"osm_id": null, "type": "pedestrian", "width_m": 4, "extrude": false}}, {"type": "Feature", "geometry": {"type": "LineString", "coordinates": [[208.83905930853584, 26.724038356417736], [138.24217783413502, 31.06551835613473], [134.7074243806483, 31.288158356363596], [29.25394635066753, 38.1899983563396], [-18.465225271839675, 41.08431835615093], [-42.9139366586744, 42.64279835617103], [-46.84144049576563, 42.75411835628546]]}, "properties": {"osm_id": null, "type": "residential", "width_m": 5, "extrude": false}}, {"type": "Feature", "geometry": {"type": "LineString", "coordinates": [[92.29038293845841, -85.37520164372836], [97.78888831049078, -77.24884164368007], [125.57597795892282, -33.16612164384608], [129.40529420033096, -26.152961643755646], [130.97629573527206, -19.25112164377964], [132.35092207814935, -6.338001643952111], [134.7074243806483, 31.288158356363596], [137.45667706657724, 71.47467835614734], [139.71499177304426, 110.88195835631652], [142.07149407536872, 148.61943835635117], [142.3660568631157, 152.07035835633917]]}, "properties": {"osm_id": null, "type": "residential", "width_m": 5, "extrude": false}}, {"type": "Feature", "geometry": {"type": "LineString", "coordinates": [[82.66799853709655, 19.37691835637949], [65.48516924929919, -8.119121643805585], [55.273659272443396, -8.787041643701201], [45.258524487477054, -1.8852016437251962]]}, "properties": {"osm_id": null, "type": "footway", "width_m": 2, "extrude": false}}, {"type": "Feature", "geometry": {"type": "LineString", "coordinates": [[126.95060430197451, 25.499518356345448], [124.69228959568194, 24.38631835638759], [122.82672527299385, 22.71651835625306], [121.05934854616325, 17.818438356359394], [120.17566018274796, 13.922238356309151], [119.68472220311155, 9.580758356196668], [117.42640749664457, -4.668201643817582], [113.49890365955335, -12.794561643865876], [106.62577194429487, -21.477521643695354], [99.16351465354248, -28.49068164378579], [94.45051004889348, -28.156721643837983], [89.24656746460806, -30.16048164392032], [84.63175045581657, -30.717081643701505], [81.58793498196623, -30.271801643639265], [66.0742948247931, -21.477521643695354], [54.38997090902811, -14.909641643667157], [45.258524487477054, -1.8852016437251962], [33.083262592075656, 7.688318356228763]]}, "properties": {"osm_id": null, "type": "footway", "width_m": 2, "extrude": false}}, {"type": "Feature", "geometry": {"type": "LineString", "coordinates": [[80.31149623477204, -20.14168164390412], [97.49432552274382, 8.022278356176571]]}, "properties": {"osm_id": null, "type": "footway", "width_m": 2, "extrude": false}}, {"type": "Feature", "geometry": {"type": "LineString", "coordinates": [[132.35092207814935, -6.338001643952111], [173.00058679368306, -8.453081643753393], [177.61540380247456, -8.675721643586769]]}, "properties": {"osm_id": null, "type": "residential", "width_m": 5, "extrude": false}}, {"type": "Feature", "geometry": {"type": "LineString", "coordinates": [[61.8522281997805, -12.683241643751444], [63.914167714358044, -10.45684164383573], [68.13623433937065, -10.790801643783539]]}, "properties": {"osm_id": null, "type": "footway", "width_m": 2, "extrude": false}}, {"type": "Feature", "geometry": {"type": "LineString", "coordinates": [[174.57158832862422, -40.401921643769896], [180.56103168029298, -40.401921643769896], [182.0338456193766, -39.28872164381204], [182.81934638675997, -36.95100164378189], [185.86316186061032, -16.913401643749495], [186.64866262799367, -14.130401643657109], [188.80878973860314, -10.45684164383573], [191.65623002056407, -7.562521643628912]]}, "properties": {"osm_id": null, "type": "service", "width_m": 3.5, "extrude": false}}, {"type": "Feature", "geometry": {"type": "LineString", "coordinates": [[-18.465225271839675, 41.08431835615093], [-20.330789594527776, 7.13171835605209], [-24.06191823990397, 2.9015583560540392]]}, "properties": {"osm_id": null, "type": "pedestrian", "width_m": 4, "extrude": false}}, {"type": "Feature", "geometry": {"type": "LineString", "coordinates": [[-282.4916707301344, -83.53088688368928], [-263.05052673587005, -50.420721643786095], [-261.6759003928184, -47.97168164364152], [-259.31939809049385, -43.8528416437579], [-237.0308138142686, -5.781401643775439], [-234.47793632005465, -1.4399216436629558], [-214.44766675012198, 32.29003835620702], [-211.99297685176555, 36.297558356371695], [-186.56238950565802, 78.15387835628997], [-184.99138797071686, 80.60291835603905], [-163.97924244151136, 113.44231835618004], [-161.03361456351854, 118.11775835624033]]}, "properties": {"osm_id": null, "type": "residential", "width_m": 5, "extrude": false}}, {"type": "Feature", "geometry": {"type": "LineString", "coordinates": [[-282.4916707301344, 78.67203278910083], [-217.8842326075768, 39.971118356193074], [-213.26941559895974, 37.076798356381744], [-211.99297685176555, 36.297558356371695], [-117.14375918241947, -20.698281643685306], [-115.37638245558887, -21.811481643643162], [-41.44112271959078, -66.11684164370601]]}, "properties": {"osm_id": null, "type": "residential", "width_m": 5, "extrude": false}}, {"type": "Feature", "geometry": {"type": "LineString", "coordinates": [[-27.302108905643767, 3.1241983562829034], [-24.06191823990397, 2.9015583560540392], [26.897444048343026, -0.10408164387172292]]}, "properties": {"osm_id": null, "type": "pedestrian", "width_m": 4, "extrude": false}}, {"type": "Feature", "geometry": {"type": "LineString", "coordinates": [[25.81738049303829, -10.90212164389797], [19.72974954533759, -21.032241643633114], [13.052993022142974, -30.828401643815937], [10.303740336039583, -31.718961643940418], [6.6707992865209, -32.386881643836034], [3.234233428891661, -32.498201643950466]]}, "properties": {"osm_id": null, "type": "residential", "width_m": 5, "extrude": false}}, {"type": "Feature", "geometry": {"type": "LineString", "coordinates": [[-66.7735224698408, -108.52976164380095], [-138.54865509540383, -66.33948164393487], [-141.59247056925417, -64.44704164396697], [-145.8145371942668, -61.88668164370796], [-233.88881074438632, -7.673841643743344], [-237.0308138142686, -5.781401643775439], [-282.4916707301344, 21.727548841549975]]}, "properties": {"osm_id": null, "type": "residential", "width_m": 5, "extrude": false}}, {"type": "Feature", "geometry": {"type": "LineString", "coordinates": [[-60.1949535425037, 69.02563835639825], [-65.30070853093159, 60.45399835628771], [-89.2584819379555, 23.384438356148678], [-91.51679664442248, 19.822198356046243], [-112.1361917900235, -16.579441643801687], [-115.37638245558887, -21.811481643643162], [-138.94140547918275, -60.105561643854486], [-141.59247056925417, -64.44704164396697], [-164.17561763340083, -103.85432164374066], [-165.64843157231002, -106.41468164360418], [-168.49587185427094, -111.42408164361228], [-189.50801738365087, -146.2672416438356], [-191.47176930219646, -149.60684164370917], [-193.14095843299512, -152.38984164380156]]}, "properties": {"osm_id": null, "type": "residential", "width_m": 5, "extrude": false}}, {"type": "Feature", "geometry": {"type": "LineString", "coordinates": [[14.03486898141578, -57.3225616437621], [-1.4787711757573432, -48.19432164387038], [-3.5407106903348864, -46.07924164367361], [-4.5225866496076925, -38.62080164391642]]}, "properties": {"osm_id": null, "type": "service", "width_m": 3.5, "extrude": false}}, {"type": "Feature", "geometry": {"type": "LineString", "coordinates": [[-41.44112271959078, -66.11684164370601], [-33.68430264109143, -70.4583216438185]]}, "properties": {"osm_id": null, "type": "residential", "width_m": 5, "extrude": false}}, {"type": "Feature", "geometry": {"type": "LineString", "coordinates": [[-33.68430264109143, -70.4583216438185], [-27.00754611772239, -74.57716164370211]]}, "properties": {"osm_id": null, "type": "residential", "width_m": 5, "extrude": false}}, {"type": "Feature", "geometry": {"type": "LineString", "coordinates": [[219.34513207313856, 25.16555835639764], [236.42977376507844, 57.44835835636195], [236.72433655282538, 58.895518356267615], [236.23339857318894, 60.78795835623552], [234.9569598261692, 63.12567835626567], [231.02945598890355, 64.7954783564002]]}, "properties": {"osm_id": null, "type": "service", "width_m": 3.5, "extrude": false}}, {"type": "Feature", "geometry": {"type": "LineString", "coordinates": [[25.81738049303829, -10.90212164389797], [19.631561949480076, -30.605761643587073], [18.94424877795423, -34.61328164375175], [18.8460611819223, -36.617041643834085], [19.140623969843674, -39.511361643645415], [19.336999161733118, -42.96228164363342]]}, "properties": {"osm_id": null, "type": "residential", "width_m": 5, "extrude": false}}, {"type": "Feature", "geometry": {"type": "LineString", "coordinates": [[30.53038509786171, -25.819001643807837], [44.9639616997301, -33.38876164367946]]}, "properties": {"osm_id": null, "type": "footway", "width_m": 2, "extrude": false}}, {"type": "Feature", "geometry": {"type": "LineString", "coordinates": [[114.87353000243064, -38.17552164385418], [99.16351465354248, -28.49068164378579]]}, "properties": {"osm_id": null, "type": "footway", "width_m": 2, "extrude": false}}, {"type": "Feature", "geometry": {"type": "LineString", "coordinates": [[39.46545632752331, -43.296241643581226], [44.9639616997301, -33.38876164367946], [59.986663877092404, -29.158601643681408]]}, "properties": {"osm_id": null, "type": "footway", "width_m": 2, "extrude": false}}, {"type": "Feature", "geometry": {"type": "LineString", "coordinates": [[3.234233428891661, -32.498201643950466], [19.336999161733118, -42.96228164363342], [28.46844558328417, -47.74904164380814], [67.15435838009783, -69.90172164364182], [92.29038293845841, -85.37520164372836]]}, "properties": {"osm_id": null, "type": "tertiary", "width_m": 7, "extrude": false}}, {"type": "Feature", "geometry": {"type": "LineString", "coordinates": [[87.38100314191996, -93.16760164382885], [63.42322973472164, -78.47336164375236], [24.442754149986595, -54.984841643731954], [16.489558879597798, -50.30940164367166], [3.234233428891661, -32.498201643950466]]}, "properties": {"osm_id": null, "type": "tertiary", "width_m": 7, "extrude": false}}, {"type": "Feature", "geometry": {"type": "LineString", "coordinates": [[33.57420057171206, -78.25072164391898], [32.10138663262843, -80.8110816437825], [29.744884330303933, -84.92992164366612]]}, "properties": {"osm_id": null, "type": "footway", "width_m": 2, "extrude": false}}, {"type": "Feature", "geometry": {"type": "LineString", "coordinates": [[3.4306086207811055, -60.105561643854486], [16.293183687708353, -67.67532164372611], [19.533374353448146, -73.35264164362982], [32.10138663262843, -80.8110816437825], [49.28421592060021, -90.94120164391313], [55.7645972520798, -94.72608164384894], [59.39753830142407, -98.84492164373256], [59.986663877092404, -101.85056164365832], [59.69210108934544, -105.19016164392738]]}, "properties": {"osm_id": null, "type": "footway", "width_m": 2, "extrude": false}}, {"type": "Feature", "geometry": {"type": "LineString", "coordinates": [[97.78888831049078, -77.24884164368007], [142.56243205500516, -104.2996016438029]]}, "properties": {"osm_id": null, "type": "pedestrian", "width_m": 4, "extrude": false}}, {"type": "Feature", "geometry": {"type": "LineString", "coordinates": [[82.4716233452071, -101.40528164359608], [80.11512104288259, -97.62040164366027], [77.56224354866865, -95.06004164379675], [64.208730502105, -86.71104164391508]]}, "properties": {"osm_id": null, "type": "service", "width_m": 3.5, "extrude": false}}, {"type": "Feature", "geometry": {"type": "LineString", "coordinates": [[-282.4916707301344, -35.601216061327534], [-261.6759003928184, -47.97168164364152], [-170.26324858110152, -103.52036164379285], [-165.64843157231002, -106.41468164360418], [-82.77810060665033, -156.50868164368518], [-80.91253628396223, -157.62188164364304]]}, "properties": {"osm_id": null, "type": "residential", "width_m": 5, "extrude": false}}, {"type": "Feature", "geometry": {"type": "LineString", "coordinates": [[-20.52716478641722, -80.25448164360583], [-11.19934317280231, -85.59784164395722], [1.5650442980930066, -93.05628164371441], [6.376236498773941, -95.8392816438068]]}, "properties": {"osm_id": null, "type": "footway", "width_m": 2, "extrude": false}}, {"type": "Feature", "geometry": {"type": "LineString", "coordinates": [[3.4306086207811055, -60.105561643854486], [-11.19934317280231, -85.59784164395722], [-35.05892898414312, -127.00888164381325]]}, "properties": {"osm_id": null, "type": "footway", "width_m": 2, "extrude": false}}, {"type": "Feature", "geometry": {"type": "LineString", "coordinates": [[-80.91253628396223, -157.62188164364304], [-73.54846658906735, -152.94644164358274], [-52.929071443640744, -117.54668164357824], [-50.3761939494268, -113.31652164358019], [-27.00754611772239, -74.57716164370211], [-4.5225866496076925, -38.62080164391642], [-3.737085882049915, -37.95288164362532], [3.234233428891661, -32.498201643950466]]}, "properties": {"osm_id": null, "type": "residential", "width_m": 5, "extrude": false}}, {"type": "Feature", "geometry": {"type": "LineString", "coordinates": [[16.293183687708353, -67.67532164372611], [1.5650442980930066, -93.05628164371441], [-12.083031536217602, -116.65612164384925], [-21.116290361911137, -132.35224164376916]]}, "properties": {"osm_id": null, "type": "footway", "width_m": 2, "extrude": false}}, {"type": "Feature", "geometry": {"type": "LineString", "coordinates": [[-59.3112651790884, -113.20520164386124], [-66.7735224698408, -108.52976164380095]]}, "properties": {"osm_id": null, "type": "residential", "width_m": 5, "extrude": false}}, {"type": "Feature", "geometry": {"type": "LineString", "coordinates": [[-52.929071443640744, -117.54668164357824], [-59.3112651790884, -113.20520164386124]]}, "properties": {"osm_id": null, "type": "residential", "width_m": 5, "extrude": false}}, {"type": "Feature", "geometry": {"type": "LineString", "coordinates": [[-44.7795009813625, -121.10892164368067], [-35.05892898414312, -127.00888164381325], [-29.85498639985771, -130.79376164374906], [-26.712983329975433, -132.57488164360254], [-23.865543048014526, -132.7975216438314], [-21.116290361911137, -132.35224164376916]]}, "properties": {"osm_id": null, "type": "footway", "width_m": 2, "extrude": false}}, {"type": "Feature", "geometry": {"type": "LineString", "coordinates": [[-21.116290361911137, -132.35224164376916], [-17.188786524645494, -133.79940164367483], [-15.51959739384684, -137.91824164395393], [-13.064907495490408, -141.5918016437753], [-10.217467213529503, -144.59744164370107], [-6.68271376004275, -147.04648164384565], [-3.442523094302956, -148.60496164386575], [0.09223035918379695, -149.60684164370917], [5.001610155722245, -150.05212164377141], [9.027301588845402, -149.7181616438236], [14.03486898141578, -148.1596816438035]]}, "properties": {"osm_id": null, "type": "footway", "width_m": 2, "extrude": false}}, {"type": "Feature", "geometry": {"type": "LineString", "coordinates": [[-35.05892898414312, -127.00888164381325], [-29.85498639985771, -142.37104164378536], [-24.06191823990397, -162.63128164365114]]}, "properties": {"osm_id": null, "type": "footway", "width_m": 2, "extrude": false}}, {"type": "Feature", "geometry": {"type": "LineString", "coordinates": [[35.24338970251071, -115.43160164377696], [36.323453257641034, -113.53916164380905], [49.28421592060021, -90.94120164391313]]}, "properties": {"osm_id": null, "type": "footway", "width_m": 2, "extrude": false}}, {"type": "Feature", "geometry": {"type": "LineString", "coordinates": [[208.83905930853584, 26.724038356417736], [187.43416339555145, 4.014758356407384], [179.18640533724127, -5.2248016435987665], [177.61540380247456, -8.675721643586769], [175.9462146716759, -13.685121643594869], [174.57158832862422, -40.401921643769896], [174.37521313673474, -43.51888164381009], [173.58971236917697, -47.97168164364152], [171.9205232383783, -52.42448164386843], [169.76039612794327, -57.76784164382434], [142.56243205500516, -104.2996016438029], [125.4777903630653, -132.57488164360254], [99.75264022921081, -175.87836164382196], [96.11969917969212, -182.00096164378792], [69.11811029864344, -228.97800164382872], [64.208730502105, -237.3270016437104], [61.55766541203354, -242.00244164377068]]}, "properties": {"osm_id": null, "type": "residential", "width_m": 5, "extrude": false}}, {"type": "Feature", "geometry": {"type": "LineString", "coordinates": [[31.90501144073899, -110.97880164394553], [36.323453257641034, -113.53916164380905]]}, "properties": {"osm_id": null, "type": "footway", "width_m": 2, "extrude": false}}, {"type": "Feature", "geometry": {"type": "LineString", "coordinates": [[46.53496323449682, -128.56736164383335], [49.28421592060021, -123.66928164393968], [59.69210108934544, -105.19016164392738]]}, "properties": {"osm_id": null, "type": "footway", "width_m": 2, "extrude": false}}, {"type": "Feature", "geometry": {"type": "LineString", "coordinates": [[79.72237065927813, -106.1920416437708], [125.4777903630653, -132.57488164360254]]}, "properties": {"osm_id": null, "type": "pedestrian", "width_m": 4, "extrude": false}}, {"type": "Feature", "geometry": {"type": "LineString", "coordinates": [[51.14978024328831, -154.7275616438317], [79.72237065927813, -106.1920416437708], [82.4716233452071, -101.40528164359608], [87.38100314191996, -93.16760164382885], [92.29038293845841, -85.37520164372836]]}, "properties": {"osm_id": null, "type": "residential", "width_m": 5, "extrude": false}}, {"type": "Feature", "geometry": {"type": "LineString", "coordinates": [[35.24338970251071, -115.43160164377696], [49.28421592060021, -123.66928164393968], [57.6301615747679, -128.45604164371892]]}, "properties": {"osm_id": null, "type": "footway", "width_m": 2, "extrude": false}}, {"type": "Feature", "geometry": {"type": "LineString", "coordinates": [[144.32980878183574, -128.1220816437711], [139.61680417718674, -125.33908164367872]]}, "properties": {"osm_id": null, "type": "service", "width_m": 3.5, "extrude": false}}, {"type": "Feature", "geometry": {"type": "LineString", "coordinates": [[152.28300405222453, -132.4635616438836], [144.32980878183574, -128.1220816437711]]}, "properties": {"osm_id": null, "type": "service", "width_m": 3.5, "extrude": false}}, {"type": "Feature", "geometry": {"type": "LineString", "coordinates": [[14.03486898141578, -148.1596816438035], [17.37324724301309, -146.37856164395004], [23.362690594856275, -135.9144816438716], [35.24338970251071, -115.43160164377696]]}, "properties": {"osm_id": null, "type": "footway", "width_m": 2, "extrude": false}}, {"type": "Feature", "geometry": {"type": "LineString", "coordinates": [[153.65763039527621, -133.1314816437792], [152.28300405222453, -132.4635616438836]]}, "properties": {"osm_id": null, "type": "service", "width_m": 3.5, "extrude": false}}, {"type": "Feature", "geometry": {"type": "LineString", "coordinates": [[131.27085852301903, -139.6993616438074], [139.61680417718674, -125.33908164367872], [142.3660568631157, -120.44100164378506], [156.3086954853477, -128.45604164371892], [153.65763039527621, -133.1314816437792], [145.40987233714046, -147.38044164379346]]}, "properties": {"osm_id": null, "type": "service", "width_m": 3.5, "extrude": false}}, {"type": "Feature", "geometry": {"type": "LineString", "coordinates": [[129.6998569880779, -148.27100164391794], [127.2451670898959, -146.93516164373122]]}, "properties": {"osm_id": null, "type": "service", "width_m": 3.5, "extrude": false}}, {"type": "Feature", "geometry": {"type": "LineString", "coordinates": [[138.73311581377143, -153.28040164392604], [129.6998569880779, -148.27100164391794]]}, "properties": {"osm_id": null, "type": "service", "width_m": 3.5, "extrude": false}}, {"type": "Feature", "geometry": {"type": "LineString", "coordinates": [[141.4823684998748, -154.83888164394614], [138.73311581377143, -153.28040164392604]]}, "properties": {"osm_id": null, "type": "service", "width_m": 3.5, "extrude": false}}, {"type": "Feature", "geometry": {"type": "LineString", "coordinates": [[127.63791747350035, -179.21796164369553], [130.0926073718568, -174.7651616438641], [141.4823684998748, -154.83888164394614], [145.40987233714046, -147.38044164379346], [131.27085852301903, -139.6993616438074], [127.2451670898959, -146.93516164373122], [116.24815634548233, -166.8614416436492], [113.98984163918976, -171.20292164376167]]}, "properties": {"osm_id": null, "type": "service", "width_m": 3.5, "extrude": false}}, {"type": "Feature", "geometry": {"type": "LineString", "coordinates": [[33.18145018793317, -169.53312164362714], [25.81738049303829, -165.52560164385795], [12.071117062695752, -157.95584164359084], [9.027301588845402, -149.7181616438236]]}, "properties": {"osm_id": null, "type": "footway", "width_m": 2, "extrude": false}}, {"type": "Feature", "geometry": {"type": "LineString", "coordinates": [[116.24815634548233, -166.8614416436492], [118.80103383969627, -168.30860164395034]]}, "properties": {"osm_id": null, "type": "service", "width_m": 3.5, "extrude": false}}, {"type": "Feature", "geometry": {"type": "LineString", "coordinates": [[118.80103383969627, -168.30860164395034], [127.73610506953229, -173.42932164367738]]}, "properties": {"osm_id": null, "type": "service", "width_m": 3.5, "extrude": false}}, {"type": "Feature", "geometry": {"type": "LineString", "coordinates": [[113.98984163918976, -171.20292164376167], [116.44453153737177, -172.65008164366733]]}, "properties": {"osm_id": null, "type": "service", "width_m": 3.5, "extrude": false}}, {"type": "Feature", "geometry": {"type": "LineString", "coordinates": [[-9.039216062367252, -261.70608164385527], [-57.93663883603671, -232.9855216435979], [-100.25549268236907, -208.94040164379632], [-107.71774997312146, -204.4876016439649], [-156.22242236301202, -174.87648164358305], [-186.9551398894369, -156.06340164362294], [-193.14095843299512, -152.38984164380156], [-282.4916707301344, -98.38453306619655]]}, "properties": {"osm_id": null, "type": "residential", "width_m": 5, "extrude": false}}, {"type": "Feature", "geometry": {"type": "LineString", "coordinates": [[-14.635909030431549, -160.6275216439643], [-6.68271376004275, -147.04648164384565]]}, "properties": {"osm_id": null, "type": "footway", "width_m": 2, "extrude": false}}, {"type": "Feature", "geometry": {"type": "LineString", "coordinates": [[-13.064907495490408, -161.96336164375552], [-14.635909030431549, -160.6275216439643], [-16.599660949151577, -159.7369616438398], [-18.66160046372912, -159.62564164372537], [-20.723539978132248, -160.0709216437876], [-22.589104300820345, -161.07280164363104], [-24.06191823990397, -162.63128164365114], [-25.04379419917678, -164.63504164373347], [-25.240169391066225, -166.97276164376362], [-24.847419007287336, -169.19916164367933], [-23.669167856125082, -171.09160164364724], [-21.901791129294498, -172.65008164366733], [-20.13441440263833, -173.42932164367738], [-18.26885007995023, -173.65196164390625], [-16.403285757262132, -173.42932164367738], [-14.635909030431549, -172.65008164366733], [-13.163095091522338, -171.42556164359505], [-11.984843940360088, -169.755761643856], [-11.29753076883424, -167.75200164377367], [-11.29753076883424, -165.63692164397239], [-11.886656344328157, -163.63316164389005], [-13.064907495490408, -161.96336164375552]]}, "properties": {"osm_id": null, "type": "footway", "width_m": 2, "extrude": false}}, {"type": "Feature", "geometry": {"type": "LineString", "coordinates": [[-13.163095091522338, -171.42556164359505], [-10.512030001450878, -173.87460164373962], [-6.388150972295792, -175.9896816439364], [-2.5588347308876638, -177.43684164384206], [13.445743405747447, -186.45376164361934], [25.81738049303829, -165.52560164385795], [32.788699804154284, -154.3936016438839]]}, "properties": {"osm_id": null, "type": "footway", "width_m": 2, "extrude": false}}, {"type": "Feature", "geometry": {"type": "LineString", "coordinates": [[-21.901791129294498, -172.65008164366733], [-25.82929496656014, -179.66324164375777]]}, "properties": {"osm_id": null, "type": "footway", "width_m": 2, "extrude": false}}, {"type": "Feature", "geometry": {"type": "LineString", "coordinates": [[-193.14095843299512, -152.38984164380156], [-195.20289794757264, -155.50680164384175], [-231.9250588258407, -213.2818816439088]]}, "properties": {"osm_id": null, "type": "residential", "width_m": 5, "extrude": false}}, {"type": "Feature", "geometry": {"type": "LineString", "coordinates": [[-80.91253628396223, -157.62188164364304], [-29.85498639985771, -187.78960164380607], [11.285616295312389, -211.7234016438887], [17.07868445526613, -215.06300164376228]]}, "properties": {"osm_id": null, "type": "residential", "width_m": 5, "extrude": false}}, {"type": "Feature", "geometry": {"type": "LineString", "coordinates": [[-166.63030753158284, -296.2152816437353], [-164.47018042114777, -288.9794816438115], [-152.7858565053828, -271.72488164387147], [-125.68608002847661, -228.75536164359985], [-123.918703301646, -226.0836816436219], [-118.81294831321813, -223.300681643925], [-108.89600112428371, -206.49136164365174], [-107.71774997312146, -204.4876016439649], [-85.42916569672178, -163.63316164389005], [-80.91253628396223, -157.62188164364304]]}, "properties": {"osm_id": null, "type": "residential", "width_m": 5, "extrude": false}}, {"type": "Feature", "geometry": {"type": "LineString", "coordinates": [[-164.47018042114777, -288.9794816438115], [-182.92944845613934, -283.0795216436789], [-184.50044999108047, -279.9625616436387], [-184.2058872033335, -276.8456016435985], [-164.27380522925833, -219.73844164382257]]}, "properties": {"osm_id": null, "type": "footway", "width_m": 2, "extrude": false}}, {"type": "Feature", "geometry": {"type": "LineString", "coordinates": [[-237.521751793905, -298.55300164376547], [-234.3797487240227, -296.3266016438497], [-232.21962161358766, -294.76812164382966], [-228.39030537217954, -291.8738016436228], [-199.52315216861717, -250.90804164382902], [-196.47933669476683, -238.6628416438971]]}, "properties": {"osm_id": null, "type": "residential", "width_m": 5, "extrude": false}}, {"type": "Feature", "geometry": {"type": "LineString", "coordinates": [[127.73610506953229, -173.42932164367738], [130.0926073718568, -174.7651616438641]]}, "properties": {"osm_id": null, "type": "service", "width_m": 3.5, "extrude": false}}, {"type": "Feature", "geometry": {"type": "LineString", "coordinates": [[116.44453153737177, -172.65008164366733], [125.28141517117585, -177.8821216439043]]}, "properties": {"osm_id": null, "type": "service", "width_m": 3.5, "extrude": false}}, {"type": "Feature", "geometry": {"type": "LineString", "coordinates": [[96.11969917969212, -182.00096164378792], [106.82214713618431, -179.21796164369553], [111.14240135705442, -176.43496164360315], [113.98984163918976, -171.20292164376167]]}, "properties": {"osm_id": null, "type": "service", "width_m": 3.5, "extrude": false}}, {"type": "Feature", "geometry": {"type": "LineString", "coordinates": [[127.14697949386394, -200.03480164373798], [96.11969917969212, -182.00096164378792], [81.68612257782374, -173.42932164367738], [51.14978024328831, -154.7275616438317]]}, "properties": {"osm_id": null, "type": "residential", "width_m": 5, "extrude": false}}, {"type": "Feature", "geometry": {"type": "LineString", "coordinates": [[125.28141517117585, -177.8821216439043], [127.63791747350035, -179.21796164369553]]}, "properties": {"osm_id": null, "type": "service", "width_m": 3.5, "extrude": false}}, {"type": "Feature", "geometry": {"type": "LineString", "coordinates": [[127.63791747350035, -179.21796164369553], [130.38717015960376, -180.77644164371563], [134.51104918875885, -185.78584164372373]]}, "properties": {"osm_id": null, "type": "service", "width_m": 3.5, "extrude": false}}, {"type": "Feature", "geometry": {"type": "LineString", "coordinates": [[17.07868445526613, -215.06300164376228], [19.238811565701187, -211.27812164382647], [28.95938356292057, -193.8008816436576], [49.38240351645773, -157.8445216438719], [51.14978024328831, -154.7275616438317]]}, "properties": {"osm_id": null, "type": "residential", "width_m": 5, "extrude": false}}, {"type": "Feature", "geometry": {"type": "LineString", "coordinates": [[183.11390917450694, -210.38756164370199], [183.40847196242828, -209.497001643973], [184.29216032566916, -208.8290816436819], [185.2740362851164, -207.82720164383846], [186.8450378198831, -204.59892164368384], [188.02328897104536, -201.0366816435814], [188.80878973860314, -196.91784164369778], [190.37979127336988, -190.1273216438362]]}, "properties": {"osm_id": null, "type": "footway", "width_m": 2, "extrude": false}}, {"type": "Feature", "geometry": {"type": "LineString", "coordinates": [[185.2740362851164, -207.82720164383846], [183.70303475017525, -207.71588164372403], [181.93565802334467, -207.6045616436096], [180.36465648840354, -207.38192164377622], [178.7936549536368, -207.04796164382842], [176.14258986339092, -206.49136164365174], [173.98246275295588, -205.7121216436417]]}, "properties": {"osm_id": null, "type": "footway", "width_m": 2, "extrude": false}}, {"type": "Feature", "geometry": {"type": "LineString", "coordinates": [[127.14697949386394, -200.03480164373798], [98.27982629012718, -255.13820164382707], [96.70882475536045, -257.4759216438572], [94.35232245286154, -259.1457216435963]]}, "properties": {"osm_id": null, "type": "residential", "width_m": 5, "extrude": false}}, {"type": "Feature", "geometry": {"type": "LineString", "coordinates": [[-249.20607570967002, -238.8854816437305], [-259.71214847427274, -252.6891616436825], [-262.85415154398066, -256.69668164384717]]}, "properties": {"osm_id": null, "type": "footway", "width_m": 2, "extrude": false}}, {"type": "Feature", "geometry": {"type": "LineString", "coordinates": [[94.35232245286154, -259.1457216435963], [91.7994449586476, -259.5910016436585], [88.75562948479724, -258.7004416439295], [65.0924188655203, -244.00620164385302], [61.55766541203354, -242.00244164377068], [38.09082998447162, -227.75348164375643], [17.07868445526613, -215.06300164376228]]}, "properties": {"osm_id": null, "type": "residential", "width_m": 5, "extrude": false}}, {"type": "Feature", "geometry": {"type": "LineString", "coordinates": [[237.9025877039876, -78.2309087265574], [214.63212746848956, -107.08260164389529], [194.01273232288855, -133.91072164378926], [182.81934638675997, -155.39548164372732], [166.91295584598234, -199.58952164367574], [157.97788461614635, -226.97424164374638], [154.73769395058096, -238.55152164378268], [153.06850481960788, -250.68540164360016], [151.30112809295173, -310.4642416437496], [146.68631108416022, -324.60188164364934], [142.1696816714007, -333.0622016436455], [137.26030187486222, -337.96028164393465], [129.40529420033096, -341.52252164364154], [96.51244956347101, -342.96968164394275], [89.73750544424446, -342.0791216438182], [85.2208760313105, -338.182921643768], [44.767586507840655, -286.9757216437291], [42.803834589120626, -285.3059216435946], [40.938270266432525, -284.638001643699], [38.09082998447162, -284.9719616436468], [35.636140086115184, -285.97384164388575], [33.47601297568013, -287.5323216439058], [32.10138663262843, -289.87004164393596], [31.414073461102586, -291.9851216437372], [31.414073461102586, -294.87944164394406], [41.03645786246445, -312.245361643603], [41.92014622570533, -316.1415616436533], [42.31289660948422, -319.3698416438079], [42.01833382173726, -323.0434016436293], [37.30532921708826, -348.9809616437942], [35.34157729836823, -364.120481643933], [35.636140086115184, -369.5751616436078], [36.42164085367296, -375.252481643907], [39.36041843412626, -382.5996016439453]]}, "properties": {"osm_id": null, "type": "residential", "width_m": 5, "extrude": false}}, {"type": "Feature", "geometry": {"type": "LineString", "coordinates": [[86.39912718247274, -289.4247616438737], [95.13782322041932, -273.7286416439538], [94.35232245286154, -259.1457216435963]]}, "properties": {"osm_id": null, "type": "service", "width_m": 3.5, "extrude": false}}, {"type": "Feature", "geometry": {"type": "LineString", "coordinates": [[94.35232245286154, -259.1457216435963], [97.88707590652271, -269.05320164389354], [101.22545416812002, -271.39092164392366], [89.73750544424446, -299.55488164360884]]}, "properties": {"osm_id": null, "type": "service", "width_m": 3.5, "extrude": false}}, {"type": "Feature", "geometry": {"type": "LineString", "coordinates": [[168.18939459300213, -368.2393216438166], [175.65165188375454, -333.39616164359325], [187.63053858744087, -335.3999216436756]]}, "properties": {"osm_id": null, "type": "service", "width_m": 3.5, "extrude": false}}, {"type": "Feature", "geometry": {"type": "LineString", "coordinates": [[215.2212530439835, -341.1885616436938], [214.77961351815503, -342.94528283300235]]}, "properties": {"osm_id": null, "type": "residential", "width_m": 5, "extrude": false}}, {"type": "Feature", "geometry": {"type": "LineString", "coordinates": [[124.8325575914086, -382.5996016439453], [112.32065250839109, -380.8184816436963]]}, "properties": {"osm_id": null, "type": "footway", "width_m": 2, "extrude": false}}, {"type": "Feature", "geometry": {"type": "LineString", "coordinates": [[114.07647775357155, -382.5996016439453], [112.32065250839109, -380.8184816436963]]}, "properties": {"osm_id": null, "type": "footway", "width_m": 2, "extrude": false}}, {"type": "Feature", "geometry": {"type": "LineString", "coordinates": [[123.32993670156739, -382.5996016439453], [127.53972987764286, -381.0411216439252], [141.4796983389557, -382.5013119488103]]}, "properties": {"osm_id": null, "type": "pedestrian", "width_m": 4, "extrude": false}}, {"type": "Feature", "geometry": {"type": "LineString", "coordinates": [[-0.20233242856316175, -316.80948164394437], [-24.454668623508447, -302.0039216437534], [-27.105733713754322, -300.4454416437334], [-30.83686235913052, -298.2190416438176], [-97.11348961248679, -259.47968164393956], [-104.77212209512862, -256.36272164389936]]}, "properties": {"osm_id": null, "type": "residential", "width_m": 5, "extrude": false}}, {"type": "Feature", "geometry": {"type": "LineString", "coordinates": [[17.07868445526613, -215.06300164376228], [4.608859771943356, -237.88360164388706], [-9.039216062367252, -261.70608164385527], [-30.83686235913052, -298.2190416438176], [-53.42000942327715, -337.403681643758], [-55.285573745965245, -340.52064164379817], [-82.58172541476088, -382.3769616437164]]}, "properties": {"osm_id": null, "type": "residential", "width_m": 5, "extrude": false}}, {"type": "Feature", "geometry": {"type": "LineString", "coordinates": [[-176.84181750843862, -303.2284416438257], [-178.21644385149034, -304.2303216436692], [-179.59107019454203, -302.1152416438679], [-178.02006865960087, -301.113361643629], [-175.95812914502332, -299.88884164395216], [-174.19075241836714, -298.7756416435988], [-173.01250126720493, -300.7794016436811], [-176.84181750843862, -303.2284416438257]]}, "properties": {"osm_id": null, "type": "pedestrian", "width_m": 4, "extrude": false}}, {"type": "Feature", "geometry": {"type": "LineString", "coordinates": [[-171.24512454037432, -312.4680016438319], [-172.61975088342604, -313.2472416438419], [-174.28894001422466, -310.575561643864], [-175.95812914502332, -307.90388164388605], [-174.3871276102566, -306.9020016436471], [-170.6559989648804, -304.452961643898], [-168.98680983408175, -307.2359616435949], [-167.31762070310867, -310.0189616436873], [-171.24512454037432, -312.4680016438319]]}, "properties": {"osm_id": null, "type": "pedestrian", "width_m": 4, "extrude": false}}, {"type": "Feature", "geometry": {"type": "LineString", "coordinates": [[-30.21915979661464, -382.5996016439453], [-55.285573745965245, -340.52064164379817], [-104.77212209512862, -256.36272164389936], [-112.1361917900235, -244.67412164374863], [-123.918703301646, -226.0836816436219], [-152.98223169727223, -180.10852164382], [-156.22242236301202, -174.87648164358305]]}, "properties": {"osm_id": null, "type": "residential", "width_m": 5, "extrude": false}}, {"type": "Feature", "geometry": {"type": "LineString", "coordinates": [[-165.55024397645252, -321.5962416437236], [-166.9248703195042, -322.3754816437337], [-168.69224704616036, -319.7038016437557], [-170.26324858110152, -317.0321216437777], [-168.88862223804983, -316.1415616436533], [-165.0593059968161, -313.6925216439042], [-163.48830446187498, -316.3642016438821], [-161.7209277350444, -319.147201643579], [-165.55024397645252, -321.5962416437236]]}, "properties": {"osm_id": null, "type": "pedestrian", "width_m": 4, "extrude": false}}, {"type": "Feature", "geometry": {"type": "LineString", "coordinates": [[-152.7858565053828, -271.72488164387147], [-146.99278834542906, -275.7324016436406], [-85.23279050483234, -377.924161643885], [-82.58172541476088, -382.3769616437164]]}, "properties": {"osm_id": null, "type": "residential", "width_m": 5, "extrude": false}}, {"type": "Feature", "geometry": {"type": "LineString", "coordinates": [[-163.0955540780961, -325.26980164394047], [-159.36442543271988, -322.93208164391035], [-157.79342389795318, -325.6037616438883], [-156.22242236301202, -328.1641216437518], [-159.75717581649877, -330.27920164394857], [-161.32817735143993, -331.281081643792], [-162.89917888620664, -328.72072164392847], [-164.56836801717972, -326.04904164395055], [-163.0955540780961, -325.26980164394047]]}, "properties": {"osm_id": null, "type": "pedestrian", "width_m": 4, "extrude": false}}, {"type": "Feature", "geometry": {"type": "LineString", "coordinates": [[-210.71653810474578, -347.3111616436597], [-206.29809628784372, -346.6432416437641], [-198.7376514010594, -345.30740164397287], [-186.56238950565802, -336.06784164396674], [-198.93402659294887, -319.9264416435891]]}, "properties": {"osm_id": null, "type": "footway", "width_m": 2, "extrude": false}}, {"type": "Feature", "geometry": {"type": "LineString", "coordinates": [[-82.58172541476088, -382.3769616437164], [-83.04378469018474, -382.5996016439453]]}, "properties": {"osm_id": null, "type": "residential", "width_m": 5, "extrude": false}}, {"type": "Feature", "geometry": {"type": "LineString", "coordinates": [[-114.0438365099645, -382.5996016439453], [-116.06369562711474, -381.9316816436542], [-119.30388629285453, -377.25624164359385], [-140.119656630345, -343.5262816437239], [-148.66197747622772, -329.7226016437719], [-166.3357447438359, -301.00204164391005], [-166.63030753158284, -296.2152816437353]]}, "properties": {"osm_id": null, "type": "residential", "width_m": 5, "extrude": false}}, {"type": "Feature", "geometry": {"type": "LineString", "coordinates": [[-274.73406376000776, -314.5595526992479], [-261.8722755847078, -330.1678816438341], [-256.2755826166435, -339.1848016436114], [-255.3918942532282, -343.41496164360944], [-255.49898583520292, -347.78589722545337]]}, "properties": {"osm_id": null, "type": "footway", "width_m": 2, "extrude": false}}, {"type": "Feature", "geometry": {"type": "LineString", "coordinates": [[-186.56238950565802, -336.06784164396674], [-180.76932134570427, -344.7508016437962], [-180.0820081741784, -350.4281216436999]]}, "properties": {"osm_id": null, "type": "footway", "width_m": 2, "extrude": false}}, {"type": "Feature", "geometry": {"type": "LineString", "coordinates": [[-255.3918942532282, -343.41496164360944], [-246.0640726397877, -346.1979616437019], [-241.54744322702814, -351.98660164372], [-214.84041713372645, -337.0697216438101]]}, "properties": {"osm_id": null, "type": "footway", "width_m": 2, "extrude": false}}, {"type": "Feature", "geometry": {"type": "LineString", "coordinates": [[-9.039216062367252, -261.70608164385527], [-3.835273478081845, -268.27396164388347], [-0.20233242856316175, -316.80948164394437], [4.216109388338883, -377.3675616437083], [5.204998747328256, -382.5996016439453]]}, "properties": {"osm_id": null, "type": "residential", "width_m": 5, "extrude": false}}, {"type": "Feature", "geometry": {"type": "LineString", "coordinates": [[-160.14992620027766, -340.0753616437359], [-164.37199282529028, -379.3713216437907], [-153.86592006068753, -381.0411216439252], [-144.34172325535758, -381.375081643873], [-142.96709691230586, -381.1524416436441], [-137.07584115649465, -380.1505616438007], [-119.30388629285453, -377.25624164359385]]}, "properties": {"osm_id": null, "type": "service", "width_m": 3.5, "extrude": false}}, {"type": "Feature", "geometry": {"type": "LineString", "coordinates": [[-137.07584115649465, -380.1505616438007], [-138.94140547918275, -371.912881643638], [-144.0471604676106, -371.2449616437424], [-142.96709691230586, -354.54696164358353], [-140.119656630345, -343.5262816437239]]}, "properties": {"osm_id": null, "type": "footway", "width_m": 2, "extrude": false}}, {"type": "Feature", "geometry": {"type": "LineString", "coordinates": [[-171.93243771190018, -377.25624164359385], [-173.01250126720493, -378.70340164389506], [-171.34331213640627, -379.3713216437907], [-172.45450834395822, -382.5996016439453]]}, "properties": {"osm_id": null, "type": "pedestrian", "width_m": 4, "extrude": false}}, {"type": "Feature", "geometry": {"type": "LineString", "coordinates": [[-168.5062073907137, -382.5996016439453], [-167.51399589499812, -381.2637616437586], [-165.4520563804206, -379.70528164373843], [-166.9248703195042, -376.2543616437505], [-168.49587185427094, -375.9204016438026], [-170.06687338921208, -376.2543616437505], [-171.1469369445168, -376.6996416438127], [-171.93243771190018, -377.25624164359385]]}, "properties": {"osm_id": null, "type": "pedestrian", "width_m": 4, "extrude": false}}, {"type": "Feature", "geometry": {"type": "LineString", "coordinates": [[-210.8214400837898, -378.3699151740936], [-210.71653810474578, -378.1468016437184], [-209.0473489737727, -369.3525216437745], [-208.75278618602573, -356.1054416436036], [-210.71653810474578, -347.3111616436597], [-213.85854117445365, -338.73952164394467], [-214.84041713372645, -337.0697216438101], [-237.521751793905, -298.55300164376547], [-262.85415154398066, -256.69668164384717], [-265.1124662504476, -251.90992164367245], [-266.8798429772782, -245.11940164381087], [-270.41459643076496, -219.62712164370814], [-273.6547870965047, -211.94604164372208], [-279.54604285231596, -202.81780164383036], [-282.4916707301344, -199.30243322280674]]}, "properties": {"osm_id": null, "type": "tertiary", "width_m": 7, "extrude": false}}, {"type": "Feature", "geometry": {"type": "LineString", "coordinates": [[-164.37199282529028, -379.3713216437907], [-164.73704927177153, -382.5996016439453]]}, "properties": {"osm_id": null, "type": "footway", "width_m": 2, "extrude": false}}, {"type": "Feature", "geometry": {"type": "LineString", "coordinates": [[-82.68852595782846, -382.5996016439453], [-82.58172541476088, -382.3769616437164]]}, "properties": {"osm_id": null, "type": "footway", "width_m": 2, "extrude": false}}, {"type": "Feature", "geometry": {"type": "LineString", "coordinates": [[-282.4916707301344, -193.6731166438004], [-275.9131018027973, -200.3687616436858], [-272.37834834931056, -205.48948164380832], [-268.7454072999663, -213.2818816439088], [-266.38890499746736, -218.95920164381252], [-264.7197158666687, -230.64780164396325], [-263.54146471550644, -243.0043216436141], [-259.71214847427274, -252.6891616436825], [-250.87526484046867, -270.1664016438514], [-234.3797487240227, -296.3266016438497], [-208.55641099413631, -340.0753616437359], [-206.29809628784372, -346.6432416437641], [-205.31622032839653, -350.2054816438665], [-204.53071956101314, -358.888441643696], [-204.72709475290262, -366.3468816438487], [-205.7089707121754, -374.2506016436681], [-207.51905436142735, -379.3077567704295]]}, "properties": {"osm_id": null, "type": "footway", "width_m": 2, "extrude": false}}, {"type": "Feature", "geometry": {"type": "LineString", "coordinates": [[-82.58172541476088, -382.3769616437164], [-82.4508086199935, -382.5996016439453]]}, "properties": {"osm_id": null, "type": "residential", "width_m": 5, "extrude": false}}, {"type": "Feature", "geometry": {"type": "LineString", "coordinates": [[237.9025877039876, -34.04972414359264], [216.98862977081407, -53.315041643597425], [204.42061749163378, -67.00740164383049], [195.68192145368718, -77.13752164396112], [185.7649742647528, -90.27328164362203], [177.71359139833206, -104.2996016438029], [134.51104918875885, -185.78584164372373], [127.14697949386394, -200.03480164373798]]}, "properties": {"osm_id": null, "type": "residential", "width_m": 5, "extrude": false}}, {"type": "Feature", "geometry": {"type": "LineString", "coordinates": [[237.9025877039876, 133.2016183561241], [237.50983732038316, 132.58935835608796], [235.84064818958453, 128.58183835631877], [233.3859582912281, 103.42351835616384], [231.02945598890355, 64.7954783564002], [229.55664204999434, 60.00871835622547], [215.90856621550932, 34.516438356122734], [212.570187953912, 30.508918356353547], [208.83905930853584, 26.724038356417736]]}, "properties": {"osm_id": null, "type": "residential", "width_m": 5, "extrude": false}}, {"type": "Feature", "geometry": {"type": "LineString", "coordinates": [[237.9025877039876, -175.08011579028818], [228.18201570694268, -192.9103216439286], [221.60344677943115, -208.6064416438485], [217.97050573008687, -221.7422016439049], [204.81336787523824, -281.40972164393986], [192.04898040434293, -336.6244416437479], [184.8812859013375, -368.350641643931], [184.68006722054903, -370.1630180540211]]}, "properties": {"osm_id": null, "type": "footway", "width_m": 2, "extrude": false}}, {"type": "Feature", "geometry": {"type": "LineString", "coordinates": [[237.9025877039876, -165.61038606231293], [236.23339857318894, -168.08596164372148], [221.70163437546307, -195.3593616436777], [212.9629383375165, -221.0742816436138], [187.63053858744087, -335.3999216436756], [181.34653244785076, -364.0091616438185], [179.52781588526778, -372.9257732807672]]}, "properties": {"osm_id": null, "type": "tertiary", "width_m": 7, "extrude": false}}, {"type": "Feature", "geometry": {"type": "LineString", "coordinates": [[237.9025877039876, -236.59285328949153], [215.2212530439835, -341.1885616436938]]}, "properties": {"osm_id": null, "type": "residential", "width_m": 5, "extrude": false}}, {"type": "Feature", "geometry": {"type": "LineString", "coordinates": [[215.2212530439835, -341.1885616436938], [216.0936211133853, -341.16864797297364]]}, "properties": {"osm_id": null, "type": "residential", "width_m": 5, "extrude": false}}]}