{"type": "FeatureCollection", "crs": {"type": "name", "properties": {"name": "EPSG:32628_local_enu_m_section_centroid", "lng0": -16.29804479465489, "lat0": 28.45713092861743}}, "features": [{"type": "Feature", "geometry": {"type": "Polygon", "coordinates": [[[-192.93141807079718, -192.5940171785237], [-192.93019580492668, -192.59280541213207], [-210.04577666935398, -175.79487551379574], [-195.9579075703199, -160.45276217758257], [-180.25304018610066, -154.94354796932473], [-174.92760146475965, -153.07540212950062], [-174.72616606146033, -153.00473927328204], [-174.7257962904611, -153.0051003099903], [-158.52750973154536, -147.36157809250858], [-153.20040695815294, -145.50560260108222], [-152.9984445618923, -145.43523841371913], [-152.9981353263073, -145.43554111836573], [-131.6720909339171, -138.04820849647433], [-109.40008206196548, -130.23630630736503], [-109.16603639926178, -130.23630630736503], [-50.96074397959765, -156.98561085815072], [-49.307803278442776, -157.75977244009982], [-49.013641877389695, -157.87130191419908], [-42.449063116887054, -160.97287838944922], [-42.139003121846315, -167.791203382211], [-50.645643481319766, -176.5454263075102], [-71.01776485763072, -197.5104706085624], [-82.89337140897095, -209.81541935310574], [-85.31179626784845, -212.3212782161765], [-85.55107928447708, -212.5692121000018], [-85.55221239383589, -212.56810310313725], [-99.3997117126904, -226.7873775249806], [-101.71376839492865, -229.2001182510766], [-104.10280230382953, -231.69103364319835], [-104.34285607822056, -231.94132462456105], [-104.34416130068846, -231.94003048219574], [-113.59191127256146, -241.48275178753255], [-123.07870288053235, -251.14930847572185], [-132.2749432835009, -251.95393100158725], [-158.51937995326423, -226.01576878975305], [-160.37782932496086, -224.23567723674532], [-179.85406087716285, -205.31110823691563], [-184.0058596186336, -201.32331530785967], [-184.00963699366213, -201.32722258250124], [-184.25941578418826, -201.07977520703116], [-184.51070786994956, -200.83840974952068], [-184.50696422424664, -200.83453736411772], [-187.29411324261338, -198.0734033695694], [-190.2120230898686, -195.2372333537433], [-192.68182072126234, -192.83662252133314], [-192.93141807079718, -192.5940171785237]]]}, "properties": {"id": 0, "height_median_m": 3.0, "building_count": 12, "area_m2": 11155.509901092948}}, {"type": "Feature", "geometry": {"type": "Polygon", "coordinates": [[[-37.68653050568649, -176.5454263075102], [-36.966460723865175, -176.5454263075102], [-36.69066052218059, -176.2630928724559], [-30.582729339936815, -172.442048791417], [-22.656831253317883, -171.18677257359934], [-3.9539355875976585, -182.15929681762006], [3.9205377330375124, -186.7495919446847], [8.061140616765487, -191.23497465238583], [9.14839036246869, -192.30831263962634], [14.201940621321736, -193.9351240202201], [17.920561641391316, -195.6888922877556], [17.95560193979079, -195.6158230706923], [18.268138795361043, -195.85281589811075], [19.645388989216002, -196.50235175384975], [25.577596487503396, -200.00104469001198], [25.63582556169949, -199.92818995321753], [25.892425866159023, -200.07952749037344], [26.253443359948694, -200.276631158911], [26.244851639270898, -200.2873809013246], [31.181144522262553, -203.1987040549185], [75.7886697062375, -229.01671340531468], [68.16439872795804, -237.57317101186499], [61.54191740429714, -245.22167582479426], [61.439138754324205, -245.10477215838355], [48.051408085324816, -259.99894608985625], [47.73505734313381, -259.69271011042355], [34.10792093586051, -274.97736645791997], [34.42599236541226, -275.28409674373773], [20.643874762472095, -290.7297778695039], [18.714731147018814, -288.7848579972993], [16.070272398723077, -286.1187732488203], [15.845441886756468, -285.8921041055284], [15.846382055408542, -285.8910347281577], [-0.31827824436284124, -269.4516154470664], [-18.069591954577618, -281.54267889500824], [-50.80877655445492, -249.08397856937324], [-64.80895809626297, -263.60947364817855], [-58.06936783971991, -270.3645047011485], [-54.53454115638717, -266.7906176297103], [-36.71724343946411, -284.6521367193275], [-40.25038094100052, -288.2243159435986], [-35.10194980311572, -293.3845424390782], [-52.3412111947709, -305.39898540447007], [-52.439225086883376, -305.5104694855526], [-68.32884666620008, -316.5552975000861], [-78.95935086728136, -323.9698778866898], [-81.40088593156555, -321.19279917666296], [-87.50894490668657, -325.6819518797059], [-88.32377102785898, -326.23803718165664], [-103.87280998290689, -297.51242434046543], [-106.6050248970523, -292.6288846023339], [-124.47008216189667, -266.0216703360343], [-122.32032275274909, -263.8209868168401], [-122.13065165918468, -263.60524895439835], [-122.0257582275205, -263.4859398684089], [-120.02926529999111, -261.47565814593986], [-120.02926529999007, -261.4756581459388], [-116.04960254905758, -257.468509821256], [-111.24312326545832, -252.51862172284837], [-108.80214503893983, -250.00481309932127], [-108.56442492435424, -249.76000023391384], [-108.56309440841872, -249.76129616624178], [-94.23160335513955, -235.15823789192737], [-94.27160049043111, -235.11821568007042], [-94.0358216346477, -234.87758637388086], [-93.79555515798528, -234.6042997326882], [-93.78166370346409, -234.6181998973451], [-82.23074112774067, -222.82965136100455], [-79.7407804389581, -220.2884671187186], [-79.49541002369617, -220.0380489351722], [-79.49541002369313, -220.0380489351752], [-65.45788783214103, -205.71174637395498], [-65.36015130228958, -205.60057777342456], [-50.771561531521876, -190.67754594357694], [-37.31566167931172, -176.90289923419147], [-37.68653050568649, -176.5454263075102]]]}, "properties": {"id": 1, "height_median_m": 3.0, "building_count": 22, "area_m2": 14853.365622892663}}, {"type": "Feature", "geometry": {"type": "Polygon", "coordinates": [[[-181.46744716340436, -102.85820017918866], [-167.31338527499486, -139.25163123912586], [-216.51784660907182, -157.41824172468304], [-229.7767723055086, -121.92658628931352], [-181.46744716340436, -102.85820017918866]]]}, "properties": {"id": 2, "height_median_m": 9.0, "building_count": 1, "area_m2": 2007.6273686810955}}, {"type": "Feature", "geometry": {"type": "Polygon", "coordinates": [[[-150.56896444789845, -103.0132228276112], [-150.72817170483387, -101.20234945653641], [-146.01622767576947, -100.94090978762395], [-145.85702041883405, -102.75178315869874], [-150.56896444789845, -103.0132228276112]]]}, "properties": {"id": 3, "height_median_m": 8.0, "building_count": 1, "area_m2": 8.574357060769238}}, {"type": "Feature", "geometry": {"type": "Polygon", "coordinates": [[[-126.89487046987938, -57.02741880166418], [-126.02935846940571, -60.59608829102438], [-122.13229247611399, -77.19009388629293], [-127.16846121830238, -78.38348901010684], [-155.10723306442972, -85.25754809984161], [-159.973592004463, -65.19263083965077], [-155.82260336173388, -64.35943114595533], [-179.93353082581635, 34.07901192901776], [-153.03006439991546, 41.615041705580346], [-128.75517834858454, -57.47288672630932], [-126.89487046987938, -57.02741880166418]]]}, "properties": {"id": 4, "height_median_m": 6.0, "building_count": 3, "area_m2": 3539.8008349192137}}, {"type": "Feature", "geometry": {"type": "Polygon", "coordinates": [[[-262.5120159281845, -33.775233443110366], [-262.64023848263696, -33.410622535754534], [-263.2978527333671, -31.606643964176772], [-272.8348097252813, -6.843356915903613], [-242.10489091620911, 7.654905538706837], [-235.1054471320273, 11.05020307471902], [-226.6520916294711, -11.573590347539886], [-226.56677202739525, -11.800029139768561], [-225.1835577915907, -15.471088935274087], [-225.07406425468298, -15.761685511570729], [-225.0743630032619, -15.76183866358073], [-216.5713932969386, -38.402046181277534], [-206.78443914662702, -64.67354073153255], [-196.58045634024202, -91.83010094937043], [-235.30654774005737, -106.21089970955124], [-244.92373184712235, -80.94996283340272], [-254.319812249239, -56.23535696749266], [-262.508015531408, -33.773338779240454], [-262.5120159281845, -33.775233443110366]]]}, "properties": {"id": 5, "height_median_m": 3.0, "building_count": 3, "area_m2": 4477.834213822493}}, {"type": "Feature", "geometry": {"type": "Polygon", "coordinates": [[[-116.19638789323172, -54.575901445996664], [-119.46879580458301, -40.605793087199885], [-134.5387122403996, 23.72859653338826], [-136.7680502282409, 31.912053587159924], [-132.84971914962642, 33.7188777382757], [-107.34568003545964, 40.375074327193744], [-109.48189349944029, 48.09965070953723], [-109.4830932376056, 48.10392256311335], [-109.48326224863222, 48.10460012487403], [-116.12437374674573, 72.11894789293096], [-115.9898129701099, 72.16996577834645], [-114.49386911703532, 72.883183434106], [-114.1059164330849, 73.10381822128934], [-114.09781592963465, 73.07200878693821], [-81.79474125342992, 88.47307022854031], [-78.56791903210846, 90.03016253206894], [-77.12730881164826, 90.74954585101095], [-74.54241482276902, 92.04033887081833], [-74.17585564538372, 92.22338391233681], [-74.17476574254958, 92.21939680210848], [-69.07559408583715, 94.70509312608087], [-63.19352330257256, 97.66133942908148], [-60.65363482437479, 98.93785176638094], [-60.274583975477746, 99.12835740835474], [-60.27407882249431, 99.12643088588021], [-50.17056996702396, 104.14722876799506], [-50.08198260738801, 103.71059323168264], [-43.10449952628745, 107.26420899226112], [-43.10573196595358, 107.26868401900691], [-42.847631174634145, 107.39503144101795], [-42.467750195939026, 107.58850393207872], [-42.46592754872095, 107.58188584336155], [-35.10900169974572, 111.18330298816208], [-29.39988837508712, 113.7807929525689], [-28.899579457774525, 112.6512810104997], [-2.704715770310713, 125.69452495209708], [1.2376917734439021, 118.00729369233326], [3.0626570797532704, 118.00729369233326], [3.9558532433605538, 117.75330634590772], [4.623610829852263, 117.24695403679881], [5.158384082216547, 116.63868613329309], [5.601283916861417, 115.88303384771157], [5.712732945835995, 115.12244008083236], [5.712732945835995, 114.24416146569975], [5.393324384753306, 113.51755079628252], [5.058454126291436, 112.6288028996419], [1.4165212054841598, 110.55757842151161], [-22.685126521343815, 98.62135157644208], [-22.65915583150428, 98.56271939280022], [-27.39516767076469, 96.31818243439704], [-27.19859797176995, 95.64742877483663], [-27.20664397456412, 95.64371086566126], [-22.973678841801497, 79.44878541084661], [-21.051918609907155, 71.5380160505132], [-7.197052138961131, 74.77423115930699], [-4.5909340858495, 63.62853620082396], [-18.03662921194023, 60.48789519925265], [-17.102426277054043, 57.30011986852852], [-14.651486758071002, 46.94552466300678], [20.206066019427755, 55.632462655749094], [21.342124199701235, 50.72214720633228], [16.551025544957774, 49.498779697507864], [18.2412397238987, 42.618243631931286], [19.023823533803995, 42.84077748686356], [22.32564831859386, 29.461455074785814], [9.907499859543307, 26.283376804907125], [8.342055200172567, 32.29285439115717], [-1.4485554721463403, 29.731540291638396], [-3.113696018640258, 36.4161868318935], [-11.534939335640564, 34.35627569313882], [-10.240017772841657, 29.201180013649882], [-10.240017772841657, 29.09178620611953], [-7.706650518977292, 19.44973839891293], [2.5842876093210445, -20.618186307467887], [2.3622930980312344, -20.618186307467887], [2.735621318748134, -22.529044934489196], [-12.728805668938925, -26.489645320047483], [-12.82658206968722, -25.933575564154893], [-54.894160658107474, -36.77116638889619], [-58.270816994220446, -37.64107193027755], [-58.604069716244375, -37.72692561531757], [-58.6044603168802, -37.725370630283656], [-88.75489087779859, -45.34627001486908], [-81.41394270862739, -74.62632352358278], [-99.9055662542009, -79.13338503908273], [-107.34133105173092, -49.7541014176444], [-116.59707962817325, -52.27638187550968], [-116.172393899643, -54.57087362094614], [-116.19638789323172, -54.575901445996664]]]}, "properties": {"id": 6, "height_median_m": 3.0, "building_count": 16, "area_m2": 16417.933172639}}, {"type": "Feature", "geometry": {"type": "Polygon", "coordinates": [[[-121.30515923026167, 138.43261164569077], [-121.20305615211346, 138.44766621510814], [-127.7145267375461, 170.8017270444892], [-126.23985431968659, 173.91678472559633], [-113.48065976043304, 179.7218682706849], [-111.63912997557973, 169.59790133235987], [-107.5967376599781, 149.29031508346935], [-106.94074092502166, 145.99481350073006], [-106.87064791055178, 145.64269034551376], [-106.87192736238521, 145.6424918970515], [-105.96313985767046, 140.9909162931001], [-100.38524670135642, 112.49644908559401], [-100.1297044913177, 111.33380212506059], [-111.96819332478381, 105.92459653441138], [-115.0287358693974, 107.043539942803], [-117.12183729061856, 117.70027220192952], [-121.30515923026167, 138.43261164569077]]]}, "properties": {"id": 7, "height_median_m": 12.0, "building_count": 7, "area_m2": 1073.5638726261363}}, {"type": "Feature", "geometry": {"type": "Polygon", "coordinates": [[[-89.82885153205457, 116.04645347069602], [-89.83210833734483, 116.06285863830439], [-93.95851016719983, 115.24149629269124], [-94.77640385015674, 119.49428705023884], [-90.66758048296145, 120.27320452059159], [-96.86286365756202, 151.6530839943803], [-102.07931676966368, 177.80380868182533], [-105.99687374847497, 177.02401700807346], [-107.09370620780098, 182.76284686705503], [-103.12262816531977, 184.54580566716768], [-90.38860566419612, 190.2934554187812], [-89.39233736157591, 185.19411447739543], [-86.55563103337609, 185.75041774002747], [-80.988538525161, 157.9089016467889], [-80.32007914493344, 154.56587787543626], [-80.25087015955364, 154.21975769198235], [-80.25230777813809, 154.21951241309873], [-74.47875512125852, 124.72357408214975], [-76.93742710901252, 124.2761227564496], [-76.55727844080204, 121.89796102706896], [-83.16596048551273, 119.00683693359031], [-89.41285846120974, 116.23128299875005], [-89.64272175325985, 116.10055613247624], [-89.75931907625467, 116.0773473770869], [-89.82885153205457, 116.04645347069602]]]}, "properties": {"id": 8, "height_median_m": 9.0, "building_count": 8, "area_m2": 1192.4289991081807}}, {"type": "Feature", "geometry": {"type": "Polygon", "coordinates": [[[-138.55510105794266, 220.86490515008285], [-138.3637530283514, 220.8213760976444], [-136.40100302617222, 228.03404751588934], [-136.4913095837498, 228.05659526343499], [-136.3977854333817, 228.39700264821303], [-136.31597856910116, 228.73430780452998], [-136.30581106120414, 228.7317691804546], [-134.4150345562321, 235.6137807541935], [-134.45121123714918, 235.62201045294833], [-134.33998613348925, 235.9762410522575], [-134.25579662634465, 236.29544035601836], [-134.18562922767498, 236.2794782351487], [-132.35943647785626, 243.12191737240667], [-132.23032525557807, 243.7242567213485], [-132.12252875160644, 244.10960599097888], [-132.1097216436229, 244.10607454683364], [-130.13325470548224, 251.33209614414127], [-129.19808003637525, 254.8777530025018], [-128.94708711082177, 255.82937713998894], [-128.35095220554246, 258.08958572479804], [-128.23736184556947, 258.2187869694736], [-126.68775927035146, 264.21151363671913], [-126.29481871971001, 264.65845656760536], [-117.80361764617913, 262.46342044356686], [-117.80242235087591, 262.46757069901975], [-117.47179737954303, 262.37764253468833], [-117.12564079724626, 262.2881585858176], [-117.12688773535886, 262.2838290183147], [-112.97214078595492, 261.1537608177335], [-110.17108794918676, 260.47104534870124], [-109.27877662743161, 259.8367060112921], [-105.6021243970611, 254.1535570667954], [-105.49599151663735, 254.21168096888175], [-105.3953576684946, 253.8339494342043], [-105.22200567510195, 253.56599229914056], [-105.31083830375303, 253.5167039949915], [-103.80668317455306, 247.8708220593243], [-103.7086233128886, 247.9016725441686], [-103.62537841979596, 247.5702737930818], [-103.48008354125825, 247.23974787187038], [-103.48477357548785, 247.2382723463346], [-102.34882874581655, 242.8775720489796], [-102.24707267819916, 242.55349851135756], [-102.30206176957026, 242.53594164943064], [-99.32092443763315, 231.7469075536739], [-110.25143610854064, 228.43820314441533], [-107.94640288013589, 221.0971148936961], [-105.07569535790252, 221.99505395499395], [-105.07569535790252, 221.86831860804475], [-97.2069968925608, 224.39769608454003], [-96.92976956338099, 223.76704193289794], [-96.28126473736442, 221.5049773078329], [-95.79713600413649, 219.8529876014876], [-95.497990990546, 218.83221678323636], [-94.81262646673244, 216.38218631887497], [-94.71864869257266, 216.05438027959693], [-94.74661759824491, 216.0456696560011], [-92.74412118261318, 209.2125625946619], [-92.74412118261318, 209.1012425922316], [-92.26984220089172, 207.4828631385109], [-92.16722818853876, 207.1560572116363], [-92.17308347967652, 207.15414246389338], [-91.01938243869529, 202.74019106862593], [-106.6285441208966, 195.08145140763537], [-108.5029446454139, 201.81408949750573], [-108.50944552475633, 201.811963634973], [-108.60195939786216, 202.16973946936213], [-110.33780002133108, 208.4046858144186], [-117.19573387474647, 206.47990451363722], [-115.77996475680636, 201.30381073457286], [-115.50708238143048, 200.6830407552622], [-125.26579780459961, 198.31506857343228], [-122.89957222248431, 187.66153369228005], [-123.35387608083458, 187.66153369228005], [-128.37831174889808, 185.24366979639447], [-129.31761982936322, 184.84302034777085], [-132.06124879740793, 186.2161238636728], [-134.07766580704325, 196.02736151700364], [-134.15115291109117, 196.40350095438015], [-134.50289034597026, 198.13716887392016], [-135.57912354943025, 203.18675242608037], [-135.6451082634344, 203.17083207421726], [-135.7156471936585, 203.5209405658298], [-135.7956495122442, 203.85459678740744], [-135.78346372863675, 203.85753689203148], [-136.8573966129285, 209.18782785360315], [-136.07913953056408, 209.40913136917194], [-137.93962095703537, 217.97962003877393], [-138.02448709062415, 217.99810439337878], [-138.0492633469909, 218.1319655332569], [-138.68859616590038, 218.8591627758011], [-138.1626572663839, 218.74461011848015], [-138.55510105794266, 220.86490515008285]]]}, "properties": {"id": 9, "height_median_m": 6.0, "building_count": 41, "area_m2": 2188.737411904243}}, {"type": "Feature", "geometry": {"type": "Polygon", "coordinates": [[[-119.086656744, 291.062401722], [-119.084591586, 291.061948411], [-117.393097407, 297.31481398], [-117.406817465, 297.319111181], [-117.311349368, 297.644876421], [-116.21123369, 301.756310897], [-116.230169195, 301.761695356], [-116.137830166, 302.094288181], [-116.048079094, 302.437667319], [-116.03383016, 302.433615523], [-114.651610593, 307.512966206], [-113.786409085, 310.787141513], [-113.698185648, 311.128325087], [-113.693781142, 311.126971081], [-112.509584305, 315.478632102], [-109.802704986, 321.63641131], [-110.766591846, 321.91833122], [-109.863040684, 324.616115874], [-109.667634025, 325.060639223], [-108.659508354, 328.118436077], [-108.645992843, 328.12612256], [-108.544131738, 328.427358616], [-107.046773498, 329.03562373], [-100.193066231, 332.933434742], [-105.90303996, 335.930990232], [-106.786042758, 338.31633367], [-105.348704188, 341.118974914], [-103.449356765, 345.199687871], [-102.273712238, 344.722111074], [-100.475903027, 348.130252232], [-100.407021192, 348.100118246], [-99.325342663, 350.337091251], [-99.314520032, 350.331908093], [-96.226326006, 356.186256318], [-96.408444279, 356.26709419], [-96.096644054, 356.894554315], [-95.136139007, 358.82745419], [-94.824338782, 359.454914315], [-94.819866377, 359.452929123], [-93.310068445, 362.382426585], [-91.256956859, 366.719363343], [-90.080749692, 369.1720975], [-88.774954227, 371.771289897], [-88.028599086, 373.284595962], [-87.884047941, 373.613429992], [-87.869890654, 373.60639241], [-86.026049557, 377.344955677], [-84.499285137, 380.532840529], [-84.353436654, 380.83910388], [-84.350847122, 380.837869405], [-81.957617795, 385.758650541], [-81.070778284, 387.551928994], [-80.874722418, 387.88642915], [-78.827381156, 391.9893949], [-77.558618103, 394.764646764], [-77.457022508, 394.995762808], [-77.424629704, 395.057728716], [-77.408868949, 395.092203288], [-77.407064133, 395.091330825], [-75.300375002, 399.12132781], [-73.932442908, 401.899772368], [-72.899317893, 404.024007612], [-72.076857078, 405.738648279], [-71.235807631, 407.45025891], [-71.231432119, 407.448073954], [-70.354063311, 409.222201695], [-70.352115234, 409.221282947], [-65.806074497, 418.270199744], [-65.516664225, 418.818840309], [-65.360017383, 419.175190389], [-63.274548563, 419.834100882], [-62.547350539, 419.282675624], [-61.788905228, 418.743500917], [-59.645274238, 417.635213075], [-51.294245722, 412.433531829], [-50.787459001, 413.586402116], [-44.274072023, 410.129087631], [-44.732754424, 409.259554669], [-40.46015801, 406.724014443], [-39.177037252, 405.994283506], [-39.158273352, 405.943061147], [-38.632881472, 404.508827783], [-38.509330484, 403.806173899], [-42.630800088, 395.738643908], [-42.62647765, 395.735694022], [-42.772385353, 395.461499227], [-42.951826448, 395.110254026], [-42.957304582, 395.113992627], [-46.426751893, 388.594087441], [-46.322921754, 388.5434733], [-46.490763809, 388.226966558], [-46.644282743, 387.921386352], [-46.651059705, 387.924689922], [-49.520178885, 382.5142726], [-50.36037066, 380.794083649], [-50.427922516, 380.827309856], [-51.42794343, 378.552399432], [-51.471786963, 378.575415899], [-53.239593182, 374.765557975], [-53.786153271, 373.677627388], [-61.426046649, 377.242696032], [-61.428710508, 377.237646104], [-61.73079209, 377.384901998], [-67.435522629, 380.046949092], [-70.564179206, 373.871675375], [-72.44356568, 370.003504755], [-67.791808201, 367.775692063], [-67.480230194, 367.629763221], [-67.481455271, 367.627058305], [-64.072938001, 365.994656343], [-58.855260743, 363.50205965], [-62.157066596, 356.970620101], [-62.081543739, 356.935138811], [-62.244232304, 356.619016706], [-62.388990651, 356.306176589], [-62.402069586, 356.312321185], [-64.59488634, 352.051432595], [-68.07551351, 344.948566174], [-81.532637033, 351.603590174], [-84.069445976, 346.488480977], [-84.221704925, 346.174183881], [-84.224616027, 346.175602958], [-88.22656696, 338.106246342], [-84.294847925, 335.971853693], [-83.702288523, 335.971853693], [-83.791050743, 335.805565088], [-76.54300711, 332.010637698], [-75.508791309, 331.469143459], [-75.25765089, 331.337651473], [-75.155638492, 331.221619365], [-69.326332245, 327.906401306], [-65.780335077, 334.35972709], [-66.642694324, 334.795671315], [-64.390949828, 339.533900479], [-63.462359011, 339.111417128], [-61.763546713, 342.492911494], [-61.113034721, 343.838207462], [-60.572952379, 344.899957571], [-60.558191496, 344.892177075], [-59.385329979, 347.226763783], [-59.382103593, 347.225103639], [-57.878824054, 350.141953303], [-55.435612567, 354.921808409], [-54.207588032, 357.58841456], [-51.717568237, 356.275919229], [-48.589315604, 354.629741477], [-46.127320837, 353.33727041], [-42.907166512, 351.621102074], [-38.878747909, 349.506309805], [-35.509561611, 356.162268035], [-47.44551462, 362.135852378], [-50.977182586, 363.840046979], [-50.641387684, 364.603934327], [-50.170829388, 365.524526132], [-50.170829388, 365.166300973], [-46.234051844, 373.226367066], [-45.169579892, 375.308880888], [-45.206802365, 375.329533576], [-45.057317498, 375.63558539], [-44.884019426, 375.950968868], [-44.86277127, 375.939179443], [-44.567024574, 376.527864719], [-43.954203459, 377.643131911], [-43.996323052, 377.663848948], [-39.24370156, 387.12396577], [-39.246683981, 387.125528013], [-39.0893561, 387.431233709], [-39.089356094, 387.431233722], [-34.391427989, 396.55983429], [-32.489059743, 400.431921473], [-31.150416942, 401.262438414], [-24.64213585, 397.561076691], [-24.63057065, 397.585451431], [-23.466114825, 396.812833052], [-23.177946374, 397.468376755], [-19.164860168, 394.990445414], [-19.342104857, 394.520036829], [-14.445869023, 391.882026695], [-14.647388107, 391.423598418], [-12.76663159, 390.297687067], [-18.579798307, 379.424491296], [-18.531276661, 379.397918311], [-19.962959046, 376.792413453], [-14.936270352, 374.229390075], [-10.65056202, 372.155049931], [-10.648500678, 372.159168885], [-10.02251933, 371.845884108], [-8.193169806, 370.930349867], [-7.566946299, 370.616943897], [-7.575732104, 370.600544716], [-7.388139582, 370.493857901], [-9.648241318, 365.977744438], [-11.323034383, 362.631189109], [-11.708210943, 362.850245071], [-14.67691942, 356.84721873], [-14.8202536, 356.521153129], [-14.834690136, 356.528190516], [-17.666182117, 350.802629694], [-17.656905887, 350.797717986], [-17.813239677, 350.492885474], [-17.971194235, 350.17205962], [-17.976370147, 350.174800234], [-19.868842542, 346.484701533], [-22.96316255, 340.266782486], [-29.770727334, 343.83108416], [-29.761057384, 343.847582517], [-34.143822043, 346.221436925], [-38.609093902, 348.501777575], [-41.787902864, 341.489555105], [-37.260831842, 339.057972926], [-36.923383836, 338.930031604], [-36.944010242, 338.887801583], [-33.722304151, 337.157357533], [-26.463649255, 333.552528126], [-27.012481053, 332.460075691], [-28.773265262, 328.899593391], [-29.751192162, 326.89740877], [-30.059097693, 326.258769698], [-31.420859123, 323.434286309], [-31.447545314, 323.378935422], [-31.573763333, 323.117141624], [-31.680853665, 323.175000381], [-33.02015979, 320.128262624], [-33.03529902, 320.135150558], [-34.553716697, 317.087334118], [-34.683513411, 316.865881825], [-37.134692422, 311.847395357], [-37.059504118, 311.810212079], [-37.425833117, 311.185200904], [-37.619602497, 310.854601831], [-37.619602498, 310.854601829], [-39.060343237, 308.396486139], [-40.640985458, 305.59979615], [-40.925544329, 305.044939804], [-41.250550288, 304.613655814], [-41.371915408, 304.452603895], [-41.97806978, 303.648235025], [-51.684935353, 308.422675653], [-55.532742525, 302.951904657], [-49.459242157, 299.904173692], [-49.359137973, 299.904173692], [-45.705032155, 298.014948787], [-47.197338808, 295.795276462], [-49.437169009, 292.531095723], [-49.437169019, 292.531095709], [-50.263951205, 291.326197906], [-50.341982828, 291.212479768], [-50.539910852, 290.987350213], [-51.714139951, 289.343528579], [-52.088928566, 288.784933363], [-54.382518634, 285.306531466], [-54.931411987, 284.548418227], [-55.099371218, 284.298087189], [-55.149909174, 284.323285418], [-60.307103719, 276.857524324], [-60.2363583, 276.817290292], [-64.104973217, 271.281448902], [-64.106480735, 271.282161504], [-68.391608021, 265.222546145], [-68.304637976, 265.179592971], [-68.533383154, 264.847636685], [-69.182046812, 263.888483126], [-69.51302097, 263.399084595], [-70.427349585, 262.09910197], [-71.384182777, 260.710540271], [-71.483165521, 260.597954187], [-73.036958678, 258.388787731], [-73.392005592, 257.870817088], [-76.051790641, 253.990511371], [-78.995073705, 249.696616229], [-78.940758978, 249.666413027], [-79.720423177, 248.779598465], [-78.408064318, 240.971533987], [-81.443516696, 240.108379255], [-85.05715593, 238.934017304], [-85.041603712, 238.870840226], [-85.71135666, 238.663077121], [-87.194735711, 238.202920225], [-87.864488658, 237.995157121], [-87.865484937, 237.999204259], [-91.955164629, 236.780893967], [-94.35709906, 244.48026732], [-94.406716557, 244.46635147], [-94.502380187, 244.783716358], [-94.796464412, 245.564217851], [-96.364698077, 250.915492615], [-97.312692174, 253.842247942], [-97.448119902, 254.612446711], [-97.652515544, 255.309904791], [-97.652515544, 258.259850316], [-97.261036999, 259.214021744], [-97.261036999, 261.582455622], [-104.127183802, 266.406137803], [-110.83402983, 269.180165964], [-109.638180848, 273.679276517], [-115.727477874, 275.019823188], [-114.957390246, 278.523510663], [-121.906608101, 280.499575357], [-121.226947184, 282.947623029], [-120.102984317, 287.20905865], [-119.169444813, 290.748515883], [-119.086656744, 291.062401722]]]}, "properties": {"id": 10, "height_median_m": 9.0, "building_count": 226, "area_m2": 8713.249247382833}}, {"type": "Feature", "geometry": {"type": "Polygon", "coordinates": [[[-2.056310378, 366.786600294], [-2.049222609, 366.794662146], [-1.800478614, 367.2833581], [-1.153752412, 368.570669835], [0.455024546, 371.745118408], [0.605359574, 372.044361033], [0.608273294, 372.04294068], [3.547938517, 377.759533686], [7.150416649, 379.085218692], [29.867305829, 367.012019167], [31.216847341, 352.68525052], [35.383193176, 361.008760492], [38.036283595, 361.134498343], [52.489632515, 353.100061781], [52.699812949, 353.458660528], [56.347250905, 351.451219937], [52.879006066, 345.533883927], [59.082914607, 348.099891394], [61.453125867, 342.573188209], [60.285180761, 340.24838764], [59.44316328, 338.652159068], [59.44316328, 338.540839067], [53.647557532, 327.553998881], [53.692423915, 327.530183745], [53.687793304, 327.52133518], [54.074438437, 327.301444018], [51.425168327, 322.028058629], [50.930776357, 322.252993414], [50.924332427, 322.240679805], [50.923323484, 322.241189851], [47.988981315, 316.678501521], [46.375799073, 317.471964949], [45.285225513, 318.008376901], [44.053079753, 318.614422873], [43.266554289, 319.061732263], [35.784424713, 322.962336532], [32.421920647, 316.450149474], [37.719059023, 313.781876882], [38.025249201, 313.628228207], [38.025024386, 313.627756123], [44.251444509, 310.491386072], [44.273364341, 310.537095299], [44.590869786, 310.320410897], [44.876729079, 310.17641796], [44.858268498, 310.137922278], [45.350674594, 309.801875377], [37.857700865, 294.650330855], [37.351465506, 294.866258858], [37.145020927, 294.396625754], [37.088554452, 294.425819728], [34.832486034, 289.806798118], [34.667914357, 289.557212789], [33.039734993, 286.347179335], [33.040171691, 286.346953556], [32.009641259, 284.322317531], [32.507907081, 284.20896889], [29.124929008, 277.871242062], [29.707799705, 277.539754338], [25.383123288, 269.141422621], [25.353895223, 269.156030237], [19.967111743, 261.650336638], [25.714125223, 258.381919769], [26.094870414, 258.923259201], [26.102607052, 258.919453841], [27.768336557, 261.148457473], [31.28387724, 259.371263494], [31.292694493, 259.38379977], [33.902096352, 257.899791928], [37.089496378, 264.244327607], [32.85962154, 266.361252338], [29.94717352, 277.403618688], [35.029136207, 274.513426655], [35.236512659, 274.985179641], [35.251289739, 274.977764384], [38.29359104, 281.117199898], [38.800207967, 280.829078891], [48.553932179, 276.197522823], [52.84476391, 284.37570296], [49.249012657, 286.219047399], [46.20916893, 287.777408542], [43.225652217, 289.306893914], [42.296127771, 289.835529072], [42.725452937, 290.76335215], [42.785170378, 290.733472554], [54.763933092, 314.397982984], [54.959458528, 314.842776535], [56.688907933, 318.285254217], [56.704206728, 318.277278607], [58.588191132, 321.759496091], [58.747872836, 322.06686484], [58.768974124, 322.055955172], [61.845743642, 327.935307264], [62.366489511, 328.409157437], [62.588130941, 328.661259365], [63.240119126, 329.032055291], [63.812897397, 329.292653692], [64.818397592, 329.292653692], [65.688892033, 329.045121759], [66.17999025, 328.765826486], [66.849182234, 327.877806495], [66.973664781, 327.453035411], [67.175375663, 325.61757704], [67.085579949, 322.247073619], [68.265012926, 322.135279941], [67.845605695, 312.117293692], [66.667363716, 312.117293692], [66.489380307, 308.776968966], [65.801136551, 292.631098643], [65.706138281, 290.402484521], [65.593638649, 287.763296804], [65.493431616, 284.967661464], [65.485714361, 284.97156273], [65.388714405, 282.875277564], [65.283647545, 282.924166525], [64.833514563, 270.80694206], [64.83834615, 270.804105622], [64.825599827, 270.593883626], [64.804004543, 270.012555638], [64.747651572, 270.045638291], [64.434128901, 262.913427516], [64.238453857, 259.018505981], [64.148907917, 256.574049195], [64.563436445, 256.366217939], [64.133176479, 256.144606827], [64.120740281, 255.805119091], [63.793042407, 255.969416253], [58.60609218, 253.297808619], [52.751240949, 256.227985004], [48.810696809, 250.438607464], [50.519143184, 249.588439703], [47.849531748, 245.944639772], [47.745292014, 245.707508673], [47.647422378, 245.596188674], [47.451683105, 245.150908673], [47.231473598, 244.90043546], [46.361204625, 243.690592785], [44.637355685, 241.265442311], [42.707455471, 238.427257214], [42.707455471, 237.888214511], [42.447364619, 238.065715816], [38.942154856, 233.001229876], [27.585044671, 230.875493896], [28.068581915, 230.631053693], [26.838984114, 230.631053693], [26.918440205, 230.742517248], [19.550435549, 229.322076563], [18.545937607, 229.12842444], [17.177818806, 228.864671674], [14.712333639, 228.389363147], [7.411756564, 231.829552689], [8.198648117, 233.172105462], [11.700324163, 238.307971318], [11.696861824, 238.309733132], [11.925376219, 238.638052443], [12.09902728, 238.892744352], [12.101687672, 238.891368891], [13.786354028, 241.311822519], [15.352414206, 243.538430097], [23.153934565, 254.712711967], [21.701617726, 255.184686485], [16.710630318, 258.969290436], [13.384551876, 254.051148447], [13.209911692, 253.791811281], [13.20936012, 253.792099257], [11.428111611, 251.158236815], [9.73738955, 248.594129607], [7.507800993, 245.472893802], [6.727124911, 244.362936915], [4.6073288, 241.248570077], [5.301764342, 240.910053159], [0.064889946, 233.616274981], [-0.353866847, 233.902059263], [-3.061142917, 230.112101255], [-3.224406667, 229.875171984], [-3.252866833, 229.887839088], [-7.050219095, 224.41681721], [-6.526819107, 224.119151412], [-7.135181614, 224.017391025], [-7.037728451, 223.574005866], [-7.71657307, 223.456770071], [-22.325305619, 220.933856388], [-22.325305628, 220.933856387], [-26.435573516, 220.224017182], [-26.477347104, 220.46159014], [-31.736692695, 219.863375644], [-31.810457899, 219.901513308], [-31.912723295, 219.84335337], [-32.020572713, 219.782017711], [-32.020572714, 219.782017711], [-32.107927879, 219.830041958], [-33.541963209, 219.579100904], [-35.113817942, 219.19401971], [-35.113817942, 219.194019711], [-39.279795547, 218.173416728], [-39.279795703, 218.173416689], [-42.02113156, 217.501829893], [-42.013561796, 217.493219806], [-43.546017754, 217.111924651], [-49.500739921, 215.630311623], [-48.169535927, 217.817421884], [-46.836479823, 219.63693377], [-51.270618875, 226.361639242], [-55.321955139, 220.540859641], [-59.477287321, 214.464052685], [-59.891144739, 214.228685469], [-60.728979209, 214.570780586], [-63.872884527, 215.854464533], [-64.200282618, 215.988144028], [-64.1996147, 215.989638943], [-66.150151236, 216.796403145], [-66.32288676, 217.189352772], [-66.451995566, 218.007530506], [-67.894871536, 226.9126662], [-67.920948931, 227.046141819], [-67.917318092, 227.051687591], [-70.342220687, 242.056080259], [-71.246183894, 247.425549092], [-67.845550619, 252.431179529], [-67.869899912, 252.443338595], [-67.471064779, 253.026599814], [-66.492746028, 254.457304731], [-62.835698913, 259.805413708], [-61.539563844, 261.279678468], [-62.279894538, 261.700716167], [-57.986890732, 267.957056639], [-58.570073531, 268.251870169], [-54.83712365, 273.746660709], [-54.055533916, 273.302158346], [-52.809504215, 275.15551579], [-52.287161648, 274.957472839], [-50.909935576, 277.150573141], [-48.068443337, 281.162714262], [-43.791115278, 287.508584724], [-43.796235416, 287.51115405], [-43.567318036, 287.840611702], [-43.396643131, 288.09382605], [-43.392738351, 288.0918666], [-38.999065506, 294.415235934], [-40.160377312, 295.007794832], [-38.657218433, 294.907221882], [-38.595947083, 294.995403545], [-38.387798036, 294.889195575], [-32.138220458, 294.471050519], [-34.159213878, 301.367274806], [-30.926178609, 307.964883951], [-31.614406855, 308.300374995], [-29.734227682, 312.042881033], [-29.088287126, 311.728003995], [-27.246145946, 315.297790159], [-27.089482459, 315.609629613], [-27.08610609, 315.607922774], [-25.088499775, 319.478976447], [-23.523214528, 322.541211982], [-23.364599746, 322.852835192], [-23.351197216, 322.845614132], [-21.574070327, 326.344121775], [-19.998875383, 329.445099867], [-18.820666027, 331.764559701], [-18.731060374, 331.940960195], [-17.267506444, 334.770936992], [-17.118304861, 335.110350131], [-17.043276409, 335.069260637], [-12.968265935, 343.677201306], [-13.019680495, 343.702627626], [-12.862810497, 344.011446817], [-12.03903341, 345.818498858], [-10.313024284, 349.031035801], [-7.636281757, 354.300554961], [-8.222188559, 354.633769365], [-7.421151329, 356.120341601], [-6.955171353, 356.985111512], [-6.332760885, 358.140186566], [-3.611172384, 363.190935458], [-3.821110865, 363.293274297], [-3.404252378, 364.112257108], [-2.056310378, 366.786600294]]]}, "properties": {"id": 11, "height_median_m": 9.0, "building_count": 305, "area_m2": 11507.717986861486}}, {"type": "Feature", "geometry": {"type": "Polygon", "coordinates": [[[-35.113817942, 209.645234314], [-34.507627005, 208.955733692], [-34.214018096, 208.955733692], [-34.11614846, 208.844413692], [-33.948131746, 208.844413692], [-33.85026211, 208.621773693], [-33.630860851, 208.621773693], [-33.630860851, 208.194752773], [-27.580025553, 177.618799162], [-27.539021443, 177.627183767], [-27.473321771, 177.289615414], [-27.386478481, 176.943891407], [-27.405286289, 176.940045548], [-21.788634858, 148.08139672], [-21.788634858, 147.252373692], [-21.886504494, 147.252373692], [-21.886504494, 147.141053693], [-22.25612527, 147.141053693], [-28.373021325, 144.262067567], [-30.715636977, 143.159489086], [-31.130952817, 142.964016001], [-31.131619799, 142.968871337], [-42.836959628, 137.600314331], [-47.603869887, 135.341133692], [-47.903106032, 135.341133692], [-48.765133282, 135.463695803], [-49.54484821, 135.843783916], [-50.097299804, 136.346484559], [-50.653378029, 137.105485577], [-57.420734368, 171.35335453], [-57.616404764, 172.243601161], [-63.398142835, 201.224041006], [-63.398142835, 201.630583903], [-63.300273199, 202.075863904], [-63.300273199, 202.222705919], [-63.202403563, 202.445345919], [-63.202403563, 202.833133693], [-62.810925018, 202.833133693], [-62.810925018, 203.967914312], [-62.125837563, 203.188674314], [-62.125837563, 204.413194313], [-61.616741439, 203.834132383], [-53.687954226, 205.288721374], [-53.056634744, 205.493887837], [-44.218671764, 207.281012608], [-42.652650967, 207.503667767], [-35.113817942, 209.02327129], [-35.113817942, 209.645234314]]]}, "properties": {"id": 12, "height_median_m": 9.0, "building_count": 10, "area_m2": 1651.5758220403109}}, {"type": "Feature", "geometry": {"type": "Polygon", "coordinates": [[[-114.5809992844815, -115.0488961446344], [-114.77729903790028, -113.03939856679108], [-116.39886258255402, -101.62706630761758], [-115.5254129605618, -101.62706630761758], [-73.60687869176279, -97.02740092711103], [-72.32636868050244, -107.33488509668084], [-70.08587743538389, -107.56655829254949], [-74.05426367845772, -134.08494073073055], [-74.21182206646253, -135.3394237670067], [-114.35157455797265, -116.35367061251445], [-114.5809992844815, -115.0488961446344]]]}, "properties": {"id": 13, "height_median_m": 3.0, "building_count": 1, "area_m2": 1151.1322160173365}}, {"type": "Feature", "geometry": {"type": "Polygon", "coordinates": [[[-74.59244383548321, 214.1404484315103], [-84.92303404828488, 211.29188165376718], [-87.07058414167453, 219.20154763651112], [-89.0246844034199, 226.53630929340312], [-89.23572682145327, 227.13642498925168], [-89.23572682145327, 227.6882104560015], [-77.18284900923248, 230.87917333482613], [-77.18284900923248, 230.11600008070008], [-77.08909227791224, 229.4761489635157], [-75.81695776090534, 221.68478512679326], [-74.59244383548321, 214.1404484315103]]]}, "properties": {"id": 14, "height_median_m": 12.0, "building_count": 2, "area_m2": 195.7620221297759}}, {"type": "Feature", "geometry": {"type": "Polygon", "coordinates": [[[-47.027723002933996, -364.3009601859012], [-58.080966851232375, -360.84069222829504], [-59.565646731541385, -349.58254853621077], [-64.5951216740623, -343.2017868884304], [-68.33424142042182, -338.47623988276206], [-26.877606984289848, -305.3104523818699], [-24.336365936998597, -308.5344575904705], [-10.16987289134972, -296.8407225773804], [-7.482062009438238, -294.62206845337846], [-7.213868222061174, -294.40068782857327], [-7.213342089186625, -294.4013323024903], [-0.20437248359489418, -288.64361620124845], [12.410264807441441, -300.0991017134595], [6.409216437008357, -306.9248827194991], [-7.794625453979171, -323.080778857576], [-7.794625453979204, -323.080778857576], [-13.386709273434938, -329.44139073117566], [-23.776466021969707, -341.2590265664293], [-23.846711628114853, -341.1941081739478], [-31.2156394603451, -349.7254305896532], [-40.597150186023526, -340.803921060556], [-38.40385265481584, -357.26910961548964], [-45.9975233190555, -363.519772522171], [-47.027723002933996, -364.3009601859012]]]}, "properties": {"id": 15, "height_median_m": 3.0, "building_count": 6, "area_m2": 2267.441516453162}}, {"type": "Feature", "geometry": {"type": "Polygon", "coordinates": [[[-45.62236022169427, -101.05766578771309], [-45.28125935698279, -101.48304018184052], [-43.862576982198036, -100.3281702218046], [-27.24470606186658, -102.14758409933472], [-26.07182319086505, -91.25264776884389], [-24.065753792350534, -91.38686932008349], [27.374328745345007, -96.87914662958293], [26.29781949780281, -107.78793153510136], [44.307970909489484, -109.68059624959379], [37.28982782728001, -176.57750630761458], [35.82738628501543, -176.57750630761458], [10.954759506098062, -145.390679309765], [-49.63325672273396, -139.02416605012164], [-48.51315869170484, -128.3859762982068], [-47.65816006943322, -120.2238638647154], [-55.80670542240117, -110.05121702887737], [-45.67267636292337, -101.80167087045858], [-45.62236022169427, -101.05766578771309]]]}, "properties": {"id": 16, "height_median_m": 6.0, "building_count": 4, "area_m2": 4269.125956726609}}, {"type": "Feature", "geometry": {"type": "Polygon", "coordinates": [[[73.11607348240399, -39.61251551137421], [72.72477578757123, -37.83221833152611], [61.17810444197784, -40.50344820035797], [59.164302083271494, -31.582311644888147], [70.81404321192657, -28.909885090539998], [69.54060958072158, -23.004692639837916], [75.80485393144855, -21.668727317777066], [74.92466307967555, -17.552860736875147], [93.1266555398579, -13.504686778925356], [94.08106804801133, -17.96762176488981], [95.35342023501859, -23.756475213948214], [97.58046412095564, -34.23433807820652], [89.99543992749666, -35.74997028773415], [73.11607348240399, -39.61251551137421]]]}, "properties": {"id": 17, "height_median_m": 3.0, "building_count": 3, "area_m2": 610.688129869137}}, {"type": "Feature", "geometry": {"type": "Polygon", "coordinates": [[[35.23690015580356, -5.276918551898356], [25.356642963948637, -7.668006855599511], [20.31285916593693, 15.279825936710331], [30.193116357791858, 17.670914240411484], [35.23690015580356, -5.276918551898356]]]}, "properties": {"id": 18, "height_median_m": 3.0, "building_count": 1, "area_m2": 238.79062242952674}}, {"type": "Feature", "geometry": {"type": "Polygon", "coordinates": [[[19.048281261334164, 179.00494746762195], [10.371769044064871, 216.12561073028905], [11.707279015144932, 218.27759966324342], [51.040649006692085, 224.42921369257564], [51.74565656855727, 224.42921369257564], [53.13416130580189, 222.32344179467944], [48.44039299079028, 212.781685935456], [43.24293443451299, 203.85828563653968], [40.495987827919954, 199.6179424561197], [37.15911872108615, 194.7061709673635], [30.09487350649528, 185.77828818017397], [21.853677295405177, 177.09038010090993], [19.048281261334164, 179.00494746762195]]]}, "properties": {"id": 19, "height_median_m": 12.0, "building_count": 2, "area_m2": 1096.264633049314}}, {"type": "Feature", "geometry": {"type": "Polygon", "coordinates": [[[111.89899339865156, -85.37760956949782], [154.70810926467766, -95.29437524479566], [178.2447975182956, -103.00815950027616], [154.4194858241482, -141.12759580444433], [137.37579131214767, -167.19846878459182], [91.68041928089721, -220.51512037115398], [90.45612392186193, -219.95809956458], [45.90276992284386, -197.58441966337995], [46.02164923640661, -196.23224898842983], [57.40645551170093, -83.14794630760528], [62.81126160750612, -83.14794630760528], [83.3782270736511, -83.03654862720184], [111.89899339865156, -85.37760956949782]]]}, "properties": {"id": 20, "height_median_m": 12.0, "building_count": 8, "area_m2": 11590.611902333523}}, {"type": "Feature", "geometry": {"type": "Polygon", "coordinates": [[[195.16143688286442, -76.59500585605855], [197.80559572479353, -76.48361513883026], [197.6096670741942, -70.02080841610882], [202.56581561452018, -69.90086630743446], [205.20700249061719, -69.90086630743446], [209.0858371989171, -69.77831329401893], [209.0858371989171, -74.25428405977861], [209.28996977229662, -82.96128920262875], [198.65336899556317, -82.84606630736636], [195.38126764591757, -82.84606630736636], [195.16143688286442, -76.59500585605855]]]}, "properties": {"id": 21, "height_median_m": 9.0, "building_count": 2, "area_m2": 164.08899986316038}}, {"type": "Feature", "geometry": {"type": "Polygon", "coordinates": [[[107.36764545480739, -23.57887533340868], [93.91091394160307, 39.333735752033625], [135.30872814731453, 48.27577136040073], [137.28952034580897, 39.03840864973131], [169.07944267679588, 33.855639190783414], [173.5257544800278, 56.76257199487251], [179.66716534131137, 54.98661427079357], [180.24159140729896, 54.82327170593813], [183.59545176909901, 53.8695751623777], [183.92056938423866, 53.777125414218574], [183.9130409506326, 53.751436183300186], [194.4439528636265, 50.75688864461694], [205.84981718263364, 47.57044234185841], [206.354096292241, 26.577307945111286], [205.08770148462565, 26.592006284433104], [196.46065411508968, 26.69213561915582], [196.46065411508968, 19.947743878772673], [205.35190832693613, 20.281145811408727], [205.7727956739935, 10.227805409954946], [198.05130104843565, 10.005459317483854], [198.2471712071296, 7.2205983911510945], [193.52275659800478, 7.108646357134587], [193.8736519840237, -12.348426307596265], [197.17647077701236, -12.348426307596265], [197.5179487800871, -12.327431290747617], [197.52040216145724, -12.373475416444535], [204.17292421842498, -12.112551704090857], [204.36845559019523, -15.671008139475564], [204.37897258039703, -15.670480388512544], [204.38785341348375, -16.0240272406488], [204.58348054000908, -19.584226307520076], [205.35366789352165, -19.584226307520076], [205.54861414386053, -24.684200107695233], [207.42205338166582, -24.572047019992723], [207.42205338166582, -24.593626307528176], [209.17502550006654, -24.593626307528176], [209.289955438162, -29.1689986214915], [207.42205338166582, -29.2808202268552], [207.42205338166582, -29.288127746605536], [207.08914330291714, -29.300749826117638], [206.72205338166583, -29.32272559522416], [206.72205338166583, -29.314667813195527], [198.53026153568936, -29.62525452902928], [199.0816847889791, -38.82427787836972], [203.19853188654585, -38.601295437339694], [203.39452733449676, -43.28285445979224], [206.4433570185973, -43.17098882473546], [206.4433570185973, -46.98140864826343], [206.53414373701747, -51.42174630742215], [207.8921118183491, -51.42174630742215], [208.1275557176284, -55.57266630741015], [206.30714367831806, -55.57266630741015], [205.23765738937735, -55.68325424522799], [193.9011310250161, -56.143772864913764], [193.9011310250161, -51.6764663077554], [193.80326138860494, -51.6764663077554], [193.80326138860494, -51.334155366484985], [193.7875378447101, -50.976466307755395], [193.80326138860494, -50.976466307755395], [193.80326138860494, -47.60935760971869], [193.70530069133915, -43.980851964962774], [193.68348715692707, -43.186874167267035], [193.64239774095492, -41.69130958740339], [193.6075841475797, -39.53321448958675], [193.6002729930655, -39.20057701369168], [193.60221597990176, -39.20044170669447], [193.41738337723754, -27.742666307672756], [193.4117828436557, -27.742666307672756], [193.4117828436557, -13.319633742225314], [190.16949540555052, -13.003410769839796], [185.6562082891534, -35.921065239182205], [187.06776352763558, -36.242174696765595], [186.9633678609557, -47.522751367852415], [183.5667958266279, -46.840980584505786], [182.26464917402225, -53.61173498030002], [181.23539208070707, -60.51892022504455], [176.03644447894072, -59.73789900440961], [172.8046985187094, -77.22622137775801], [155.76494298193643, -74.09267680956854], [159.3874047996422, -56.497874052892136], [152.2429425857703, -55.050718354642065], [160.17204976496373, -16.525900731603357], [157.7223855235108, -15.968635713123609], [158.87270555640148, -10.616048713760014], [159.72948287088974, -7.135600704178181], [146.37215542383638, -2.969766057180077], [148.86322863446676, -14.521421639841286], [146.90637708904504, -14.966578528633871], [149.0595090880029, -24.874058528528696], [141.73445116305467, -26.540408745045287], [141.73534886465103, -26.543812325068465], [141.37964529513266, -26.62112221392032], [141.0514903151876, -26.69577297129113], [141.050660043549, -26.692625047777938], [126.01321472372888, -29.96091731671764], [111.8803397462163, -33.0391422208015], [109.43350902497984, -23.13129854349732], [107.36764545480739, -23.57887533340868]]]}, "properties": {"id": 22, "height_median_m": 3.0, "building_count": 33, "area_m2": 8485.341185673255}}, {"type": "Feature", "geometry": {"type": "Polygon", "coordinates": [[[181.84007206242129, 89.17541369235695], [183.50943729057602, 89.17541369235695], [183.3694792439676, 92.0408819393772], [183.23346379450743, 97.61037881329092], [183.223106409063, 97.96969369230086], [183.22468878737973, 97.96969369230086], [183.12617379991002, 102.00363922513539], [184.70138521175468, 101.89165828985021], [184.70138521175468, 103.0904136924234], [195.331652117421, 103.0904136924234], [195.16072329767076, 107.75648915660551], [204.38183439622128, 107.99760137589448], [204.4921726117145, 101.72249369252779], [195.987297737006, 101.72249369252779], [195.6282914239265, 89.47214178072905], [196.2553353176404, 89.5612942093124], [196.66506890074444, 72.55069355018095], [189.15749375110937, 72.67445227318692], [189.47825172804863, 75.22833369258163], [186.48146284381744, 75.22833369258163], [186.09051470985744, 82.4543299615018], [182.2769291901209, 82.34310708916881], [181.84007206242129, 89.17541369235695]]]}, "properties": {"id": 23, "height_median_m": 3.0, "building_count": 10, "area_m2": 417.839226383924}}, {"type": "Feature", "geometry": {"type": "Polygon", "coordinates": [[[171.37605832342413, 191.0994309707398], [178.83070348270164, 187.7358021411989], [197.45056664727701, 193.35467209368852], [198.9894643847226, 186.10305369225995], [198.40882959229054, 186.10305369225995], [192.98117962298113, 184.61287929554703], [191.3108623548314, 177.0925551923327], [200.99300384905473, 176.66068178059305], [201.93378213833137, 172.49929536962793], [202.9112424362829, 167.55798843433618], [201.62835324593428, 167.7403882446605], [194.7695784262333, 169.1892170776556], [189.82640038786676, 170.12630475217134], [189.82523439742866, 170.12066825696323], [189.48534818365388, 170.1909586680234], [189.13855413022108, 170.25670107716687], [189.13973975091287, 170.26243246666158], [184.01284879862854, 171.3227028097699], [181.34504021497784, 173.57044304814562], [167.4306580659743, 179.2149146009952], [149.49206356356692, 182.92471844237872], [164.49257757646748, 194.53639547381658], [167.67722352322752, 189.44251306341673], [170.93622664380274, 190.67814391852482], [171.37605832342413, 191.0994309707398]]]}, "properties": {"id": 24, "height_median_m": 3.0, "building_count": 5, "area_m2": 660.2936948505791}}, {"type": "Feature", "geometry": {"type": "Polygon", "coordinates": [[[145.19871638240005, 248.61451969307905], [145.19986886876774, 248.61292061247912], [155.08431013623675, 255.73711807924025], [183.09210592936859, 216.98912921780467], [172.92893122854417, 209.5495804151302], [172.63505085126187, 209.32673456377753], [143.18286853827613, 187.85536205943632], [115.17438194264811, 226.71727731055012], [142.10240358762445, 246.35632769567175], [144.92227596226505, 248.41290713456684], [145.19871638240005, 248.61451969307905]]]}, "properties": {"id": 25, "height_median_m": 6.0, "building_count": 2, "area_m2": 2364.9068704607344}}, {"type": "Feature", "geometry": {"type": "Polygon", "coordinates": [[[88.06901406856008, 278.2323105273621], [88.0822120184189, 278.22361950672183], [88.81398585049402, 283.77256986055505], [91.66982358171599, 287.28075501079513], [93.96365666915494, 290.09855907805894], [97.28475793983894, 294.1782860292369], [94.60491907086572, 296.49066274724913], [93.7356840078635, 297.0556314772187], [94.90667866150959, 302.27234210847394], [94.66657178549126, 302.4088946616762], [94.97599517188114, 303.1479852172437], [94.97599517188144, 303.14798521724344], [96.72947057175554, 307.33634706858135], [97.58265182180371, 311.8650445101056], [97.54538373447996, 311.894717435704], [97.5974088955263, 312.07224259485884], [97.5974088955263, 313.2956659864387], [100.55759378373273, 317.0587918134999], [100.60154857975262, 317.12947520037136], [100.71219341112207, 317.25532610870584], [104.25815087794776, 321.7631135034173], [118.1886388409292, 309.9715043576358], [118.19335601831307, 309.9768698234442], [118.24508921372211, 309.9237213414287], [118.24508921372234, 309.9237213414285], [121.48834031176652, 306.59174327022544], [124.32218306836604, 303.81303481512435], [126.17796910992661, 302.0354942982386], [129.03191542434718, 299.3979826141704], [129.06149166921824, 299.43482746458824], [129.32262628315468, 299.1293183849538], [129.5472473455817, 298.9217319024592], [129.52439492248072, 298.8932633083388], [132.95070458410575, 294.88472267296993], [127.36089301854034, 287.98558662244193], [139.349035597048, 278.1176529907708], [132.3749992560654, 269.61034691171193], [126.08738638577685, 261.88186614147634], [114.05294548647863, 271.60257936541916], [113.65299257519744, 271.1209004133629], [109.84455672886283, 274.26148050986865], [105.4920009941338, 269.0954975420828], [109.40110208616815, 265.8719050801597], [101.87114352346879, 256.7123149967344], [98.54498623247999, 260.4955908280315], [98.53957646155648, 260.48894135526433], [98.26943693149376, 260.80900926244414], [98.07629829822984, 261.0286912135343], [98.08009012698312, 261.0333519768807], [95.92056566006725, 263.5920092621322], [95.8225970492828, 263.70344183880917], [95.82259694142732, 263.70344196682123], [93.41706637916722, 266.4395680199051], [93.07255713664816, 266.6354958397637], [93.19683121124525, 266.7619697894575], [88.07596412965592, 273.18400341310536], [87.60273489205252, 273.8568356714705], [87.98555302035632, 277.4491279700857], [87.98051281135777, 277.4524470128845], [88.00861791026513, 277.6655644976738], [88.06901406856008, 278.2323105273621]]]}, "properties": {"id": 26, "height_median_m": 3.0, "building_count": 21, "area_m2": 1834.5878899655695}}]}