{"type": "FeatureCollection", "crs": {"type": "name", "properties": {"name": "wgs84_and_EPSG:32628_local_enu_m_section_centroid", "lng0": -17.76703987565422, "lat0": 28.648449211922692}}, "features": [{"type": "Feature", "geometry": {"type": "Polygon", "coordinates": [[[-17.75829, 28.6377], [-17.75829, 28.63771], [-17.75994, 28.6378], [-17.76171, 28.63797], [-17.76186, 28.63799], [-17.76197, 28.63808], [-17.76203, 28.63812], [-17.76209, 28.63814], [-17.76213, 28.63815], [-17.76216, 28.63816], [-17.76219, 28.63816], [-17.76227, 28.63816], [-17.76234, 28.63816], [-17.76242, 28.63817], [-17.7625, 28.63818], [-17.76253, 28.63819], [-17.76257, 28.63821], [-17.76264, 28.63825], [-17.76268, 28.63828], [-17.76274, 28.63832], [-17.76282, 28.63838], [-17.76285, 28.6384], [-17.76299, 28.63851], [-17.76304, 28.63855], [-17.76308, 28.63858], [-17.76311, 28.6386], [-17.76314, 28.63862], [-17.76317, 28.63865], [-17.76322, 28.63866], [-17.76326, 28.63867], [-17.76332, 28.63868], [-17.76337, 28.63867], [-17.76341, 28.63867], [-17.76346, 28.63867], [-17.76353, 28.63867], [-17.76358, 28.63867], [-17.76365, 28.63867], [-17.7637, 28.63867], [-17.76374, 28.63869], [-17.76377, 28.63871], [-17.76381, 28.63874], [-17.76385, 28.63875], [-17.76391, 28.63876], [-17.76396, 28.63875], [-17.76405, 28.63876], [-17.76413, 28.63878], [-17.76419, 28.6388], [-17.76428, 28.63885], [-17.76436, 28.63888], [-17.76442, 28.63894], [-17.76446, 28.63897], [-17.76452, 28.63901], [-17.76464, 28.63903], [-17.76474, 28.63904], [-17.76486, 28.63904], [-17.76502, 28.63903], [-17.76515, 28.63903], [-17.76528, 28.63902], [-17.76537, 28.639], [-17.76553, 28.63897], [-17.76568, 28.63895], [-17.76586, 28.63894], [-17.76612, 28.63894], [-17.76612, 28.63904], [-17.76614, 28.63913], [-17.76618, 28.63923], [-17.76618, 28.6393], [-17.7662, 28.63944], [-17.76628, 28.63942], [-17.76632, 28.63941], [-17.76639, 28.63942], [-17.76646, 28.63943], [-17.76664, 28.63947], [-17.76692, 28.63953], [-17.76712, 28.63957], [-17.76721, 28.63959], [-17.76728, 28.6396], [-17.76732, 28.6396], [-17.76736, 28.6396], [-17.76741, 28.6396], [-17.76745, 28.6396], [-17.7675, 28.63959], [-17.76758, 28.63955], [-17.76766, 28.63951], [-17.76757, 28.63965], [-17.76755, 28.63971], [-17.76753, 28.63976], [-17.7675, 28.63981], [-17.76747, 28.63989], [-17.76746, 28.63991], [-17.76747, 28.63994], [-17.76749, 28.63995], [-17.76753, 28.63997], [-17.76761, 28.63998], [-17.76763, 28.63997], [-17.76762, 28.63992], [-17.76762, 28.63987], [-17.76764, 28.63983], [-17.76769, 28.63977], [-17.76773, 28.63973], [-17.76779, 28.63967], [-17.76787, 28.63963], [-17.76794, 28.63961], [-17.76806, 28.63959], [-17.7684, 28.63958], [-17.76848, 28.63957], [-17.76855, 28.63957], [-17.76865, 28.63955], [-17.76873, 28.63953], [-17.7688, 28.63951], [-17.76989, 28.63965], [-17.77013, 28.63968], [-17.7703, 28.6397], [-17.77051, 28.63967], [-17.77064, 28.63996], [-17.77065, 28.64001], [-17.77066, 28.64032], [-17.77068, 28.64036], [-17.7707, 28.64039], [-17.77074, 28.64043], [-17.77076, 28.64044], [-17.77085, 28.64048], [-17.77089, 28.64054], [-17.77096, 28.64079], [-17.77096, 28.64082], [-17.77096, 28.64084], [-17.77077, 28.64205], [-17.77087, 28.64671], [-17.77149, 28.64804], [-17.77174, 28.64988], [-17.77183, 28.64993], [-17.7719, 28.65], [-17.77195, 28.65007], [-17.77202, 28.65022], [-17.7721, 28.6505], [-17.77214, 28.65068], [-17.77214, 28.65078], [-17.77215, 28.65087], [-17.77213, 28.65097], [-17.7721, 28.65107], [-17.77201, 28.65132], [-17.77197, 28.65141], [-17.77188, 28.65165], [-17.77168, 28.65214], [-17.77164, 28.65223], [-17.77162, 28.65234], [-17.77163, 28.65242], [-17.77168, 28.65248], [-17.77171, 28.65249], [-17.77177, 28.6525], [-17.77189, 28.6525], [-17.77196, 28.65249], [-17.77215, 28.65247], [-17.77253, 28.65243], [-17.77285, 28.65237], [-17.77293, 28.65237], [-17.77297, 28.65237], [-17.77302, 28.65237], [-17.77308, 28.6524], [-17.77315, 28.65243], [-17.77358, 28.65272], [-17.77397, 28.65302], [-17.77414, 28.65321], [-17.77457, 28.65367], [-17.77464, 28.65375], [-17.77469, 28.65384], [-17.77471, 28.65393], [-17.77471, 28.65402], [-17.77468, 28.65414], [-17.77467, 28.6542], [-17.77467, 28.65425], [-17.77469, 28.65433], [-17.77477, 28.65453], [-17.77482, 28.65462], [-17.77485, 28.65466], [-17.77494, 28.65474], [-17.77514, 28.6549], [-17.7753, 28.65501], [-17.77546, 28.65511], [-17.77545, 28.65515], [-17.77542, 28.6552], [-17.77536, 28.65526], [-17.77532, 28.65529], [-17.77527, 28.65532], [-17.77524, 28.65534], [-17.77521, 28.65536], [-17.77513, 28.65541], [-17.77504, 28.65547], [-17.77497, 28.65551], [-17.77489, 28.65556], [-17.77483, 28.6556], [-17.77478, 28.65564], [-17.77473, 28.65568], [-17.7747, 28.6557], [-17.77465, 28.65573], [-17.77462, 28.65575], [-17.77458, 28.65576], [-17.77453, 28.65579], [-17.7745, 28.65581], [-17.77446, 28.65583], [-17.77443, 28.65585], [-17.77437, 28.65587], [-17.7743, 28.65591], [-17.77425, 28.65594], [-17.7742, 28.65598], [-17.77416, 28.65601], [-17.77413, 28.65603], [-17.7741, 28.65606], [-17.77404, 28.6561], [-17.774, 28.65614], [-17.77397, 28.65617], [-17.77393, 28.65618], [-17.77385, 28.65621], [-17.77381, 28.65623], [-17.77378, 28.65626], [-17.77376, 28.6563], [-17.77373, 28.65634], [-17.77371, 28.65639], [-17.77368, 28.65644], [-17.77366, 28.65649], [-17.77365, 28.65651], [-17.77363, 28.65652], [-17.77361, 28.65654], [-17.77357, 28.65657], [-17.77353, 28.65659], [-17.7735, 28.65662], [-17.77348, 28.65664], [-17.77345, 28.65666], [-17.77342, 28.65668], [-17.77336, 28.65671], [-17.77327, 28.65674], [-17.77321, 28.65676], [-17.77315, 28.65678], [-17.7731, 28.6568], [-17.77305, 28.65682], [-17.77302, 28.65683], [-17.77298, 28.65685], [-17.77294, 28.65687], [-17.77289, 28.65689], [-17.77285, 28.65692], [-17.77282, 28.65694], [-17.77279, 28.65697], [-17.77276, 28.65698], [-17.77274, 28.657], [-17.77271, 28.65701], [-17.77269, 28.65703], [-17.77266, 28.65705], [-17.77263, 28.65707], [-17.7726, 28.65709], [-17.77257, 28.65711], [-17.77254, 28.65712], [-17.77252, 28.65713], [-17.7725, 28.65714], [-17.77248, 28.65716], [-17.77246, 28.65717], [-17.77244, 28.65718], [-17.77239, 28.6572], [-17.77236, 28.65721], [-17.77233, 28.65722], [-17.77231, 28.65723], [-17.77228, 28.65724], [-17.77225, 28.65726], [-17.77221, 28.6573], [-17.77131, 28.65807], [-17.77129, 28.65812], [-17.77128, 28.65815], [-17.77127, 28.65818], [-17.77127, 28.65821], [-17.77127, 28.65824], [-17.77125, 28.65824], [-17.77124, 28.65824], [-17.77116, 28.65831], [-17.77114, 28.65833], [-17.77108, 28.65836], [-17.77097, 28.6584], [-17.77088, 28.65843], [-17.77085, 28.65843], [-17.77079, 28.65845], [-17.7707, 28.65845], [-17.77064, 28.65845], [-17.7706, 28.65846], [-17.77051, 28.65848], [-17.77042, 28.6585], [-17.77036, 28.65855], [-17.77031, 28.65859], [-17.77026, 28.65862], [-17.77021, 28.65864], [-17.77016, 28.65867], [-17.77013, 28.65869], [-17.77008, 28.65872], [-17.77002, 28.65877], [-17.76998, 28.65879], [-17.76993, 28.65883], [-17.76989, 28.65884], [-17.76981, 28.65887], [-17.76971, 28.6589], [-17.76968, 28.65891], [-17.7691, 28.65925], [-17.76907, 28.65931], [-17.76906, 28.65941], [-17.76909, 28.65952], [-17.76913, 28.65964], [-17.76919, 28.65975], [-17.76923, 28.65986], [-17.7693, 28.65997], [-17.76942, 28.66009], [-17.76955, 28.66023], [-17.7696, 28.66034], [-17.76963, 28.66047], [-17.76963, 28.66069], [-17.76957, 28.66083], [-17.76948, 28.66089], [-17.76945, 28.66089], [-17.76936, 28.6609], [-17.76928, 28.6609], [-17.76922, 28.66089], [-17.76915, 28.66088], [-17.7691, 28.66087], [-17.76901, 28.66087], [-17.76897, 28.66088], [-17.76894, 28.66089], [-17.76891, 28.6609], [-17.76888, 28.66091], [-17.76885, 28.66092], [-17.76875, 28.66094], [-17.76868, 28.66096], [-17.76857, 28.66096], [-17.76846, 28.66098], [-17.76839, 28.66098], [-17.76829, 28.66099], [-17.76825, 28.66099], [-17.76822, 28.66099], [-17.7682, 28.66099], [-17.76812, 28.66097], [-17.76791, 28.66118], [-17.76788, 28.66124], [-17.76784, 28.6613], [-17.7678, 28.66136], [-17.76776, 28.66142], [-17.76772, 28.66148], [-17.76771, 28.66149], [-17.76771, 28.66149], [-17.76749, 28.66123], [-17.76725, 28.66097], [-17.76706, 28.66078], [-17.767, 28.66073], [-17.76695, 28.66065], [-17.76684, 28.66055], [-17.76676, 28.66045], [-17.7667, 28.66037], [-17.76655, 28.66013], [-17.76637, 28.65978], [-17.76629, 28.6596], [-17.76624, 28.65949], [-17.7662, 28.65938], [-17.76609, 28.6592], [-17.76602, 28.65901], [-17.76591, 28.65875], [-17.76583, 28.65855], [-17.76578, 28.6584], [-17.7657, 28.65818], [-17.76562, 28.65783], [-17.76557, 28.65757], [-17.76544, 28.65684], [-17.76534, 28.65629], [-17.76521, 28.65583], [-17.76511, 28.65552], [-17.76485, 28.65455], [-17.76473, 28.65416], [-17.76464, 28.6539], [-17.76453, 28.65346], [-17.76448, 28.6533], [-17.76442, 28.65302], [-17.7644, 28.65296], [-17.76436, 28.65285], [-17.76432, 28.65266], [-17.76428, 28.65246], [-17.76417, 28.65212], [-17.76409, 28.65188], [-17.76401, 28.65155], [-17.76398, 28.65145], [-17.76393, 28.65124], [-17.76385, 28.65101], [-17.76381, 28.65087], [-17.76373, 28.65056], [-17.76364, 28.65024], [-17.76352, 28.64983], [-17.76344, 28.64953], [-17.76338, 28.64938], [-17.76328, 28.64912], [-17.76319, 28.64889], [-17.76307, 28.64866], [-17.76265, 28.64787], [-17.76242, 28.64744], [-17.76236, 28.64732], [-17.76204, 28.64663], [-17.76193, 28.64639], [-17.76179, 28.64613], [-17.76167, 28.64589], [-17.76149, 28.64551], [-17.76139, 28.6453], [-17.76103, 28.64459], [-17.76076, 28.64403], [-17.76057, 28.64365], [-17.76053, 28.64354], [-17.76049, 28.64344], [-17.76045, 28.64322], [-17.76041, 28.64283], [-17.76036, 28.64246], [-17.7603, 28.64206], [-17.76022, 28.64149], [-17.76017, 28.64114], [-17.76014, 28.64105], [-17.76012, 28.64097], [-17.75999, 28.64072], [-17.75991, 28.64059], [-17.75963, 28.64028], [-17.75943, 28.64006], [-17.75894, 28.63954], [-17.75883, 28.63942], [-17.75859, 28.63913], [-17.75848, 28.63901], [-17.75839, 28.63884], [-17.75824, 28.63856], [-17.75823, 28.63847], [-17.75819, 28.63824], [-17.75819, 28.63817], [-17.7582, 28.63808], [-17.75821, 28.63798], [-17.75823, 28.63784], [-17.75824, 28.63771], [-17.75829, 28.6377]]]}, "properties": {"cusec": "3800901001", "mun": "009", "nmun": "Breña Baja", "area_m2": 2068592.7520116067, "perimeter_m": 7466.259318702393, "coords_system": "wgs84"}}, {"type": "Feature", "geometry": {"type": "Polygon", "coordinates": [[[854.7925869903315, 1196.6022712342171], [854.7925869903315, 1195.4890712342594], [693.6008370418714, 1185.4702712342432], [520.6860507336305, 1166.5458712341685], [506.03225528399133, 1164.319471234253], [495.28613862048303, 1154.3006712342367], [489.42462044076615, 1149.8478712340097], [483.5631022607023, 1147.621471234094], [479.6554234742244, 1146.5082712341361], [476.7246643840189, 1145.3950712341784], [473.7939052941605, 1145.3950712341784], [465.97854772085765, 1145.3950712341784], [459.1401098445213, 1145.3950712341784], [451.32475227121853, 1144.2818712342205], [443.50939469791564, 1143.1686712342625], [440.5786356077101, 1142.0554712339092], [436.67095682123227, 1139.8290712339935], [429.8325189445489, 1135.3762712341622], [425.92484015807105, 1132.036671233893], [420.0633219780071, 1127.5838712340617], [412.2479644047043, 1120.904671233919], [409.31720531484586, 1118.6782712340032], [395.6403295618262, 1106.4330712340713], [390.75573107838176, 1101.98027123424], [386.84805229190385, 1098.6406712339708], [383.9172932016983, 1096.4142712340551], [380.98653411183994, 1094.1878712341395], [378.05577502198156, 1090.848271234266], [373.1711765385371, 1089.7350712339125], [369.2634977520592, 1088.6218712339546], [363.4019795719953, 1087.508671233997], [358.51738108889793, 1088.6218712339546], [354.609702302073, 1088.6218712339546], [349.7251038189756, 1088.6218712339546], [342.88666594229227, 1088.6218712339546], [338.0020674588478, 1088.6218712339546], [331.16362958251153, 1088.6218712339546], [326.2790310990671, 1088.6218712339546], [322.3713523125892, 1086.395471234039], [319.4405932223837, 1084.1690712341233], [315.5329144359058, 1080.8294712342497], [311.6252356490809, 1079.7162712338964], [305.763717469364, 1078.6030712339384], [300.8791189859196, 1079.7162712338964], [292.08684171599725, 1078.6030712339384], [284.2714841426944, 1076.3766712340228], [278.4099659629776, 1074.150271234107], [269.6176886930553, 1068.5842712339222], [261.8023311197524, 1065.2446712340488], [255.94081293968856, 1058.565471233906], [252.03313415321065, 1055.2258712340326], [246.17161597314677, 1050.773071234201], [234.448579613366, 1048.5466712338898], [224.67938264682425, 1047.433471233932], [212.9563462870435, 1047.433471233932], [197.3256311404378, 1048.5466712338898], [184.6256750840376, 1048.5466712338898], [171.9257190272903, 1049.6598712342434], [163.133441757368, 1051.886271234159], [147.50272661110938, 1055.2258712340326], [132.84893116112315, 1057.4522712339483], [115.26437662127853, 1058.565471233906], [89.86446450813104, 1058.565471233906], [89.86446450813104, 1047.433471233932], [87.9106251148921, 1037.414671233916], [84.00294632841421, 1026.2826712339418], [84.00294632841421, 1018.4902712342368], [82.04910693482819, 1002.9054712340359], [74.23374936187243, 1005.1318712339515], [70.32607057504747, 1006.2450712339094], [63.48763269836409, 1005.1318712339515], [56.64919482202778, 1004.0186712339937], [39.06464028218315, 999.5658712341623], [11.71088877579672, 992.8866712340197], [-7.8275051572868595, 988.4338712341882], [-16.619782427209177, 986.2074712342725], [-23.458220303892553, 985.0942712339191], [-27.365899090717512, 985.0942712339191], [-31.273577877195397, 985.0942712339191], [-36.15817636063983, 985.0942712339191], [-40.065855147117716, 985.0942712339191], [-44.95045363021507, 986.2074712342725], [-52.76581120351792, 990.6602712341039], [-60.58116877682077, 995.1130712339353], [-51.78889150689845, 979.5282712341299], [-49.83505211365951, 972.8490712339873], [-47.881212720420564, 967.2830712341979], [-44.95045363021507, 961.7170712340132], [-42.01969454035666, 952.8114712339549], [-41.04277484373719, 950.5850712340391], [-42.01969454035666, 947.2454712341655], [-43.973533933595604, 946.1322712342077], [-47.881212720420564, 943.9058712338965], [-55.69657029372341, 942.7926712339387], [-57.650409686962355, 943.9058712338965], [-56.67348999034288, 949.4718712340813], [-56.67348999034288, 955.037871234266], [-58.627329383581824, 959.4906712340975], [-63.51192786702626, 966.1698712342401], [-67.41960665350415, 970.6226712340715], [-73.28112483356804, 977.3018712342141], [-81.09648240652382, 981.7546712340456], [-87.93492028320719, 983.9810712339613], [-99.65795664298793, 986.2074712342725], [-132.87322632943827, 987.3206712342303], [-140.6885839027411, 988.4338712341882], [-147.52702177942447, 988.4338712341882], [-157.29621874596626, 990.6602712341039], [-165.11157631926912, 992.8866712340197], [-171.9500141956054, 995.1130712339353], [-278.43426113129266, 979.5282712341299], [-301.88033385120127, 976.1886712342563], [-318.4879686940793, 973.9622712339451], [-339.0032823241295, 977.3018712342141], [-351.7032383805297, 945.0190712342499], [-352.6801580771491, 939.4530712340651], [-353.6570777737686, 904.943871234185], [-355.6109171670075, 900.4910712339581], [-357.56475656059354, 897.1514712340845], [-361.47243534707144, 892.6986712342532], [-363.4262747403104, 891.5854712338999], [-372.21855201023277, 887.1326712340683], [-376.1262307970577, 880.4534712339257], [-382.96466867339393, 852.6234712341884], [-382.96466867339393, 849.2838712339193], [-382.96466867339393, 847.0574712340035], [-364.4031944369299, 712.3602712339616], [-374.17239140347164, 193.60907123422137], [-434.7414125963084, 45.5534712338941], [-459.16440501283637, -159.27532876586582], [-467.9566822827587, -164.8413287660506], [-474.795120159095, -172.6337287657556], [-479.67971864253946, -180.42612876585608], [-486.5181565192229, -197.1241287660149], [-494.33351409217863, -228.29372876602136], [-498.2411928790036, -248.33132876605376], [-498.2411928790036, -259.4633287660278], [-499.2181125756231, -269.482128766044], [-497.2642731823841, -280.6141287660181], [-494.33351409217863, -291.7461287659921], [-485.5412368226033, -319.57612876572955], [-481.63355803577844, -329.59492876574575], [-472.84128076585614, -356.31172876592075], [-453.3028868327725, -410.85852876583317], [-449.3952080462946, -420.87732876584937], [-447.4413686527086, -433.1225287657813], [-448.41828834932807, -442.0281287658396], [-453.3028868327725, -448.70732876598225], [-456.23364592263096, -449.82052876594014], [-462.0951641026948, -450.93372876589797], [-473.8182004624756, -450.93372876589797], [-480.65663833915903, -449.82052876594014], [-499.2181125756231, -447.59412876602437], [-536.3410610485513, -443.1413287657975], [-567.6024913414157, -436.46212876605034], [-575.4178489147184, -436.46212876605034], [-579.3255277015434, -436.46212876605034], [-584.2101261846408, -436.46212876605034], [-590.0716443647046, -439.80172876592394], [-596.9100822413881, -443.1413287657975], [-638.9176291974136, -475.4241287657618], [-677.0174973669613, -508.82012876607945], [-693.6251322101864, -529.9709287660697], [-735.6326791665591, -581.1781287661086], [-742.4711170432424, -590.0837287657714], [-747.3557155263398, -600.1025287657876], [-749.3095549195788, -610.1213287658038], [-749.3095549195788, -620.14012876582], [-746.3787958297204, -633.4985287661052], [-745.4018761331009, -640.1777287658524], [-745.4018761331009, -645.7437287660372], [-747.3557155263398, -654.6493287660956], [-755.1710730996426, -676.9133287660436], [-760.05567158274, -686.9321287660598], [-762.9864306729455, -691.3849287658912], [-771.7787079428679, -700.2905287659496], [-791.3171018759514, -718.1017287660663], [-806.9478170225572, -730.3469287659982], [-822.5785321688157, -741.4789287659722], [-821.6016124721963, -745.9317287658037], [-818.6708533823379, -751.4977287659884], [-812.809335202274, -758.1769287657356], [-808.901656415796, -761.5165287660046], [-804.0170579323517, -764.8561287658782], [-801.0862988424932, -767.082528765794], [-798.1555397526348, -769.3089287661052], [-790.3401821793319, -774.8749287658944], [-781.5479049094096, -781.554128766037], [-774.7094670327263, -786.0069287658685], [-766.8941094594235, -791.5729287660532], [-761.0325912797066, -796.0257287658847], [-756.1479927962621, -800.4785287657161], [-751.2633943131648, -804.931328765943], [-748.3326352229593, -807.1577287658588], [-743.448036739862, -810.4973287657323], [-740.5172776496564, -812.7237287660435], [-736.6095988631786, -813.8369287660014], [-731.7250003797342, -817.176528765875], [-728.7942412898757, -819.4029287657906], [-724.8865625033978, -821.6293287661018], [-721.9558034131924, -823.8557287660176], [-716.0942852334755, -826.0821287659332], [-709.2558473567922, -830.5349287657647], [-704.3712488733478, -833.8745287660338], [-699.4866503902504, -838.3273287658652], [-695.5789716034254, -841.6669287657387], [-692.648212513567, -843.89332876605], [-689.7174534237085, -847.2329287659236], [-683.8559352436447, -851.6857287657549], [-679.9482564571667, -856.1385287659818], [-677.0174973669613, -859.4781287658554], [-673.1098185804834, -860.5913287658133], [-665.2944610071806, -863.9309287660824], [-661.3867822207027, -866.157328765998], [-658.4560231304972, -869.4969287658716], [-656.5021837372583, -873.9497287660986], [-653.5714246473998, -878.40252876593], [-651.6175852541609, -883.9685287657193], [-648.6868261639554, -889.534528765904], [-646.7329867707165, -895.1005287660888], [-645.7560670740969, -897.3269287660046], [-643.8022276808581, -898.4401287659624], [-641.8483882876191, -900.6665287658781], [-637.9407095007942, -904.0061287657517], [-634.0330307143162, -906.2325287660628], [-631.1022716241108, -909.5721287659364], [-629.1484322308719, -911.7985287658521], [-626.2176731410134, -914.0249287657679], [-623.286914051155, -916.251328766079], [-617.4253958710912, -919.5909287659526], [-608.6331186011688, -922.9305287658262], [-602.771600421105, -925.1569287657419], [-596.9100822413881, -927.3833287660532], [-592.0254837579436, -929.6097287659688], [-587.1408852748463, -931.8361287658845], [-584.2101261846408, -932.9493287658424], [-580.3024473981628, -935.1757287657581], [-576.394768611338, -937.4021287660694], [-571.5101701282405, -939.628528765985], [-567.6024913414157, -942.9681287658586], [-564.6717322515572, -945.1945287657743], [-561.7409731616988, -948.5341287660434], [-558.8102140718403, -949.6473287660012], [-556.8563746782544, -951.8737287659169], [-553.9256155883959, -952.9869287658748], [-551.971776195157, -955.2133287657905], [-549.0410171049515, -957.4397287661018], [-546.110258015093, -959.6661287660174], [-543.1794989252347, -961.8925287659331], [-540.2487398353762, -964.1189287658489], [-537.3179807451706, -965.2321287658067], [-535.3641413519318, -966.3453287657646], [-533.4103019586929, -967.4585287657225], [-531.4564625654539, -969.6849287660336], [-529.502623171868, -970.7981287659915], [-527.548783778629, -971.9113287659493], [-522.6641852955316, -974.1377287658651], [-519.733426205326, -975.2509287658229], [-516.8026671154677, -976.3641287657808], [-514.8488277222287, -977.4773287657387], [-511.9180686320233, -978.590528766092], [-508.98730954216484, -980.8169287660077], [-505.079630755687, -985.2697287658391], [-417.15685805646376, -1070.986128765758], [-415.20301866322484, -1076.5521287659428], [-414.2260989666053, -1079.8917287658164], [-413.2491792699859, -1083.2313287660854], [-413.2491792699859, -1086.570928765959], [-413.2491792699859, -1089.9105287658326], [-411.2953398763999, -1089.9105287658326], [-410.3184201797804, -1089.9105287658326], [-402.5030626064776, -1097.702928765933], [-400.5492232132386, -1099.9293287658488], [-394.6877050335218, -1103.2689287657222], [-383.94158837001345, -1107.7217287659491], [-375.14931110009115, -1111.0613287658227], [-372.21855201023277, -1111.0613287658227], [-366.3570338305159, -1113.2877287657384], [-357.56475656059354, -1113.2877287657384], [-351.7032383805297, -1113.2877287657384], [-347.7955595940518, -1114.400928766092], [-339.0032823241295, -1116.6273287660076], [-330.21100505420713, -1118.8537287659233], [-324.3494868741433, -1124.4197287661082], [-319.46488839069883, -1128.8725287659395], [-314.58028990760147, -1132.212128765813], [-309.695691424157, -1134.4385287657287], [-304.81109294105966, -1137.7781287659977], [-301.88033385120127, -1140.0045287659136], [-296.9957353677568, -1143.344128765787], [-291.1342171876929, -1148.9101287659719], [-287.226538401215, -1151.1365287658875], [-282.34193991777056, -1155.589328765719], [-278.43426113129266, -1156.7025287660724], [-270.6189035579899, -1160.042128765946], [-260.84970659144807, -1163.3817287658194], [-257.9189475015896, -1164.4949287657773], [-201.25760509557787, -1202.3437287659265], [-198.32684600537237, -1209.022928766069], [-197.3499263087529, -1220.1549287660432], [-200.28068539861133, -1232.400128765975], [-204.18836418543628, -1245.7585287658649], [-210.0498823651531, -1258.0037287657967], [-213.95756115197807, -1270.2489287657286], [-220.79599902866144, -1282.494128766056], [-232.5190353884422, -1295.8525287659459], [-245.2189914448424, -1311.4373287657513], [-250.10358992828682, -1323.6825287660786], [-253.03434901814524, -1338.1541287659263], [-253.03434901814524, -1362.6445287657903], [-247.17283083842838, -1378.229328765991], [-238.3805535685061, -1384.9085287657383], [-235.4497944783006, -1384.9085287657383], [-226.65751720837827, -1386.0217287660917], [-218.84215963507543, -1386.0217287660917], [-212.98064145535858, -1384.9085287657383], [-206.1422035786752, -1383.7953287657804], [-201.25760509557787, -1382.6821287658227], [-192.46532782565555, -1382.6821287658227], [-188.5576490388306, -1383.7953287657804], [-185.62688994897218, -1384.9085287657383], [-182.69613085911377, -1386.0217287660917], [-179.76537176890827, -1387.1349287660494], [-176.83461267904985, -1388.2481287660073], [-167.06541571250807, -1390.474528765923], [-160.22697783582467, -1392.7009287658389], [-149.48086117266342, -1392.7009287658389], [-138.73474450950215, -1394.9273287657545], [-131.89630663281878, -1394.9273287657545], [-122.127109666277, -1396.0405287661079], [-118.21943087945203, -1396.0405287661079], [-115.28867178959362, -1396.0405287661079], [-113.33483239635467, -1396.0405287661079], [-105.51947482305184, -1393.8141287657966], [-85.00416119334878, -1417.191328766098], [-82.07340210349037, -1423.8705287658452], [-78.1657233166654, -1430.5497287659878], [-74.25804453018752, -1437.228928765735], [-70.35036574336256, -1443.9081287658776], [-66.44268695688467, -1450.5873287660202], [-65.4657672602652, -1451.700528765978], [-65.4657672602652, -1451.700528765978], [-43.973533933595604, -1422.7573287658875], [-20.527461214034137, -1393.8141287657966], [-1.9659869775700283, -1372.6633287658065], [3.8955312024938746, -1367.097328766017], [8.780129685591234, -1358.1917287659587], [19.526246349099566, -1347.0597287659846], [27.34160392205534, -1335.9277287660107], [33.203122102119245, -1327.0221287659522], [47.856917552105465, -1300.3053287657772], [65.4414720919501, -1261.3433287660657], [73.25682966490588, -1241.3057287660333], [78.1414281483503, -1229.0605287661015], [82.04910693482819, -1216.815328765774], [92.79522359833653, -1196.7777287657416], [99.63366147467283, -1175.6269287657515], [110.3797781378341, -1146.6837287660562], [118.19513571113694, -1124.4197287661082], [123.07973419458138, -1107.7217287659491], [130.89509176788422, -1083.2313287660854], [138.71044934118706, -1044.2693287659786], [143.59504782428442, -1015.3261287658877], [156.29500388068462, -934.0625287658003], [166.0642008475735, -872.8365287657452], [178.76415690397369, -821.6293287661018], [188.5333538705155, -787.1201287658264], [213.93326598366298, -679.1397287659594], [225.6563023434437, -635.724928766021], [234.448579613366, -606.7817287659302], [245.19469627652728, -557.8009287658072], [250.0792947599717, -539.9897287660859], [255.94081293968856, -508.82012876607945], [257.8946523332745, -502.1409287659368], [261.8023311197524, -489.89572876600494], [265.7100099062303, -468.74492876601465], [269.6176886930553, -446.48092876606654], [280.3638053562166, -408.63212876591746], [288.17916292951935, -381.9153287657424], [295.99452050282224, -345.1797287659467], [298.9252795926807, -334.04772876597264], [303.80987807612513, -310.6705287660667], [311.6252356490809, -285.0669287658495], [315.5329144359058, -269.482128766044], [323.34827200920864, -234.9729287657685], [332.140549279131, -199.35052876593062], [343.86358563891173, -153.70932876607654], [351.6789432122146, -120.31332876575888], [357.5404613919314, -103.61532876599554], [367.3096583584732, -74.6721287659048], [376.1019356283955, -49.06852876608312], [387.8249719885233, -23.46492876586595], [428.85559924792943, 64.47787123396864], [451.32475227121853, 112.34547123413392], [457.1862704509353, 125.7038712340237], [488.4477007441467, 202.51467123427972], [499.1938174073079, 229.23147123405926], [512.8706931603276, 258.17467123414997], [524.5937295204554, 284.89147123392956], [542.1782840603, 327.19307123391], [551.9474810268418, 350.57027123421153], [587.116590106184, 429.6074712339878], [613.4934219159511, 491.94667123400063], [632.0548961524152, 534.2482712339812], [635.9625749392401, 546.493471233913], [639.870253725718, 557.6254712342826], [643.777932512543, 582.1158712341464], [647.6856112990208, 625.5306712340848], [652.5702097824653, 666.7190712341074], [658.4317279621821, 711.2470712340037], [666.247085535485, 774.6994712339745], [671.1316840189294, 813.6614712340814], [674.0624431087878, 823.6802712340976], [676.0162825020267, 832.585871234156], [688.7162385587741, 860.4158712338933], [696.5315961317298, 874.8874712341365], [723.8853476381162, 909.3966712340165], [743.4237415715469, 933.8870712342758], [791.2928067076363, 991.7734712340618], [802.0389233707976, 1005.1318712339515], [825.484996090359, 1037.414671233916], [836.2311127538675, 1050.773071234201], [845.0233900237897, 1069.6974712342758], [859.6771854734288, 1100.867071234282], [860.6541051700483, 1110.885871233903], [864.5617839568733, 1136.48947123412], [864.5617839568733, 1144.2818712342205], [863.5848642602539, 1154.3006712342367], [862.6079445636344, 1165.4326712342108], [860.6541051700483, 1181.0174712340163], [859.6771854734288, 1195.4890712342594], [854.7925869903315, 1196.6022712342171]]]}, "properties": {"cusec": "3800901001", "mun": "009", "nmun": "Breña Baja", "area_m2": 2068592.7520116067, "perimeter_m": 7466.259318702393, "coords_system": "local_m_enu"}}]}