{"type": "FeatureCollection", "crs": {"type": "name", "properties": {"name": "EPSG:32628_local_enu_m_section_centroid", "lng0": -15.41535410141685, "lat0": 28.034477255779258}}, "features": [{"type": "Feature", "geometry": {"type": "Polygon", "coordinates": [[[-53.112929683691846, -65.81684565418944], [-45.428384246697895, -62.08567146211505], [-45.428384246697895, -62.95532853530069], [-34.152152200127475, -55.65520712757061], [-23.407755171455126, -51.09045244199374], [-14.18317961278611, -46.60012002501233], [-11.07869132376242, -52.46208072823884], [-8.130943515672437, -58.028080728106985], [-5.043681600242643, -63.8575142269554], [-8.26034374925911, -66.28702213434326], [-18.107262364887077, -70.74938072746527], [-22.047436677101572, -72.98135696626142], [-22.062202523411898, -72.98693320316539], [-31.8634188039464, -77.42858072760785], [-31.92998220026832, -77.46628665308012], [-31.946623049348066, -77.46628665308012], [-41.668152244081654, -81.87182213415501], [-44.937548550095485, -84.3411595430784], [-48.06914032589963, -77.24539384373169], [-50.02749965159326, -71.6986703541904], [-51.98585897711298, -68.37063626070206], [-53.112929683691846, -65.81684565418944]]]}, "properties": {"id": 0, "height_median_m": 8.1, "building_count": 1, "area_m2": 880.6843418718471}}, {"type": "Feature", "geometry": {"type": "Polygon", "coordinates": [[[15.64750837718423, -52.41234858241347], [23.195084216783943, -49.9692355045886], [25.28271720336557, -54.69953102228024], [28.21660297556349, -60.23935643092694], [31.37561838338337, -65.0112924046962], [23.81133236187608, -68.6840755266474], [23.62443018796553, -68.2605803428196], [13.064970510018712, -74.24215913312594], [9.927532099263473, -69.50281687497245], [6.965922254774959, -63.91064228364822], [4.867832831485465, -59.15665388782849], [15.872757982807249, -52.922733887969706], [15.64750837718423, -52.41234858241347]]]}, "properties": {"id": 1, "height_median_m": 7.3, "building_count": 1, "area_m2": 356.07268990446}}, {"type": "Feature", "geometry": {"type": "Polygon", "coordinates": [[[37.57286671102944, -21.148280173883006], [44.45445602305055, -16.693207127459583], [57.042789046160436, -11.345056645799815], [57.042789046160436, -11.195536011712706], [60.19157175193337, -10.006416339430421], [64.41165184608069, -7.615882888472635], [67.52791689931784, -13.500080728354687], [70.47566470759075, -19.066080728172754], [73.56292662293407, -24.89551422727208], [70.34626447389876, -27.325022134242612], [60.49934585829668, -31.787380727352886], [56.55917154608276, -34.019356966545175], [56.544405694523704, -34.02493320543131], [51.78516829279029, -36.18169155241582], [46.65998517382366, -38.504286652973185], [36.93845597910385, -42.90982213404183], [33.66905967308398, -45.379159543408434], [30.533694714658882, -38.27484431939403], [29.566643987696832, -34.98803403187277], [27.607913801708758, -32.76892447624748], [25.51602328111471, -26.843996330056207], [32.67952732137173, -23.36580993428184], [37.57286671102944, -21.148280173883006]]]}, "properties": {"id": 2, "height_median_m": 7.2, "building_count": 1, "area_m2": 884.2092014712074}}, {"type": "Feature", "geometry": {"type": "Polygon", "coordinates": [[[83.42736092138539, -19.042754246460408], [89.92047380303848, -16.59066752482158], [90.90305640596559, -17.70386752477946], [96.22664966495947, -15.69344315980801], [95.2440670622157, -13.467043159912217], [101.74666423381576, -11.011374750306553], [104.99668167266925, -15.920776297842995], [103.98483136723173, -17.06713463618003], [105.76744028832435, -21.106286652814354], [106.73261282230956, -21.106286652814354], [109.97407837319915, -27.22689073069382], [97.479961572906, -31.27117472324613], [98.1267540274284, -32.73671941833429], [91.64239556359406, -36.40989041751144], [88.4128341029381, -30.311763895565754], [89.37808724576148, -29.21819700812018], [86.56897511693019, -24.974816875075568], [83.42736092138539, -19.042754246460408]]]}, "properties": {"id": 3, "height_median_m": 8.2, "building_count": 1, "area_m2": 346.6991592989026}}, {"type": "Feature", "geometry": {"type": "Polygon", "coordinates": [[[115.99774521358287, 17.731364805739137], [115.99774521358287, 18.838048715686618], [123.07295078392868, 22.27336244289024], [132.25163738263686, 26.73000582290259], [143.08348523587736, 31.331913971725648], [145.1640568383787, 25.439044757745087], [148.0996903279546, 19.895919271643205], [151.16073454385497, 14.115990589712194], [148.98574644404255, 11.651875363550186], [139.10595408494729, 7.174619274330612], [135.16577976924185, 4.9426430335569895], [135.15101392293138, 4.937066796652951], [125.34979763890611, 0.49541927062853935], [125.11646577024946, 0.3632446140451756], [125.09979920820372, 0.38212670784232106], [115.49936186194311, -3.96853320538409], [112.25248441517455, -5.194697792214299], [109.14825085021862, 0.666781936382592], [107.18308564453899, 6.232781936171803], [104.07780512224376, 12.096238551846517], [111.28613554455407, 15.59619006583026], [115.99774521358287, 17.731364805739137]]]}, "properties": {"id": 4, "height_median_m": 7.3, "building_count": 1, "area_m2": 872.9511469441356}}, {"type": "Feature", "geometry": {"type": "Polygon", "coordinates": [[[155.17742197557666, 26.54527341590061], [156.9004431731175, 27.52130697867687], [150.27615072112948, 41.03008700995543], [175.43274808093653, 54.71043873672675], [181.81025253542384, 43.87251334707212], [179.3345496346671, 43.87251334707212], [186.59045072755393, 30.719796702781252], [173.49971528260414, 23.874755424008633], [160.42283255095575, 17.03695761875915], [155.17742197557666, 26.54527341590061]]]}, "properties": {"id": 5, "height_median_m": 4.0, "building_count": 1, "area_m2": 760.9945272472262}}]}