{"type": "FeatureCollection", "crs": {"type": "name", "properties": {"name": "EPSG:32628_local_enu_m_section_centroid", "lng0": -16.271195573088907, "lat0": 28.47155382932442}}, "features": [{"type": "Feature", "geometry": {"type": "LineString", "coordinates": [[-97.57796586611737, 348.85788039471504], [-96.038787172589, 345.1843203944982]]}, "properties": {"osm_id": null, "type": "pedestrian", "width_m": 4, "extrude": false}}, {"type": "Feature", "geometry": {"type": "LineString", "coordinates": [[-138.4833731887269, 342.45294133613174], [-136.35557476824212, 336.9466403943355], [-131.85418586183178, 325.59200039452804]]}, "properties": {"osm_id": null, "type": "pedestrian", "width_m": 4, "extrude": false}}, {"type": "Feature", "geometry": {"type": "LineString", "coordinates": [[-5.254146863228934, 348.85788039471504], [-8.457416060843874, 340.1749203944901]]}, "properties": {"osm_id": null, "type": "tertiary", "width_m": 7, "extrude": false}}, {"type": "Feature", "geometry": {"type": "LineString", "coordinates": [[-8.457416060843874, 340.1749203944901], [-12.240235681268844, 348.85788039471504]]}, "properties": {"osm_id": null, "type": "residential", "width_m": 5, "extrude": false}}, {"type": "Feature", "geometry": {"type": "LineString", "coordinates": [[-171.5101019174308, 320.1737976369948], [-170.0181352847783, 316.90904039469854], [-165.1253212563737, 305.9996803945579]]}, "properties": {"osm_id": null, "type": "pedestrian", "width_m": 4, "extrude": false}}, {"type": "Feature", "geometry": {"type": "LineString", "coordinates": [[-191.13739651535494, 292.44716736856105], [-165.1253212563737, 305.9996803945579], [-131.85418586183178, 325.59200039452804], [-96.038787172589, 345.1843203944982], [-89.288472299739, 348.85788039471504]]}, "properties": {"osm_id": null, "type": "residential", "width_m": 5, "extrude": false}}, {"type": "Feature", "geometry": {"type": "LineString", "coordinates": [[168.2710266516663, 214.82860039456867], [204.08642534125673, 227.10031517744156]]}, "properties": {"osm_id": null, "type": "tertiary", "width_m": 7, "extrude": false}}, {"type": "Feature", "geometry": {"type": "LineString", "coordinates": [[186.08086971596296, 120.31792039470588], [186.17872599628768, 123.99148039452726], [162.00822469523888, 155.1610803945337], [159.17039255852086, 160.05916039442738], [158.09397347216753, 166.0704403946744], [157.3111232278314, 185.4401203944157], [158.58325487518184, 205.92300039451032], [159.56181768086276, 212.3795603944241], [162.30179353690838, 260.46980039442275], [160.44252420587128, 266.14712039432646]]}, "properties": {"osm_id": null, "type": "residential", "width_m": 5, "extrude": false}}, {"type": "Feature", "geometry": {"type": "LineString", "coordinates": [[160.44252420587128, 266.14712039432646], [121.42667893138153, 347.37603810224255]]}, "properties": {"osm_id": null, "type": "residential", "width_m": 5, "extrude": false}}, {"type": "Feature", "geometry": {"type": "LineString", "coordinates": [[76.80666275616896, 348.85788039471504], [126.68210740866273, 244.88500039461726], [143.806956508948, 206.70224039452037]]}, "properties": {"osm_id": null, "type": "residential", "width_m": 5, "extrude": false}}, {"type": "Feature", "geometry": {"type": "LineString", "coordinates": [[8.253425698803683, 348.85788039471504], [-8.457416060843874, 340.1749203944901], [-43.392108225078125, 323.9222003943935], [-75.48896825259435, 309.00532039448365], [-80.28392600067421, 306.77892039456793], [-115.61004328690271, 289.85828039457573], [-149.37046008445893, 273.93952039442695], [-189.19796627709778, 254.45852039457122], [-203.54962507951933, 247.37088023382796]]}, "properties": {"osm_id": null, "type": "residential", "width_m": 5, "extrude": false}}, {"type": "Feature", "geometry": {"type": "LineString", "coordinates": [[-8.457416060843874, 340.1749203944901], [-2.096757823744062, 328.70896039456824], [-0.9224824567183643, 326.37124039453806], [34.40363482951013, 254.79248039451903], [62.6840999146274, 194.45704039458846]]}, "properties": {"osm_id": null, "type": "tertiary", "width_m": 7, "extrude": false}}, {"type": "Feature", "geometry": {"type": "LineString", "coordinates": [[62.6840999146274, 194.45704039458846], [92.53026548911228, 221.73044039454467], [126.68210740866273, 244.88500039461726], [160.44252420587128, 266.14712039432646], [188.0379953273248, 297.984640394624], [188.16178260320766, 298.30760514631237]]}, "properties": {"osm_id": null, "type": "residential", "width_m": 5, "extrude": false}}, {"type": "Feature", "geometry": {"type": "LineString", "coordinates": [[156.0389915801333, 92.04264039451076], [107.8937015390328, 193.45516039434955], [92.53026548911228, 221.73044039454467], [32.53047673204249, 348.85788039471504]]}, "properties": {"osm_id": null, "type": "residential", "width_m": 5, "extrude": false}}, {"type": "Feature", "geometry": {"type": "LineString", "coordinates": [[168.2710266516663, 214.82860039456867], [159.56181768086276, 212.3795603944241], [143.806956508948, 206.70224039452037], [107.8937015390328, 193.45516039434955], [82.059643467944, 184.77220039452007]]}, "properties": {"osm_id": null, "type": "tertiary", "width_m": 7, "extrude": false}}, {"type": "Feature", "geometry": {"type": "LineString", "coordinates": [[94.29167853947699, 33.04304039437142], [32.05508409580639, 165.51384039449772], [-28.224384736502373, 290.52620039447135], [-43.392108225078125, 323.9222003943935], [-55.11951188898316, 348.85788039471504]]}, "properties": {"osm_id": null, "type": "residential", "width_m": 5, "extrude": false}}, {"type": "Feature", "geometry": {"type": "LineString", "coordinates": [[62.6840999146274, 194.45704039458846], [67.18548882103777, 190.00424039436155], [70.3168897994253, 187.77784039444583], [73.44829077781284, 186.21936039442573], [82.059643467944, 184.77220039452007]]}, "properties": {"osm_id": null, "type": "tertiary", "width_m": 7, "extrude": false}}, {"type": "Feature", "geometry": {"type": "LineString", "coordinates": [[62.6840999146274, 194.45704039458846], [38.22002977190908, 169.8553203946102]]}, "properties": {"osm_id": null, "type": "tertiary", "width_m": 7, "extrude": false}}, {"type": "Feature", "geometry": {"type": "LineString", "coordinates": [[82.059643467944, 184.77220039452007], [69.72975211608629, 180.54204039452202], [38.22002977190908, 169.8553203946102]]}, "properties": {"osm_id": null, "type": "tertiary", "width_m": 7, "extrude": false}}, {"type": "Feature", "geometry": {"type": "LineString", "coordinates": [[-136.25771848756975, 4.32248039450954], [-125.00424622206533, 32.48644039459023], [-114.63148048122179, 56.64288039450625], [-109.73866645281718, 70.55788039457269], [-106.02012779109063, 81.46724039471337], [-85.86173399309023, 137.68384039436484], [-66.19262159810413, 184.10428039462445], [-47.11064688680469, 239.3190003944325], [-28.224384736502373, 290.52620039447135], [-17.655906434661713, 316.57508039435527], [-14.622361736946562, 324.03352039450795], [-9.338122586200061, 337.0579603944499], [-8.457416060843874, 340.1749203944901]]}, "properties": {"osm_id": null, "type": "tertiary", "width_m": 7, "extrude": false}}, {"type": "Feature", "geometry": {"type": "LineString", "coordinates": [[-198.0624412809878, 275.25141682407764], [-189.19796627709778, 254.45852039457122], [-106.02012779109063, 81.46724039471337], [-92.2223922305377, 50.74292039437367]]}, "properties": {"osm_id": null, "type": "residential", "width_m": 5, "extrude": false}}, {"type": "Feature", "geometry": {"type": "LineString", "coordinates": [[-80.28392600067421, 306.77892039456793], [-47.11064688680469, 239.3190003944325], [1.034643154643477, 138.01780039470813], [63.4669501593112, 6.994160394487494]]}, "properties": {"osm_id": null, "type": "residential", "width_m": 5, "extrude": false}}, {"type": "Feature", "geometry": {"type": "LineString", "coordinates": [[43.797837764325095, -52.005439605651844], [31.07652129012547, -24.064119605404528], [-30.866504311875623, 107.62744039471173], [-66.19262159810413, 184.10428039462445], [-115.61004328690271, 289.85828039457573], [-131.85418586183178, 325.59200039452804]]}, "properties": {"osm_id": null, "type": "residential", "width_m": 5, "extrude": false}}, {"type": "Feature", "geometry": {"type": "LineString", "coordinates": [[-149.37046008445893, 273.93952039442695], [-85.86173399309023, 137.68384039436484], [-59.929819641676694, 81.91252039438012], [2.0132059603243975, -53.1186396056097], [5.438175780381447, -58.1280396056178], [23.737300247344738, -96.53343960554807], [27.94512031173793, -102.98999960546183]]}, "properties": {"osm_id": null, "type": "residential", "width_m": 5, "extrude": false}}, {"type": "Feature", "geometry": {"type": "LineString", "coordinates": [[-203.97426464333162, 6.02567639463885], [-180.19518846427707, 16.345040394608077], [-176.67236236389527, 18.57144039452379]]}, "properties": {"osm_id": null, "type": "residential", "width_m": 5, "extrude": false}}, {"type": "Feature", "geometry": {"type": "LineString", "coordinates": [[62.6840999146274, 194.45704039458846], [69.72975211608629, 180.54204039452202], [124.92069435829801, 62.320200394409966]]}, "properties": {"osm_id": null, "type": "residential", "width_m": 5, "extrude": false}}, {"type": "Feature", "geometry": {"type": "LineString", "coordinates": [[-141.4441013579915, 16.45636039432702], [-141.4441013579915, 30.148720394560087], [-203.97426464333162, 165.8334025395162]]}, "properties": {"osm_id": null, "type": "residential", "width_m": 5, "extrude": false}}, {"type": "Feature", "geometry": {"type": "LineString", "coordinates": [[38.22002977190908, 169.8553203946102], [32.05508409580639, 165.51384039449772], [1.034643154643477, 138.01780039470813], [-30.866504311875623, 107.62744039471173], [-59.929819641676694, 81.91252039438012], [-92.2223922305377, 50.74292039437367]]}, "properties": {"osm_id": null, "type": "tertiary", "width_m": 7, "extrude": false}}, {"type": "Feature", "geometry": {"type": "LineString", "coordinates": [[-149.95759776779795, 28.812880394373366], [-156.31825600489776, 34.267560394443706], [-175.88951211921147, 48.850480394405764], [-192.42722353581004, 62.320200394409966], [-203.97426464333162, 71.79517482080982]]}, "properties": {"osm_id": null, "type": "residential", "width_m": 5, "extrude": false}}, {"type": "Feature", "geometry": {"type": "LineString", "coordinates": [[158.58325487518184, 205.92300039451032], [161.8125121338941, 202.91736039458456], [162.5953623785779, 177.3137603943674], [165.23748195395115, 170.85720039445363], [172.38099043573476, 164.1780003947065], [198.0193359454788, 145.25360039463195], [202.32501229089203, 140.91212039451946], [204.08642534125673, 137.96541451178953]]}, "properties": {"osm_id": null, "type": "residential", "width_m": 5, "extrude": false}}, {"type": "Feature", "geometry": {"type": "LineString", "coordinates": [[204.08642534125673, 108.59221372877315], [203.20571881590055, 105.51236039451496], [200.66145552085203, 98.94448039448676], [173.16384068041856, 45.06560039446995], [165.13962567362643, 29.592120394383414], [160.44252420587128, 21.688400394563985], [154.96257249412767, 14.78656039458798], [147.81906401234406, 8.552640394507591], [136.56559174649198, 0.8715603945215378], [128.93280186204174, -3.024639605528705], [122.08286222192764, -6.030279605454467], [115.33077886248593, -9.258559605609094], [110.14439599206416, -12.598159605482664], [104.17516287730625, -20.947159605364334], [97.12951067619503, -37.53383960540873], [89.88814591373902, -60.465759605647946], [88.71387054706098, -83.84295960555392]]}, "properties": {"osm_id": null, "type": "residential", "width_m": 5, "extrude": false}}, {"type": "Feature", "geometry": {"type": "LineString", "coordinates": [[-114.63148048122179, 56.64288039450625], [-109.05367248880577, 59.314560394484204], [-103.37800821571737, 59.09192039465083], [-98.5830504676375, 56.08628039432958], [-92.2223922305377, 50.74292039437367]]}, "properties": {"osm_id": null, "type": "residential", "width_m": 5, "extrude": false}}, {"type": "Feature", "geometry": {"type": "LineString", "coordinates": [[-92.2223922305377, 50.74292039437367], [-77.64180642530097, 20.463880394491696]]}, "properties": {"osm_id": null, "type": "tertiary", "width_m": 7, "extrude": false}}, {"type": "Feature", "geometry": {"type": "LineString", "coordinates": [[-149.95759776779795, 28.812880394373366], [-141.4441013579915, 30.148720394560087], [-125.00424622206533, 32.48644039459023]]}, "properties": {"osm_id": null, "type": "residential", "width_m": 5, "extrude": false}}, {"type": "Feature", "geometry": {"type": "LineString", "coordinates": [[-34.193617851260285, -70.0392796056019], [2.0132059603243975, -53.1186396056097], [31.07652129012547, -24.064119605404528], [63.4669501593112, 6.994160394487494], [94.29167853947699, 33.04304039437142], [124.92069435829801, 62.320200394409966], [156.0389915801333, 92.04264039451076], [186.08086971596296, 120.31792039470588]]}, "properties": {"osm_id": null, "type": "residential", "width_m": 5, "extrude": false}}, {"type": "Feature", "geometry": {"type": "LineString", "coordinates": [[-136.25771848756975, 4.32248039450954], [-141.4441013579915, 16.45636039432702], [-144.96692745872096, 22.133680394626225], [-149.95759776779795, 28.812880394373366]]}, "properties": {"osm_id": null, "type": "residential", "width_m": 5, "extrude": false}}, {"type": "Feature", "geometry": {"type": "LineString", "coordinates": [[-152.3061485015017, -34.97347960554521], [-153.6761364295245, -30.298039605484917], [-158.86251929959863, -19.833959605406477], [-163.75533332835087, -9.03591960538023], [-169.8224227237812, 3.5432403944994917], [-174.32381163019153, 13.005440394339018], [-176.67236236389527, 18.57144039452379], [-190.1765290827787, 51.74480039461258], [-192.42722353581004, 62.320200394409966]]}, "properties": {"osm_id": null, "type": "residential", "width_m": 5, "extrude": false}}, {"type": "Feature", "geometry": {"type": "LineString", "coordinates": [[-77.64180642530097, 20.463880394491696], [-78.1310878279676, 13.450720394401259], [-81.55605764802465, 9.554520394351016], [-120.11143219331308, -13.26607960537828], [-125.78709646640148, -14.156639605502761]]}, "properties": {"osm_id": null, "type": "tertiary", "width_m": 7, "extrude": false}}, {"type": "Feature", "geometry": {"type": "LineString", "coordinates": [[-169.8224227237812, 3.5432403944994917], [-156.70968112723966, 9.77716039457988], [-154.0675615518664, 9.443200394632072], [-150.25116660946745, 2.0960803945938267], [-150.7404480121341, -3.5812396053098894]]}, "properties": {"osm_id": null, "type": "service", "width_m": 3.5, "extrude": false}}, {"type": "Feature", "geometry": {"type": "LineString", "coordinates": [[-125.78709646640148, -14.156639605502761], [-129.21206628645854, -12.598159605482664], [-136.25771848756975, 4.32248039450954]]}, "properties": {"osm_id": null, "type": "tertiary", "width_m": 7, "extrude": false}}, {"type": "Feature", "geometry": {"type": "LineString", "coordinates": [[-163.75533332835087, -9.03591960538023], [-150.7404480121341, -3.5812396053098894], [-146.141202825399, -3.5812396053098894], [-139.48697574662967, -5.1397196053299865]]}, "properties": {"osm_id": null, "type": "service", "width_m": 3.5, "extrude": false}}, {"type": "Feature", "geometry": {"type": "LineString", "coordinates": [[-148.78332240077225, -32.85839960534844], [-142.9119455666867, -15.38115960557505], [-139.48697574662967, -5.1397196053299865], [-136.25771848756975, 4.32248039450954]]}, "properties": {"osm_id": null, "type": "residential", "width_m": 5, "extrude": false}}, {"type": "Feature", "geometry": {"type": "LineString", "coordinates": [[110.14439599206416, -12.598159605482664], [121.10429941624672, -24.95467960552901]]}, "properties": {"osm_id": null, "type": "footway", "width_m": 2, "extrude": false}}, {"type": "Feature", "geometry": {"type": "LineString", "coordinates": [[158.58325487518184, -20.501879605302094], [144.88337559495363, -35.307439605493016], [141.94768717791086, -44.6583196056136], [138.81628619952332, -54.6771196056298], [132.0642028400816, -78.38827960548358], [123.45285014995045, -86.51463960553187]]}, "properties": {"osm_id": null, "type": "footway", "width_m": 2, "extrude": false}}, {"type": "Feature", "geometry": {"type": "LineString", "coordinates": [[121.10429941624672, -24.95467960552901], [116.11362910682207, -30.186719605370484], [114.64578489847452, -48.33187960543498], [112.98222812878218, -62.35819960561585], [112.3950904450955, -75.49395960567225], [112.19937788409838, -76.94111960557791], [111.22081507841747, -84.51087960544953], [112.19937788409838, -87.62783960548973], [123.45285014995045, -86.51463960553187]]}, "properties": {"osm_id": null, "type": "footway", "width_m": 2, "extrude": false}}, {"type": "Feature", "geometry": {"type": "LineString", "coordinates": [[-203.97426464333162, -65.89312410968716], [-152.3061485015017, -34.97347960554521], [-148.78332240077225, -32.85839960534844]]}, "properties": {"osm_id": null, "type": "residential", "width_m": 5, "extrude": false}}, {"type": "Feature", "geometry": {"type": "LineString", "coordinates": [[-77.64180642530097, 20.463880394491696], [-62.08265781438332, -11.707599605358183], [-34.193617851260285, -70.0392796056019], [1.426068276985376, -148.85383960554478]]}, "properties": {"osm_id": null, "type": "residential", "width_m": 5, "extrude": false}}, {"type": "Feature", "geometry": {"type": "LineString", "coordinates": [[63.4669501593112, 6.994160394487494], [56.32344167752759, -9.369879605328038], [43.797837764325095, -52.005439605651844], [30.68509616778357, -93.19383960527901], [27.94512031173793, -102.98999960546183], [25.30300073636468, -107.55411960540769], [1.426068276985376, -148.85383960554478]]}, "properties": {"osm_id": null, "type": "residential", "width_m": 5, "extrude": false}}, {"type": "Feature", "geometry": {"type": "LineString", "coordinates": [[123.45285014995045, -86.51463960553187], [120.4193054522353, -91.07875960547773], [116.89647935150587, -101.09755960549393], [114.15650349546023, -112.00691960563461], [112.3950904450955, -119.7993196053396], [110.92724623674796, -123.69551960538985], [109.45940202805275, -123.80683960550428], [108.08941410002993, -113.67671960537365], [107.79584525836042, -102.65603960551402], [107.60013269736329, -93.63911960534125], [110.14439599206416, -86.06935960546963], [112.19937788409838, -76.94111960557791], [112.3950904450955, -75.49395960567225], [112.98222812878218, -62.35819960561585], [114.64578489847452, -48.33187960543498], [116.11362910682207, -30.186719605370484], [121.10429941624672, -24.95467960552901], [122.86571246661144, -25.733919605539057], [122.18071850260003, -29.852759605422676], [119.7343114882239, -35.641399605440824], [119.44074264655438, -47.4413196053105], [117.97289843785917, -60.354439605533514], [117.58147331551727, -76.94111960557791], [117.19004819317537, -83.06371960554387], [122.76785618593905, -83.95427960566835], [123.45285014995045, -86.51463960553187]]}, "properties": {"osm_id": null, "type": "pedestrian", "width_m": 4, "extrude": false}}, {"type": "Feature", "geometry": {"type": "LineString", "coordinates": [[-202.7021329959812, -135.94071960532176], [-203.97426464333162, -132.99001674834557]]}, "properties": {"osm_id": null, "type": "residential", "width_m": 5, "extrude": false}}, {"type": "Feature", "geometry": {"type": "LineString", "coordinates": [[88.71387054706098, -83.84295960555392], [88.71387054706098, -92.74855960561226], [90.57313987775044, -107.8880796053555], [92.23669664744277, -126.92379960554447], [92.82383433078179, -132.935079605396], [93.31311573379608, -142.73123960557882], [90.57313987775044, -151.52551960552273], [84.70176304331726, -160.65375960541445]]}, "properties": {"osm_id": null, "type": "footway", "width_m": 2, "extrude": false}}, {"type": "Feature", "geometry": {"type": "LineString", "coordinates": [[-203.97426464333162, -135.88104290427026], [-202.7021329959812, -135.94071960532176]]}, "properties": {"osm_id": null, "type": "residential", "width_m": 5, "extrude": false}}, {"type": "Feature", "geometry": {"type": "LineString", "coordinates": [[164.454631709615, -89.96555960551987], [175.1209662917804, -70.0392796056019], [180.4052054425269, -61.80159960543918], [189.01655813300573, -52.11675960537079], [192.14795911139325, -51.33751960536074], [204.08642534125673, -40.764360947682974]]}, "properties": {"osm_id": null, "type": "footway", "width_m": 2, "extrude": false}}, {"type": "Feature", "geometry": {"type": "LineString", "coordinates": [[138.81628619952332, -54.6771196056298], [155.1582850551248, -52.11675960537079], [155.74542273846382, -56.12427960553546], [149.48262078203638, -74.26943960559996], [149.384764501364, -88.74103960544758], [151.04832127105632, -88.40707960549977], [159.65967396153513, -72.26567960551762], [165.43319451529592, -64.58459960553157], [175.1209662917804, -70.0392796056019]]}, "properties": {"osm_id": null, "type": "footway", "width_m": 2, "extrude": false}}, {"type": "Feature", "geometry": {"type": "LineString", "coordinates": [[164.454631709615, -89.96555960551987], [162.9867875009198, -92.63723960549783], [170.032439702031, -96.08815960548583], [169.5431582993644, -97.31267960555812]]}, "properties": {"osm_id": null, "type": "footway", "width_m": 2, "extrude": false}}, {"type": "Feature", "geometry": {"type": "LineString", "coordinates": [[204.08642534125673, -78.80931168359325], [186.08086971596296, -152.52739960536616], [187.1572888019686, -155.42171960557297], [189.50583953567235, -157.4254796056553], [194.8879349674389, -159.09527960539435], [201.2485932045387, -160.31979960546664], [204.08642534125673, -158.5814949900596]]}, "properties": {"osm_id": null, "type": "residential", "width_m": 5, "extrude": false}}, {"type": "Feature", "geometry": {"type": "LineString", "coordinates": [[169.5431582993644, -97.31267960555812], [152.12474035740962, -140.05955960560087], [157.9961171918428, -142.9538796054122], [156.5282729831476, -144.06707960537005], [143.806956508948, -149.07647960537815], [142.04554345858327, -152.30475960553278], [149.87404590437828, -156.98019960559307], [150.95046499038392, -160.31979960546664], [151.83117151574012, -160.87639960564331], [165.13962567362643, -168.89143960557718], [180.20949288152977, -156.4235996054164], [186.08086971596296, -152.52739960536616]]}, "properties": {"osm_id": null, "type": "footway", "width_m": 2, "extrude": false}}, {"type": "Feature", "geometry": {"type": "LineString", "coordinates": [[195.96435405344457, -166.88767960549484], [203.98856906058435, -169.44803960535836], [204.08642534125673, -170.004639606326]]}, "properties": {"osm_id": null, "type": "footway", "width_m": 2, "extrude": false}}, {"type": "Feature", "geometry": {"type": "LineString", "coordinates": [[204.08642534125673, -170.70966627160814], [202.42286857121675, -173.23291960529417]]}, "properties": {"osm_id": null, "type": "footway", "width_m": 2, "extrude": false}}, {"type": "Feature", "geometry": {"type": "LineString", "coordinates": [[151.83117151574012, -160.87639960564331], [145.56836955896503, -168.11219960556713], [141.94768717791086, -173.78951960547084], [140.18627412754614, -177.6857196055211], [148.6019142566802, -183.25171960531037], [154.86471621345527, -186.92527960552724]]}, "properties": {"osm_id": null, "type": "footway", "width_m": 2, "extrude": false}}, {"type": "Feature", "geometry": {"type": "LineString", "coordinates": [[165.13962567362643, -168.89143960557718], [170.52172110504532, -172.11971960533631], [174.14240348609948, -175.57063960532432], [178.25236727016795, -179.9121196054368]]}, "properties": {"osm_id": null, "type": "footway", "width_m": 2, "extrude": false}}, {"type": "Feature", "geometry": {"type": "LineString", "coordinates": [[202.79804974919386, -229.3730598092958], [194.59436612542174, -234.34759960563028], [192.44152795306277, -236.68531960566042], [190.09297721935903, -241.36075960532523], [188.13585160799718, -253.04935960547596], [186.08086971596296, -259.3945996056708], [185.50313679810554, -277.2491106028531]]}, "properties": {"osm_id": null, "type": "footway", "width_m": 2, "extrude": false}}, {"type": "Feature", "geometry": {"type": "LineString", "coordinates": [[200.074317837513, -207.40815960562188], [204.08642534125673, -205.7120339299209]]}, "properties": {"osm_id": null, "type": "footway", "width_m": 2, "extrude": false}}, {"type": "Feature", "geometry": {"type": "LineString", "coordinates": [[200.4657429598549, -200.95159960531262], [181.87304965122212, -200.72895960547925], [181.677337090225, -206.74023960533077]]}, "properties": {"osm_id": null, "type": "footway", "width_m": 2, "extrude": false}}, {"type": "Feature", "geometry": {"type": "LineString", "coordinates": [[92.82383433078179, -132.935079605396], [84.79961932398965, -131.93319960555257], [83.72320023763633, -134.71619960564496], [77.46039828120891, -133.04639960551043], [74.81827870583567, -141.84067960545434], [70.61045864109481, -140.61615960538205], [68.65333302973298, -135.1614796053117], [51.919909051789624, -150.41231960556487], [43.112843800313684, -160.65375960541445], [35.18648507419393, -166.55371960554703], [34.01220970716823, -165.66315960542255], [42.32999355597754, -151.63683960563716], [45.2656819730203, -146.738759605348], [43.797837764325095, -145.06895960560897], [36.16504787987485, -149.5217596054404], [32.05508409580639, -142.9538796054122], [42.62356239764705, -129.1501996054602], [40.66643678628521, -125.81059960558662], [45.46139453401742, -118.01819960548613], [25.30300073636468, -107.55411960540769]]}, "properties": {"osm_id": null, "type": "footway", "width_m": 2, "extrude": false}}, {"type": "Feature", "geometry": {"type": "LineString", "coordinates": [[-203.75035513215323, -217.37979255424577], [-197.90717524790134, -230.6740396054134], [-183.8158708456789, -260.73043960546204], [-181.8587452339694, -273.30959960534176], [-183.15446969755186, -280.67959396991864]]}, "properties": {"osm_id": null, "type": "pedestrian", "width_m": 4, "extrude": false}}, {"type": "Feature", "geometry": {"type": "LineString", "coordinates": [[1.426068276985376, -148.85383960554478], [-10.31668539188098, -171.56311960555513], [-22.744433024411094, -189.48563960539076], [-36.933593707305924, -210.07983960559983], [-43.000683102736225, -215.42319960555574], [-113.84863023688565, -276.87183960544417], [-126.86351555275478, -287.558559605356]]}, "properties": {"osm_id": null, "type": "residential", "width_m": 5, "extrude": false}}, {"type": "Feature", "geometry": {"type": "LineString", "coordinates": [[-152.01257965983217, -306.0376796053683], [-143.98836465269238, -269.0794396053437], [-142.81408928601434, -262.62287960542994], [-202.7021329959812, -135.94071960532176]]}, "properties": {"osm_id": null, "type": "residential", "width_m": 5, "extrude": false}}, {"type": "Feature", "geometry": {"type": "LineString", "coordinates": [[-22.744433024411094, -189.48563960539076], [-21.374445096388275, -195.38559960552334], [-21.668013938057783, -202.51007960533272], [-23.820852110764402, -212.97415960541116], [-24.799414916445322, -226.33255960530093], [-25.582265161129122, -230.11743960563223], [-24.505846074775814, -236.9079596054938], [-25.386552599784345, -242.69659960551195], [-24.212277233106303, -257.05687960564063], [-22.646576743738706, -263.1794796056066], [-22.15729534107207, -267.1869996053758], [-20.591594851704475, -273.1982796056228], [-19.417319485026432, -280.21143960531776], [-14.622361736946562, -286.0000796053359]]}, "properties": {"osm_id": null, "type": "footway", "width_m": 2, "extrude": false}}, {"type": "Feature", "geometry": {"type": "LineString", "coordinates": [[-142.81408928601434, -262.62287960542994], [-136.35557476824212, -271.86243960543607], [-125.68924018607674, -277.985039605402], [-113.84863023688565, -276.87183960544417]]}, "properties": {"osm_id": null, "type": "residential", "width_m": 5, "extrude": false}}, {"type": "Feature", "geometry": {"type": "LineString", "coordinates": [[-126.86351555275478, -287.558559605356], [-152.01257965983217, -306.0376796053683]]}, "properties": {"osm_id": null, "type": "residential", "width_m": 5, "extrude": false}}, {"type": "Feature", "geometry": {"type": "LineString", "coordinates": [[-43.000683102736225, -215.42319960555574], [-41.924264016382914, -221.21183960557389], [-40.5542760883601, -228.33631960538327], [-38.59715047699826, -261.0643996054098], [-36.150743462622124, -304.033919605286], [-37.618587671317336, -310.93575960565744], [-44.37067103075905, -316.50175960544675], [-71.20631691531841, -323.51491960553716]]}, "properties": {"osm_id": null, "type": "service", "width_m": 3.5, "extrude": false}}, {"type": "Feature", "geometry": {"type": "LineString", "coordinates": [[-152.01257965983217, -306.0376796053683], [-154.54465613519915, -308.80383221517764]]}, "properties": {"osm_id": null, "type": "residential", "width_m": 5, "extrude": false}}, {"type": "Feature", "geometry": {"type": "LineString", "coordinates": [[-145.93460707543804, -313.7667667810156], [-148.19618471743323, -310.26783960536636], [-152.01257965983217, -306.0376796053683]]}, "properties": {"osm_id": null, "type": "service", "width_m": 3.5, "extrude": false}}, {"type": "Feature", "geometry": {"type": "LineString", "coordinates": [[200.074317837513, -207.40815960562188], [187.05943252164388, -207.63079960545525], [181.677337090225, -206.74023960533077], [172.38099043573476, -206.5175996054974], [169.6410145796891, -207.74211960556968], [165.72676335696545, -213.7533996054212], [164.35677542894263, -219.43071960532492], [166.02033219863495, -228.22499960566432], [165.62890707629305, -236.68531960566042], [164.84605683160925, -241.13811960549185], [162.203937256236, -246.92675960551], [160.05109908387703, -251.15691960550805], [157.9961171918428, -254.94179960544386], [155.8432790191362, -260.0625196055664], [153.59258456610485, -264.51531960539785]]}, "properties": {"osm_id": null, "type": "footway", "width_m": 2, "extrude": false}}, {"type": "Feature", "geometry": {"type": "LineString", "coordinates": [[153.59258456610485, -264.51531960539785], [167.39032012665777, -272.64167960544614], [169.8367271410339, -273.86619960551843], [171.98956531339286, -276.20391960554855], [173.26169696109096, -278.43031960546426], [173.45740952208808, -282.8831196052957], [174.24025976677186, -287.66987960547044]]}, "properties": {"osm_id": null, "type": "footway", "width_m": 2, "extrude": false}}, {"type": "Feature", "geometry": {"type": "LineString", "coordinates": [[153.59258456610485, -264.51531960539785], [153.00544688241817, -267.40963960560464], [152.71187804074864, -270.30395960541597], [152.90759060209342, -272.9756396053939], [153.69044084642957, -275.20203960530966], [156.9196981054895, -282.2151996054001], [157.6046920695009, -286.0000796053359], [157.8982609111704, -298.35659960538226], [158.09397347216753, -302.80939960560914], [157.89829328587925, -306.5936535119142]]}, "properties": {"osm_id": null, "type": "footway", "width_m": 2, "extrude": false}}]}