{"type": "FeatureCollection", "crs": {"type": "name", "properties": {"name": "EPSG:32628_local_enu_m_section_centroid", "lng0": -16.820818527145356, "lat0": 28.221893954661258}}, "features": [{"type": "Feature", "geometry": {"type": "Point", "coordinates": [-1988.163511175113, -1083.4826071086948]}, "properties": {"osm_id": null, "category": "finanzas", "name": "Banco Santander", "extrude": false}}, {"type": "Feature", "geometry": {"type": "Point", "coordinates": [-1989.3405502776359, -1098.2881671088858]}, "properties": {"osm_id": null, "category": "restauracion", "name": "Restaurant Juan Lanas", "extrude": false}}, {"type": "Feature", "geometry": {"type": "Point", "coordinates": [-1987.9673379915337, -1109.42016710886]}, "properties": {"osm_id": null, "category": "restauracion", "name": "Am Eck", "extrude": false}}, {"type": "Feature", "geometry": {"type": "Point", "coordinates": [-1977.4720726621877, -1350.8732471086964]}, "properties": {"osm_id": null, "category": "restauracion", "name": "Don Carmen", "extrude": false}}, {"type": "Feature", "geometry": {"type": "Point", "coordinates": [-1991.0080223392815, -1360.7807271085983]}, "properties": {"osm_id": null, "category": "restauracion", "name": "Bei Uwe & Renata", "extrude": false}}, {"type": "Feature", "geometry": {"type": "Point", "coordinates": [-636.9226216680065, 2381.797672891301]}, "properties": {"osm_id": null, "category": "restauracion", "name": "Casa Mon", "extrude": false}}, {"type": "Feature", "geometry": {"type": "Point", "coordinates": [-569.8313928336254, 2351.29599289119]}, "properties": {"osm_id": null, "category": "finanzas", "name": "Canarias Cajarural", "extrude": false}}, {"type": "Feature", "geometry": {"type": "Point", "coordinates": [-733.0474816941127, 2343.948872891152]}, "properties": {"osm_id": null, "category": "restauracion", "name": "Restaurante Tasca tu Rincon", "extrude": false}}, {"type": "Feature", "geometry": {"type": "Point", "coordinates": [-714.1167694645744, 2339.384752891206]}, "properties": {"osm_id": null, "category": "restauracion", "name": "De Carlos", "extrude": false}}, {"type": "Feature", "geometry": {"type": "Point", "coordinates": [-578.7572726932895, 2336.9357128910615]}, "properties": {"osm_id": null, "category": "finanzas", "name": "Cajasiete", "extrude": false}}, {"type": "Feature", "geometry": {"type": "Point", "coordinates": [-627.8986552167269, 2327.3621928911075]}, "properties": {"osm_id": null, "category": "restauracion", "name": "Elias", "extrude": false}}, {"type": "Feature", "geometry": {"type": "Point", "coordinates": [-655.6571607139653, 2321.6848728912037]}, "properties": {"osm_id": null, "category": "restauracion", "name": "Plaza", "extrude": false}}, {"type": "Feature", "geometry": {"type": "Point", "coordinates": [-817.2057775124583, 2315.22831289129]}, "properties": {"osm_id": null, "category": "restauracion", "name": "", "extrude": false}}, {"type": "Feature", "geometry": {"type": "Point", "coordinates": [-634.7647166472378, 2313.4471928914363]}, "properties": {"osm_id": null, "category": "restauracion", "name": "El Obrero", "extrude": false}}, {"type": "Feature", "geometry": {"type": "Point", "coordinates": [-744.2293531665094, 2302.4265128911816]}, "properties": {"osm_id": null, "category": "restauracion", "name": "L'Incontro", "extrude": false}}, {"type": "Feature", "geometry": {"type": "Point", "coordinates": [-1037.4101762454886, 2297.8623928912357]}, "properties": {"osm_id": null, "category": "restauracion", "name": "Restaurant Sauco", "extrude": false}}, {"type": "Feature", "geometry": {"type": "Point", "coordinates": [-548.7427755829699, 2288.2888728912817]}, "properties": {"osm_id": null, "category": "restauracion", "name": "La Divina", "extrude": false}}, {"type": "Feature", "geometry": {"type": "Point", "coordinates": [-880.373542672461, 2272.370112891133]}, "properties": {"osm_id": null, "category": "restauracion", "name": "Muelle Viejo", "extrude": false}}, {"type": "Feature", "geometry": {"type": "Point", "coordinates": [-702.6406382162855, 2271.256912891175]}, "properties": {"osm_id": null, "category": "restauracion", "name": "Tasca La Cueva", "extrude": false}}, {"type": "Feature", "geometry": {"type": "Point", "coordinates": [-624.269451317892, 2266.9154328910627]}, "properties": {"osm_id": null, "category": "restauracion", "name": "La tapita", "extrude": false}}, {"type": "Feature", "geometry": {"type": "Point", "coordinates": [-956.9791709175933, 2234.076032891317]}, "properties": {"osm_id": null, "category": "restauracion", "name": "La Martina", "extrude": false}}, {"type": "Feature", "geometry": {"type": "Point", "coordinates": [-675.6668254540623, 2225.059112891144]}, "properties": {"osm_id": null, "category": "salud", "name": "", "extrude": false}}, {"type": "Feature", "geometry": {"type": "Point", "coordinates": [-789.3491854236045, 2213.815792891451]}, "properties": {"osm_id": null, "category": "restauracion", "name": "Cofradia el Mirador", "extrude": false}}, {"type": "Feature", "geometry": {"type": "Point", "coordinates": [-771.3012525206968, 2211.7007128912546]}, "properties": {"osm_id": null, "category": "restauracion", "name": "Vista al Mar", "extrude": false}}, {"type": "Feature", "geometry": {"type": "Point", "coordinates": [-766.4950095193392, 2205.355472891455]}, "properties": {"osm_id": null, "category": "restauracion", "name": "El Rabil", "extrude": false}}, {"type": "Feature", "geometry": {"type": "Point", "coordinates": [-981.0103859240327, 2202.015872891186]}, "properties": {"osm_id": null, "category": "restauracion", "name": "Paseo", "extrude": false}}, {"type": "Feature", "geometry": {"type": "Point", "coordinates": [-691.5568533358527, 2200.1234328912183]}, "properties": {"osm_id": null, "category": "restauracion", "name": "Habana", "extrude": false}}, {"type": "Feature", "geometry": {"type": "Point", "coordinates": [-718.8249258739679, 2176.746232891312]}, "properties": {"osm_id": null, "category": "restauracion", "name": "El Rincon Canario", "extrude": false}}, {"type": "Feature", "geometry": {"type": "Point", "coordinates": [-960.6083748164283, 2174.965112891063]}, "properties": {"osm_id": null, "category": "restauracion", "name": "El Chorro", "extrude": false}}, {"type": "Feature", "geometry": {"type": "Point", "coordinates": [-950.603542446554, 2162.719912891131]}, "properties": {"osm_id": null, "category": "restauracion", "name": "El Rincón de la Barriga", "extrude": false}}, {"type": "Feature", "geometry": {"type": "Point", "coordinates": [-767.6720486218619, 2117.078712891277]}, "properties": {"osm_id": null, "category": "restauracion", "name": "Toni's", "extrude": false}}, {"type": "Feature", "geometry": {"type": "Point", "coordinates": [-719.511532017019, 2112.403272891217]}, "properties": {"osm_id": null, "category": "restauracion", "name": "Chamaida", "extrude": false}}, {"type": "Feature", "geometry": {"type": "Point", "coordinates": [-830.4474674140084, 2057.8564728913043]}, "properties": {"osm_id": null, "category": "restauracion", "name": "Sun Bean", "extrude": false}}, {"type": "Feature", "geometry": {"type": "Point", "coordinates": [-1408.0794068962305, 1673.5798328913775]}, "properties": {"osm_id": null, "category": "restauracion", "name": "Beach bar Areia", "extrude": false}}, {"type": "Feature", "geometry": {"type": "Point", "coordinates": [-1652.1188474521205, -363.2422071086728]}, "properties": {"osm_id": null, "category": "restauracion", "name": "Varadero", "extrude": false}}, {"type": "Feature", "geometry": {"type": "Point", "coordinates": [-1720.7794617561833, -385.28356710878757]}, "properties": {"osm_id": null, "category": "restauracion", "name": "La Costa", "extrude": false}}, {"type": "Feature", "geometry": {"type": "Point", "coordinates": [-1321.1746865056805, -393.7438871087836]}, "properties": {"osm_id": null, "category": "restauracion", "name": "Alexis", "extrude": false}}, {"type": "Feature", "geometry": {"type": "Point", "coordinates": [-1719.9947690211682, -396.638207108595]}, "properties": {"osm_id": null, "category": "restauracion", "name": "Martini", "extrude": false}}, {"type": "Feature", "geometry": {"type": "Point", "coordinates": [-1707.1454254871255, -402.649487108842]}, "properties": {"osm_id": null, "category": "restauracion", "name": "Sauco", "extrude": false}}, {"type": "Feature", "geometry": {"type": "Point", "coordinates": [-1324.1172842614644, -425.6927271088001]}, "properties": {"osm_id": null, "category": "restauracion", "name": "Berto", "extrude": false}}, {"type": "Feature", "geometry": {"type": "Point", "coordinates": [-1704.987520466357, -441.5001671088345]}, "properties": {"osm_id": null, "category": "restauracion", "name": "Fu", "extrude": false}}, {"type": "Feature", "geometry": {"type": "Point", "coordinates": [-1718.131123775943, -453.634047108652]}, "properties": {"osm_id": null, "category": "restauracion", "name": "Capuccino Maria", "extrude": false}}, {"type": "Feature", "geometry": {"type": "Point", "coordinates": [-1782.0835816706121, -548.2560471086292]}, "properties": {"osm_id": null, "category": "restauracion", "name": "Costa Varadero", "extrude": false}}, {"type": "Feature", "geometry": {"type": "Point", "coordinates": [-1865.162924978748, -610.1499671085799]}, "properties": {"osm_id": null, "category": "restauracion", "name": "El Solecito", "extrude": false}}, {"type": "Feature", "geometry": {"type": "Point", "coordinates": [-1943.3379386935617, -767.3338071087989]}, "properties": {"osm_id": null, "category": "restauracion", "name": "Legends", "extrude": false}}, {"type": "Feature", "geometry": {"type": "Point", "coordinates": [-1917.8354248094045, -822.7711671088357]}, "properties": {"osm_id": null, "category": "restauracion", "name": "Nino's", "extrude": false}}, {"type": "Feature", "geometry": {"type": "Point", "coordinates": [-1906.4573801530796, -853.49548710878]}, "properties": {"osm_id": null, "category": "finanzas", "name": "Caixabank", "extrude": false}}, {"type": "Feature", "geometry": {"type": "Point", "coordinates": [-1910.2827572358428, -897.1329271085517]}, "properties": {"osm_id": null, "category": "restauracion", "name": "Blue Martini", "extrude": false}}, {"type": "Feature", "geometry": {"type": "Point", "coordinates": [-1910.8712767869297, -907.7083271087446]}, "properties": {"osm_id": null, "category": "restauracion", "name": "Incognito", "extrude": false}}, {"type": "Feature", "geometry": {"type": "Point", "coordinates": [-1913.6177013591341, -928.4138471086726]}, "properties": {"osm_id": null, "category": "restauracion", "name": "Casa Pepe", "extrude": false}}, {"type": "Feature", "geometry": {"type": "Point", "coordinates": [-1909.203804725284, -928.7478071086205]}, "properties": {"osm_id": null, "category": "restauracion", "name": "Domingo", "extrude": false}}, {"type": "Feature", "geometry": {"type": "Point", "coordinates": [-1913.9119611346775, -936.2062471087731]}, "properties": {"osm_id": null, "category": "restauracion", "name": "Palillos de Oro", "extrude": false}}, {"type": "Feature", "geometry": {"type": "Point", "coordinates": [-1963.5437766175867, -958.4702471087212]}, "properties": {"osm_id": null, "category": "restauracion", "name": "Pancho", "extrude": false}}, {"type": "Feature", "geometry": {"type": "Point", "coordinates": [-1963.053343658115, -970.4928071088198]}, "properties": {"osm_id": null, "category": "restauracion", "name": "Tapas y mas Tapas", "extrude": false}}, {"type": "Feature", "geometry": {"type": "Point", "coordinates": [-1923.6225337293567, -977.5059671089102]}, "properties": {"osm_id": null, "category": "restauracion", "name": "La Quinta", "extrude": false}}, {"type": "Feature", "geometry": {"type": "Point", "coordinates": [-1924.6033996479514, -986.6342071088019]}, "properties": {"osm_id": null, "category": "restauracion", "name": "Ina's Cueva", "extrude": false}}, {"type": "Feature", "geometry": {"type": "Point", "coordinates": [-1926.270871709597, -986.9681671087496]}, "properties": {"osm_id": null, "category": "restauracion", "name": "El Gourmet", "extrude": false}}, {"type": "Feature", "geometry": {"type": "Point", "coordinates": [-1938.5316956925528, -1003.7774871086275]}, "properties": {"osm_id": null, "category": "restauracion", "name": "Flor del Drago", "extrude": false}}, {"type": "Feature", "geometry": {"type": "Point", "coordinates": [-1921.26845552466, -1006.1152071086576]}, "properties": {"osm_id": null, "category": "salud", "name": "", "extrude": false}}, {"type": "Feature", "geometry": {"type": "Point", "coordinates": [-1904.4956483158905, -1006.5604871087198]}, "properties": {"osm_id": null, "category": "salud", "name": "", "extrude": false}}, {"type": "Feature", "geometry": {"type": "Point", "coordinates": [-1797.679349776859, -1168.865047108666]}, "properties": {"osm_id": null, "category": "alojamiento", "name": "Playa la Arena", "extrude": false}}, {"type": "Feature", "geometry": {"type": "Point", "coordinates": [-1966.192114597827, -1261.2606471087274]}, "properties": {"osm_id": null, "category": "restauracion", "name": "Bar Jarana", "extrude": false}}, {"type": "Feature", "geometry": {"type": "Point", "coordinates": [-1295.5740860292108, -1320.9281671087624]}, "properties": {"osm_id": null, "category": "restauracion", "name": "Azafran", "extrude": false}}, {"type": "Feature", "geometry": {"type": "Point", "coordinates": [-1591.4032470887787, -1364.4542871088152]}, "properties": {"osm_id": null, "category": "alojamiento", "name": "Costa Los Gigantes", "extrude": false}}, {"type": "Feature", "geometry": {"type": "Point", "coordinates": [-1886.3496288213676, -1459.0762871087923]}, "properties": {"osm_id": null, "category": "restauracion", "name": "Cervecería Trigo Limpio", "extrude": false}}, {"type": "Feature", "geometry": {"type": "Point", "coordinates": [-1253.3968515282484, -1530.4324071085825]}, "properties": {"osm_id": null, "category": "restauracion", "name": "Tasca Don Jose", "extrude": false}}, {"type": "Feature", "geometry": {"type": "Point", "coordinates": [-1974.0390419469325, -1526.758847108761]}, "properties": {"osm_id": null, "category": "restauracion", "name": "Juanito", "extrude": false}}, {"type": "Feature", "geometry": {"type": "Point", "coordinates": [2657.8059990160814, -1517.6306071088695]}, "properties": {"osm_id": null, "category": "salud", "name": "", "extrude": false}}, {"type": "Feature", "geometry": {"type": "Point", "coordinates": [2407.292843397536, -1560.822767108579]}, "properties": {"osm_id": null, "category": "restauracion", "name": "", "extrude": false}}, {"type": "Feature", "geometry": {"type": "Point", "coordinates": [2591.0090299572435, -1683.7200471087513]}, "properties": {"osm_id": null, "category": "restauracion", "name": "Bar Parada", "extrude": false}}, {"type": "Feature", "geometry": {"type": "Point", "coordinates": [2575.4132618509966, -1734.9272471087902]}, "properties": {"osm_id": null, "category": "finanzas", "name": "Cajasiete", "extrude": false}}, {"type": "Feature", "geometry": {"type": "Point", "coordinates": [2081.4491852279975, -2042.1704471086277]}, "properties": {"osm_id": null, "category": "restauracion", "name": "Coromoto", "extrude": false}}, {"type": "Feature", "geometry": {"type": "Point", "coordinates": [2287.431028140534, -2139.1301671086353]}, "properties": {"osm_id": null, "category": "restauracion", "name": "El Toque", "extrude": false}}, {"type": "Feature", "geometry": {"type": "Point", "coordinates": [2679.2869626338957, -2336.500527108638]}, "properties": {"osm_id": null, "category": "restauracion", "name": "El Rancho", "extrude": false}}, {"type": "Feature", "geometry": {"type": "Point", "coordinates": [2148.148067694871, -2393.2737271088617]}, "properties": {"osm_id": null, "category": "restauracion", "name": "San Juan", "extrude": false}}, {"type": "Feature", "geometry": {"type": "Point", "coordinates": [2135.7891571202995, -2408.079287108657]}, "properties": {"osm_id": null, "category": "restauracion", "name": "El Parador", "extrude": false}}, {"type": "Feature", "geometry": {"type": "Point", "coordinates": [-1985.2209134193292, -1809.4003271086206]}, "properties": {"osm_id": null, "category": "restauracion", "name": "El Paseo", "extrude": false}}, {"type": "Feature", "geometry": {"type": "Point", "coordinates": [-1981.3955363365665, -1839.011447108607]}, "properties": {"osm_id": null, "category": "restauracion", "name": "Bar Restaurante Paraiso", "extrude": false}}, {"type": "Feature", "geometry": {"type": "Point", "coordinates": [-1957.7566676976344, -1722.6820471088583]}, "properties": {"osm_id": null, "category": "publico", "name": "Nihiden - Academia de Ingles", "extrude": false}}, {"type": "Feature", "geometry": {"type": "Point", "coordinates": [-1965.8978548222835, -1739.491367108736]}, "properties": {"osm_id": null, "category": "restauracion", "name": "Bar Cafetería Plaza", "extrude": false}}, {"type": "Feature", "geometry": {"type": "Point", "coordinates": [-1323.7249378939568, -1878.0847671088284]}, "properties": {"osm_id": null, "category": "restauracion", "name": "Casa Edu", "extrude": false}}, {"type": "Feature", "geometry": {"type": "Point", "coordinates": [-1356.2896863925528, -1915.3769671088007]}, "properties": {"osm_id": null, "category": "publico", "name": "Policia Local", "extrude": false}}, {"type": "Feature", "geometry": {"type": "Point", "coordinates": [-1966.290201189791, -1924.7278471089212]}, "properties": {"osm_id": null, "category": "restauracion", "name": "Pizzeria Golden Burger", "extrude": false}}, {"type": "Feature", "geometry": {"type": "Point", "coordinates": [-1952.263818553226, -1925.8410471088791]}, "properties": {"osm_id": null, "category": "restauracion", "name": "Sabor de la India", "extrude": false}}, {"type": "Feature", "geometry": {"type": "Point", "coordinates": [-1906.8497265205872, -1933.856087108813]}, "properties": {"osm_id": null, "category": "restauracion", "name": "Camber", "extrude": false}}, {"type": "Feature", "geometry": {"type": "Point", "coordinates": [-1941.866639815844, -1951.110687108753]}, "properties": {"osm_id": null, "category": "restauracion", "name": "Bar Central", "extrude": false}}, {"type": "Feature", "geometry": {"type": "Point", "coordinates": [-1953.833204023256, -1958.1238471088434]}, "properties": {"osm_id": null, "category": "restauracion", "name": "Armenia", "extrude": false}}, {"type": "Feature", "geometry": {"type": "Point", "coordinates": [-1958.0509274731778, -1962.242687108727]}, "properties": {"osm_id": null, "category": "alojamiento", "name": "Vigilia Park", "extrude": false}}, {"type": "Feature", "geometry": {"type": "Point", "coordinates": [-1976.2950335596652, -1900.4600871088908]}, "properties": {"osm_id": null, "category": "publico", "name": "Biblioteca Pública Municipal de Puerto de Santiago", "extrude": false}}, {"type": "Feature", "geometry": {"type": "Point", "coordinates": [-1978.7471983563262, -1949.4408871086184]}, "properties": {"osm_id": null, "category": "restauracion", "name": "", "extrude": false}}, {"type": "Feature", "geometry": {"type": "Point", "coordinates": [-1985.9075195623802, -2003.7650471086974]}, "properties": {"osm_id": null, "category": "restauracion", "name": "Terraza Marale", "extrude": false}}, {"type": "Feature", "geometry": {"type": "Point", "coordinates": [-1622.5947833012724, -1974.2652471088256]}, "properties": {"osm_id": null, "category": "restauracion", "name": "Vista Mar", "extrude": false}}, {"type": "Feature", "geometry": {"type": "Point", "coordinates": [-1963.6418632095508, -1998.1990471089082]}, "properties": {"osm_id": null, "category": "restauracion", "name": "Bagheera", "extrude": false}}, {"type": "Feature", "geometry": {"type": "Point", "coordinates": [-1724.8010120225258, -2061.4288071086503]}, "properties": {"osm_id": null, "category": "restauracion", "name": "La bodeguilla", "extrude": false}}, {"type": "Feature", "geometry": {"type": "Point", "coordinates": [-1577.671124227757, -2075.9004071088934]}, "properties": {"osm_id": null, "category": "restauracion", "name": "Mirador de Archipenque", "extrude": false}}, {"type": "Feature", "geometry": {"type": "Point", "coordinates": [-1625.929727424564, -2144.5848471087056]}, "properties": {"osm_id": null, "category": "restauracion", "name": "Mamma Lucia", "extrude": false}}, {"type": "Feature", "geometry": {"type": "Point", "coordinates": [-1813.1770312911422, -2248.557727108803]}, "properties": {"osm_id": null, "category": "restauracion", "name": "Tipsy", "extrude": false}}, {"type": "Feature", "geometry": {"type": "Point", "coordinates": [-1800.5238609410274, -2262.695367108703]}, "properties": {"osm_id": null, "category": "restauracion", "name": "Buen Gusto", "extrude": false}}, {"type": "Feature", "geometry": {"type": "Point", "coordinates": [-1970.8021844152568, -2423.5527671087434]}, "properties": {"osm_id": null, "category": "restauracion", "name": "Miranda's", "extrude": false}}, {"type": "Feature", "geometry": {"type": "Point", "coordinates": [-1983.063008398212, -2450.158247108804]}, "properties": {"osm_id": null, "category": "restauracion", "name": "Huggin a Mug", "extrude": false}}, {"type": "Feature", "geometry": {"type": "Point", "coordinates": [-1973.3524358038815, -2474.5373271085537]}, "properties": {"osm_id": null, "category": "finanzas", "name": "Banco Santander", "extrude": false}}, {"type": "Feature", "geometry": {"type": "Point", "coordinates": [-1996.991304442813, -2493.7956871085757]}, "properties": {"osm_id": null, "category": "restauracion", "name": "La Sangría", "extrude": false}}, {"type": "Feature", "geometry": {"type": "Point", "coordinates": [-1971.194530782764, -2510.8276471086824]}, "properties": {"osm_id": null, "category": "restauracion", "name": "Capuccino Maria", "extrude": false}}, {"type": "Feature", "geometry": {"type": "Point", "coordinates": [-1994.441053054537, -2517.172887108877]}, "properties": {"osm_id": null, "category": "restauracion", "name": "La Bodeguita", "extrude": false}}, {"type": "Feature", "geometry": {"type": "Point", "coordinates": [-1976.9816397027164, -2562.591447108898]}, "properties": {"osm_id": null, "category": "restauracion", "name": "Paraiso del Sol", "extrude": false}}, {"type": "Feature", "geometry": {"type": "Point", "coordinates": [-1866.438050672886, -2347.743847108726]}, "properties": {"osm_id": null, "category": "restauracion", "name": "The Wine", "extrude": false}}, {"type": "Feature", "geometry": {"type": "Point", "coordinates": [-1914.2062209102212, -2401.4000871089097]}, "properties": {"osm_id": null, "category": "restauracion", "name": "Krishna's", "extrude": false}}, {"type": "Feature", "geometry": {"type": "Point", "coordinates": [-1869.3806484290183, -2406.966087108699]}, "properties": {"osm_id": null, "category": "restauracion", "name": "Pekin Garden", "extrude": false}}, {"type": "Feature", "geometry": {"type": "Point", "coordinates": [-1919.5028968710506, -2409.3038071087294]}, "properties": {"osm_id": null, "category": "salud", "name": "", "extrude": false}}, {"type": "Feature", "geometry": {"type": "Point", "coordinates": [-1960.8954386373464, -2467.746807108692]}, "properties": {"osm_id": null, "category": "restauracion", "name": "Jardín del Sol", "extrude": false}}, {"type": "Feature", "geometry": {"type": "Point", "coordinates": [-1876.344796451145, -2484.55612710857]}, "properties": {"osm_id": null, "category": "restauracion", "name": "The Tea House and Bar", "extrude": false}}, {"type": "Feature", "geometry": {"type": "Point", "coordinates": [-1946.9671425927454, -2498.805087108584]}, "properties": {"osm_id": null, "category": "restauracion", "name": "Highland Paddy", "extrude": false}}, {"type": "Feature", "geometry": {"type": "Point", "coordinates": [-1948.0460951033037, -2525.187927108811]}, "properties": {"osm_id": null, "category": "restauracion", "name": "El Pescador", "extrude": false}}, {"type": "Feature", "geometry": {"type": "Point", "coordinates": [-1684.095076399281, -2659.9964471085723]}, "properties": {"osm_id": null, "category": "alojamiento", "name": "Royal Sun Resort", "extrude": false}}]}