{"type": "FeatureCollection", "crs": {"type": "name", "properties": {"name": "EPSG:32628_local_enu_m_section_centroid", "lng0": -13.550965779057215, "lat0": 28.95930824037424}}, "features": [{"type": "Feature", "geometry": {"type": "Polygon", "coordinates": [[[-26.806786876709527, 221.66487846058587], [29.880577843430373, 175.35575846044068], [161.8588926129314, 113.90711846055225], [271.6297861516856, 88.74879846039732], [302.21369082901595, 76.94887846052765], [347.3103400823395, 54.35091846063173], [366.7905341442099, 44.60747660002795], [366.7905341442099, 268.08531846045], [366.32152184987945, 278.9965865221312], [364.91900181125897, 289.8027731072996], [362.5964810633034, 300.39980873255115], [359.3763267504215, 310.6856381515226], [355.2895507188358, 320.5612032040874], [350.3755108558901, 329.9313968000631], [344.68153205170796, 338.70597885340516], [338.2624504347618, 346.8004453419662], [331.18008527015326, 354.13684212864354], [323.5026436059731, 360.6445157017806], [315.3040634022796, 366.26079360767505], [306.6633014684386, 370.93158801958026], [297.66357306521695, 374.6119166342738], [288.39155049707625, 377.2663358750747], [278.93652840975125, 378.86928223365544], [269.3895638346847, 379.40531846058605], [-217.6152877132877, 379.40531846058605], [-227.1622522883543, 378.86928223365544], [-236.61727437567927, 377.2663358750747], [-245.88929694382, 374.6119166342738], [-254.8890253470416, 370.93158801958026], [-263.52978728088266, 366.26079360767505], [-271.7283674845761, 360.6445157017806], [-279.4058091487563, 354.13684212864354], [-286.4881743133648, 346.8004453419662], [-292.907255930311, 338.70597885340516], [-298.6012347344932, 329.9313968000631], [-303.5152745974388, 320.5612032040874], [-307.6020506290246, 310.6856381515226], [-310.8222049419064, 300.39980873255115], [-313.144725689862, 289.8027731072996], [-314.5472457284825, 278.9965865221312], [-315.01625802281296, 268.08531846045], [-315.01625802281296, 250.9560669478732], [-26.806786876709527, 221.66487846058587]]]}, "properties": {"name": "Conjunto Histórico Castillo de San Gabriel", "kind": "park", "category": "parque", "extrude": false}}, {"type": "Feature", "geometry": {"type": "Polygon", "coordinates": [[[-197.3558858888317, 192.83299846060956], [-196.28447521553608, 200.736718460429], [-198.7194994731834, 200.95935846065785], [-198.23249462165393, 205.07819846054147], [-213.03744210870315, 211.089478460393], [-212.84264016805676, 194.5027984607441], [-197.3558858888317, 192.83299846060956]]]}, "properties": {"name": "", "kind": "playground", "category": "parque", "extrude": false}}, {"type": "Feature", "geometry": {"type": "Polygon", "coordinates": [[[349.4531614291037, 199.8461584607], [341.56368283404964, 209.08571846070615], [343.90130612146027, 197.50843846066985], [350.42717113216264, 194.39147846062966], [357.63484293504087, 194.39147846062966], [349.4531614291037, 199.8461584607]]]}, "properties": {"name": "", "kind": "beach", "category": "parque", "extrude": false}}, {"type": "Feature", "geometry": {"type": "Polygon", "coordinates": [[[60.26968057994135, 188.15755846054927], [59.10086893623605, 187.15567846070584], [57.05544855970851, 188.04623846043484], [56.86064661906212, 189.8273584606838], [50.139979667713355, 192.83299846060956], [47.704955410066056, 187.37831846053922], [48.87376705377137, 184.4839984607279], [53.54901362859259, 182.48023846064555], [54.91262721294428, 183.03683846042674], [56.86064661906212, 182.14627846069774], [57.05544855970851, 180.6991184603966], [63.87351648146698, 177.69347846047083], [63.5813135705839, 179.91987846038654], [64.06831842211336, 182.0349584605833], [65.33453103605535, 183.92739846055122], [67.2825504423462, 185.04059846050907], [60.26968057994135, 188.15755846054927]]]}, "properties": {"name": "", "kind": "garden", "category": "parque", "extrude": false}}, {"type": "Feature", "geometry": {"type": "Polygon", "coordinates": [[[77.99665717634035, 170.90295846060926], [79.55507270133843, 171.57087846050487], [81.69789404810265, 170.45767846054702], [82.28229986986881, 169.12183846075578], [88.71076391033449, 166.3388384606634], [90.65878331662536, 170.79163846049482], [88.90556585098089, 175.24443846072174], [84.71732412768912, 176.80291846074184], [83.7433144246302, 176.24631846056516], [81.79529501833935, 177.0255584605752], [81.40569113721959, 178.5840384605953], [74.49022224522443, 181.58967846052107], [74.87982612634418, 179.4745984607198], [74.39282127481474, 177.2481984604086], [73.02920769046304, 175.46707846055511], [71.17858925458188, 174.35387846059726], [77.99665717634035, 170.90295846060926]]]}, "properties": {"name": "", "kind": "garden", "category": "parque", "extrude": false}}, {"type": "Feature", "geometry": {"type": "Polygon", "coordinates": [[[115.5934317159026, 162.99923846039434], [114.42462007202424, 162.33131846049872], [112.76880357678948, 163.11055846050877], [112.08699678461366, 164.55771846041443], [108.09355700196826, 166.3388384606634], [104.00271624891319, 165.33695846042448], [101.76249393191227, 160.32755846041638], [108.9701657347905, 157.09927846065725], [110.23637834873249, 157.76719846055286], [112.18439775502333, 156.76531846070944], [112.6714026065528, 155.42947846052272], [119.68427246878464, 152.2011984603681], [119.29466858766487, 154.4275984606793], [119.68427246878464, 156.653998460595], [121.04788605313634, 158.5464384605629], [122.9959054594272, 159.7709584606352], [115.5934317159026, 162.99923846039434]]]}, "properties": {"name": "", "kind": "garden", "category": "parque", "extrude": false}}, {"type": "Feature", "geometry": {"type": "Polygon", "coordinates": [[[144.4241189274155, 141.18051846050847], [147.9305538585314, 148.63895846066114], [130.59318114342517, 156.54267846048057], [130.98278502471797, 154.31627846056486], [130.49578017318848, 152.08987846064915], [129.22956755907347, 150.19743846068124], [127.28154815295562, 148.86159846049452], [144.4241189274155, 141.18051846050847]]]}, "properties": {"name": "", "kind": "garden", "category": "parque", "extrude": false}}, {"type": "Feature", "geometry": {"type": "Polygon", "coordinates": [[[250.10417171328757, 112.34863846053216], [252.44179500069822, 117.69199846048807], [246.11073193064223, 120.58631846069488], [228.48115630465293, 128.37871846039988], [222.1500932344239, 131.05039846037783], [219.90987091742298, 126.15231846048417], [217.2800447189563, 119.58443846045597], [250.10417171328757, 112.34863846053216]]]}, "properties": {"name": "", "kind": "playground", "category": "parque", "extrude": false}}, {"type": "Feature", "geometry": {"type": "Polygon", "coordinates": [[[250.10417171328757, 102.32983846051596], [249.81196880240452, 101.55059846050591], [255.26642313981128, 99.3241984605902], [255.94822993198716, 100.99399846072473], [250.10417171328757, 102.32983846051596]]]}, "properties": {"name": "", "kind": "garden", "category": "parque", "extrude": false}}, {"type": "Feature", "geometry": {"type": "Polygon", "coordinates": [[[-180.21331511437185, 72.7187184605296], [-174.17445495519894, 102.10719846068258], [-215.27766442587708, 110.45619846056425], [-221.2191236146403, 81.06771846041127], [-180.21331511437185, 72.7187184605296]]]}, "properties": {"name": "", "kind": "pitch", "category": "parque", "extrude": false}}, {"type": "Feature", "geometry": {"type": "Polygon", "coordinates": [[[237.53944654341228, -326.029521539245], [239.9744708012326, -310.667361539273], [236.66283781059005, -303.4315615393491], [230.42917571077075, -311.7805615396263], [218.44885636266162, -322.8012415394859], [216.89044083783654, -326.8087615392551], [237.53944654341228, -326.029521539245]]]}, "properties": {"name": "", "kind": "park", "category": "parque", "extrude": false}}, {"type": "Feature", "geometry": {"type": "Polygon", "coordinates": [[[169.3587673266927, -364.7688815395186], [162.44329843469754, -338.4973615394058], [155.8200324537585, -359.6481615393961], [169.3587673266927, -364.7688815395186]]]}, "properties": {"name": "", "kind": "park", "category": "parque", "extrude": false}}]}