{"type": "FeatureCollection", "crs": {"type": "name", "properties": {"name": "EPSG:32628_local_enu_m_section_centroid", "lng0": -16.3223340109614, "lat0": 28.489943517084544}}, "features": [{"type": "Feature", "geometry": {"type": "Polygon", "coordinates": [[[-260.794644211, -26.466841743], [-260.794115692, -26.465147054], [-275.651148382, -22.819163512], [-275.87796933, -19.335172351], [-261.697087713, -11.549853561], [-259.633526939, -10.320007456], [-255.796366788, -8.500898133], [-255.818760733, -8.449939153], [-255.510876568, -8.309816788], [-254.644401828, -7.871656005], [-249.243091718, -4.798891817], [-246.980002012, -9.330731654], [-246.980002008, -9.330731662], [-246.628208331, -10.035198921], [-246.431203873, -10.483496264], [-245.162907274, -13.147585901], [-244.173327826, -15.134518414], [-238.390689477, -16.368155509], [-238.873363072, -16.522612008], [-227.051151712, -19.044699264], [-228.621080524, -25.59424993], [-224.463992479, -26.540224224], [-216.260910584, -28.322997346], [-214.398753042, -21.495963995], [-223.510788139, -19.673100742], [-222.15582391, -11.964812433], [-215.843571956, -9.092018781], [-217.998144615, -2.963418892], [-226.244030886, -6.262599132], [-224.153627308, -11.81226762], [-234.762770619, -15.207214341], [-240.428880536, -0.126275469], [-233.579418619, 3.979826239], [-231.076364332, 5.480352209], [-230.719026709, 5.694568251], [-230.718714403, 5.693733623], [-223.316324493, 10.110319467], [-223.319547116, 10.118060176], [-223.05198647, 10.26803496], [-222.708952472, 10.472703873], [-222.704770443, 10.462658681], [-209.737011348, 17.731428967], [-204.250304918, 20.588253665], [-204.343316635, 20.799908295], [-186.066649472, 31.197365059], [-181.735839841, 33.661129677], [-179.022098799, 35.20495629], [-178.681066834, 35.398966778], [-175.611746165, 37.145079932], [-172.174300254, 39.100616733], [-167.868619293, 41.584585406], [-165.227126684, 43.108475577], [-164.88048169, 43.308456791], [-164.880330658, 43.308084466], [-148.597696215, 52.680128456], [-142.137780214, 56.514907953], [-142.143861586, 56.526171918], [-141.843187237, 56.68978625], [-141.534026461, 56.873312383], [-141.487997951, 56.787191943], [-135.000164654, 60.645838123], [-134.509810582, 59.864753771], [-125.109383833, 65.374640451], [-125.39547251, 66.00531092], [-114.345445056, 71.744954652], [-112.106744678, 73.273250169], [-105.63406058, 76.620759888], [-97.581546296, 81.027811382], [-95.856187919, 77.347024227], [-95.562929951, 76.679695327], [-93.669425292, 72.678665344], [-93.660154531, 72.683757545], [-93.508305857, 72.338215327], [-93.369442472, 72.044792987], [-93.4171602, 72.018582813], [-89.889752278, 64.437657576], [-74.041427199, 30.822479596], [-72.671287188, 28.038685959], [-71.788616006, 26.141694064], [-70.515464073, 23.355973337], [-60.994132629, 2.47130073], [-60.994132629, 1.950849618], [-80.761354778, -7.382850761], [-88.082109312, -10.90684588], [-88.078992219, -10.913643492], [-88.395030785, -11.057477039], [-92.609341054, -13.086121593], [-92.584637106, -13.142337143], [-92.892521272, -13.282459509], [-98.370673046, -16.05266291], [-95.387966629, -21.99159929], [-71.501376131, -10.501798149], [-71.07259245, -10.501798149], [-67.145787809, -22.11823028], [-66.962326425, -22.058590403], [-66.962326425, -22.479625041], [-66.451157755, -23.907188501], [-66.447637563, -23.917019497], [-65.790925587, -26.01491844], [-65.608711581, -26.553951274], [-65.411920452, -27.225669122], [-62.869685068, -35.34696601], [-59.452591426, -45.822742641], [-59.442614652, -45.819904786], [-59.346474832, -46.148064054], [-59.236693606, -46.484620123], [-59.246871338, -46.487646732], [-55.238257182, -59.058042704], [-52.90684983, -66.323969048], [-52.882822038, -66.31836116], [-52.79236572, -66.627120622], [-52.665998085, -66.986568547], [-52.764652784, -67.00959374], [-50.716451404, -73.104518307], [-61.847298634, -75.893033928], [-62.356927142, -75.984245903], [-62.708107891, -76.050840588], [-62.708699582, -76.047205213], [-71.067948672, -77.543321709], [-71.059979441, -77.573923744], [-71.528888447, -77.548518148], [-71.789941723, -77.548518148], [-71.793677727, -77.534171805], [-77.351868589, -77.233027762], [-77.353215062, -77.259071698], [-77.714743012, -77.213367143], [-78.05084556, -77.195157031], [-78.047520053, -77.130833949], [-84.583691947, -76.787599019], [-84.58516776, -76.83965291], [-84.965362362, -76.767556305], [-85.282932173, -76.750879716], [-85.281704219, -76.707568148], [-99.836311925, -73.94756632], [-99.836311925, -74.167961586], [-121.082552862, -70.254132646], [-121.082552862, -70.030928651], [-126.175366827, -69.08273346], [-131.034321766, -68.248251208], [-131.035991763, -68.255308713], [-131.362190549, -68.191942663], [-131.725561197, -68.129536989], [-131.723710371, -68.121715292], [-139.355688948, -66.639158148], [-139.649710268, -66.639158148], [-147.018400001, -65.185934437], [-154.697516294, -63.800771507], [-154.697731572, -63.801898231], [-155.038987594, -63.739176739], [-155.386435618, -63.676503887], [-155.386216572, -63.675357442], [-168.137061884, -61.331803062], [-166.031118932, -53.903862637], [-158.15730239, -50.320379222], [-170.707986145, -47.836904993], [-170.935478557, -47.909379466], [-170.972201717, -47.814913435], [-173.860492311, -47.677986225], [-198.736849207, -41.422971863], [-198.931311697, -41.754856551], [-218.273956745, -37.07235295], [-218.199836495, -36.771164053], [-223.33442168, -35.519295592], [-226.775277443, -34.680377032], [-227.111198438, -34.598475791], [-228.077924733, -34.362777265], [-230.135684859, -33.861072666], [-236.362733082, -32.342849675], [-243.042847783, -30.750357096], [-246.64369831, -29.891939539], [-246.95892495, -29.816791715], [-246.958612804, -29.815117412], [-253.484919578, -28.223931888], [-257.190977712, -27.333080515], [-260.439031733, -26.552322826], [-260.794644211, -26.466841743]]]}, "properties": {"id": 0, "height_median_m": 9.0, "building_count": 193, "area_m2": 14798.25572550537}}, {"type": "Feature", "geometry": {"type": "Polygon", "coordinates": [[[-64.144609151, -6.725324497], [-57.870022218, -4.076937768], [-56.972512754, -3.63181125], [-54.050589677, -2.182661693], [-53.724717566, -2.021042988], [-53.723524721, -2.024011865], [-47.028366134, 1.22618524], [-47.055404684, 1.286652512], [-41.876506262, 3.855165838], [-41.820555101, 3.749065207], [-30.909883416, 9.069349234], [-34.673909438, 14.422663582], [-41.61595478, 10.878440877], [-44.726881063, 9.260354229], [-44.720173011, 9.247633697], [-49.590950254, 6.956983285], [-50.610575751, 6.477469349], [-52.678957303, 5.504741832], [-53.829345736, 7.468083485], [-53.964832467, 7.402310796], [-53.964832467, 7.87465103], [-54.093217835, 8.118109225], [-54.063060582, 8.132749209], [-64.192202859, 27.759113711], [-61.004626565, 28.795335355], [-61.048713997, 28.892076371], [-60.669308534, 28.99999681], [-57.194439453, 30.265165807], [-58.728991111, 33.757144815], [-60.078263305, 36.827507519], [-66.675766132, 34.012555683], [-67.036970428, 34.629014802], [-68.50756575, 37.917759446], [-69.88674314, 41.002062915], [-70.027021218, 41.315771771], [-70.024927344, 41.316673211], [-72.915210942, 47.893714524], [-74.382313016, 51.124513997], [-75.95167469, 54.580505887], [-76.081155109, 54.865643014], [-76.079458874, 54.866579608], [-78.88028038, 61.133819307], [-81.942156688, 67.256784799], [-81.953563172, 67.250454007], [-82.108316761, 67.589062231], [-82.257275691, 67.886941798], [-82.246993605, 67.892493771], [-85.802002682, 75.671022966], [-87.201073123, 78.732255731], [-87.350069996, 79.058267986], [-87.348879372, 79.058754279], [-90.658103702, 86.367642885], [-84.215837828, 89.974424975], [-77.662917587, 93.757971791], [-72.012124324, 97.035698246], [-72.068346424, 97.15610982], [-68.095963042, 99.520269643], [-65.426648459, 101.108909431], [-65.096535373, 101.305375889], [-65.095466654, 101.302943944], [-61.903993576, 103.173566998], [-61.877569812, 103.128470164], [-56.634639449, 106.221602326], [-55.4338973, 106.980594619], [-54.991549589, 106.11126432], [-25.125716005, 122.977691755], [-21.852873571, 122.737447221], [-14.523734317, 115.074597965], [-14.473350112, 115.129431895], [-13.402903774, 113.91149436], [-12.931095385, 114.448310759], [-7.8349113, 109.390166378], [-7.940627275, 109.269884351], [-5.042963275, 106.401137551], [-4.681296731, 106.081083018], [-4.705807971, 106.067346884], [2.496914391, 98.936503994], [20.008753796, 81.79457975], [22.72164526, 79.167612441], [24.612046559, 77.337084947], [24.941928177, 77.017651516], [24.940074183, 77.016596793], [34.285280758, 67.887396138], [34.665205507, 67.563191693], [39.677797191, 63.444177463], [39.683929069, 63.45151665], [39.949687399, 63.220756186], [41.198671835, 62.194423904], [41.553362644, 61.902962604], [43.673777708, 59.987093456], [43.943260021, 59.753099423], [43.938488887, 59.747917651], [47.384342095, 56.634468798], [42.215293105, 54.0692361], [37.724942512, 51.840819578], [37.507935774, 51.733126116], [37.507696363, 51.733353115], [35.478396334, 50.729480652], [32.019010548, 48.958264246], [27.646543542, 46.719547383], [27.431087035, 46.609232974], [27.430249765, 46.610039048], [22.619235912, 44.173486763], [14.591834064, 40.107985204], [11.605440328, 38.595517207], [9.644189389, 37.602235831], [8.932310398, 37.241702597], [7.290811199, 36.407920103], [4.366119604, 34.92235334], [4.033202741, 34.753251672], [4.033151419, 34.753371827], [-9.232542296, 28.02101741], [-13.145285558, 26.01768055], [-23.063177789, 20.917987704], [-21.193155506, 14.534939097], [-14.165057364, 18.133347456], [-14.168127844, 18.139461161], [-13.85289188, 18.293177166], [-13.54195965, 18.452375446], [-13.5389013, 18.446285895], [-8.374231573, 20.964692703], [-7.418835645, 21.456446602], [-4.254964315, 23.08492964], [-3.960960229, 23.236257117], [-3.959572232, 23.233640088], [2.657375237, 26.567761851], [9.449539594, 26.567761851], [8.131099272, 29.046190114], [12.367893074, 31.094927883], [13.529671285, 31.695770407], [16.669948787, 33.319843094], [16.977642164, 33.478974384], [16.977778194, 33.478715229], [25.845530766, 38.055438196], [25.546662498, 38.622184468], [34.615746057, 42.941625691], [34.806398298, 42.507783259], [41.131579125, 45.788629238], [46.80633944, 48.571670555], [59.106752049, 54.943479], [64.783034906, 46.985822136], [64.879980621, 46.765215419], [70.52762806, 39.054246735], [70.530630567, 39.056296459], [70.728796063, 38.779583667], [70.948746386, 38.479276314], [70.877402236, 38.433989606], [75.615439523, 32.144645169], [75.621398877, 32.148543934], [75.814779895, 31.880037657], [78.878981685, 27.812568509], [90.30040177, 35.609639196], [90.311120774, 35.593958728], [96.749120062, 39.943211639], [108.915664954, 23.381159237], [91.309998276, 10.525147983], [98.224935487, 0.592163807], [100.956443407, -3.292671327], [101.483406025, -4.002599107], [101.638655753, -4.179239882], [103.029260121, -6.183370611], [105.173024954, -9.206100738], [105.362669194, -9.473249959], [105.361717753, -9.474001106], [115.994175276, -24.568064949], [115.605700189, -25.010065986], [115.605700189, -25.228118148], [115.206670932, -25.228118148], [112.042661676, -26.128108534], [107.811409656, -27.331672059], [107.550334563, -27.405933875], [107.549807974, -27.404981389], [101.066285774, -29.222466864], [96.971969167, -30.387079633], [93.234315465, -31.450240996], [92.94050554, -31.53381411], [92.940114524, -31.532874894], [85.584870889, -33.599216667], [85.621271797, -33.673174522], [85.315572697, -33.758791699], [85.038422732, -34.074128709], [84.940716201, -33.875612633], [78.855751029, -35.56799458], [78.540245519, -35.656358239], [78.540049004, -35.655799259], [74.453668485, -36.792324518], [65.062553057, -39.463591542], [56.148019435, -42.02598832], [56.151355084, -42.033859951], [55.764721123, -42.136163726], [55.469218895, -42.221102994], [55.466670671, -42.215028206], [51.557871283, -43.249300859], [45.763440488, -44.9236666], [45.76574476, -44.929696661], [45.394987414, -45.030135247], [45.087950737, -45.118856937], [45.055468661, -45.033326466], [39.005552307, -46.901705765], [38.701310041, -47.132480576], [38.648370611, -47.012013222], [32.460896019, -48.922874259], [32.462711322, -48.927395862], [32.095659708, -49.035669201], [29.169763574, -49.939265788], [29.169763559, -49.939265792], [29.169763557, -49.939265793], [29.169763542, -49.939265797], [26.807550262, -50.595562264], [26.495398293, -50.687641238], [26.493618867, -50.682782189], [25.573841419, -50.938325029], [25.380470967, -50.648832983], [24.139261409, -51.336896063], [18.394679844, -52.932919849], [12.918333117, -54.594494221], [12.922095271, -54.602354815], [12.524779095, -54.71390216], [12.240693231, -54.800096445], [12.237977531, -54.794422298], [8.828927912, -55.751520089], [4.985615044, -56.830538194], [4.694926313, -56.912149662], [4.69477792, -56.911811984], [-0.588822716, -58.388345398], [-6.849512297, -60.16917471], [-12.718915943, -61.838704228], [-19.952774285, -63.951959674], [-20.630925237, -64.17241391], [-27.246430194, -66.398715831], [-27.243477899, -66.407699407], [-27.580253085, -66.511056544], [-27.909886709, -66.621987452], [-27.912801955, -66.613116614], [-42.78467569, -71.177331405], [-47.00990807, -58.279415425], [-46.993031277, -58.273526763], [-50.325962343, -48.034699617], [-55.481535915, -33.678600221], [-55.496007581, -33.684088768], [-57.664815754, -27.103723684], [-58.810334186, -23.694953187], [-58.882052124, -23.729310904], [-58.94639238, -23.290078727], [-59.035000957, -23.026402216], [-58.930213439, -22.976201946], [-61.285549601, -15.635700491], [-64.144609151, -6.725324497]]]}, "properties": {"id": 1, "height_median_m": 6.0, "building_count": 258, "area_m2": 16854.961506294352}}, {"type": "Feature", "geometry": {"type": "Polygon", "coordinates": [[[30.27345342, -57.974044707], [38.212840675, -55.549235839], [38.190685912, -55.516311951], [38.606353458, -55.390194564], [38.854538772, -55.249003829], [38.891358652, -55.303721345], [45.970358499, -53.155887157], [46.263438972, -53.044732991], [51.014542493, -51.589343277], [51.01273948, -51.584160691], [51.364506764, -51.482139888], [51.684316336, -51.384173687], [51.685963992, -51.388909715], [56.353151167, -50.035315436], [58.712022638, -49.29493253], [59.202789612, -49.140894685], [62.075353946, -48.239278148], [62.174902876, -48.239278148], [64.019009935, -47.679758969], [67.997384476, -46.472683246], [68.277653752, -46.387646949], [68.27779944, -46.387937031], [74.257296232, -44.580789119], [76.364163244, -43.943569073], [76.30106296, -44.015363615], [81.985453323, -42.243414909], [90.62071093, -39.551616395], [96.114311127, -37.910851054], [99.502302171, -36.898964845], [99.833321031, -36.800099938], [99.833384732, -36.800305774], [103.88254955, -35.593690092], [104.668380194, -37.038015392], [119.594339207, -32.487141653], [125.513129615, -40.302266348], [127.669474455, -43.149487258], [127.874110754, -43.419687431], [127.87342319, -43.420229023], [138.014345915, -56.881447681], [138.014345916, -56.881447682], [138.082004875, -56.971259237], [138.258451043, -57.205476626], [138.258451044, -57.205476627], [138.463274886, -57.671567525], [144.72498641, -68.692247525], [144.822855269, -68.914954919], [150.88038523, -79.586694782], [153.839150342, -84.846753968], [153.853854804, -84.838388712], [154.015603883, -85.16045108], [154.182335636, -85.456864906], [154.168441323, -85.464769275], [156.366431378, -89.841238587], [158.765993063, -94.470682274], [155.749462592, -96.309340716], [155.753171472, -96.317077212], [155.395127995, -96.450528106], [155.095367531, -96.564215736], [155.094570295, -96.562552752], [144.071205176, -100.671210024], [143.680056263, -100.893731662], [136.218858843, -103.686243762], [131.44411695, -105.497119963], [128.288203019, -106.694036897], [127.957045225, -106.819632328], [127.956586883, -106.818300852], [119.652228705, -109.930771711], [119.556077065, -109.681203255], [102.344861025, -115.500050639], [100.111714958, -116.267096551], [99.76323719, -116.399260783], [99.759918354, -116.38793242], [89.364224377, -119.9586682], [89.186953424, -119.151883436], [87.238141689, -113.719429078], [86.61347366, -112.013658431], [89.972138533, -111.226891838], [89.588417951, -109.807969679], [90.016919823, -109.668671707], [88.109957936, -103.701963182], [91.379766527, -102.50614012], [91.678862503, -102.396755777], [94.654937572, -101.30835592], [90.758626925, -90.095061502], [86.630159089, -93.918451591], [86.630159089, -89.120165742], [78.737339256, -96.700963956], [78.720305744, -100.131307113], [78.720305744, -100.284504667], [78.71954156, -100.28520449], [78.622466502, -119.834947113], [78.622466502, -123.200583196], [75.107824716, -124.41237286], [64.545717047, -124.749309456], [62.816362256, -124.402080007], [47.104466302, -118.631734745], [47.08775715, -118.625598148], [46.38081803, -118.365967941], [46.12471267, -117.20039683], [46.12471267, -116.16686009], [46.49815573, -115.600329656], [85.660477629, -78.450523611], [87.141164554, -77.045927831], [87.569219198, -76.639870523], [87.570571147, -76.645446595], [93.734886177, -70.894242318], [93.672130961, -70.794279617], [93.8786384, -70.602038783], [94.184044737, -70.293161736], [94.193779911, -70.308668882], [101.652208417, -63.365507319], [98.656661035, -56.548930947], [93.383588995, -61.423623054], [90.012637217, -64.637081034], [90.015372446, -64.640095883], [89.76397715, -64.874123487], [89.505813696, -65.12022532], [89.502973931, -65.117095249], [86.870844353, -67.567383658], [84.38119904, -69.885031354], [84.117875329, -70.130163297], [81.745184619, -72.33893622], [77.924327366, -75.895828828], [74.514785696, -79.090566719], [74.54428242, -79.127124153], [74.315710391, -79.336307493], [74.052422462, -79.635872488], [74.025392903, -79.601998714], [69.803128624, -83.466108183], [63.771490009, -89.16564413], [58.29878018, -83.060971689], [62.610195814, -79.493362205], [56.152919719, -71.942288749], [52.011209083, -75.109622953], [48.187893964, -70.982595793], [40.208980175, -75.416177613], [40.782129216, -76.430586889], [37.458565941, -78.456390285], [36.105014578, -76.300320109], [40.609584865, -73.649338318], [39.425694963, -71.853322455], [39.426999412, -71.852545026], [34.246285298, -63.921712602], [30.27345342, -57.974044707]]]}, "properties": {"id": 2, "height_median_m": 6.0, "building_count": 80, "area_m2": 5930.631851779371}}, {"type": "Feature", "geometry": {"type": "Polygon", "coordinates": [[[37.493779998, -78.51248271], [46.919279664, -87.861776522], [49.968146949, -91.005516772], [50.538619021, -90.680979554], [56.283647891, -96.12815151], [55.530263092, -96.813903311], [55.33694216, -97.033860922], [53.563525278, -98.715333187], [48.580632318, -103.384300011], [47.063252526, -104.987433655], [44.469287468, -107.727995165], [44.25464132, -107.954771917], [44.252691759, -107.953174827], [41.057772386, -111.276722806], [40.172742229, -112.283696639], [37.51676142, -114.840718148], [37.206276897, -114.840718148], [36.364320912, -114.481481387], [34.082826391, -113.616198148], [33.887147905, -113.616198148], [33.532427355, -113.481666269], [29.227500682, -111.811866268], [28.935212461, -111.701012573], [19.545244085, -108.13975824], [13.707755596, -106.031248559], [13.706412093, -106.034783487], [13.382187898, -105.913653014], [13.046613768, -105.79244313], [13.048027709, -105.788810444], [6.813760765, -103.459682273], [6.324687509, -103.237098232], [1.024322843, -101.26153255], [1.023345072, -101.265267346], [0.659930222, -101.125715186], [0.36617333, -101.016225354], [0.366950635, -101.013210333], [-7.393353009, -98.033235423], [-7.393353009, -97.599027712], [-15.762216551, -94.785719731], [-20.826871947, -93.168179305], [-20.82353004, -93.200499458], [-24.357991595, -91.86001395], [-24.310138305, -92.01654834], [-24.961895176, -91.779249447], [-25.13317945, -91.726099091], [-25.136200746, -91.715786336], [-29.077947568, -90.280631297], [-30.780118592, -89.660885932], [-38.572754849, -86.765753574], [-40.204264959, -86.146984457], [-42.203222799, -79.323833102], [-40.724856953, -78.763145721], [-30.169820612, -74.868218288], [-30.174790579, -74.85125403], [-29.854582707, -74.751891946], [-28.781107558, -74.355767511], [-26.752602524, -73.842878149], [-26.660011507, -73.842878149], [-25.541354403, -73.524680395], [-19.341759568, -71.419067089], [-19.341759568, -71.419067088], [-18.641381348, -71.181192559], [-18.605482566, -71.313939094], [-13.286261319, -69.983800871], [-10.056952355, -69.176271518], [-9.705705725, -69.088437877], [-9.70543588, -69.089819492], [-2.824927397, -67.39716268], [-0.719086318, -66.840949809], [-0.168283312, -66.695466978], [2.695127957, -65.939158148], [2.992755214, -65.939158148], [8.518426254, -64.615574075], [15.35617059, -62.503891992], [20.393481903, -60.940789422], [20.391931477, -60.936240026], [20.739320276, -60.833474068], [21.062288514, -60.733255429], [21.063736412, -60.737503976], [25.306584462, -59.482367525], [30.114761963, -70.150176224], [30.041657323, -70.179882419], [32.173054554, -74.827935756], [28.338884554, -77.00916587], [32.564100729, -86.069240635], [35.862157509, -82.733703949], [38.59994169, -80.274486205], [37.493779998, -78.51248271]]]}, "properties": {"id": 3, "height_median_m": 6.0, "building_count": 41, "area_m2": 2714.722183496557}}, {"type": "Feature", "geometry": {"type": "Polygon", "coordinates": [[[114.570737816, 25.298343802], [113.568672324, 26.778878631], [97.525642053, 50.48218472], [93.877793324, 48.687388298], [88.315367969, 58.90236272], [88.29706768, 58.891314423], [88.135626252, 59.23244482], [87.980274652, 59.517736311], [88.06606257, 59.56952841], [83.279673659, 68.203241242], [86.810212464, 70.272601417], [89.357952781, 71.610499937], [89.659135443, 71.776945017], [92.779431531, 73.501340194], [93.079838561, 73.667356629], [93.079880081, 73.667284644], [99.677993246, 77.311572345], [102.386188731, 78.809507529], [104.049059843, 79.725813409], [105.795342706, 80.690324179], [105.801568043, 80.679404409], [109.526073985, 82.706123864], [113.884374409, 85.345489328], [117.474931593, 82.414345812], [115.825474726, 86.167799613], [118.108838887, 82.456403949], [118.122491094, 82.464170585], [119.081507676, 83.009747816], [120.7376883, 80.571142171], [120.74330837, 80.574630042], [120.928313554, 80.290460334], [121.131302292, 79.991574164], [121.125317718, 79.987860078], [122.891868085, 77.274422042], [124.851725035, 74.264063269], [125.030567964, 73.989358842], [125.02821321, 73.98775132], [126.593641091, 71.53871132], [125.631205522, 70.881684602], [126.129015781, 70.112997625], [126.08468565, 70.141819424], [134.529786326, 57.133108513], [137.665216199, 52.306565883], [137.668324544, 52.308600655], [137.857556459, 52.010485775], [138.046554536, 51.719550476], [138.043500204, 51.717551062], [140.400749411, 48.003954106], [141.57321104, 46.225275462], [143.193064557, 43.767882582], [143.586419006, 43.879770757], [150.911789192, 32.578489909], [150.962781384, 32.614958454], [151.160567023, 32.311647057], [152.271107242, 30.676457268], [152.271107243, 30.676457267], [152.271107248, 30.676457258], [153.414310404, 28.855450465], [153.615791264, 28.546472315], [153.610258608, 28.543324829], [157.146411528, 22.910591522], [157.155561476, 22.916129113], [157.332330683, 22.614441145], [159.231531398, 19.589206841], [160.942519427, 17.063711334], [164.368150692, 12.011226243], [164.370033497, 12.012505628], [164.564165645, 11.71799816], [164.758961451, 11.430470764], [164.755325363, 11.428000005], [168.200721427, 6.201174452], [168.395909495, 6.312215458], [173.697958649, -1.701226016], [175.135702862, -3.874212115], [175.391843123, -4.261338852], [175.389888442, -4.261924117], [179.995996991, -11.286772831], [170.164756833, -13.932884411], [169.669330855, -13.0309834], [165.029026126, -14.050919273], [161.30363932, -14.869756798], [161.005307564, -14.935329918], [161.00463867, -14.933270588], [155.488614876, -16.106363646], [150.843501675, -17.094240104], [150.591809652, -17.147767459], [150.591759609, -17.147677985], [137.73475689, -19.876876096], [131.836913215, -21.171880372], [129.001218424, -11.134159305], [129.104654076, -11.115000873], [126.798435936, -3.041216646], [126.630481331, -2.453228367], [125.963405623, -0.117878889], [120.253521522, 7.346321852], [124.377243734, 10.809397044], [114.570737816, 25.298343802]]]}, "properties": {"id": 4, "height_median_m": 6.0, "building_count": 70, "area_m2": 4092.921411157516}}, {"type": "Feature", "geometry": {"type": "Polygon", "coordinates": [[[108.23864694, 89.95436662], [93.702599452, 81.573170623], [93.708264154, 81.56716773], [93.316139107, 81.350345271], [93.079278626, 81.213776227], [93.075806746, 81.217455383], [82.846996467, 75.561515232], [71.014869027, 68.774678228], [65.314645081, 65.300234663], [35.087023898, 93.131029528], [36.284641474, 94.153002806], [34.257161754, 96.349989039], [36.535958313, 98.80630695], [39.456663979, 96.923197445], [40.603973657, 97.927344735], [46.448701886, 92.82897862], [55.677878612, 102.799451051], [51.607673901, 106.61919494], [52.229638677, 107.09096964], [57.749883448, 111.388393613], [41.965091954, 124.984050837], [36.706031944, 119.285309523], [37.301224123, 118.720975693], [34.990324607, 116.592489663], [28.638725389, 108.698651935], [25.600494823, 105.464822212], [24.097001293, 103.754170173], [14.187289147, 112.797755641], [15.0469424, 113.775856019], [11.01700562, 117.463952225], [10.755696515, 117.700451616], [10.757019368, 117.701885066], [6.518927093, 121.580479916], [1.787802004, 125.696893261], [1.784359928, 125.693194494], [1.530484789, 125.920777432], [0.948060116, 126.427528079], [0.626822859, 126.707027206], [-1.700876056, 128.81748719], [-1.9526011, 129.043142703], [-1.951371911, 129.044604826], [-8.340028617, 134.837022499], [2.237300453, 140.199028202], [3.767883293, 138.457554359], [3.889375952, 138.595786856], [7.000032124, 139.972164662], [7.909838574, 140.38623023], [10.409750496, 141.634974395], [14.997202407, 143.983764207], [16.380928859, 144.642142503], [20.968908581, 146.991202555], [21.794582238, 147.217963671], [22.020100391, 147.325265412], [22.049281289, 147.287913633], [24.682523067, 148.011101106], [28.538359896, 148.573551416], [31.619623091, 148.686642201], [34.21380934, 148.346070017], [36.161144013, 147.842513714], [36.161144015, 147.842513713], [36.455019206, 147.766521278], [36.455019206, 147.766521277], [36.780953509, 147.519292554], [39.557526653, 146.07135218], [33.565550997, 140.844541891], [33.569081293, 140.840525174], [33.298817504, 140.611869823], [29.338853744, 137.157586877], [35.812934669, 131.30506059], [46.106014512, 122.08010301], [48.869292712, 125.689898984], [49.143365074, 125.451436651], [54.804573106, 132.516018368], [55.404892691, 133.36981147], [66.568752205, 124.344656954], [66.578710961, 124.357800822], [66.855702919, 124.112678531], [67.110434946, 123.906746532], [67.063249626, 123.842993531], [73.030946766, 118.891984741], [73.034043771, 118.896011855], [73.312331789, 118.658537954], [73.570048837, 118.444726941], [73.567212329, 118.441038557], [79.963632496, 112.982726475], [83.079414841, 110.466856368], [86.033261269, 108.081743062], [86.27762774, 107.884426873], [86.276648087, 107.882996426], [108.23864694, 89.95436662]]]}, "properties": {"id": 5, "height_median_m": 9.0, "building_count": 52, "area_m2": 3404.696762522654}}, {"type": "Feature", "geometry": {"type": "Polygon", "coordinates": [[[-163.72003694527677, 0.20067601733232343], [-171.59576022519357, -3.0688335206112067], [-172.8521530458196, -0.20982429006272793], [-164.96160616220564, 3.3084808161161456], [-163.72003694527677, 0.20067601733232343]]]}, "properties": {"id": 6, "height_median_m": 3.0, "building_count": 1, "area_m2": 27.757526325243855}}, {"type": "Feature", "geometry": {"type": "Polygon", "coordinates": [[[156.47598612626678, -52.649185368664185], [156.78526184492208, -52.50318878481299], [157.1086409204675, -52.34916915311971], [157.1091441812026, -52.350297006330365], [166.32171282389595, -48.00141518600589], [166.71404780507757, -49.00579890912056], [201.4077790929822, -32.93189902250919], [201.01636167182403, -31.818527071364407], [210.20758517672948, -27.56652199206207], [229.02085198422543, -18.732527402201345], [239.77747678450405, -42.75245274334919], [225.53175416760362, -49.23587923041832], [225.6310871064522, -49.687957251177565], [220.99711971026852, -51.6651288226753], [221.00326765600317, -51.678707427828094], [220.70589532464564, -51.7914893310819], [220.89385370622378, -52.21920169825842], [211.96433682337164, -56.16362115734001], [211.47816813453483, -55.27857262989859], [187.44849220787245, -66.45350011112157], [190.12011639895175, -71.69441961670424], [193.618979491566, -78.36837046238321], [186.21732991540463, -81.66373382681171], [182.9992202807886, -75.0064317764261], [181.52426107259527, -75.78958530000972], [181.52026261771627, -75.7808114936779], [174.33734970691927, -79.35632789070733], [177.66177524636848, -85.69754560964462], [170.97795336574742, -89.13194916741186], [161.08859061473402, -70.97283521473567], [160.08693394963453, -71.4287030936088], [155.93336407198098, -62.20749617821506], [152.25893647636914, -54.65899606768264], [156.47646669068195, -52.65026235735172], [156.47598612626678, -52.649185368664185]]]}, "properties": {"id": 7, "height_median_m": 3.0, "building_count": 16, "area_m2": 2406.524891658263}}]}