{"type": "FeatureCollection", "crs": {"type": "name", "properties": {"name": "wgs84_and_EPSG:32628_local_enu_m_section_centroid", "lng0": -17.87742036784056, "lat0": 28.666318351246186}}, "features": [{"type": "Feature", "geometry": {"type": "Polygon", "coordinates": [[[-17.87047, 28.68642], [-17.87126, 28.66738], [-17.87277, 28.65848], [-17.8726, 28.65407], [-17.87268, 28.6537], [-17.87249, 28.65302], [-17.87194, 28.65155], [-17.87185, 28.65149], [-17.87182, 28.65145], [-17.8718, 28.65136], [-17.87175, 28.65121], [-17.87169, 28.6511], [-17.87161, 28.65098], [-17.87153, 28.65087], [-17.87137, 28.65069], [-17.87128, 28.65058], [-17.87124, 28.65051], [-17.87121, 28.65038], [-17.87119, 28.65023], [-17.87116, 28.65011], [-17.87153, 28.65], [-17.87176, 28.64986], [-17.87213, 28.64958], [-17.87261, 28.64916], [-17.87277, 28.649], [-17.87294, 28.64878], [-17.87312, 28.64861], [-17.87322, 28.64847], [-17.87324, 28.64829], [-17.87328, 28.6482], [-17.87332, 28.64817], [-17.87335, 28.64814], [-17.87338, 28.6481], [-17.87343, 28.64807], [-17.87352, 28.64805], [-17.87363, 28.64804], [-17.8739, 28.64804], [-17.87404, 28.64803], [-17.87405, 28.64799], [-17.87411, 28.64791], [-17.8742, 28.64782], [-17.87426, 28.64773], [-17.87428, 28.64756], [-17.87426, 28.64743], [-17.87424, 28.64739], [-17.87425, 28.64732], [-17.87428, 28.64726], [-17.87443, 28.64718], [-17.87449, 28.64713], [-17.87457, 28.64706], [-17.87462, 28.64697], [-17.87463, 28.64693], [-17.8748, 28.64692], [-17.87491, 28.64691], [-17.87509, 28.64687], [-17.87522, 28.64685], [-17.8753, 28.64684], [-17.87538, 28.64683], [-17.87547, 28.64681], [-17.87558, 28.64676], [-17.87563, 28.64676], [-17.87579, 28.64675], [-17.87586, 28.64675], [-17.87594, 28.64674], [-17.87605, 28.64668], [-17.87614, 28.64665], [-17.87625, 28.64662], [-17.87646, 28.64658], [-17.87665, 28.64656], [-17.87687, 28.64656], [-17.87698, 28.64656], [-17.87706, 28.64659], [-17.87712, 28.64662], [-17.87714, 28.64661], [-17.8772, 28.64661], [-17.8774, 28.64664], [-17.87753, 28.64664], [-17.87767, 28.64663], [-17.87779, 28.64661], [-17.87801, 28.64659], [-17.87834, 28.64654], [-17.87856, 28.64653], [-17.87868, 28.6465], [-17.88042, 28.64706], [-17.88055, 28.64714], [-17.88068, 28.64708], [-17.88073, 28.64705], [-17.88083, 28.64694], [-17.88089, 28.64687], [-17.88093, 28.64684], [-17.881, 28.64683], [-17.88127, 28.64683], [-17.88149, 28.64684], [-17.88188, 28.64683], [-17.88194, 28.64683], [-17.88203, 28.64681], [-17.88213, 28.64681], [-17.88232, 28.64682], [-17.88246, 28.64681], [-17.88256, 28.64679], [-17.88263, 28.64676], [-17.8827, 28.64672], [-17.88277, 28.64666], [-17.88282, 28.6466], [-17.8829, 28.64654], [-17.88301, 28.64647], [-17.88317, 28.64641], [-17.88423, 28.64596], [-17.88442, 28.64591], [-17.88448, 28.64586], [-17.8846, 28.64584], [-17.88473, 28.64576], [-17.88488, 28.64572], [-17.88528, 28.64576], [-17.88566, 28.64574], [-17.8861, 28.6457], [-17.88568, 28.64634], [-17.88557, 28.64651], [-17.88521, 28.64705], [-17.88493, 28.64748], [-17.88479, 28.64768], [-17.8846, 28.64793], [-17.88432, 28.64822], [-17.88418, 28.64835], [-17.88408, 28.64846], [-17.88394, 28.64867], [-17.88385, 28.64886], [-17.8838, 28.64902], [-17.88378, 28.64914], [-17.88379, 28.64938], [-17.88385, 28.64987], [-17.8839, 28.65017], [-17.88546, 28.6507], [-17.88431, 28.65623], [-17.8837, 28.66127], [-17.88196, 28.66714], [-17.88238, 28.68629], [-17.87047, 28.68642]]]}, "properties": {"cusec": "3802702001", "mun": "027", "nmun": "Paso, El", "area_m2": 4954995.487723056, "perimeter_m": 11701.799070485895, "coords_system": "wgs84"}}, {"type": "Feature", "geometry": {"type": "Polygon", "coordinates": [[[678.8794025316037, -2237.715539274344], [601.7158997786646, -118.18273927469605], [454.22616666837064, 872.5652607253678], [470.83097105834014, 1363.4864607253708], [463.01694546304003, 1404.6748607253933], [481.5752562517479, 1480.372460725296], [535.2966822191332, 1644.0128607254287], [544.0874610138027, 1650.6920607255713], [547.0177206119101, 1655.1448607254029], [548.9712270106484, 1665.163660725419], [553.8549930078411, 1681.8616607255778], [559.715512204056, 1694.1068607255097], [567.5295377993564, 1707.4652607253995], [575.3435633946565, 1719.7104607253314], [590.9716145852569, 1739.7480607253638], [599.7623933799264, 1751.9932607252958], [603.669406177403, 1759.7856607253962], [606.5996657755103, 1774.2572607256393], [608.5531721745957, 1790.9552607254027], [611.4834317727032, 1804.3136607252925], [575.3435633946565, 1816.5588607256198], [552.878239808472, 1832.1436607254254], [516.7383714304253, 1863.3132607254317], [469.854217858624, 1910.0676607256391], [454.22616666837064, 1927.8788607253605], [437.621362278401, 1952.3692607256198], [420.03980468906224, 1971.2936607252987], [410.27227269502373, 1986.8784607254997], [408.3187662962854, 2006.9160607255321], [404.41175349846174, 2016.9348607255483], [400.50474070098517, 2020.274460725422], [397.5744811028777, 2023.6140607252955], [394.6442215044233, 2028.0668607255225], [389.76045550757755, 2031.4064607253958], [380.96967671290815, 2033.6328607253117], [370.2253915195004, 2034.7460607252694], [343.8530551354923, 2034.7460607252694], [330.17851034363014, 2035.8592607256228], [329.201757144261, 2040.3120607254543], [323.34123794769914, 2049.217660725513], [314.5504591533767, 2059.236460725529], [308.6899399568148, 2069.255260725545], [306.73643355807656, 2088.1796607256197], [308.6899399568148, 2102.651260725467], [310.6434463555532, 2107.1040607252985], [309.66669315618395, 2114.8964607253993], [306.73643355807656, 2121.5756607255416], [292.0851355668452, 2130.4812607256], [286.2246163702833, 2136.0472607253896], [278.4105907753301, 2143.83966072549], [273.5268247781373, 2153.858460725506], [272.55007157876815, 2158.3112607253374], [255.94526718879857, 2159.4244607252954], [245.20098199539092, 2160.5376607256485], [227.6194244060522, 2164.9904607254803], [214.92163281390617, 2167.2168607253957], [207.10760721860595, 2168.3300607253536], [199.29358162330573, 2169.4432607253116], [190.50280282863636, 2171.6696607256226], [179.75851763522869, 2177.235660725412], [174.87475163803592, 2177.235660725412], [159.24670044778247, 2178.34886072537], [152.4094280518514, 2178.34886072537], [144.59540245655117, 2179.462060725328], [133.8511172631435, 2186.1412607254706], [125.06033846847413, 2189.480860725344], [114.31605327506645, 2192.820460725613], [93.80423608727324, 2197.2732607254443], [75.24592529856534, 2199.49966072536], [53.75735491174998, 2199.49966072536], [43.0130697183423, 2199.49966072536], [35.19904412304208, 2196.160060725487], [29.338524926480158, 2192.820460725613], [27.385018527741853, 2193.933660725571], [21.524499331526947, 2193.933660725571], [1.9894353431028817, 2190.594060725302], [-10.708356249043097, 2190.594060725302], [-24.38290104055823, 2191.707260725655], [-36.10393943368207, 2193.933660725571], [-57.592509820497426, 2196.160060725487], [-89.82536540106747, 2201.726060725276], [-111.31393578788283, 2202.839260725629], [-123.03497418065966, 2206.178860725503], [-292.9900308774852, 2143.83966072549], [-305.68782246963116, 2134.9340607254317], [-318.3856140621242, 2141.613260725574], [-323.26938005896994, 2144.952860725448], [-333.0369120530085, 2157.1980607253795], [-338.89743124957045, 2164.9904607254803], [-342.804444047047, 2168.3300607253536], [-349.64171644297807, 2169.4432607253116], [-376.0140528269862, 2169.4432607253116], [-397.50262321380154, 2168.3300607253536], [-435.5959979905865, 2169.4432607253116], [-441.4565171871484, 2169.4432607253116], [-450.2472959818178, 2171.6696607256226], [-460.0148279758564, 2171.6696607256226], [-478.57313876456425, 2170.5564607252695], [-492.2476835560794, 2171.6696607256226], [-502.0152155504649, 2173.8960607255385], [-508.852487946049, 2177.235660725412], [-515.68976034198, 2181.688460725639], [-522.5270327379111, 2188.367660725386], [-527.4107987347569, 2195.046860725529], [-535.2248243300571, 2201.726060725276], [-545.9691095234647, 2209.5184607253764], [-561.5971607140652, 2216.197660725519], [-665.1329998510123, 2266.2916607256], [-683.6913106397203, 2271.8576607253895], [-689.5518298362822, 2277.423660725574], [-701.2728682290591, 2279.6500607254898], [-713.9706598215521, 2288.555660725548], [-728.6219578124363, 2293.0084607253793], [-767.6920857889374, 2288.555660725548], [-804.8087073663532, 2290.782060725464], [-847.785848139984, 2295.234860725295], [-806.7622137650916, 2223.9900607256195], [-796.0179285716838, 2205.065660725545], [-760.8548133930063, 2144.952860725448], [-733.5057238096291, 2097.0852607252823], [-719.8311790177669, 2074.8212607253345], [-701.2728682290591, 2046.991260725597], [-673.9237786456818, 2014.7084607256327], [-660.2492338541666, 2000.2368607253895], [-650.481701860128, 1987.9916607254577], [-636.807157068266, 1964.6144607255517], [-628.0163782735966, 1943.4636607255613], [-623.1326122767508, 1925.6524607254446], [-621.1791058780125, 1912.294060725555], [-622.1558590773816, 1885.5772607253798], [-628.0163782735966, 1831.0304607254675], [-632.9001442707894, 1797.6344607255453], [-785.2736433779291, 1738.634860725406], [-672.9470254463126, 1123.0352607253774], [-613.3650802827123, 561.9824607256567], [-443.41002358588673, -91.46593927452102], [-484.43365796112613, -2223.2439392744964], [678.8794025316037, -2237.715539274344]]]}, "properties": {"cusec": "3802702001", "mun": "027", "nmun": "Paso, El", "area_m2": 4954995.487723056, "perimeter_m": 11701.799070485895, "coords_system": "local_m_enu"}}]}