{"type": "FeatureCollection", "crs": {"type": "name", "properties": {"name": "EPSG:32628_local_enu_m_section_centroid", "lng0": -15.419205738233403, "lat0": 28.095701579626063}}, "features": [{"type": "Feature", "geometry": {"type": "Polygon", "coordinates": [[[-217.54379185129068, -197.19451602678603], [-210.76783342324092, -175.4871160266191], [-244.94223245162024, -164.81091445198658], [-244.94223245162024, -188.55362972728273], [-217.54379185129068, -197.19451602678603]]]}, "properties": {"name": "", "kind": "pitch", "category": "parque", "extrude": false}}, {"type": "Feature", "geometry": {"type": "Polygon", "coordinates": [[[171.4355028379269, 290.9436839731244], [179.38988881867334, 294.951203973289], [164.72024716823012, 318.7309437643728], [157.2050397388146, 320.8648613877439], [154.10713604129464, 321.38577534698516], [171.4355028379269, 290.9436839731244]]]}, "properties": {"name": "", "kind": "garden", "category": "parque", "extrude": false}}, {"type": "Feature", "geometry": {"type": "Polygon", "coordinates": [[[135.39526018425542, 303.18888397345177], [135.0024510001395, 303.8568039733474], [134.3150349277185, 303.5228439733996], [134.70784411200893, 302.74360397338955], [135.39526018425542, 303.18888397345177]]]}, "properties": {"name": "", "kind": "garden", "category": "parque", "extrude": false}}, {"type": "Feature", "geometry": {"type": "Polygon", "coordinates": [[[70.38534019344172, 317.3265239733516], [72.84039759482053, 317.9944439732472], [75.59006188450437, 306.4171639732109], [72.2511838185594, 305.7492439733153], [74.9026458120834, 293.5040439733834], [87.47253970763138, 235.28368397325409], [90.02579940517002, 223.37244397326998], [105.247155294242, 226.2667639734768], [124.98581680213013, 230.16296397313155], [117.22783541352885, 243.7440039732502], [114.08536193955463, 249.64396397338277], [110.74648387360966, 259.7740839731179], [108.88064024849199, 267.5664839732184], [107.89861728794047, 274.0230439731322], [107.80041499178064, 282.2607239732949], [108.09502187991122, 288.93992397343754], [109.46985402475313, 296.62100397342357], [116.28029570182146, 323.0038439732553], [68.34112913259143, 323.0038439732553], [70.38534019344172, 317.3265239733516]]]}, "properties": {"name": "", "kind": "park", "category": "parque", "extrude": false}}, {"type": "Feature", "geometry": {"type": "Polygon", "coordinates": [[[132.645595894746, 190.75568397335786], [124.98581680213013, 230.16296397313155], [105.247155294242, 226.2667639734768], [112.90693438685791, 186.85948397330762], [132.645595894746, 190.75568397335786]]]}, "properties": {"name": "", "kind": "pitch", "category": "parque", "extrude": false}}, {"type": "Feature", "geometry": {"type": "Polygon", "coordinates": [[[75.59006188450437, 156.80308397325902], [73.23320677911092, 172.83316397312674], [64.98421391005944, 173.6124039731368], [63.21657258110157, 157.47100397315464], [75.59006188450437, 156.80308397325902]]]}, "properties": {"name": "", "kind": "playground", "category": "parque", "extrude": false}}, {"type": "Feature", "geometry": {"type": "Polygon", "coordinates": [[[100.92625426774552, 146.450323973295], [104.06872774154529, 146.78428397324282], [110.0590678011887, 147.56352397325287], [105.93457136666296, 168.71432397324313], [100.92625426774552, 167.7124439733997], [100.92625426774552, 146.450323973295]]]}, "properties": {"name": "", "kind": "garden", "category": "parque", "extrude": false}}, {"type": "Feature", "geometry": {"type": "Polygon", "coordinates": [[[121.94154562431574, 114.39016397316408], [118.60266755819632, 148.56540397349178], [116.54041934110789, 148.34276397326292], [110.0590678011887, 147.56352397325287], [104.06872774154529, 146.78428397324282], [104.85434610995162, 112.2750839733628], [121.94154562431574, 114.39016397316408]]]}, "properties": {"name": "", "kind": "pitch", "category": "parque", "extrude": false}}, {"type": "Feature", "geometry": {"type": "Polygon", "coordinates": [[[107.50580810365007, 90.79032397342473], [104.85434610995162, 112.2750839733628], [104.06872774154529, 146.78428397324282], [100.92625426774552, 146.450323973295], [97.19456701751015, 95.91104397315178], [100.53344508345512, 93.23936397317382], [107.60401039963546, 76.87532397335829], [109.27344943260793, 77.09796397319167], [107.50580810365007, 90.79032397342473]]]}, "properties": {"name": "", "kind": "garden", "category": "parque", "extrude": false}}, {"type": "Feature", "geometry": {"type": "Polygon", "coordinates": [[[187.44247709557965, 307.0850839731065], [202.46742839250646, 282.03808397346154], [210.37624465992604, 286.7843997629295], [207.48623164929438, 290.39897085463554], [205.7138136098917, 292.21998072457313], [203.74405824136298, 291.0550039732388], [199.71776410282263, 297.73420397338145], [200.08713616593056, 297.95266250535803], [192.6049946825011, 304.24304121444993], [187.9562353326589, 307.4015976860653], [187.44247709557965, 307.0850839731065]]]}, "properties": {"name": "", "kind": "garden", "category": "parque", "extrude": false}}, {"type": "Feature", "geometry": {"type": "Polygon", "coordinates": [[[137.06469921740234, 296.3983639731947], [136.47548544096676, 297.51156397315253], [135.49346248041525, 296.9549639733714], [136.1808785528362, 295.84176397341355], [137.06469921740234, 296.3983639731947]]]}, "properties": {"name": "", "kind": "garden", "category": "parque", "extrude": false}}, {"type": "Feature", "geometry": {"type": "Polygon", "coordinates": [[[140.30537498736194, 293.2814039731545], [140.79638646763772, 293.8380039733312], [140.79638646763772, 294.61724397334126], [140.20717269120212, 295.0625239734035], [139.51975661878117, 295.0625239734035], [138.93054284252003, 294.5059239732268], [139.0287451385054, 293.7266839732167], [139.51975661878117, 293.2814039731545], [140.30537498736194, 293.2814039731545]]]}, "properties": {"name": "", "kind": "garden", "category": "parque", "extrude": false}}, {"type": "Feature", "geometry": {"type": "Polygon", "coordinates": [[[194.2184355236294, 277.69660397334906], [199.71776410282263, 281.0362039732226], [189.99573679311828, 297.9568439732148], [184.20180132562007, 294.61724397334126], [194.2184355236294, 277.69660397334906]]]}, "properties": {"name": "", "kind": "garden", "category": "parque", "extrude": false}}, {"type": "Feature", "geometry": {"type": "Polygon", "coordinates": [[[127.04806501939301, 283.15128397341937], [129.01211094049606, 284.2644839733772], [143.15324157303112, 259.55144397328456], [146.19751275084553, 261.332563973138], [132.15458441447026, 286.1569239733451], [137.94851988179406, 289.71916397344756], [130.19053849319278, 301.7417239731506], [136.3772831449814, 305.86056397342975], [132.44919130260084, 312.53976397317683], [131.17256145374432, 313.0963639733535], [130.38694308533798, 308.0869639733454], [129.11031323665588, 302.8549239731085], [126.45885124295744, 293.5040439733834], [124.69120991399956, 285.9342839731163], [125.08401909811552, 277.80792397346346], [125.96783976268166, 270.12684397347743], [127.73548109181395, 263.4476439733348], [132.05638211831047, 253.2062039734852], [141.18919565175364, 258.4382439733267], [127.04806501939301, 283.15128397341937]]]}, "properties": {"name": "", "kind": "garden", "category": "parque", "extrude": false}}, {"type": "Feature", "geometry": {"type": "Polygon", "coordinates": [[[197.55731358957436, 272.1306039731643], [203.05664216894203, 275.4702039734333], [200.60158476738877, 279.70036397343137], [195.10225618819553, 276.24944397344336], [197.55731358957436, 272.1306039731643]]]}, "properties": {"name": "", "kind": "garden", "category": "parque", "extrude": false}}, {"type": "Feature", "geometry": {"type": "Polygon", "coordinates": [[[181.8449462202266, 270.2381639731964], [174.0869648314509, 283.4852439733672], [173.89056023948012, 277.5852839732346], [174.97078549601702, 272.9098439731743], [177.72044978570085, 267.78912397344726], [181.8449462202266, 270.2381639731964]]]}, "properties": {"name": "", "kind": "garden", "category": "parque", "extrude": false}}, {"type": "Feature", "geometry": {"type": "Polygon", "coordinates": [[[150.51841377734206, 294.5059239732268], [153.85729184346144, 288.8286039733231], [155.23212398830336, 289.60784397333316], [157.09796761342105, 286.26824397345956], [156.0177423567097, 285.7116439732829], [156.90156302127585, 284.1531639732628], [155.6249331724193, 283.3739239732528], [157.19616990940642, 280.7022439732748], [158.57100205424834, 281.48148397328487], [159.45482271881446, 280.0343239733792], [160.33864338320618, 280.4796039734414], [162.20448700832387, 277.2513239732868], [160.92785715964177, 276.47208397327677], [164.07033063344156, 271.0174039732064], [166.32898344284962, 270.6834439732586], [178.8006750424122, 249.4213239731539], [180.1755071872541, 250.089243973445], [167.99842247582208, 270.6834439732586], [166.42718573900942, 289.0512439731565], [160.43684567936603, 299.9606039732971], [157.6871813896822, 298.5134439733915], [150.51841377734206, 294.5059239732268]]]}, "properties": {"name": "", "kind": "garden", "category": "parque", "extrude": false}}, {"type": "Feature", "geometry": {"type": "Polygon", "coordinates": [[[203.5476536492178, 279.8116839731503], [215.13552458421427, 259.9967239733468], [221.81328071610417, 263.7816039732826], [224.12978469182818, 265.1500509699852], [219.6989472092506, 273.5299223127323], [213.95812357572834, 282.3045043660744], [211.9884874756817, 284.76794992248784], [203.5476536492178, 279.8116839731503]]]}, "properties": {"name": "", "kind": "garden", "category": "parque", "extrude": false}}, {"type": "Feature", "geometry": {"type": "Polygon", "coordinates": [[[206.4937225310468, 256.99108397342104], [212.09125340639986, 260.442003973409], [203.74405824136298, 274.245683973361], [198.24472966199534, 271.0174039732064], [206.4937225310468, 256.99108397342104]]]}, "properties": {"name": "", "kind": "garden", "category": "parque", "extrude": false}}, {"type": "Feature", "geometry": {"type": "Polygon", "coordinates": [[[164.16853292960135, 269.0136439731241], [152.48245969861952, 262.00048397342914], [162.8919030807448, 244.4119239731458], [174.5779763119011, 251.3137639731218], [164.16853292960135, 269.0136439731241]]]}, "properties": {"name": "", "kind": "garden", "category": "parque", "extrude": false}}, {"type": "Feature", "geometry": {"type": "Polygon", "coordinates": [[[220.34024627527688, 260.9986039731902], [216.01934524860596, 258.3269239732123], [220.1438416831317, 251.75904397318405], [224.46474270980264, 254.430723973162], [220.34024627527688, 260.9986039731902]]]}, "properties": {"name": "", "kind": "garden", "category": "parque", "extrude": false}}, {"type": "Feature", "geometry": {"type": "Polygon", "coordinates": [[[210.71642126155794, 249.86660397321614], [216.21574984075113, 253.42884397331858], [213.26968095909658, 258.3269239732123], [207.7703523797289, 254.87600397322424], [210.71642126155794, 249.86660397321614]]]}, "properties": {"name": "", "kind": "garden", "category": "parque", "extrude": false}}, {"type": "Feature", "geometry": {"type": "Polygon", "coordinates": [[[204.23506972163872, 241.2949639735011], [203.05664216894203, 243.41004397330238], [201.87821461624532, 242.63080397329233], [192.54899649065692, 258.7722039732745], [193.62922174719384, 259.4401239731701], [191.07596204965517, 263.7816039732826], [190.19214138526348, 263.22500397350143], [186.2640495428829, 269.9042039732485], [178.9970796345574, 265.6740439732505], [195.88787455660187, 236.50820397332637], [204.23506972163872, 241.2949639735011]]]}, "properties": {"name": "", "kind": "garden", "category": "parque", "extrude": false}}, {"type": "Feature", "geometry": {"type": "Polygon", "coordinates": [[[161.51707093607737, 243.63268397313576], [151.20582984976298, 261.332563973138], [144.0370622375973, 256.99108397342104], [154.3483033237372, 239.29120397341876], [161.51707093607737, 243.63268397313576]]]}, "properties": {"name": "", "kind": "garden", "category": "parque", "extrude": false}}, {"type": "Feature", "geometry": {"type": "Polygon", "coordinates": [[[221.51867382797363, 244.52324397326024], [216.9031659131721, 252.2043239732463], [211.40383733397888, 248.7534039732583], [215.92114295262058, 241.07232397327223], [221.51867382797363, 244.52324397326024]]]}, "properties": {"name": "", "kind": "garden", "category": "parque", "extrude": false}}, {"type": "Feature", "geometry": {"type": "Polygon", "coordinates": [[[224.562945005788, 243.7440039732502], [234.18677001950695, 227.37996397343466], [235.0780792790151, 227.9297235270289], [234.36208865424055, 233.40129861996886], [232.52069467371462, 241.7345244687523], [232.12452180224412, 242.40816397345895], [232.3421113670063, 242.54270296999024], [232.0204603381295, 243.99833424522043], [230.90903928636695, 247.51947100750598], [224.562945005788, 243.7440039732502]]]}, "properties": {"name": "", "kind": "garden", "category": "parque", "extrude": false}}, {"type": "Feature", "geometry": {"type": "Polygon", "coordinates": [[[189.89753449695846, 225.82148397341456], [175.26539238432204, 249.97792397333058], [167.70381558769154, 245.41380397338472], [182.23775540434255, 221.36868397318764], [189.89753449695846, 225.82148397341456]]]}, "properties": {"name": "", "kind": "garden", "category": "parque", "extrude": false}}, {"type": "Feature", "geometry": {"type": "Polygon", "coordinates": [[[157.19616990940642, 209.79140397315135], [166.03437655471905, 214.91212397327388], [142.4658255006102, 256.1005239732965], [133.62761885529758, 250.86848397345506], [157.19616990940642, 209.79140397315135]]]}, "properties": {"name": "", "kind": "garden", "category": "parque", "extrude": false}}, {"type": "Feature", "geometry": {"type": "Polygon", "coordinates": [[[232.3209263943893, 226.2667639734768], [222.59889908468497, 242.63080397329233], [216.9031659131721, 239.29120397341876], [226.72339551903625, 222.8158439734888], [232.3209263943893, 226.2667639734768]]]}, "properties": {"name": "", "kind": "garden", "category": "parque", "extrude": false}}, {"type": "Feature", "geometry": {"type": "Polygon", "coordinates": [[[211.50203962996426, 228.4931639733925], [205.1188903862049, 239.0685639731899], [197.2627067014438, 234.28180397341066], [203.64585594520315, 223.7064039732178], [211.50203962996426, 228.4931639733925]]]}, "properties": {"name": "", "kind": "garden", "category": "parque", "extrude": false}}, {"type": "Feature", "geometry": {"type": "Polygon", "coordinates": [[[233.59755624324583, 224.15168397328003], [227.901823071733, 220.81208397340646], [235.07059068407312, 208.6782039731935], [236.2490182367698, 209.38008600710276], [236.2490182367698, 211.68384397311925], [235.87174512136684, 220.3892392978571], [233.59755624324583, 224.15168397328003]]]}, "properties": {"name": "", "kind": "garden", "category": "parque", "extrude": false}}, {"type": "Feature", "geometry": {"type": "Polygon", "coordinates": [[[231.63351032196832, 193.20472397310695], [230.16047588114102, 195.76508397336596], [229.2766552165749, 195.31980397330372], [223.3845174530913, 205.33860397331992], [224.46474270980264, 206.00652397321554], [221.81328071610417, 210.5706439731614], [221.02766234769786, 210.0140439733802], [215.13552458421427, 220.0328439733964], [216.31395213691096, 220.81208397340646], [215.0373222880544, 223.03848397332217], [221.81328071610417, 227.04600397348685], [211.10923044567386, 245.19116397315585], [207.08293630730796, 242.8534439731257], [216.01934524860596, 227.4912839731536], [205.31529497817564, 221.14604397335427], [230.55328506543142, 177.95388397324928], [236.2490182367698, 181.11628070774756], [236.2490182367698, 195.93448397324778], [231.63351032196832, 193.20472397310695]]]}, "properties": {"name": "", "kind": "garden", "category": "parque", "extrude": false}}, {"type": "Feature", "geometry": {"type": "Polygon", "coordinates": [[[206.69012712301756, 196.2103639734282], [189.89753449695846, 225.82148397341456], [182.23775540434255, 221.36868397318764], [198.93214573441628, 191.86888397331572], [206.69012712301756, 196.2103639734282]]]}, "properties": {"name": "", "kind": "garden", "category": "parque", "extrude": false}}, {"type": "Feature", "geometry": {"type": "Polygon", "coordinates": [[[144.23346682956804, 196.98960397343825], [129.30671782862663, 220.2554839732298], [134.2168326315587, 194.54056397329367], [144.23346682956804, 196.98960397343825]]]}, "properties": {"name": "", "kind": "garden", "category": "parque", "extrude": false}}, {"type": "Feature", "geometry": {"type": "Polygon", "coordinates": [[[192.64719878664226, 197.32356397338606], [179.4880911148332, 220.9234039731254], [172.4175257984784, 216.80456397324178], [175.65820156843802, 211.12724397333807], [177.1312360094397, 211.79516397323368], [178.8006750424122, 208.56688397347455], [177.91685437784605, 207.7876439734645], [178.8006750424122, 206.45180397327778], [177.52404519355568, 205.67256397326773], [178.9970796345574, 202.88956397317534], [180.47011407538469, 203.89144397341425], [181.25573244379103, 202.33296397339416], [182.23775540434255, 202.7782439734564], [184.1035990294602, 199.54996397330177], [182.72876688479278, 198.77072397329172], [185.87124035859256, 193.42736397333582], [192.64719878664226, 197.32356397338606]]]}, "properties": {"name": "", "kind": "garden", "category": "parque", "extrude": false}}, {"type": "Feature", "geometry": {"type": "Polygon", "coordinates": [[[175.65820156843802, 187.4160839734843], [172.4175257984784, 192.87076397315914], [171.0426936536365, 192.0915239731491], [169.1768500285188, 195.31980397330372], [170.06067069308497, 195.8764039734804], [169.1768500285188, 197.4348839735005], [170.35527758121555, 198.21412397311505], [169.07864773253343, 200.44052397342625], [167.90022017983674, 199.77260397313515], [166.9181972192852, 201.44240397326968], [165.93617425855922, 200.8858039734885], [163.87392604147078, 204.3367239734765], [165.34696048229807, 205.11596397348654], [162.1062847123385, 210.45932397344245], [156.60695613297085, 207.23104397328783], [170.35527758121555, 184.2991239734441], [175.65820156843802, 187.4160839734843]]]}, "properties": {"name": "", "kind": "garden", "category": "parque", "extrude": false}}, {"type": "Feature", "geometry": {"type": "Polygon", "coordinates": [[[217.59058198559305, 186.41420397324538], [211.40383733397888, 196.43300397326158], [203.25304676108723, 191.31228397313905], [209.5379937088612, 181.40480397323728], [212.87687177480618, 183.40856397331962], [217.59058198559305, 186.41420397324538]]]}, "properties": {"name": "", "kind": "garden", "category": "parque", "extrude": false}}, {"type": "Feature", "geometry": {"type": "Polygon", "coordinates": [[[196.67349292500822, 190.31040397329562], [193.825626339339, 195.31980397330372], [173.39954875920438, 183.631203973153], [176.34561764085893, 178.51048397342595], [196.67349292500822, 190.31040397329562]]]}, "properties": {"name": "", "kind": "garden", "category": "parque", "extrude": false}}, {"type": "Feature", "geometry": {"type": "Polygon", "coordinates": [[[232.02631950625872, 175.28220397327132], [236.2490182367698, 168.2160344494487], [236.2490182367698, 177.7402699192001], [232.02631950625872, 175.28220397327132]]]}, "properties": {"name": "", "kind": "garden", "category": "parque", "extrude": false}}, {"type": "Feature", "geometry": {"type": "Polygon", "coordinates": [[[212.38586029453043, 172.61052397329337], [209.34158911671602, 177.95388397324928], [198.53933655012588, 171.83128397328332], [201.5836077279403, 166.37660397321298], [212.38586029453043, 172.61052397329337]]]}, "properties": {"name": "", "kind": "garden", "category": "parque", "extrude": false}}, {"type": "Feature", "geometry": {"type": "Polygon", "coordinates": [[[196.37888603687765, 170.71808397332546], [184.79101510188121, 164.15020397329727], [188.1298931680006, 158.69552397322693], [199.52135951085185, 165.1520839731407], [196.37888603687765, 170.71808397332546]]]}, "properties": {"name": "", "kind": "garden", "category": "parque", "extrude": false}}, {"type": "Feature", "geometry": {"type": "Polygon", "coordinates": [[[155.6249331724193, 156.58044397342564], [152.28605510647432, 174.05768397319903], [118.30806067006574, 167.48980397317084], [121.64693873601071, 150.01256397339745], [155.6249331724193, 156.58044397342564]]]}, "properties": {"name": "", "kind": "pitch", "category": "parque", "extrude": false}}, {"type": "Feature", "geometry": {"type": "Polygon", "coordinates": [[[232.12452180224412, 154.35404397311444], [222.20608990039455, 171.05204397327327], [218.7690095382898, 168.936963973472], [228.68744144031376, 152.23896397331316], [232.12452180224412, 154.35404397311444]]]}, "properties": {"name": "", "kind": "garden", "category": "parque", "extrude": false}}, {"type": "Feature", "geometry": {"type": "Polygon", "coordinates": [[[200.79798935953397, 163.25964397317279], [189.3083207206973, 156.80308397325902], [192.64719878664226, 151.23708397346974], [203.94046283350815, 157.6936439733835], [200.79798935953397, 163.25964397317279]]]}, "properties": {"name": "", "kind": "garden", "category": "parque", "extrude": false}}, {"type": "Feature", "geometry": {"type": "Polygon", "coordinates": [[[201.19079854382434, 136.43152397327881], [211.10923044567386, 142.6654439733592], [208.45776845214985, 146.78428397324282], [202.8602375767968, 143.2220439731404], [199.03034803040165, 149.34464397310634], [195.10225618819553, 146.89560397335725], [201.19079854382434, 136.43152397327881]]]}, "properties": {"name": "", "kind": "garden", "category": "parque", "extrude": false}}, {"type": "Feature", "geometry": {"type": "Polygon", "coordinates": [[[184.30000362160544, 130.08628397347948], [169.86426610093977, 154.79932397317668], [172.90853727875418, 129.08440397324057], [184.30000362160544, 130.08628397347948]]]}, "properties": {"name": "", "kind": "garden", "category": "parque", "extrude": false}}, {"type": "Feature", "geometry": {"type": "Polygon", "coordinates": [[[236.2490182367698, 122.73916397344124], [236.2490182367698, 130.80153688653866], [227.31260929547184, 146.1163639733472], [222.30429219637995, 143.2220439731404], [234.67778149978272, 121.84860397331676], [236.2490182367698, 122.73916397344124]]]}, "properties": {"name": "", "kind": "garden", "category": "parque", "extrude": false}}, {"type": "Feature", "geometry": {"type": "Polygon", "coordinates": [[[230.06227358515568, 147.3408839734195], [236.2490182367698, 136.34629459869174], [236.2490182367698, 150.84746397326697], [230.06227358515568, 147.3408839734195]]]}, "properties": {"name": "", "kind": "garden", "category": "parque", "extrude": false}}, {"type": "Feature", "geometry": {"type": "Polygon", "coordinates": [[[146.39391734299073, 113.94488397349733], [141.97481402033443, 149.90124397328302], [124.29840072970917, 147.78616397348173], [128.61930175620566, 111.82980397330056], [146.39391734299073, 113.94488397349733]]]}, "properties": {"name": "", "kind": "pitch", "category": "parque", "extrude": false}}, {"type": "Feature", "geometry": {"type": "Polygon", "coordinates": [[[222.40249449253974, 114.94676397334075], [219.26002101856554, 120.17880397318223], [217.98339116988345, 119.39956397317218], [216.01934524860596, 122.6278439733268], [217.00136820933193, 123.18444397310799], [216.01934524860596, 124.74292397312809], [217.29597509746247, 125.52216397313813], [215.92114295262058, 127.74856397344934], [214.74271539992384, 127.08064397315823], [213.76069243937235, 128.75044397329276], [212.87687177480618, 128.1938439731161], [210.8146235575433, 131.53344397338515], [212.28765799837058, 132.42400397311414], [208.94877993242562, 137.9900039732989], [202.56563068866626, 134.09380397324867], [215.92114295262058, 111.05056397329051], [222.40249449253974, 114.94676397334075]]]}, "properties": {"name": "", "kind": "garden", "category": "parque", "extrude": false}}, {"type": "Feature", "geometry": {"type": "Polygon", "coordinates": [[[218.6708072423044, 110.60528397322827], [220.63485316340746, 108.71284397326036], [224.95575419007838, 107.04304397312583], [229.08025062442968, 106.37512397323022], [234.08856772352158, 106.37512397323022], [236.2490182367698, 106.82040397329246], [236.2490182367698, 120.48025459296113], [218.6708072423044, 110.60528397322827]]]}, "properties": {"name": "", "kind": "garden", "category": "parque", "extrude": false}}, {"type": "Feature", "geometry": {"type": "Polygon", "coordinates": [[[186.46045413502813, 113.38828397332065], [174.77438090387184, 112.05244397313393], [175.16719008816224, 108.93548397348923], [179.97910259510894, 109.49208397327041], [195.2986607801663, 111.16188397340494], [193.62922174719384, 114.1675239733307], [186.46045413502813, 113.38828397332065]]]}, "properties": {"name": "", "kind": "garden", "category": "parque", "extrude": false}}, {"type": "Feature", "geometry": {"type": "Polygon", "coordinates": [[[144.33166912572787, 46.15100397341408], [142.17121861247963, 65.298043973322], [139.32335202663594, 64.96408397337419], [141.28739794791346, 45.81704397346627], [144.33166912572787, 46.15100397341408]]]}, "properties": {"name": "", "kind": "garden", "category": "parque", "extrude": false}}, {"type": "Feature", "geometry": {"type": "Polygon", "coordinates": [[[137.65391299366348, 45.37176397340403], [135.39526018425542, 64.51880397331195], [132.645595894746, 64.18484397336414], [134.80604640799427, 45.03780397345622], [137.65391299366348, 45.37176397340403]]]}, "properties": {"name": "", "kind": "garden", "category": "parque", "extrude": false}}, {"type": "Feature", "geometry": {"type": "Polygon", "coordinates": [[[226.52699092689107, 51.828323973317794], [226.3305863349203, 54.05472397323351], [171.3373005419415, 47.264203973371934], [171.63190743007206, 45.03780397345622], [226.52699092689107, 51.828323973317794]]]}, "properties": {"name": "", "kind": "garden", "category": "parque", "extrude": false}}, {"type": "Feature", "geometry": {"type": "Polygon", "coordinates": [[[228.0000253678928, 38.35860397331359], [226.72339551903625, 50.603803973245505], [219.55462790687056, 49.60192397340208], [221.1258646436832, 37.46804397318911], [228.0000253678928, 38.35860397331359]]]}, "properties": {"name": "", "kind": "garden", "category": "parque", "extrude": false}}, {"type": "Feature", "geometry": {"type": "Polygon", "coordinates": [[[148.84897474436957, 28.785083973359633], [170.64988446952057, 31.456763973337587], [169.7660638049544, 39.13784397332364], [160.82965486365637, 38.024643973365784], [160.53504797535138, 40.69632397334374], [156.60695613297085, 40.2510439732815], [156.90156302127585, 37.46804397318911], [147.9651540798034, 36.46616397334569], [148.84897474436957, 28.785083973359633]]]}, "properties": {"name": "", "kind": "garden", "category": "parque", "extrude": false}}, {"type": "Feature", "geometry": {"type": "Polygon", "coordinates": [[[147.76874948783265, 14.536123973345383], [144.62627601385844, 43.03404397337388], [135.10065329612485, 42.03216397313497], [138.34132906608446, 13.422923973387526], [147.76874948783265, 14.536123973345383]]]}, "properties": {"name": "", "kind": "garden", "category": "parque", "extrude": false}}, {"type": "Feature", "geometry": {"type": "Polygon", "coordinates": [[[149.04537933651474, 27.115283973225104], [151.20582984976298, 9.304083973108419], [236.2490182367698, 18.620351872678782], [236.2490182367698, 36.534704455037286], [149.04537933651474, 27.115283973225104]]]}, "properties": {"name": "", "kind": "garden", "category": "parque", "extrude": false}}, {"type": "Feature", "geometry": {"type": "Polygon", "coordinates": [[[150.42021148135666, -9.06371602678945], [148.06335637596322, 12.421043973148613], [138.53773365822963, 11.53048397341962], [140.99279105960844, -9.954276026518443], [150.42021148135666, -9.06371602678945]]]}, "properties": {"name": "", "kind": "garden", "category": "parque", "extrude": false}}, {"type": "Feature", "geometry": {"type": "Polygon", "coordinates": [[[217.39417739344788, -40.45595602662928], [216.7067613210269, -33.44279602653884], [183.21977836506852, -36.893716026526846], [183.9071944374895, -44.018196026731715], [217.39417739344788, -40.45595602662928]]]}, "properties": {"name": "", "kind": "garden", "category": "parque", "extrude": false}}, {"type": "Feature", "geometry": {"type": "Polygon", "coordinates": [[[121.94154562431574, 114.39016397316408], [104.85434610995162, 112.2750839733628], [107.50580810365007, 90.79032397342473], [109.27344943260793, 77.09796397319167], [126.36064894697205, 79.21304397338844], [121.94154562431574, 114.39016397316408]]]}, "properties": {"name": "", "kind": "pitch", "category": "parque", "extrude": false}}, {"type": "Feature", "geometry": {"type": "Polygon", "coordinates": [[[90.4186085894604, 19.545523973353482], [89.04377644461849, -3.9429960266669184], [88.94557414845868, -24.425876026761557], [89.9275971090102, -29.212636026540792], [92.77546369485384, -35.55787602673561], [97.29276931349554, -41.45783602686819], [103.28310937313896, -46.46723602687629], [110.35367468931928, -49.918156026864295], [120.37030888732863, -52.14455602678001], [128.52109946022028, -53.257756026737866], [135.78806936854582, -52.47851602672782], [134.90424870397965, -44.12951602684615], [126.36064894697205, -45.13139602668957], [126.55705353911722, -46.57855602659524], [122.33435480843168, -47.02383602665748], [122.13795021646091, -45.687996026866244], [120.9595226637642, -45.79931602658519], [120.6649157754592, -42.682356026544994], [119.58469051892229, -42.793676026659426], [118.79907215034152, -35.11259602667337], [120.6649157754592, -35.00127602655894], [120.27210659134325, -31.66167602668537], [118.30806067006574, -31.772996026799802], [117.52244230165942, -24.09191602681375], [118.40626296622558, -23.980596026699317], [118.11165607792056, -21.086276026887987], [119.09367903864651, -20.974956026773555], [118.60266755819632, -16.18819602659883], [117.4242400054996, -16.299516026713263], [117.03143082138367, -12.84859602672526], [116.1476101568175, -12.84859602672526], [115.36199178841119, -5.390156026572583], [117.32603770951424, -5.167516026739207], [116.93322852522383, -1.6052760266367727], [114.96918260412077, -1.7165960267512048], [114.08536193955463, 5.741843973401473], [111.13929305772561, 32.01336397311877], [106.52378514309855, 72.42252397313138], [96.70355553705996, 92.01484397349702], [90.4186085894604, 19.545523973353482]]]}, "properties": {"name": "", "kind": "garden", "category": "parque", "extrude": false}}, {"type": "Feature", "geometry": {"type": "Polygon", "coordinates": [[[87.96355118790714, -51.142676026541096], [90.2222039973152, -50.47475602664548], [92.28445221457808, -50.02947602658324], [91.00782236572154, -48.47099602656314], [88.25815807603772, -45.46535602663738], [85.50849378635388, -41.56915602658714], [83.34804327310565, -38.00691602688019], [80.9911881677122, -33.3314760268199], [84.42826852981699, -52.70115602656119], [87.96355118790714, -51.142676026541096]]]}, "properties": {"name": "", "kind": "garden", "category": "parque", "extrude": false}}, {"type": "Feature", "geometry": {"type": "Polygon", "coordinates": [[[93.36467747111499, -70.84631602662569], [96.01613946481343, -70.40103602656345], [98.27479227404706, -68.84255602654335], [99.64962441888898, -66.5048360265132], [99.94423130701955, -63.83315602653525], [99.25681523459859, -61.27279602667173], [97.48917390564073, -59.157716026870446], [95.03411650408746, -58.0445160265171], [92.28445221457808, -57.93319602679816], [89.82939481302482, -59.046396026756014], [87.96355118790714, -61.05015602683835], [87.079730523341, -63.61051602670187], [87.27613511548618, -66.28219602667983], [88.55276496434273, -68.61991602670997], [90.71321547759098, -70.2897160268445], [93.36467747111499, -70.84631602662569]]]}, "properties": {"name": "", "kind": "garden", "category": "parque", "extrude": false}}, {"type": "Feature", "geometry": {"type": "Polygon", "coordinates": [[[-16.229084930552233, -357.60663602676414], [-57.67045386743153, -341.465236026782], [-62.28596178223304, -353.3764760267661], [-58.75067912396843, -354.8236360266718], [-26.875106571528704, -367.1801560267181], [-19.938745497634606, -367.1801560267181], [-16.229084930552233, -357.60663602676414]]]}, "properties": {"name": "", "kind": "garden", "category": "parque", "extrude": false}}, {"type": "Feature", "geometry": {"type": "Polygon", "coordinates": [[[-40.58325435324186, -363.8405560268445], [-41.98263707203651, -367.1801560267181], [-32.50260827708388, -367.1801560267181], [-40.58325435324186, -363.8405560268445]]]}, "properties": {"name": "", "kind": "garden", "category": "parque", "extrude": false}}, {"type": "Feature", "geometry": {"type": "Polygon", "coordinates": [[[-166.9696093809682, -364.06319602667793], [-163.89648716582806, -365.3777714653394], [-156.3654446262888, -366.6441197997875], [-146.7399363928043, -367.1801560267181], [-141.5183662689139, -367.1801560267181], [-184.8424272635642, -349.2576360268825], [-187.00287777698688, -354.8236360266718], [-166.9696093809682, -364.06319602667793]]]}, "properties": {"name": "", "kind": "garden", "category": "parque", "extrude": false}}]}