{"type": "FeatureCollection", "crs": {"type": "name", "properties": {"name": "EPSG:32628_local_enu_m_section_centroid", "lng0": -14.413491442229915, "lat0": 28.085350056283733}}, "features": [{"type": "Feature", "geometry": {"type": "Polygon", "coordinates": [[[-8509.865042133204, 1418.3504255052478], [-8508.776001410095, 1418.3504255052478], [-8508.676939805988, 1422.280339779618], [-8504.768924304166, 1421.9112052189603], [-8499.764463216652, 1421.4663109525463], [-8492.186924233973, 1420.9404595571702], [-8492.186924233973, 1421.7642506464376], [-8483.439810691638, 1420.071517010595], [-8483.390622059636, 1420.387455173133], [-8479.571101373987, 1419.9815824928176], [-8479.675277440352, 1418.9188593443885], [-8471.999418673422, 1416.5594427856358], [-8471.586109463464, 1417.4470762346637], [-8465.514194801151, 1415.0049600197767], [-8464.529507317679, 1417.4604082104977], [-8460.599297273624, 1415.7898688772436], [-8460.596612354784, 1415.796462634289], [-8460.26905225743, 1415.6494979344748], [-8459.94990098252, 1415.51384239647], [-8459.952595866635, 1415.5075150774248], [-8455.23907652847, 1413.3927246612632], [-8456.687909233106, 1409.9714599319666], [-8461.448618311138, 1411.9950036304872], [-8464.460842792785, 1404.9226010664986], [-8451.909553239399, 1400.8578871800853], [-8453.481856279617, 1395.214390400691], [-8463.839886673059, 1397.4157354939277], [-8465.275476649338, 1391.8641227210246], [-8465.359457037903, 1391.5377598400614], [-8465.359848660184, 1391.5378452038585], [-8466.927129516278, 1385.4769667057624], [-8456.934759523025, 1382.2409545901967], [-8454.237551260243, 1389.374426304948], [-8452.056787690597, 1388.723945233338], [-8450.2888927781, 1388.167319061777], [-8439.822037303826, 1385.0395749369115], [-8439.820544389982, 1385.0444976181568], [-8439.485598506317, 1384.9390390620385], [-8439.15133656953, 1384.8391536846661], [-8439.15281982377, 1384.8342628546568], [-8430.695408288011, 1382.1714255052334], [-8430.59841610311, 1382.1714255052334], [-8428.140235911844, 1381.4158265261772], [-8424.7509967717, 1380.3740373021124], [-8424.435846019614, 1380.27716580857], [-8424.435975712042, 1380.276651300325], [-8413.95267408694, 1377.0359699646517], [-8409.808434125222, 1375.8315166700206], [-8409.82508682079, 1375.7583748224856], [-8399.677438571358, 1372.7068117289102], [-8404.151240145402, 1356.742817712655], [-8392.63791152391, 1354.9516409702896], [-8394.00026463589, 1345.9071280893534], [-8392.419330490922, 1346.0152623977706], [-8392.382300474539, 1345.541574125723], [-8379.55496484749, 1346.7389355142648], [-8379.55529256432, 1346.7452502814788], [-8379.217309314465, 1346.7704538053288], [-8378.85740202761, 1346.8040491755025], [-8378.857052713993, 1346.7973182603748], [-8370.091668916488, 1347.450955858359], [-8362.6564192366, 1348.0223203059654], [-8362.12247210042, 1339.670386863587], [-8363.485381204604, 1339.4496989596173], [-8363.189113573217, 1336.539343900869], [-8366.831058126407, 1336.1265407473766], [-8367.126609955563, 1339.0298641954776], [-8368.41240533345, 1338.9177557875428], [-8368.724445587686, 1343.044115547179], [-8378.508066670296, 1342.3145476546872], [-8378.507247654245, 1342.3066568550523], [-8378.87116378703, 1342.2874713813947], [-8379.206421946035, 1342.2624710684797], [-8379.207178167446, 1342.2697568739482], [-8392.073504281112, 1341.5914506970958], [-8391.67704942907, 1336.5199969914286], [-8393.887470301372, 1336.3881315329447], [-8395.65592007212, 1336.1654111851717], [-8403.620983916595, 1335.719576440722], [-8406.21064728506, 1335.5416792677418], [-8414.579351004704, 1334.9167464140714], [-8415.362038849258, 1348.9337554359022], [-8418.069389172017, 1348.8279382678843], [-8421.18277347502, 1349.4160924073205], [-8421.53050013626, 1349.467952593904], [-8421.521608252733, 1349.5192622122106], [-8425.986568237659, 1350.194048089429], [-8426.34240037385, 1350.2424470562291], [-8426.341510793505, 1350.2476902776498], [-8431.181666507151, 1350.9791791891137], [-8434.836998707218, 1351.5316066584467], [-8435.156624430752, 1351.579911441684], [-8435.156027073952, 1351.5860052108321], [-8441.64771063574, 1352.5893855629133], [-8441.648272004613, 1352.5853556992706], [-8442.00077863443, 1352.6439571527728], [-8442.338380585097, 1352.6961382489244], [-8442.337857266672, 1352.699993823074], [-8449.366326878524, 1353.8684215924013], [-8465.20731693465, 1356.2854774920374], [-8465.210257242114, 1356.2599264271807], [-8471.164216522491, 1357.2089523435934], [-8474.711534094868, 1357.7656547296658], [-8475.042247159043, 1357.8173586489381], [-8475.019953203524, 1357.9837162512601], [-8480.54761415528, 1358.5804241330666], [-8479.16870443242, 1368.1985874108716], [-8470.839000009277, 1366.825283790278], [-8470.815591584325, 1366.973108977173], [-8470.476819386944, 1366.917368811149], [-8470.128779107552, 1366.8779195216891], [-8470.131205280457, 1366.8605029059045], [-8464.382493052273, 1365.9146337451516], [-8458.545361532162, 1365.0744803376053], [-8458.54351918904, 1365.0873578111925], [-8458.192322530052, 1365.0236665227035], [-8457.852501340161, 1364.9747551816347], [-8457.866911166167, 1364.8740344464045], [-8454.565995685538, 1364.415893349011], [-8450.601593386733, 1363.8693435042435], [-8450.602146325153, 1363.8632850310946], [-8447.539032031926, 1363.4152920846502], [-8447.53947925342, 1363.4122506142332], [-8444.30185830314, 1362.90954606163], [-8440.712740900115, 1362.3522647473455], [-8420.041330522517, 1359.0980419048922], [-8419.06160298897, 1363.9594175625623], [-8435.014797375567, 1367.8903855051149], [-8435.444198527224, 1367.8903855051149], [-8435.41434130429, 1367.9888356548088], [-8443.774690908689, 1370.048878646012], [-8443.777477767539, 1370.0402262305838], [-8444.096193078836, 1370.1280988130632], [-8444.456030286394, 1370.2167649756618], [-8444.452911130136, 1370.2264490813861], [-8448.074539321557, 1371.2249634629632], [-8446.12439162015, 1378.1018633836518], [-8452.422157374152, 1380.0486786771996], [-8454.581616059424, 1373.2619305698597], [-8465.734776445372, 1376.5700553158451], [-8463.943489191752, 1384.3332298037074], [-8472.383475274191, 1386.3590690792178], [-8475.714322716456, 1387.1585682138568], [-8481.922499551263, 1388.6487091143777], [-8481.928159664174, 1388.6129652635798], [-8482.299699656407, 1388.718247536738], [-8482.608788217376, 1388.7903768392123], [-8482.58935190627, 1388.9131179603146], [-8486.51774132139, 1389.7612528034117], [-8488.83462975023, 1397.8679753607123], [-8490.995248326904, 1405.6602300998507], [-8492.518071966339, 1410.9712255051054], [-8495.329700749477, 1410.9712255051054], [-8495.329700749477, 1412.1043873266094], [-8499.804051923884, 1412.307248874511], [-8500.142077288767, 1412.3150680846975], [-8500.142077288767, 1412.3225745264497], [-8505.03354589334, 1412.5443476627004], [-8505.133060294205, 1414.2362951073521], [-8509.865042133204, 1414.794998762683], [-8509.865042133204, 1418.3504255052478]]]}, "properties": {"id": 0, "height_median_m": 3.0, "building_count": 49, "area_m2": 3142.8628974603002}}, {"type": "Feature", "geometry": {"type": "Polygon", "coordinates": [[[-8448.58090734289, 1404.400194469834], [-8446.706008621259, 1408.3848314553989], [-8442.421845763969, 1405.5615953362058], [-8440.851156381706, 1407.6757346538159], [-8437.773229233939, 1405.6630027803747], [-8438.670248531722, 1403.6295155071593], [-8432.31749803079, 1398.3633712317653], [-8428.254918032408, 1396.0609668286893], [-8428.254918032408, 1396.060966828689], [-8427.4000828285, 1395.5765021933676], [-8426.897238591624, 1395.120535478353], [-8421.323801184682, 1391.259951669561], [-8423.597144278321, 1388.0050917527376], [-8430.251663122053, 1392.9368514748473], [-8431.40762419334, 1390.9119256378253], [-8439.517729474737, 1395.7380162556128], [-8439.818601721621, 1395.3807473725744], [-8442.846636158969, 1397.4400574143426], [-8441.086699719974, 1399.6565391179927], [-8448.58090734289, 1404.400194469834]]]}, "properties": {"id": 1, "height_median_m": 3.0, "building_count": 4, "area_m2": 164.65275933635505}}, {"type": "Feature", "geometry": {"type": "Polygon", "coordinates": [[[-8558.273971632563, 1383.855596690067], [-8558.764442300084, 1385.856956697712], [-8559.339617770212, 1388.2039536937023], [-8548.095046330132, 1390.8448870501347], [-8540.240589631707, 1392.736728606344], [-8525.508078686556, 1396.299147710387], [-8516.866470075958, 1398.4139764239403], [-8513.111780941723, 1399.334154418046], [-8509.587190309654, 1400.1979413357856], [-8509.269819483368, 1400.2757207991147], [-8509.269218965737, 1400.2735880388586], [-8497.578932870212, 1403.05732287192], [-8494.347537767659, 1391.1535919796606], [-8492.187485232327, 1383.3633786650153], [-8491.010181726739, 1379.2387548414601], [-8502.500958361177, 1376.1217948414183], [-8502.500073744208, 1376.118695630205], [-8502.844752683515, 1376.028538033366], [-8503.176602921623, 1375.9385211484248], [-8503.177456805277, 1375.9415126870056], [-8510.503889496178, 1374.02513924643], [-8518.516103819507, 1371.7814505304561], [-8518.515139079282, 1371.7778335582868], [-8518.850805710448, 1371.687722776103], [-8519.190224439499, 1371.5926741488909], [-8519.191202775475, 1371.5963420937992], [-8530.405944654092, 1368.5857087187767], [-8533.791685120317, 1367.6767958470311], [-8534.119391223692, 1367.588822094028], [-8534.119970439337, 1367.5909936701767], [-8541.44160820161, 1365.675874438062], [-8553.180480226534, 1362.4641661906267], [-8555.63172513904, 1372.6516706663501], [-8555.63172513904, 1373.2949642248184], [-8544.599759296842, 1376.2827393412138], [-8546.516070210231, 1383.6228689318514], [-8557.605963214675, 1380.953123628898], [-8558.273971632563, 1383.855596690067]]]}, "properties": {"id": 2, "height_median_m": 3.0, "building_count": 12, "area_m2": 1544.8110780059644}}, {"type": "Feature", "geometry": {"type": "Polygon", "coordinates": [[[-8602.362260539658, 1378.4623462256193], [-8600.72531936322, 1371.6591314695138], [-8607.591497038336, 1369.9296647849899], [-8609.22843821458, 1376.7328795410958], [-8602.362260539658, 1378.4623462256193]]]}, "properties": {"id": 3, "height_median_m": 3.0, "building_count": 1, "area_m2": 49.54311650574317}}, {"type": "Feature", "geometry": {"type": "Polygon", "coordinates": [[[-8584.505984374257, 1413.8559724973127], [-8584.505984374257, 1414.5022465111138], [-8589.33069454548, 1414.0895174702732], [-8593.41494742232, 1413.7240405484704], [-8594.15879760749, 1423.359825505256], [-8579.877513730136, 1423.359825505256], [-8579.877513730136, 1423.025865505308], [-8578.028224823718, 1423.025865505308], [-8577.93001305751, 1421.0221055052257], [-8569.970480436645, 1421.0221055052257], [-8569.844749154903, 1422.5897432267132], [-8561.217278169874, 1422.3482871379501], [-8561.217278169874, 1421.7291879714342], [-8558.074501654368, 1422.063147971382], [-8558.074501654368, 1421.547203853931], [-8555.667516516576, 1421.3198502519792], [-8555.956826680283, 1419.3523055050912], [-8548.069419148727, 1419.3523055050912], [-8548.069419148727, 1420.2428655052158], [-8544.324854399429, 1420.2428655052158], [-8544.324854399429, 1419.2863062002848], [-8537.508425045244, 1418.6045816212422], [-8537.407412932904, 1419.291546257238], [-8531.053935936361, 1418.2944196811209], [-8530.96016629208, 1419.7824095740446], [-8527.952969067715, 1419.9244331186062], [-8527.184677256659, 1410.7806655053762], [-8520.397458901749, 1410.7806655053762], [-8519.892531111193, 1409.7791054401678], [-8518.896307753623, 1406.2660749532936], [-8520.635097538558, 1405.9156990501763], [-8523.69026301659, 1405.3000660548528], [-8524.07238683968, 1405.223065959282], [-8524.072455753392, 1405.2239056585836], [-8532.610975550564, 1403.5222532343198], [-8533.772151204259, 1403.1932140595156], [-8534.862127078712, 1402.85627207325], [-8544.40219478731, 1400.7381889467963], [-8553.82908326767, 1398.62343222442], [-8564.433640877318, 1396.174926307485], [-8568.168270296781, 1395.2837501040763], [-8573.86532003786, 1394.0590651573877], [-8586.605709101235, 1391.0792098937222], [-8588.18889609834, 1401.4872722305306], [-8575.74292388179, 1403.278653139075], [-8576.42719946361, 1406.3810739882235], [-8569.964006681259, 1407.3263422673203], [-8565.839051031106, 1407.8829505625738], [-8546.751271499728, 1410.6677060308932], [-8547.161215799053, 1415.2216793530956], [-8570.192530183565, 1414.422538046524], [-8573.297325400852, 1414.2214415110661], [-8573.297325400852, 1414.2114993016878], [-8573.629910953628, 1414.1999000573703], [-8574.964161629501, 1414.1134810926485], [-8580.02026937434, 1413.9770300981093], [-8580.361675243275, 1413.9651232366953], [-8580.361823527915, 1413.9678124535696], [-8584.505984374257, 1413.8559724973127]]]}, "properties": {"id": 4, "height_median_m": 3.0, "building_count": 14, "area_m2": 1121.3069074448892}}, {"type": "Feature", "geometry": {"type": "Polygon", "coordinates": [[[-8656.78984422894, 1419.7975855051536], [-8651.47389122189, 1419.7975855051536], [-8651.47389122189, 1412.5297055051255], [-8656.78984422894, 1412.5297055051255], [-8656.78984422894, 1419.7975855051536]]]}, "properties": {"id": 5, "height_median_m": 3.0, "building_count": 1, "area_m2": 38.63570854102601}}, {"type": "Feature", "geometry": {"type": "Polygon", "coordinates": [[[-8520.757391247378, 1418.6755742986331], [-8520.875510216607, 1422.8259844760812], [-8516.55255149766, 1422.5611228527916], [-8516.324123495177, 1419.19521384662], [-8517.145180024321, 1418.419678690983], [-8520.757391247378, 1418.6755742986331]]]}, "properties": {"id": 6, "height_median_m": 3.0, "building_count": 1, "area_m2": 17.98147215612326}}, {"type": "Feature", "geometry": {"type": "Polygon", "coordinates": [[[-8628.564966793825, 1427.2980712141848], [-8622.565451301849, 1426.5424861811393], [-8622.933027401068, 1423.0705183279583], [-8628.931238761339, 1423.7000356519218], [-8628.564966793825, 1427.2980712141848]]]}, "properties": {"id": 7, "height_median_m": 3.0, "building_count": 1, "area_m2": 21.46010612746747}}, {"type": "Feature", "geometry": {"type": "Polygon", "coordinates": [[[-8275.866393193111, 1268.3099115107964], [-8272.038523841718, 1265.8118309243578], [-8278.335428989878, 1256.6522352559068], [-8282.04896617237, 1259.2829724853782], [-8275.866393193111, 1268.3099115107964]]]}, "properties": {"id": 8, "height_median_m": 3.0, "building_count": 1, "area_m2": 50.28925533055557}}, {"type": "Feature", "geometry": {"type": "Polygon", "coordinates": [[[-8268.103774359952, 1264.1632569182693], [-8261.244540205578, 1274.7651612104557], [-8255.642845376135, 1271.279244730169], [-8262.505113995316, 1260.5547991993567], [-8268.103774359952, 1264.1632569182693]]]}, "properties": {"id": 9, "height_median_m": 3.0, "building_count": 1, "area_m2": 84.05204206543361}}, {"type": "Feature", "geometry": {"type": "Polygon", "coordinates": [[[-8263.578148257773, 1281.6696189968168], [-8264.884519212206, 1288.7030916344213], [-8257.698736443397, 1290.0605687292734], [-8257.400242032887, 1287.9177855616847], [-8255.337794944615, 1288.1404255615184], [-8254.653526557246, 1283.228310858228], [-8255.881615167886, 1283.0543108000684], [-8255.83055710705, 1283.133228163455], [-8257.348374005931, 1282.8464950765817], [-8257.348374005935, 1282.846495076581], [-8263.578148257773, 1281.6696189968168]]]}, "properties": {"id": 10, "height_median_m": 3.0, "building_count": 1, "area_m2": 61.46785344512054}}, {"type": "Feature", "geometry": {"type": "Polygon", "coordinates": [[[-8278.70693588045, 1271.1318696085734], [-8284.407668514072, 1274.7354565460419], [-8277.447424662361, 1285.5684169758208], [-8271.85224087092, 1281.9621999834153], [-8278.70693588045, 1271.1318696085734]]]}, "properties": {"id": 11, "height_median_m": 3.0, "building_count": 1, "area_m2": 86.07743072839894}}, {"type": "Feature", "geometry": {"type": "Polygon", "coordinates": [[[-8297.516887181415, 1307.9954940480775], [-8304.636552585112, 1289.088822969268], [-8316.197533049286, 1293.3387734133735], [-8308.872889469945, 1312.3647790530836], [-8297.516887181415, 1307.9954940480775]]]}, "properties": {"id": 12, "height_median_m": 3.0, "building_count": 1, "area_m2": 248.45034953668284}}, {"type": "Feature", "geometry": {"type": "Polygon", "coordinates": [[[-8372.837470755538, 1363.6668394186806], [-8372.507989485572, 1363.566447797343], [-8372.166453110063, 1363.4671860228011], [-8372.167833910462, 1363.4628037580449], [-8363.373117039633, 1360.7830888050319], [-8359.954255797871, 1359.7633063049936], [-8359.952224923107, 1359.7686774837362], [-8359.639131730633, 1359.6693106770983], [-8354.226674182162, 1358.0548756065245], [-8351.595925286361, 1365.374017260565], [-8344.956327869264, 1362.4130552812744], [-8346.286161608894, 1358.9873156835124], [-8349.489366354566, 1360.2967605634133], [-8351.162775289158, 1354.9858401718989], [-8351.877220466471, 1353.2312702196825], [-8355.679726552185, 1354.3654868168655], [-8355.690660115599, 1354.3332653911507], [-8356.012513026591, 1354.4354122814057], [-8356.3616319137, 1354.5343411471615], [-8356.357995258631, 1354.545058440941], [-8360.925395337606, 1355.9946203330906], [-8362.788494598077, 1356.5503480704801], [-8364.654118440947, 1357.1068288432866], [-8369.170487137539, 1358.4422629991268], [-8373.78219946016, 1359.7768757602794], [-8377.5156291065, 1360.7791269062755], [-8381.573598589483, 1361.9895434665855], [-8381.097128278516, 1363.8797687409556], [-8380.505705029735, 1365.8908486346243], [-8372.838808225515, 1363.6625946722681], [-8372.837470755538, 1363.6668394186806]]]}, "properties": {"id": 13, "height_median_m": 3.0, "building_count": 6, "area_m2": 164.71822446193863}}, {"type": "Feature", "geometry": {"type": "Polygon", "coordinates": [[[-8342.826929553723, 1354.4649039378767], [-8339.738244051177, 1352.9645055768192], [-8336.395820516915, 1351.0091333327068], [-8336.396139821394, 1351.0085128954147], [-8331.739766315337, 1348.039719239958], [-8329.716402329554, 1346.3196538564018], [-8328.015699004727, 1343.620881374365], [-8331.002518513433, 1341.9958569475016], [-8338.49531488551, 1347.9589239458417], [-8341.402071785948, 1348.988523653452], [-8344.78908608859, 1350.3507764204755], [-8344.53907627871, 1350.9175331979748], [-8343.75338214991, 1352.3646931978994], [-8342.826929553723, 1354.4649039378767]]]}, "properties": {"id": 14, "height_median_m": 3.0, "building_count": 2, "area_m2": 70.91804290390722}}, {"type": "Feature", "geometry": {"type": "Polygon", "coordinates": [[[574.1346420711382, 2095.3727414052255], [584.2228040390335, 2098.946060044731], [586.1278153093373, 2093.611389605149], [576.0396533412444, 2090.0380709656397], [574.1346420711382, 2095.3727414052255]]]}, "properties": {"id": 15, "height_median_m": 3.0, "building_count": 1, "area_m2": 60.62423172068863}}, {"type": "Feature", "geometry": {"type": "Polygon", "coordinates": [[[1288.9055696825526, 2499.5638599953695], [1289.5816753997385, 2500.0747566107934], [1288.589565941773, 2501.574123801369], [1293.3055693457827, 2504.75593572435], [1294.3043867049623, 2503.1206388699184], [1295.9659050460107, 2504.1967986771897], [1295.9722515742292, 2504.186008286955], [1304.5149678871671, 2509.305705069798], [1309.9785756739263, 2500.135552240812], [1301.4324885452563, 2494.902493637066], [1301.433789779442, 2494.9002812739964], [1301.1381493734598, 2494.7222597929454], [1300.8354220468668, 2494.536889597537], [1300.834083729769, 2494.5391650091083], [1294.8243082680222, 2490.9203459747796], [1294.2265490849868, 2490.6944987919155], [1288.9055696825526, 2499.5638599953695]]]}, "properties": {"id": 16, "height_median_m": 3.0, "building_count": 2, "area_m2": 206.91316673871114}}, {"type": "Feature", "geometry": {"type": "Polygon", "coordinates": [[[1250.0990350035095, 2581.0342379745744], [1253.3759442264482, 2587.2246967689443], [1262.8487148538622, 2582.111795535246], [1263.4217115434694, 2582.977760908297], [1272.5546925435256, 2578.0992550028777], [1270.8956991624466, 2574.96522550536], [1273.895913589845, 2574.96522550536], [1273.4781003999312, 2574.0180688428745], [1271.7391344589096, 2570.691898136776], [1265.3402522441936, 2574.039406656191], [1264.948363119923, 2573.3731153497074], [1250.0990350035095, 2581.0342379745744]]]}, "properties": {"id": 17, "height_median_m": 8.0, "building_count": 1, "area_m2": 163.21418208273138}}, {"type": "Feature", "geometry": {"type": "Polygon", "coordinates": [[[1350.9062911712563, 2636.651425646418], [1359.259089976867, 2636.2872856786757], [1359.1452763694947, 2631.2561217028338], [1350.6793239409467, 2631.3775887320157], [1350.9062911712563, 2636.651425646418]]]}, "properties": {"id": 18, "height_median_m": 3.0, "building_count": 1, "area_m2": 43.37068299999931}}, {"type": "Feature", "geometry": {"type": "Polygon", "coordinates": [[[1316.4001673035993, 2708.366379785139], [1336.1891546406498, 2717.6835419602735], [1340.6056697848799, 2708.0291455004512], [1320.9227872386582, 2698.8291707637054], [1316.4001673035993, 2708.366379785139]]]}, "properties": {"id": 19, "height_median_m": 3.0, "building_count": 1, "area_m2": 230.7639356360525}}, {"type": "Feature", "geometry": {"type": "Polygon", "coordinates": [[[1420.0273386236688, 2754.345514179044], [1430.1834597802165, 2759.211262846116], [1435.6706477314901, 2746.5374468105447], [1425.3061430838443, 2741.9095076629847], [1420.0273386236688, 2754.345514179044]]]}, "properties": {"id": 20, "height_median_m": 3.0, "building_count": 1, "area_m2": 154.36956089017667}}, {"type": "Feature", "geometry": {"type": "Polygon", "coordinates": [[[1375.893370958218, 2800.648903468775], [1369.841761712092, 2795.8718826434565], [1364.8859509687961, 2802.221826735144], [1371.045791024895, 2806.7539945337066], [1375.893370958218, 2800.648903468775]]]}, "properties": {"id": 21, "height_median_m": 3.0, "building_count": 1, "area_m2": 60.83891083368103}}, {"type": "Feature", "geometry": {"type": "Polygon", "coordinates": [[[1350.0656632190976, 2827.3657113134495], [1353.9129925937532, 2832.3158413935703], [1356.291926417417, 2835.257420951486], [1361.5466961940635, 2831.1625891013173], [1359.277098750852, 2828.10006705137], [1352.3981533602248, 2819.482250750579], [1354.8763806098982, 2816.4651831679253], [1348.6413206837544, 2811.347521092939], [1342.8915568439234, 2818.2267661410856], [1351.9585041243063, 2825.8459986962557], [1350.0656632190976, 2827.3657113134495]]]}, "properties": {"id": 22, "height_median_m": 3.0, "building_count": 2, "area_m2": 161.0406160705683}}, {"type": "Feature", "geometry": {"type": "Polygon", "coordinates": [[[2371.2479869540357, -1941.7030663392288], [2367.9445887419006, -1905.5081689828867], [2387.162047891772, -1901.8201443125417], [2389.223827663973, -1912.614690547512], [2394.7419999967765, -1911.4977838140762], [2396.112363600809, -1921.4147819686705], [2391.377722112466, -1922.6446208637285], [2392.4603306412228, -1938.5969636477657], [2371.2479869540357, -1941.7030663392288]]]}, "properties": {"id": 23, "height_median_m": 8.0, "building_count": 1, "area_m2": 826.4310881715356}}, {"type": "Feature", "geometry": {"type": "Polygon", "coordinates": [[[2369.696461357987, -1876.1390441506355], [2370.092192321133, -1878.6060626055635], [2382.7672399271733, -1878.2719515701142], [2383.3786987419317, -1882.5903086766348], [2397.814568980226, -1881.7105983257725], [2398.258762758104, -1887.7523572684588], [2388.321695594, -1888.3514720745368], [2388.2802225237556, -1887.5993369912053], [2359.355599165942, -1890.1418600826028], [2358.4216444760223, -1877.0856853580628], [2369.696461357987, -1876.1390441506355]]]}, "properties": {"id": 24, "height_median_m": 8.0, "building_count": 2, "area_m2": 365.9084125269904}}, {"type": "Feature", "geometry": {"type": "Polygon", "coordinates": [[[2301.583743243576, -1874.4088359819232], [2296.7943873590525, -1872.968598667769], [2298.9286547216975, -1864.622613759683], [2308.2713599829954, -1867.0293563779294], [2304.2081356999875, -1879.5469754232972], [2300.4169611094935, -1877.9355332354132], [2301.583743243576, -1874.4088359819232]]]}, "properties": {"id": 25, "height_median_m": 8.0, "building_count": 1, "area_m2": 98.5322517410869}}, {"type": "Feature", "geometry": {"type": "Polygon", "coordinates": [[[2385.7113516727823, -1851.7166898446815], [2394.1680825841113, -1850.7460120733112], [2395.8132802981604, -1866.3635507404854], [2387.4588885486423, -1867.2133727021387], [2385.7113516727823, -1851.7166898446815]]]}, "properties": {"id": 26, "height_median_m": 8.0, "building_count": 1, "area_m2": 132.31036674062418}}, {"type": "Feature", "geometry": {"type": "Polygon", "coordinates": [[[3749.0675602210936, -1842.2954332824825], [3750.8870946186694, -1835.1377407759255], [3753.59089990504, -1835.7052740512393], [3761.676094860992, -1817.600157066229], [3793.933357342134, -1833.1562984051964], [3786.121204495313, -1850.3055332661331], [3787.7337685532984, -1852.3483590564367], [3787.7337685532984, -1854.3082176829337], [3786.888250747797, -1856.8239344381905], [3784.231151000267, -1858.3900394468637], [3778.953119850579, -1858.1599438657781], [3777.7356920908537, -1860.838605735139], [3770.8282874781016, -1857.6579406095514], [3772.3030401229216, -1853.9804502639674], [3758.1779879565615, -1847.256120123202], [3756.5099355193497, -1850.5926245795997], [3749.411294993264, -1847.301042497269], [3751.088801244105, -1843.3863924253037], [3749.0675602210936, -1842.2954332824825]]]}, "properties": {"id": 27, "height_median_m": 8.0, "building_count": 1, "area_m2": 1104.469679922685}}, {"type": "Feature", "geometry": {"type": "Polygon", "coordinates": [[[2403.26775556012, -1825.074389996872], [2389.0158933234698, -1826.1279146805612], [2388.571509821498, -1820.083575181149], [2402.8227096656497, -1819.1471523200898], [2403.26775556012, -1825.074389996872]]]}, "properties": {"id": 28, "height_median_m": 8.0, "building_count": 1, "area_m2": 85.74913132546453}}, {"type": "Feature", "geometry": {"type": "Polygon", "coordinates": [[[2383.7021247145967, -1789.1844959554046], [2385.952430052536, -1788.6300064953916], [2386.0519085439655, -1785.1345768792814], [2397.7946355709005, -1784.074486951497], [2398.2894371464495, -1787.8882144946278], [2402.3116168183983, -1787.8882144946278], [2403.3923557391, -1795.360617798201], [2383.269985492202, -1796.2868344259648], [2383.7021247145967, -1789.1844959554046]]]}, "properties": {"id": 29, "height_median_m": 8.0, "building_count": 1, "area_m2": 190.8585020081088}}, {"type": "Feature", "geometry": {"type": "Polygon", "coordinates": [[[2454.4370417590935, -1793.120269937697], [2438.717930005315, -1794.5176916715957], [2437.9661786417314, -1786.362002531368], [2453.7926511980268, -1784.9641726148134], [2454.4370417590935, -1793.120269937697]]]}, "properties": {"id": 30, "height_median_m": 8.0, "building_count": 1, "area_m2": 129.61685078478652}}, {"type": "Feature", "geometry": {"type": "Polygon", "coordinates": [[[2467.009547065232, -1772.987572894689], [2463.7279518556334, -1763.868586152802], [2470.0845877139855, -1761.6325360946485], [2473.366182923584, -1770.7515228365355], [2467.009547065232, -1772.987572894689]]]}, "properties": {"id": 31, "height_median_m": 8.0, "building_count": 1, "area_m2": 65.30388927457548}}, {"type": "Feature", "geometry": {"type": "Polygon", "coordinates": [[[2297.0611494673394, -1739.1047951596895], [2309.5524287719163, -1736.5090740394462], [2311.121019063427, -1742.604897783522], [2298.2382006737607, -1742.8404183685898], [2297.0611494673394, -1739.1047951596895]]]}, "properties": {"id": 32, "height_median_m": 8.0, "building_count": 1, "area_m2": 64.30941754433975}}, {"type": "Feature", "geometry": {"type": "Polygon", "coordinates": [[[2449.794878881935, -1745.9342727948872], [2444.996519596604, -1746.1932628844904], [2444.4533116013085, -1738.9278911887752], [2452.414520481069, -1738.482272221279], [2452.1205389152433, -1733.3729139990671], [2461.5527960126574, -1732.5320353214674], [2462.4897207142817, -1745.039742972267], [2449.794878881935, -1745.8175381430365], [2449.794878881935, -1745.9342727948872]]]}, "properties": {"id": 33, "height_median_m": 8.0, "building_count": 1, "area_m2": 176.12629970864577}}, {"type": "Feature", "geometry": {"type": "Polygon", "coordinates": [[[2498.606126636892, -1723.844857125717], [2499.063085497475, -1725.3987033407361], [2498.5956520854866, -1725.663614000281], [2482.258973083394, -1731.1254984612037], [2483.9737654046494, -1734.4686006645804], [2478.1291162733905, -1738.6397263710408], [2477.338774563535, -1737.4452891848816], [2473.900618277387, -1732.131138498818], [2483.0624892166293, -1726.6037995559195], [2481.390707082098, -1722.5771086765294], [2496.6158796182985, -1717.096761870978], [2498.606126636892, -1723.5082201078178], [2498.606126636892, -1723.844857125717]]]}, "properties": {"id": 34, "height_median_m": 3.0, "building_count": 2, "area_m2": 201.25694110016408}}, {"type": "Feature", "geometry": {"type": "Polygon", "coordinates": [[[2453.8239870443253, -1711.7281423259592], [2461.201538650782, -1712.0970640889354], [2460.779653296544, -1722.2586866635284], [2453.402101690087, -1721.889764900989], [2453.8239870443253, -1711.7281423259592]]]}, "properties": {"id": 35, "height_median_m": 8.0, "building_count": 1, "area_m2": 75.12353763957398}}, {"type": "Feature", "geometry": {"type": "Polygon", "coordinates": [[[2317.663739328719, -1705.0190518802194], [2308.5319573216016, -1706.9447435147238], [2305.9381705976693, -1694.008844507098], [2315.0704889562203, -1692.2034025641633], [2317.663739328719, -1705.0190518802194]]]}, "properties": {"id": 36, "height_median_m": 8.0, "building_count": 1, "area_m2": 122.42059785825154}}, {"type": "Feature", "geometry": {"type": "Polygon", "coordinates": [[[2323.5585343906905, -1708.269994718954], [2330.1986817722195, -1706.4990766641736], [2329.0166032089637, -1700.8047162914086], [2339.098787682418, -1698.6619954772452], [2342.260307110539, -1708.934651078012], [2333.385973360305, -1710.1640578764527], [2333.9785560482155, -1712.9627001804845], [2324.0020182687927, -1713.9250914215258], [2323.5585343906905, -1708.269994718954]]]}, "properties": {"id": 37, "height_median_m": 8.0, "building_count": 2, "area_m2": 162.89932183573265}}, {"type": "Feature", "geometry": {"type": "Polygon", "coordinates": [[[2395.1270116358955, -1689.7459920971971], [2394.9290603889935, -1691.540965035682], [2400.6368928778556, -1692.4333307778359], [2399.2592847098663, -1701.9223018975554], [2381.372713816114, -1699.0260340369257], [2382.5683297363476, -1692.0036668113191], [2386.1900905589328, -1692.4474672327226], [2386.680799899031, -1688.7765217343317], [2395.1270116358955, -1689.7459920971971]]]}, "properties": {"id": 38, "height_median_m": 8.0, "building_count": 1, "area_m2": 177.3053910027254}}, {"type": "Feature", "geometry": {"type": "Polygon", "coordinates": [[[2483.394927004712, -1648.9294781988542], [2470.775959134104, -1654.6742100362012], [2467.6452785616852, -1647.5771507909155], [2480.2642464322935, -1641.8324189535685], [2483.394927004712, -1648.9294781988542]]]}, "properties": {"id": 39, "height_median_m": 8.0, "building_count": 1, "area_m2": 107.5424829489985}}, {"type": "Feature", "geometry": {"type": "Polygon", "coordinates": [[[2313.64995143959, -1604.3095592033126], [2311.9207424916613, -1596.837040626881], [2319.08592017492, -1595.23734978647], [2320.815129123041, -1602.7098683624652], [2313.64995143959, -1604.3095592033126]]]}, "properties": {"id": 40, "height_median_m": 8.0, "building_count": 1, "area_m2": 56.30812305642794}}, {"type": "Feature", "geometry": {"type": "Polygon", "coordinates": [[[3329.727023966716, 1141.8865689355157], [3326.1916671692734, 1144.1573255813223], [3331.1800295173553, 1152.0972020746624], [3334.7153863146036, 1149.8264454288465], [3329.727023966716, 1141.8865689355157]]]}, "properties": {"id": 41, "height_median_m": 3.0, "building_count": 1, "area_m2": 39.39765328419795}}, {"type": "Feature", "geometry": {"type": "Polygon", "coordinates": [[[3632.6296717301907, 1671.5153743483665], [3636.4520299612077, 1680.1804240698948], [3640.230718062152, 1678.4404447087704], [3638.913727224245, 1675.4549079266208], [3636.519438614755, 1669.9092101507997], [3633.744198425007, 1671.0416437689694], [3632.6296717301907, 1671.5153743483665]]]}, "properties": {"id": 42, "height_median_m": 3.0, "building_count": 1, "area_m2": 39.21798737444911}}, {"type": "Feature", "geometry": {"type": "Polygon", "coordinates": [[[3884.124521181523, 1996.556067678349], [3885.705361831819, 1998.7958601714124], [3891.706493676169, 1994.6699978263596], [3893.5678823680055, 1997.112954855173], [3899.2478583927964, 1993.398679553881], [3897.081209245846, 1990.260674794327], [3892.353483747109, 1993.3866010144563], [3891.0717269006086, 1991.7102566857736], [3884.124521181523, 1996.556067678349]]]}, "properties": {"id": 43, "height_median_m": 3.0, "building_count": 1, "area_m2": 48.79259158983887}}, {"type": "Feature", "geometry": {"type": "Polygon", "coordinates": [[[3863.621316173001, 2011.1518499269077], [3870.372135106592, 2006.2935359499154], [3867.5998417837104, 2002.4965795346777], [3860.844425024446, 2007.4797429679272], [3863.621316173001, 2011.1518499269077]]]}, "properties": {"id": 44, "height_median_m": 3.0, "building_count": 1, "area_m2": 38.87277598949267}}, {"type": "Feature", "geometry": {"type": "Polygon", "coordinates": [[[3822.2416254051373, 2035.4849678165983], [3831.81344704861, 2032.2659257936907], [3831.518032625312, 2031.261396451776], [3830.4081217632133, 2028.3678822752847], [3824.211844932751, 2030.597497572779], [3821.7545049847986, 2024.6926216199442], [3818.451007273534, 2025.940759121684], [3819.665004203334, 2028.9430019895817], [3822.2416254051373, 2035.4849678165983]]]}, "properties": {"id": 45, "height_median_m": 3.0, "building_count": 1, "area_m2": 63.84244795617205}}, {"type": "Feature", "geometry": {"type": "Polygon", "coordinates": [[[3798.6486737570626, 2092.8220538428104], [3801.6336772196573, 2091.8195622505714], [3804.120097677666, 2091.0509402403222], [3801.8085077618484, 2083.190593166376], [3807.129684054675, 2082.313300251672], [3805.255414768374, 2070.038837298125], [3802.2930976840203, 2070.5718047290534], [3800.736252367721, 2060.6898429869093], [3790.8711810217897, 2062.4189800992076], [3789.4265197980562, 2062.567841810772], [3791.129431313448, 2071.8569174986537], [3798.277603624851, 2070.531097671084], [3799.5658631623737, 2079.657362361733], [3794.8966218518053, 2081.0086238030117], [3798.6486737570626, 2092.8220538428104]]]}, "properties": {"id": 46, "height_median_m": 3.0, "building_count": 2, "area_m2": 262.2573525972689}}, {"type": "Feature", "geometry": {"type": "Polygon", "coordinates": [[[3782.046258847143, 2078.64844333864], [3779.222167006707, 2071.8770532368367], [3767.283457259529, 2077.054574685581], [3770.109509267761, 2083.707463089634], [3782.046258847143, 2078.64844333864]]]}, "properties": {"id": 47, "height_median_m": 3.0, "building_count": 1, "area_m2": 94.58718643658096}}, {"type": "Feature", "geometry": {"type": "Polygon", "coordinates": [[[3779.8509836470957, 2088.159756105279], [3783.656241474913, 2097.624706786792], [3789.3111641163828, 2095.2367868037973], [3785.6185181260385, 2086.148272416377], [3779.8509836470957, 2088.159756105279]]]}, "properties": {"id": 48, "height_median_m": 3.0, "building_count": 1, "area_m2": 61.22811619352834}}, {"type": "Feature", "geometry": {"type": "Polygon", "coordinates": [[[3816.8338552667783, 2099.0529135981906], [3824.9602580665874, 2096.2653661677964], [3821.1820592126455, 2086.0350174121313], [3813.0556564128365, 2088.8225648425255], [3816.8338552667783, 2099.0529135981906]]]}, "properties": {"id": 49, "height_median_m": 3.0, "building_count": 1, "area_m2": 93.66784327788365}}, {"type": "Feature", "geometry": {"type": "Polygon", "coordinates": [[[3753.0562030167816, 2098.7057527495676], [3759.130880136231, 2097.07828069874], [3757.191408076357, 2089.5062496042733], [3751.008053676899, 2091.0081012497863], [3753.0562030167816, 2098.7057527495676]]]}, "properties": {"id": 50, "height_median_m": 3.0, "building_count": 1, "area_m2": 49.91370216557452}}, {"type": "Feature", "geometry": {"type": "Polygon", "coordinates": [[[3709.298121609979, 2499.877216177987], [3704.1749985037704, 2492.8605433813436], [3701.0563250451687, 2495.1718371819516], [3706.291002470439, 2502.1949802383006], [3709.298121609979, 2499.877216177987]]]}, "properties": {"id": 51, "height_median_m": 3.0, "building_count": 1, "area_m2": 33.487964500907644}}, {"type": "Feature", "geometry": {"type": "Polygon", "coordinates": [[[1470.994424023614, 2543.880454080802], [1473.5810315793108, 2550.9657333120012], [1483.0412660428872, 2549.297729252856], [1481.8592449533135, 2540.7718288119568], [1470.994424023614, 2543.880454080802]]]}, "properties": {"id": 52, "height_median_m": 8.0, "building_count": 1, "area_m2": 83.82485842577104}}, {"type": "Feature", "geometry": {"type": "Polygon", "coordinates": [[[1559.4513597671519, 2574.697278126022], [1550.5813443284278, 2566.772448585679], [1544.2255253325393, 2573.9765728841135], [1553.0955407710794, 2581.901402424878], [1559.4513597671519, 2574.697278126022]]]}, "properties": {"id": 53, "height_median_m": 3.0, "building_count": 1, "area_m2": 114.26947588456919}}, {"type": "Feature", "geometry": {"type": "Polygon", "coordinates": [[[1561.3872409227429, 2577.302641761374], [1558.3125509199967, 2586.315743597776], [1570.2008884332733, 2589.7436104915746], [1572.7456040275817, 2580.6098151012393], [1561.3872409227429, 2577.302641761374]]]}, "properties": {"id": 54, "height_median_m": 3.0, "building_count": 1, "area_m2": 114.92560244077634}}, {"type": "Feature", "geometry": {"type": "Polygon", "coordinates": [[[1575.9755133123879, 2580.8496332285713], [1576.4024776649183, 2589.5607492674826], [1589.079400957259, 2589.089637773679], [1588.7592891545753, 2580.260608244247], [1575.9755133123879, 2580.8496332285713]]]}, "properties": {"id": 55, "height_median_m": 3.0, "building_count": 1, "area_m2": 111.84409294387353}}, {"type": "Feature", "geometry": {"type": "Polygon", "coordinates": [[[1572.0386347497372, 2619.785594352112], [1559.5131566602613, 2616.265616970566], [1555.6696757468897, 2628.393078514352], [1569.3379807598803, 2632.5009651654996], [1572.0386347497372, 2619.785594352112]]]}, "properties": {"id": 56, "height_median_m": 3.0, "building_count": 1, "area_m2": 175.16138341704246}}, {"type": "Feature", "geometry": {"type": "Polygon", "coordinates": [[[1515.4468862968404, 2655.63696182879], [1512.0079538684536, 2650.607383029365], [1503.2221859757674, 2656.5349998356414], [1505.2166082523795, 2660.818272217967], [1505.6596374129622, 2661.6970519632246], [1506.1376840972493, 2661.9679775307595], [1515.4468862968404, 2655.63696182879]]]}, "properties": {"id": 57, "height_median_m": 3.0, "building_count": 1, "area_m2": 67.780214270713}}, {"type": "Feature", "geometry": {"type": "Polygon", "coordinates": [[[1517.98091868743, 2653.913613413946], [1518.4563085889063, 2653.5903095618787], [1523.7491656437512, 2656.3499828730237], [1525.0962832135026, 2653.8051226896832], [1525.6289231670721, 2652.5976608552837], [1520.1077086996581, 2649.844085471407], [1519.5595499273822, 2650.9313972533537], [1517.98091868743, 2653.913613413946]]]}, "properties": {"id": 58, "height_median_m": 3.0, "building_count": 1, "area_m2": 25.85767880072952}}, {"type": "Feature", "geometry": {"type": "Polygon", "coordinates": [[[1478.8666960619842, 2668.245392428991], [1476.7336360895913, 2676.22399224768], [1481.1860540884652, 2678.2426634977865], [1480.5862066754655, 2682.662068709763], [1497.8210606791376, 2685.551887360889], [1501.1582419738306, 2674.6769359191917], [1478.8666960619842, 2668.245392428991]]]}, "properties": {"id": 59, "height_median_m": 8.0, "building_count": 1, "area_m2": 265.4829656000374}}, {"type": "Feature", "geometry": {"type": "Polygon", "coordinates": [[[1450.3958476457124, 2694.303463805057], [1449.4046772031877, 2697.5334143182304], [1454.2057875555145, 2698.8291072052475], [1455.196957998258, 2695.599156692078], [1450.3958476457124, 2694.303463805057]]]}, "properties": {"id": 60, "height_median_m": 3.0, "building_count": 1, "area_m2": 16.791601338988393}}, {"type": "Feature", "geometry": {"type": "Polygon", "coordinates": [[[1501.0356075360132, 2718.9972830606707], [1505.7426842967845, 2705.164956506122], [1511.2967241330953, 2705.916637988131], [1514.5042583513653, 2692.781419419893], [1507.0307775093042, 2691.4309766103443], [1502.8602655908855, 2710.1765567655493], [1495.594625141037, 2707.642594062988], [1492.6112831597447, 2716.0964087764874], [1501.0356075360132, 2718.9972830606707]]]}, "properties": {"id": 61, "height_median_m": 3.0, "building_count": 2, "area_m2": 188.87038185342593}}, {"type": "Feature", "geometry": {"type": "Polygon", "coordinates": [[[1581.104805676848, 2712.3446804658906], [1581.2167375907543, 2706.6354691241513], [1569.6223784872434, 2706.280284055526], [1569.3985235516957, 2711.989268622403], [1581.104805676848, 2712.3446804658906]]]}, "properties": {"id": 62, "height_median_m": 3.0, "building_count": 1, "area_m2": 66.57247386090218}}, {"type": "Feature", "geometry": {"type": "Polygon", "coordinates": [[[1608.8464191930916, 2750.9105412016993], [1607.9769735141274, 2743.7657402070026], [1600.8939334683998, 2744.6303378701027], [1601.8721085477816, 2751.898686884137], [1608.8464191930916, 2750.9105412016993]]]}, "properties": {"id": 63, "height_median_m": 3.0, "building_count": 1, "area_m2": 51.5084678250914}}, {"type": "Feature", "geometry": {"type": "Polygon", "coordinates": [[[1622.7355254859483, 2764.51604204948], [1623.5338404932108, 2764.1540958989276], [1621.331538816284, 2758.2879298978523], [1607.3237130608788, 2763.5414937259143], [1609.5334500781585, 2769.6779317469263], [1610.3608429565215, 2769.302802049259], [1622.7355254859483, 2764.51604204948]]]}, "properties": {"id": 64, "height_median_m": 3.0, "building_count": 1, "area_m2": 95.91848140323337}}, {"type": "Feature", "geometry": {"type": "Polygon", "coordinates": [[[1589.674152671337, 2783.080114271016], [1589.0281008355935, 2790.6470053169883], [1596.225912848452, 2791.812504937996], [1607.6163801001508, 2793.4819974919665], [1609.2548362374355, 2793.7677112406395], [1610.6116471487278, 2781.7010860323985], [1601.6589235493423, 2780.552297122586], [1601.6845254958228, 2780.378183034465], [1594.1482067715028, 2779.1578710005415], [1593.1591443926106, 2783.305836005355], [1589.674152671337, 2783.080114271016]]]}, "properties": {"id": 65, "height_median_m": 8.0, "building_count": 1, "area_m2": 232.59869768930744}}, {"type": "Feature", "geometry": {"type": "Polygon", "coordinates": [[[3878.4304121232667, 2857.8328794285926], [3880.845189953051, 2861.364590397622], [3873.0299860213636, 2866.5081147829783], [3875.183328440637, 2869.7624441792473], [3878.442092545442, 2867.635763616194], [3879.6174536949725, 2869.1900383880934], [3884.216556911012, 2866.2939598974476], [3887.185872609168, 2870.5570880986706], [3899.821580547063, 2861.008965278986], [3891.580874377185, 2848.8662039648216], [3878.4304121232667, 2857.8328794285926]]]}, "properties": {"id": 66, "height_median_m": 3.0, "building_count": 1, "area_m2": 286.8936112373152}}, {"type": "Feature", "geometry": {"type": "Polygon", "coordinates": [[[3773.171721257242, 2894.7259690803694], [3773.283648814563, 2897.7707632880015], [3773.0631371842264, 2900.770080662735], [3780.736461525144, 2901.382578963046], [3781.4704269064227, 2890.3298336821263], [3776.3501856392772, 2889.942924672229], [3776.0556045476937, 2894.9514030481305], [3773.171721257242, 2894.7259690803694]]]}, "properties": {"id": 67, "height_median_m": 3.0, "building_count": 1, "area_m2": 72.5722639876219}}, {"type": "Feature", "geometry": {"type": "Polygon", "coordinates": [[[3762.45537796059, 2915.3497055051826], [3762.0255764121976, 2915.3497055051826], [3752.7143721742477, 2916.3935039529506], [3753.493619086699, 2922.3239121159454], [3763.119960786265, 2921.1248834728294], [3762.45537796059, 2915.3497055051826]]]}, "properties": {"id": 68, "height_median_m": 3.0, "building_count": 1, "area_m2": 57.7104167369451}}, {"type": "Feature", "geometry": {"type": "Polygon", "coordinates": [[[3707.2858144746833, 2918.245804347532], [3709.7211196867092, 2918.4666318000623], [3709.3273823390955, 2924.9378238717804], [3714.6453105116384, 2925.194322047919], [3714.9398157207233, 2919.6307795826733], [3718.971630839256, 2919.8537033759717], [3719.096613522915, 2916.59543121292], [3707.2858144746833, 2915.884607734611], [3707.2858144746833, 2918.245804347532]]]}, "properties": {"id": 69, "height_median_m": 3.0, "building_count": 1, "area_m2": 66.12542090998733}}, {"type": "Feature", "geometry": {"type": "Polygon", "coordinates": [[[3709.465980883472, 2932.6266138727738], [3708.2801217248507, 2936.5246044661812], [3716.8053658699855, 2939.181957137603], [3717.9912250286084, 2935.2839665441966], [3709.465980883472, 2932.6266138727738]]]}, "properties": {"id": 70, "height_median_m": 3.0, "building_count": 1, "area_m2": 36.38256748733187}}, {"type": "Feature", "geometry": {"type": "Polygon", "coordinates": [[[3926.23147863285, -2218.5150749091904], [3922.912217004145, -2226.160999630722], [3905.5648315909007, -2220.2621821446455], [3910.241605160421, -2208.2466314971807], [3922.63608887454, -2212.8124798067797], [3921.7516344802348, -2216.8224866349683], [3926.23147863285, -2218.5150749091904]]]}, "properties": {"id": 71, "height_median_m": 8.0, "building_count": 1, "area_m2": 213.58516796093957}}, {"type": "Feature", "geometry": {"type": "Polygon", "coordinates": [[[3910.0955768459457, -2194.7510551532628], [3915.5677921902648, -2180.0199113079993], [3912.2510413264617, -2179.4135508974327], [3915.538908671849, -2176.32938871592], [3919.4453020203728, -2164.0678549895256], [3931.884756301769, -2167.7102869909386], [3927.3836286000237, -2184.987138604468], [3921.002696315735, -2182.872997077694], [3917.2638326615147, -2197.705599266673], [3910.0955768459457, -2194.7510551532628]]]}, "properties": {"id": 72, "height_median_m": 8.0, "building_count": 1, "area_m2": 342.9058032391314}}, {"type": "Feature", "geometry": {"type": "Polygon", "coordinates": [[[5258.723800239511, 3572.8936496794863], [5263.54658349271, 3582.875909632661], [5292.457053433969, 3567.401601211407], [5287.868450449471, 3558.5020445710593], [5287.283542449233, 3557.673325656067], [5258.723800239511, 3572.8936496794863]]]}, "properties": {"id": 73, "height_median_m": 3.0, "building_count": 1, "area_m2": 360.6016885769455}}, {"type": "Feature", "geometry": {"type": "Polygon", "coordinates": [[[5293.719780180198, 3616.641369919851], [5293.735261239196, 3616.657309835111], [5293.341085289897, 3616.992399522446], [5312.5842722906655, 3636.62280121137], [5313.000543728895, 3635.9150550065074], [5315.559181252164, 3632.652401426066], [5315.59644279919, 3632.6899434806082], [5315.835460727233, 3632.3697659717827], [5316.02785653917, 3632.1309222487967], [5315.984553206823, 3632.087292925954], [5319.761228417054, 3627.3637127113525], [5325.9248055160615, 3619.575790816006], [5310.810646298252, 3600.526661074747], [5298.809827609734, 3581.6342209406253], [5291.080782218419, 3584.5160084260087], [5275.923109575531, 3590.0912197419584], [5277.420531415471, 3594.1646949881992], [5272.5523164226, 3597.317821365788], [5277.1478071339125, 3604.5859794411663], [5279.668809318787, 3602.9857917483732], [5293.919458832371, 3616.4904835346374], [5293.719780180198, 3616.641369919851]]]}, "properties": {"id": 74, "height_median_m": 6.0, "building_count": 6, "area_m2": 1319.752357716599}}, {"type": "Feature", "geometry": {"type": "Polygon", "coordinates": [[[5260.162179352484, 3646.531545505054], [5260.266516049828, 3646.531545505054], [5272.251352462144, 3653.755018356202], [5272.233224675591, 3653.783637789596], [5272.571377616772, 3653.9479031763713], [5272.848771266412, 3654.1150932345677], [5272.8879831002005, 3654.054231063692], [5290.720585225842, 3665.0074835781397], [5289.9402655067925, 3666.1955752877107], [5289.946855856448, 3666.200333548341], [5283.539071541173, 3676.4986531187214], [5279.436085991854, 3683.1257684480884], [5296.267765210547, 3694.883256357764], [5296.031787475047, 3695.2588573956004], [5311.637015944019, 3706.121623503555], [5314.378842458602, 3708.0302030668545], [5316.394803844941, 3709.433509469321], [5316.6050856967095, 3709.579886215875], [5319.189742317016, 3711.3687743276278], [5319.485220270138, 3711.573824403054], [5319.485465232733, 3711.573449565392], [5330.590460794363, 3719.259420067313], [5330.846531932097, 3718.8466218927983], [5334.8775205356, 3721.537951211569], [5337.225594498283, 3723.1084986798805], [5337.962836491808, 3723.59883853221], [5337.964091947094, 3723.59675873412], [5340.321174333734, 3725.1552387342063], [5340.32150947686, 3725.1546835332033], [5347.001059020084, 3729.554084927171], [5346.997743528267, 3729.5594447082926], [5347.287838265886, 3729.742968474719], [5347.5841002399575, 3729.938097702113], [5347.587558161835, 3729.932581442636], [5355.75726558721, 3735.101015346707], [5356.243006898928, 3735.32124444929], [5356.715050980393, 3735.642272871572], [5367.036404174424, 3742.065217407422], [5372.829638146555, 3732.7163711041953], [5378.822288650007, 3736.502345816191], [5384.11447206789, 3727.8506252483467], [5388.156575088199, 3721.2445990360065], [5389.8240910216755, 3722.2452284322867], [5396.281243824129, 3711.8569944469414], [5388.517644524244, 3707.109734059776], [5368.57842974855, 3694.6794681940087], [5357.768618152201, 3712.167251723271], [5341.662746237929, 3701.4011830251957], [5349.840398404291, 3687.6610818633476], [5352.769436592239, 3682.799691048669], [5350.175634544882, 3681.216617132496], [5347.3636167768955, 3679.5003597238588], [5347.047778102798, 3679.307594062658], [5347.047572917693, 3679.307981680943], [5343.947303674654, 3677.4208016750626], [5340.981391211859, 3675.6050906104633], [5340.681977410104, 3675.4199762727485], [5340.681019536371, 3675.4215686624584], [5328.411807576948, 3667.924949181658], [5318.297903257595, 3661.7344994710024], [5314.214753356938, 3668.076743682236], [5297.488411060397, 3656.0120580011017], [5301.219075381904, 3650.30127823714], [5295.024010745218, 3646.5116737464764], [5295.6724906335, 3645.461628173359], [5290.573498671574, 3640.3756244207625], [5290.023789985584, 3639.7525466235275], [5289.824616492953, 3639.9783036186263], [5285.374447940479, 3635.0392611811053], [5285.083132608947, 3634.7090642608014], [5277.188110670829, 3625.424722400619], [5275.92473140969, 3624.708721737015], [5271.6492793382, 3623.3241238172754], [5270.415734378595, 3623.7901855053346], [5270.290434144414, 3623.7901855053346], [5270.224764631072, 3623.890510081219], [5268.715224908167, 3624.134941024077], [5267.287950338979, 3624.7127165918855], [5265.810835356402, 3625.485453895738], [5265.4632289937335, 3625.748121271391], [5263.597016346524, 3627.017297868648], [5262.1082105895575, 3629.669107608633], [5261.802892429278, 3630.4766012273994], [5261.600851727079, 3631.049118448306], [5261.202401673633, 3632.5169185965037], [5261.102697349145, 3632.9689656715964], [5259.820669909926, 3638.5579597475084], [5259.212068018882, 3645.916161609256], [5260.162179352484, 3646.531545505054]]]}, "properties": {"id": 75, "height_median_m": 6.0, "building_count": 27, "area_m2": 4930.819280995966}}, {"type": "Feature", "geometry": {"type": "Polygon", "coordinates": [[[5239.589238865053, 3664.9154712183245], [5239.1020044222105, 3662.8168635549173], [5238.808598463786, 3660.5997530130367], [5238.417077935415, 3658.3808709504488], [5238.221917120231, 3656.1687834575173], [5238.026204356555, 3654.0613569825287], [5237.928706884688, 3651.851149593517], [5237.928706884688, 3647.413781416961], [5238.0262398949835, 3645.2027683937717], [5238.221987953189, 3642.9840246831855], [5238.417635965304, 3640.7664149640877], [5238.710178651501, 3638.666357067409], [5239.100297005762, 3636.455421609804], [5239.589675903238, 3634.3475773885393], [5240.079091388275, 3632.1286281137595], [5240.6657956327745, 3630.0227595694773], [5241.251120539588, 3627.921841908044], [5242.034218909443, 3625.813749662897], [5242.718463427509, 3623.7086310826844], [5243.595216797503, 3621.7210854144455], [5244.710249075262, 3619.1933761983123], [5211.346362808913, 3621.135635618651], [5205.895733866856, 3657.86736346609], [5208.259468704052, 3675.7288237380535], [5209.085449475032, 3681.9313055050584], [5212.250405985158, 3681.9313055050584], [5244.770287136025, 3680.0091436796083], [5243.694813004443, 3677.435664037839], [5242.814906770362, 3675.4409710216996], [5242.229661276093, 3673.782576843991], [5241.3472400965375, 3671.3376505485653], [5240.664498962922, 3669.237157219208], [5240.07908604313, 3667.0253324103487], [5239.589238865053, 3664.9154712183245]]]}, "properties": {"id": 76, "height_median_m": 6.0, "building_count": 1, "area_m2": 1945.0371320209742}}, {"type": "Feature", "geometry": {"type": "Polygon", "coordinates": [[[5372.434820794597, 3671.488514613639], [5372.435079644832, 3671.4881038554076], [5381.954198441191, 3677.463897164188], [5384.9168462031785, 3679.323751111922], [5385.204306147683, 3679.5042091196074], [5385.205573845008, 3679.5021717301565], [5398.177018964256, 3687.521843698732], [5398.908752861286, 3686.2777470801593], [5403.471091366566, 3689.052574681404], [5403.975999369946, 3691.341765118128], [5406.4372374876875, 3690.8565934136172], [5410.656642393297, 3693.4228477981555], [5412.404268316611, 3690.327722885042], [5417.524623229205, 3681.622076940487], [5417.5291305292185, 3681.624867508029], [5417.7074403282295, 3681.3112506474085], [5417.879597105984, 3681.0185490711165], [5417.875352632952, 3681.015921225479], [5420.76554439409, 3675.9325614115673], [5412.902276880776, 3673.235275577821], [5402.896911660516, 3669.788570333721], [5396.976319188496, 3667.2548977399297], [5393.27195805471, 3665.669644519659], [5393.003440983236, 3665.5547346777516], [5393.002272142762, 3665.556677783069], [5386.12589923209, 3662.6739077318643], [5379.569282333636, 3659.23534955458], [5373.398623790313, 3655.4606745997066], [5367.014307289001, 3651.142162703451], [5359.470110599276, 3663.32457121654], [5369.17603505095, 3669.4364407952817], [5372.140805692037, 3671.303371820701], [5372.434820794597, 3671.488514613639]]]}, "properties": {"id": 77, "height_median_m": 3.0, "building_count": 5, "area_m2": 961.4728763927875}}, {"type": "Feature", "geometry": {"type": "Polygon", "coordinates": [[[5271.381795087, 3712.0369343102916], [5261.1541323230595, 3726.411931272247], [5282.062046521129, 3741.5433514404986], [5280.6842675440685, 3743.328117002763], [5288.043176818774, 3748.51312269385], [5287.759997333552, 3748.91434168147], [5291.970869508991, 3751.64170933959], [5278.838027387469, 3772.751129940284], [5313.221956053277, 3794.5035689711613], [5313.421777891831, 3794.163831158528], [5330.117778130076, 3804.2939511586837], [5332.850443001143, 3799.647864459812], [5341.62738864146, 3785.0016140796124], [5343.46011243432, 3781.9433142281637], [5343.633527684913, 3781.653933014695], [5343.632380467641, 3781.6532194160527], [5353.572453749771, 3764.917149977359], [5356.302203401405, 3760.3950230845194], [5340.101066174084, 3750.1160895056546], [5339.609519089719, 3750.896104294564], [5306.357572437025, 3729.920770271917], [5309.383437975097, 3725.0739732344073], [5306.312554197528, 3723.5822224606786], [5299.844129821763, 3718.800640494625], [5299.846784774012, 3718.7970680433123], [5299.560186988599, 3718.5907445676453], [5299.281228509802, 3718.384533169937], [5299.278620162789, 3718.3880429101646], [5284.737067971215, 3707.9194917124246], [5281.104406843643, 3713.038557029616], [5275.604750769859, 3709.031184822295], [5272.756609552789, 3713.0387048220823], [5271.381795087, 3712.0369343102916]]]}, "properties": {"id": 78, "height_median_m": 3.0, "building_count": 9, "area_m2": 4139.426983992478}}, {"type": "Feature", "geometry": {"type": "Polygon", "coordinates": [[[5229.828189043382, 3852.163049585665], [5229.83086858527, 3852.1643816812234], [5228.138004627433, 3855.295069967811], [5223.159147206689, 3864.2784110425896], [5233.889732423886, 3870.4188469632195], [5236.2176865995725, 3865.9810937480147], [5237.065575904066, 3864.4286181730185], [5238.773296389712, 3861.301801584066], [5238.934933593909, 3861.005845720258], [5238.9336815781835, 3861.005136159703], [5244.203390127522, 3851.2596307676126], [5244.207705092635, 3851.2619201154776], [5244.369718801103, 3850.9520317856072], [5244.536353776911, 3850.643866345328], [5244.497789067585, 3850.623405453376], [5250.425501194004, 3839.628877162881], [5239.997055284971, 3833.8369198866876], [5237.117921976981, 3838.985853418947], [5235.402128442186, 3842.054313931428], [5235.236633665486, 3842.35027855481], [5235.238437469539, 3842.3512907113036], [5230.166499445102, 3851.549506578967], [5230.164018319838, 3851.5482731233674], [5230.003847900104, 3851.8444833738117], [5229.828189043382, 3852.163049585665]]]}, "properties": {"id": 79, "height_median_m": 6.0, "building_count": 4, "area_m2": 423.72519894125315}}, {"type": "Feature", "geometry": {"type": "Polygon", "coordinates": [[[5396.431097684162, 3946.0005499122904], [5396.43241315024, 3945.998064845421], [5406.726664374385, 3951.6160945046117], [5419.996547133064, 3959.022648410754], [5426.95431571675, 3946.386459870203], [5428.8093963339925, 3943.0173986323293], [5428.962639666734, 3942.739089340808], [5428.962507666053, 3942.7389995695944], [5433.498466945102, 3934.491385864203], [5434.976958623929, 3933.0390045435292], [5439.080051655509, 3924.7839604331866], [5424.534339010336, 3916.656509128272], [5419.42909560211, 3926.0041511545946], [5410.016194866588, 3920.615650184681], [5394.189755818792, 3911.5327239672856], [5380.198700012192, 3936.974664223918], [5393.122346484378, 3944.160747148458], [5396.130914583857, 3945.8336356705568], [5396.431097684162, 3946.0005499122904]]]}, "properties": {"id": 80, "height_median_m": 3.0, "building_count": 5, "area_m2": 1486.486882098211}}, {"type": "Feature", "geometry": {"type": "Polygon", "coordinates": [[[5430.485664592775, 3736.009182018349], [5431.168432021843, 3736.230295095278], [5430.594508536615, 3737.531344142442], [5441.055920399798, 3742.1558420184824], [5442.7258213016885, 3738.370279944814], [5452.343763699616, 3742.597446593409], [5454.506141643423, 3737.9678015836025], [5463.932202108097, 3742.153344124991], [5465.9490702552885, 3737.8352351746917], [5475.420934239357, 3742.0411162848477], [5477.405493673006, 3737.863590888705], [5486.809706492327, 3742.039432214044], [5488.633827658034, 3738.317779329202], [5498.064066888718, 3742.394982721487], [5498.982593214769, 3739.271619151594], [5507.589807996501, 3743.065623742411], [5507.689511235727, 3742.7265921262224], [5510.00397539252, 3743.7103572089723], [5514.405297305037, 3733.6140525724004], [5512.0284847603325, 3732.5364351615863], [5512.110635103425, 3732.2570905404345], [5505.441359310397, 3729.3496221227824], [5503.24524056522, 3728.4325363949592], [5502.01647243413, 3731.496631893234], [5494.638865487732, 3728.2367563854264], [5492.445897034714, 3727.3209862003], [5490.904507068126, 3731.0336116620265], [5483.444870809354, 3727.7924259652514], [5481.363837677367, 3726.875120024104], [5479.548666968571, 3730.7842557778486], [5472.147373295656, 3727.5684197297614], [5469.957680005094, 3726.6540172324035], [5468.010664074001, 3731.251688800733], [5460.558384895006, 3728.0136997298196], [5458.369047402097, 3727.0994458113805], [5456.315455593903, 3731.9338639634934], [5448.774523103058, 3728.57094705888], [5446.581002262845, 3727.654946200247], [5445.037264425854, 3731.373226793793], [5440.121177211601, 3729.2162334348172], [5439.644183395762, 3730.189417368453], [5435.981151490373, 3728.659757695737], [5435.494322605593, 3729.763368670308], [5433.525936550506, 3728.870926779168], [5430.485664592775, 3736.009182018349]]]}, "properties": {"id": 81, "height_median_m": 6.0, "building_count": 3, "area_m2": 889.0073165581342}}, {"type": "Feature", "geometry": {"type": "Polygon", "coordinates": [[[5522.723720851064, 3736.784394919971], [5520.930253642731, 3740.307983600538], [5522.539166906637, 3741.0093887678013], [5565.048502218247, 3762.2633293409795], [5566.542428652216, 3763.109989050379], [5568.34848377533, 3759.425195305722], [5567.760607351336, 3759.203082056381], [5570.00876454522, 3754.660608875639], [5567.702919538411, 3753.615167270622], [5568.021783750612, 3752.8923218212553], [5564.879007235284, 3751.2225218211224], [5565.180965331865, 3750.538001490332], [5562.99740345224, 3749.525501542862], [5563.194736327288, 3748.966324762701], [5562.417081064882, 3748.613745484942], [5558.373082784599, 3746.6013687517648], [5558.462564624377, 3746.29709405623], [5555.93865441276, 3745.0532791949636], [5553.878777213515, 3744.0526475759575], [5548.675039208366, 3741.3817300877236], [5544.644909088055, 3739.376254436231], [5538.904201016984, 3736.5875765424234], [5538.687887114009, 3736.8327616630722], [5534.650064083391, 3734.8234578611596], [5533.855379567251, 3734.2830076656287], [5533.539784710895, 3734.879202684122], [5531.356340206452, 3733.754263215736], [5531.061704908161, 3734.422183216066], [5528.88265013888, 3733.299505397565], [5528.594928134537, 3734.060461386142], [5525.480732428768, 3732.547670870954], [5524.203979469471, 3734.9967108706915], [5524.1962824099965, 3734.9929718511603], [5523.2101448028825, 3737.004933523132], [5522.723720851064, 3736.784394919971]]]}, "properties": {"id": 82, "height_median_m": 6.0, "building_count": 5, "area_m2": 536.7058990413672}}, {"type": "Feature", "geometry": {"type": "Polygon", "coordinates": [[[5411.629853312928, 3750.382074117283], [5482.17499112488, 3784.0083173891517], [5482.666082993631, 3783.1176974729124], [5482.687092619816, 3783.127706642115], [5482.831105712029, 3782.818420435376], [5483.004682578666, 3782.5036300178144], [5482.9825838936, 3782.4931020114605], [5486.419345429769, 3775.1122248797024], [5486.439769641884, 3775.121920568253], [5486.572776684598, 3774.7827119856224], [5486.714833385651, 3774.4776273746634], [5486.695923312879, 3774.468650471416], [5487.088981905593, 3773.4662310099734], [5417.898652684866, 3740.770380412386], [5417.477686887841, 3741.8837344117183], [5416.613970804651, 3743.5153935328876], [5412.610907073521, 3749.2700800152925], [5411.629853312928, 3750.382074117283]]]}, "properties": {"id": 83, "height_median_m": 3.0, "building_count": 3, "area_m2": 887.2411991622565}}, {"type": "Feature", "geometry": {"type": "Polygon", "coordinates": [[[5408.48868097, 3770.24514535], [5408.50065165, 3770.25083135], [5408.10788523, 3771.14120854], [5408.7853358, 3771.46348094], [5409.98654626, 3772.03491302], [5473.53247914, 3802.26457353], [5474.02363155, 3801.37384382], [5474.04462908, 3801.38381752], [5474.18847029, 3801.07490044], [5474.36225457, 3800.75973387], [5474.34011754, 3800.74921892], [5477.92051741, 3793.05986044], [5478.58528805, 3791.85426528], [5411.31023952, 3759.86580268], [5411.16362124, 3761.36148834], [5410.67945589, 3765.75177995], [5408.79546785, 3769.61591343], [5408.78328221, 3769.61012533], [5408.6407094, 3769.93332908], [5408.48868097, 3770.24514535]]]}, "properties": {"id": 84, "height_median_m": 6.0, "building_count": 4, "area_m2": 843.8875182736078}}, {"type": "Feature", "geometry": {"type": "Polygon", "coordinates": [[[5407.640718, 3780.17503346], [5407.92613226, 3782.27783696], [5410.42741097, 3793.05130084], [5410.8832169, 3793.22351482], [5470.7628938, 3821.8010989], [5467.6200956, 3828.92562807], [5458.00981796, 3824.29985371], [5458.03878981, 3824.2385548], [5450.13878259, 3820.48738142], [5450.12489903, 3820.51675638], [5440.80946018, 3816.03289859], [5440.77490777, 3816.10600488], [5431.18498561, 3811.46818931], [5431.17002818, 3811.49983638], [5423.23017784, 3807.67809912], [5412.68214787, 3802.66251972], [5419.20047835, 3817.32000526], [5421.47876979, 3818.37643053], [5433.44776013, 3824.06925427], [5426.01303738, 3829.12547128], [5429.36197341, 3832.92138672], [5429.41583148, 3832.87111317], [5442.23336186, 3847.39938752], [5457.02896779, 3854.44293948], [5461.96145333, 3856.82201175], [5466.48730463, 3847.2779885], [5460.69124537, 3844.61461527], [5454.07053976, 3841.38356919], [5452.98853682, 3840.85552859], [5452.98843013, 3840.85575433], [5441.05250501, 3835.24616812], [5443.94166627, 3829.06048212], [5468.83687795, 3840.9014184], [5475.23146333, 3827.44072662], [5479.0787499, 3829.09971915], [5480.51377804, 3825.4399591], [5467.28500312, 3819.83765307], [5471.5892609, 3810.66096962], [5467.3277149, 3808.572178], [5467.31655084, 3808.59579903], [5457.89751212, 3804.12334142], [5457.88822129, 3804.14299903], [5448.46081649, 3799.66656894], [5448.44620894, 3799.69968335], [5438.94371513, 3795.10414931], [5438.93335043, 3795.12607903], [5427.95231014, 3789.91193365], [5427.98709645, 3789.83833247], [5418.61563049, 3785.47301731], [5418.65607114, 3785.38745262], [5409.01702456, 3780.82629598], [5407.640718, 3780.17503346]]]}, "properties": {"id": 85, "height_median_m": 6.0, "building_count": 5, "area_m2": 1849.4588179842542}}, {"type": "Feature", "geometry": {"type": "Polygon", "coordinates": [[[5519.103540556342, 3772.5706117444674], [5518.438931609229, 3775.458314224792], [5521.584743469794, 3776.238306827564], [5521.29250072567, 3777.5632992819837], [5529.391317830624, 3779.85823897222], [5529.367228768281, 3780.0220642159866], [5533.839794606368, 3781.2343395607686], [5533.448095242949, 3782.5662769101527], [5537.686902286304, 3783.7674160885026], [5538.168342662592, 3781.4027257103135], [5541.315874730901, 3782.0716563862557], [5542.198280982929, 3778.293197848956], [5549.763398963087, 3780.052136783238], [5549.676935350239, 3780.483353642122], [5554.02212716096, 3781.378833743397], [5553.825809072052, 3782.9364771261185], [5557.522587324679, 3783.7083530963628], [5557.132179061102, 3785.367786950802], [5557.148474991128, 3785.371705027453], [5556.655802574482, 3788.052163987361], [5559.796884151902, 3788.719723770206], [5559.504580693805, 3790.265869449458], [5567.445944212618, 3792.266156112763], [5567.360529992697, 3792.7260244039835], [5571.995304368083, 3793.7319895308437], [5571.798219799624, 3795.2957143792514], [5575.818065668826, 3796.099779848788], [5576.13004645553, 3793.9780564004113], [5579.529370357407, 3794.77132698007], [5580.941712805898, 3787.7522308181638], [5577.684530189181, 3786.8572209324225], [5577.785776736031, 3786.168661951222], [5575.6571570779015, 3785.7299847580975], [5576.149658330445, 3783.7203389712513], [5571.848711647532, 3782.9078406257663], [5571.848711647532, 3780.1370580607672], [5571.585825148572, 3779.5411106254614], [5571.158532070926, 3779.218228298417], [5570.527715161652, 3779.0752260061277], [5569.738376892302, 3779.203038937767], [5569.363654864899, 3779.3446175476784], [5568.543772749262, 3779.9641582323275], [5562.604290520935, 3778.6469848625497], [5563.271550678806, 3775.484197337478], [5559.946152531307, 3774.8190380478613], [5560.140310559856, 3774.0487856221857], [5557.663572171541, 3773.4873243467823], [5558.057917759428, 3771.364176328412], [5554.072381982266, 3770.561068495101], [5554.072381982266, 3767.7219808006016], [5553.666880765454, 3767.2623577104346], [5553.283990639452, 3766.9730282984856], [5552.6420525550275, 3766.827504904564], [5552.0233040086605, 3766.9677713736146], [5550.796011323978, 3767.663320527007], [5546.681240169582, 3766.6494149036635], [5546.191290233507, 3768.8707873125613], [5543.661235351553, 3768.209001395379], [5543.461061385199, 3768.8896743991636], [5540.402763087372, 3768.218741518121], [5539.562939587776, 3771.593709222598], [5533.7425463980435, 3770.446363882691], [5533.7425463980435, 3768.114498060729], [5533.5081322055785, 3767.583095582944], [5533.266152983201, 3767.17168163386], [5532.85063120696, 3766.857694244433], [5532.115793438748, 3766.718874929638], [5529.594432457811, 3767.1951890478836], [5526.254574290715, 3766.309191483184], [5525.762133988778, 3768.5418549036576], [5523.550179989368, 3767.996815455886], [5523.258517298101, 3768.768193620273], [5519.955910790224, 3767.8607021403377], [5519.103540556342, 3772.5706117444674]]]}, "properties": {"id": 86, "height_median_m": 6.0, "building_count": 29, "area_m2": 739.9618918467468}}, {"type": "Feature", "geometry": {"type": "Polygon", "coordinates": [[[5469.17896928638, 3863.06349740972], [5470.350725003733, 3863.6955682588455], [5466.157468710817, 3872.28739665163], [5469.342637265763, 3874.333227688937], [5470.686572737075, 3875.530113567608], [5471.948775223832, 3876.850729711184], [5473.0190536446635, 3878.06385720629], [5473.9914299273805, 3879.2762315001546], [5474.964067284229, 3880.5991767423698], [5475.835409749821, 3881.9160297305048], [5476.809268238257, 3883.6821713035615], [5477.759481029582, 3885.477232664805], [5478.9570008183, 3885.847419478715], [5479.919032316337, 3886.2835926608363], [5480.880710195831, 3886.7196055167624], [5481.953565575046, 3887.382904642771], [5483.019310487468, 3887.931990508145], [5484.5166543112755, 3889.063452456983], [5488.888845698951, 3879.859928364879], [5489.37869489194, 3878.8287889545877], [5490.333317985614, 3876.819293975417], [5496.108987487575, 3879.908673717379], [5495.103359426594, 3881.7713526651064], [5503.552163450772, 3886.1141650636914], [5502.3763142316975, 3888.335479614424], [5511.731884359183, 3893.339732163257], [5516.090332500549, 3885.266777645894], [5507.447522851163, 3880.591243390867], [5508.527929186534, 3878.587340744075], [5497.281048427178, 3872.5098098807944], [5498.3127936096735, 3870.5702321796844], [5489.238680724994, 3865.7101801598437], [5490.267833214919, 3863.8956051220334], [5487.057564198699, 3862.175473172429], [5492.255426566674, 3852.1520740687884], [5504.90940853696, 3858.7187017390324], [5503.869155436727, 3861.076891184317], [5512.27259890102, 3865.447205177105], [5510.820140750952, 3868.191065845934], [5519.600870123572, 3872.72506689425], [5518.108214653726, 3876.108824533281], [5526.433433582317, 3880.308831026551], [5520.754416051796, 3892.467591362018], [5529.618907389666, 3897.01294635453], [5534.251442144696, 3887.754895348842], [5536.62647271415, 3883.2521885857254], [5536.849026565304, 3882.780575974133], [5537.008214107298, 3882.4738379080936], [5536.996581503098, 3882.4678931371195], [5539.109245748032, 3877.9909582433575], [5542.124992579319, 3871.9140590766438], [5546.220372320736, 3873.96803531571], [5550.854072974064, 3864.538027218831], [5548.497979434171, 3863.4252942301637], [5556.730030065268, 3846.8014999738357], [5558.788616429094, 3847.801504540062], [5561.109845009227, 3843.2569794888327], [5561.305234900241, 3842.8140426898995], [5561.596793706533, 3842.263254537277], [5565.13793733114, 3834.9882840870414], [5566.245343913767, 3830.43814378269], [5566.856574786879, 3830.6690808805947], [5567.358161722546, 3827.940121128727], [5569.408364501986, 3828.3827575963237], [5570.132380241059, 3825.100159786478], [5573.524142200432, 3824.1390454602106], [5582.191275183579, 3825.701942974587], [5583.102102122067, 3820.669021393384], [5573.654220297207, 3819.0394089298047], [5574.057710711386, 3816.6955214017908], [5572.094750096625, 3816.139282612336], [5572.4798480381805, 3813.956799567542], [5571.990297792051, 3813.734843540815], [5572.590334127912, 3810.4475841510507], [5565.736087579602, 3808.8444413773777], [5565.050677615284, 3811.841020950871], [5563.768940601638, 3811.5057572728892], [5561.993342586434, 3819.8076722344053], [5560.420021967332, 3819.552913624717], [5559.449049582398, 3824.285352472614], [5558.759417882737, 3824.062016413661], [5557.931928234332, 3828.2157238135355], [5559.108473520863, 3828.54911823884], [5557.604050229292, 3835.8571923041422], [5551.796247170429, 3832.951198666461], [5547.571325486164, 3841.5265240779004], [5545.495339125587, 3840.5180670724126], [5544.7533875077115, 3842.2000255052135], [5544.635682883847, 3842.2000255052135], [5544.363739492303, 3842.9706240681603], [5536.658182169679, 3858.623786560365], [5538.6235831445465, 3859.6262611142547], [5532.528628728995, 3872.1272520570747], [5523.0531620170495, 3867.4361527036044], [5524.42812674256, 3864.5418327033963], [5515.888489385197, 3860.314042294392], [5517.264157189959, 3857.5296192257847], [5508.617420076051, 3853.2974516399327], [5509.894390122582, 3850.625317372639], [5496.454293690924, 3844.0711831001367], [5501.912313535895, 3833.438141857808], [5508.105903446329, 3836.7956492105513], [5512.724000352413, 3827.6353266348247], [5511.641697742562, 3826.854663381148], [5515.635147964665, 3818.771712770311], [5519.800904826452, 3810.4013260875795], [5522.0626362178045, 3811.515935911577], [5526.28484481401, 3802.8348209094806], [5529.622767269797, 3804.5039820371244], [5534.253215684721, 3795.0805925452833], [5525.197141524492, 3790.5825428687253], [5522.512185454515, 3789.3144950848086], [5522.0755261126305, 3790.3043748082987], [5519.821854041759, 3794.889316663209], [5518.247593027216, 3798.0920431421105], [5518.096958656054, 3798.398498478739], [5518.097303073497, 3798.398675927158], [5513.982715791482, 3806.793439344199], [5509.660440067881, 3804.677890441196], [5505.285172495589, 3813.673703910509], [5501.017190918793, 3822.081957136068], [5502.782849347176, 3823.193801153755], [5497.079971258302, 3834.2120442856076], [5497.002377951246, 3834.171001132303], [5496.997812716668, 3834.179927234899], [5492.795722122301, 3832.109083864241], [5490.030042552408, 3830.6043739736024], [5484.171642888704, 3842.1676808969046], [5476.67527341326, 3856.612415995637], [5473.430589029693, 3854.873843543809], [5472.48401357255, 3856.75144306261], [5470.423770388331, 3860.7546806791347], [5469.17896928638, 3863.06349740972]]]}, "properties": {"id": 87, "height_median_m": 6.0, "building_count": 25, "area_m2": 3201.653916477488}}, {"type": "Feature", "geometry": {"type": "Polygon", "coordinates": [[[5558.4109516148865, 3807.1014819562524], [5549.241438594312, 3802.561853681501], [5542.547652938729, 3816.218811983974], [5545.416388533923, 3817.594498676296], [5548.067316725331, 3818.9299409577025], [5551.822324224828, 3820.7540201960505], [5555.314357785716, 3813.536286436935], [5557.127487835435, 3809.7685538857418], [5557.127487835433, 3809.7685538857413], [5558.4109516148865, 3807.1014819562524]]]}, "properties": {"id": 88, "height_median_m": 6.0, "building_count": 1, "area_m2": 156.08327088450625}}, {"type": "Feature", "geometry": {"type": "Polygon", "coordinates": [[[5417.334328645162, 3897.235816614689], [5417.623300872945, 3897.400512414319], [5417.94313128993, 3897.582987823818], [5417.943207004037, 3897.5828385723407], [5435.32191228128, 3907.4875958015223], [5442.6211898887605, 3893.6207345353732], [5424.747998584335, 3883.434791124408], [5409.995731138287, 3875.017297160318], [5402.696446205874, 3888.8841723424785], [5417.3343971983395, 3897.235681479198], [5417.334328645162, 3897.235816614689]]]}, "properties": {"id": 89, "height_median_m": 6.0, "building_count": 2, "area_m2": 588.1933360832107}}, {"type": "Feature", "geometry": {"type": "Polygon", "coordinates": [[[5501.5989385683715, 3926.076808408001], [5503.77300478076, 3927.24407848364], [5507.330854754067, 3929.154310924487], [5508.188947065976, 3929.5798326565236], [5508.502035183096, 3929.7454413162995], [5508.506166765792, 3929.737139596847], [5510.077555023547, 3930.516379596858], [5520.87744400977, 3908.815821944179], [5524.710658342522, 3910.821128059466], [5527.6683429657905, 3904.737062906737], [5517.7201797199605, 3899.514524394539], [5514.9754497322865, 3905.070000410527], [5514.584199274471, 3904.8482652628354], [5514.577107069786, 3904.862442773501], [5512.611724527254, 3903.8599776207434], [5501.5989385683715, 3926.076808408001]]]}, "properties": {"id": 90, "height_median_m": 6.0, "building_count": 3, "area_m2": 310.4473647247953}}, {"type": "Feature", "geometry": {"type": "Polygon", "coordinates": [[[5449.238581177975, 4028.709096776918], [5450.6633175676325, 4029.4627142766076], [5451.021152825871, 4029.6519920367405], [5465.2043001754, 4037.6900715137667], [5462.443436998275, 4042.758316823866], [5447.919338363503, 4035.1601860392943], [5447.616380181305, 4034.988489173541], [5447.61072797645, 4034.998739732624], [5446.3353195191, 4034.3315230945136], [5442.463901086439, 4041.2794004747493], [5452.790305632733, 4047.0726161503685], [5452.8312937624, 4047.0029279840355], [5460.654198111245, 4051.534960520918], [5464.3614067513845, 4044.765061385181], [5471.604377154073, 4031.766396657307], [5467.085256778997, 4029.316609036897], [5471.011081850102, 4022.196926917734], [5457.143573958303, 4014.395947488273], [5452.945332197037, 4021.9400333237863], [5449.238581177975, 4028.709096776918]]]}, "properties": {"id": 91, "height_median_m": 3.0, "building_count": 2, "area_m2": 489.6969151603341}}, {"type": "Feature", "geometry": {"type": "Polygon", "coordinates": [[[5567.507745470699, 3859.3967768094867], [5568.988676390574, 3862.9777675392875], [5565.150415637471, 3864.7502137859537], [5566.854862990896, 3868.734836675396], [5568.2976885365315, 3872.210057725406], [5565.149081266928, 3873.53185364375], [5566.723309398902, 3877.3235738270405], [5566.719960762011, 3877.325064946329], [5566.8548629908655, 3877.6404366753814], [5567.893481149252, 3880.1420750046072], [5567.893481149262, 3880.1420750046295], [5567.8934811492645, 3880.1420750046364], [5568.428526867327, 3881.3193165714447], [5568.566679095476, 3881.6422860837642], [5568.573860275661, 3881.6390883658164], [5570.098941179763, 3884.994668220869], [5571.811295848369, 3888.8764703565134], [5574.561225299388, 3887.6519503564423], [5575.990066468321, 3890.8910449217988], [5577.698584619616, 3894.8851844409787], [5580.867983920576, 3893.522543849635], [5590.120534910168, 3889.6041445639457], [5588.6478590978295, 3885.931833073797], [5588.651740091574, 3885.9302073614313], [5588.518773871258, 3885.609942025698], [5588.387283109918, 3885.282052459186], [5588.383329792906, 3885.2837084670996], [5586.812317737759, 3881.499734596958], [5583.862528986789, 3882.7256825200025], [5582.430229028788, 3879.3772803619113], [5580.990441650669, 3876.011374262282], [5581.0012289119095, 3876.0064568709663], [5580.853643481126, 3875.691570241015], [5580.715065360184, 3875.367605085018], [5580.704137740338, 3875.372586459042], [5579.184043457171, 3872.129330241322], [5577.760244543502, 3868.8008016537083], [5585.619819532385, 3865.927064486741], [5586.993018967451, 3868.8569074946654], [5587.13588406988, 3869.1712483656734], [5587.139577719808, 3869.169603615039], [5588.804263989783, 3872.721359684785], [5591.550568157477, 3871.609627237168], [5591.635289360726, 3871.796036208774], [5591.733501126878, 3871.6847162085237], [5594.980865790382, 3878.8297741649308], [5597.497010969, 3877.961782456503], [5598.971512165307, 3881.206073626409], [5599.106598144848, 3881.5327206252814], [5599.117719534835, 3881.527768365702], [5600.787319558622, 3885.2013283655256], [5603.853294859234, 3883.836075859163], [5613.107940136089, 3879.801516532081], [5611.537098245211, 3876.129233816995], [5611.544143655843, 3876.126195757992], [5611.398352307339, 3875.8048763419415], [5611.261796861317, 3875.4856397548665], [5611.254862682155, 3875.4886298496294], [5609.475638822418, 3871.5672780170203], [5606.808891287475, 3872.9706632424054], [5605.310700223148, 3869.5743567533846], [5605.17446051803, 3869.2462068307846], [5605.1673447118155, 3869.249378674839], [5603.497798495672, 3865.464620653899], [5600.747869044833, 3866.6891406539676], [5599.3206396102205, 3863.4536997906202], [5597.7165356200685, 3859.453654794249], [5588.568300258965, 3863.3560576606405], [5588.566057338642, 3863.351122644912], [5588.2512752827815, 3863.4912923946567], [5587.924258095114, 3863.630789550134], [5587.926571709343, 3863.635880111086], [5580.48399658712, 3866.949994981725], [5578.986721575748, 3863.5557651280956], [5577.465810910038, 3860.1079547074473], [5581.976199024259, 3858.329733678277], [5580.401626377103, 3854.5371836886316], [5584.628176732528, 3852.754610987209], [5583.224232380898, 3849.472497997478], [5590.774581531343, 3845.80474630128], [5592.437702044144, 3849.4640496695565], [5594.661614386298, 3848.5037693370473], [5596.2596053526895, 3852.126316032427], [5599.104212390573, 3851.0144973713686], [5599.124752035701, 3851.062514542415], [5599.328747970036, 3850.9469030004852], [5600.988605206486, 3854.5990263012936], [5603.532715731875, 3853.3631674672483], [5605.206492516397, 3857.1575159254685], [5607.567171475149, 3856.042617340765], [5609.238393559565, 3859.719746301405], [5612.550866725576, 3858.1106380556143], [5614.237674203142, 3861.934526289099], [5616.787567641949, 3860.8229011485046], [5618.355336082161, 3864.48799881137], [5621.101848137586, 3863.3761822085694], [5621.10741897202, 3863.3896002417837], [5621.601977113795, 3863.1653736975877], [5623.170848975628, 3866.833050917832], [5625.941792666717, 3865.6365636828773], [5627.55109373848, 3869.1834111874396], [5629.153177058889, 3873.0573565838085], [5632.0121503613955, 3871.9399228480193], [5632.017778715349, 3871.952306709816], [5632.327544326718, 3871.8166506731422], [5632.665071754786, 3871.684727603225], [5632.659048418759, 3871.6714746767852], [5641.298084358166, 3867.8881710006813], [5639.632525311588, 3864.1124516457744], [5639.639807230995, 3864.1095038491744], [5639.485326512322, 3863.7787610710984], [5639.3498714220395, 3863.471692758419], [5639.343170463502, 3863.4744053760255], [5637.565531248751, 3859.6684848873365], [5634.815601797715, 3861.004324887529], [5633.059122625268, 3857.243707989434], [5630.51227776709, 3858.2429744909696], [5628.931835824902, 3854.660210347763], [5626.076792343226, 3855.999287659668], [5624.313727333636, 3852.224570502661], [5621.475968888321, 3853.4446265692345], [5619.898063636702, 3849.755831271253], [5617.14443739077, 3851.093467072209], [5615.481449011964, 3847.3235752625546], [5612.648666954549, 3848.5414917985668], [5611.276473952294, 3844.986432741559], [5608.501132611418, 3846.109919738833], [5606.728349136881, 3842.4260284456714], [5603.9777686267835, 3843.650838356766], [5602.313151976565, 3840.210218562373], [5599.574106148931, 3841.3190127586263], [5597.8901242376, 3837.5015299094543], [5595.136720970926, 3838.9505180170986], [5593.382031836399, 3835.0832399252035], [5584.537627665913, 3838.770544253592], [5583.76517145219, 3839.0207028912696], [5581.227044621135, 3842.147755369387], [5586.600003079109, 3846.7878180513912], [5573.727202373126, 3852.3387121196347], [5573.686994026814, 3852.257690044552], [5573.383819702901, 3852.4867825256665], [5573.083494575642, 3852.6162860428512], [5573.098114459332, 3852.6457459292333], [5571.409185039472, 3855.0386825202386], [5570.512555951468, 3856.309059202377], [5571.141535383306, 3857.8367636385465], [5570.347817015263, 3858.174134348645], [5570.348407294037, 3858.1754724741218], [5567.507745470699, 3859.3967768094867]]]}, "properties": {"id": 92, "height_median_m": 6.0, "building_count": 56, "area_m2": 1588.9110820641952}}, {"type": "Feature", "geometry": {"type": "Polygon", "coordinates": [[[5542.304090523345, 3939.285506328662], [5541.972089357758, 3938.909193272864], [5538.964221918075, 3941.4661868235794], [5533.089500018959, 3946.173280620983], [5535.65581037604, 3955.0209823188798], [5544.31666634167, 3948.2507668515846], [5548.363616580771, 3953.3620990038976], [5552.093032493681, 3950.3585780654826], [5554.256198848341, 3953.144807808896], [5556.9380751536455, 3950.934026816764], [5556.068752486828, 3949.6202263343107], [5558.632424402954, 3947.832015353758], [5556.571404075293, 3944.9462412933244], [5552.010358132053, 3947.6145275078425], [5549.082525500013, 3944.074679236802], [5548.864144353597, 3943.8056267620723], [5548.84477764571, 3943.821175786955], [5546.302702884536, 3940.6778705474926], [5544.578276625736, 3942.1725523088185], [5542.304090523345, 3939.285506328662]]]}, "properties": {"id": 93, "height_median_m": 3.0, "building_count": 3, "area_m2": 194.6848708904602}}, {"type": "Feature", "geometry": {"type": "Polygon", "coordinates": [[[5568.702162951106, 3940.36938809641], [5566.390647462028, 3942.240839047046], [5570.722069986217, 3947.5966937697067], [5569.348898323127, 3948.8196168991426], [5572.090785790133, 3952.260444915327], [5568.8432158564265, 3954.9375504420077], [5578.075121870345, 3965.958230441861], [5575.914055920127, 3967.739686027631], [5578.330325856669, 3970.615391648383], [5587.48795886714, 3962.948424602285], [5587.091944042917, 3962.3873364051155], [5588.78193735166, 3960.9225001075915], [5578.434030571601, 3948.541854839057], [5580.304269461668, 3946.4219968882408], [5577.294814500222, 3942.6807639593235], [5578.964602173953, 3941.3447738212003], [5574.398120667396, 3935.6758591343614], [5568.79974409912, 3940.258782882321], [5568.702162951106, 3940.36938809641]]]}, "properties": {"id": 94, "height_median_m": 3.0, "building_count": 2, "area_m2": 335.24449883115545}}, {"type": "Feature", "geometry": {"type": "Polygon", "coordinates": [[[5615.087331842182, 3914.7590148993577], [5611.874199472962, 3920.0336155808745], [5617.397470577541, 3923.4142623649595], [5620.047488635337, 3918.5193218055915], [5625.723545894004, 3922.068913744075], [5626.255490109612, 3921.224794496834], [5626.960068476458, 3921.4529710086626], [5628.528040639488, 3918.582031992783], [5628.047861155265, 3918.255470834518], [5629.729520562347, 3915.452369455204], [5619.594681371411, 3909.5309638700146], [5616.161730054396, 3915.4232678908033], [5615.087331842182, 3914.7590148993577]]]}, "properties": {"id": 95, "height_median_m": 3.0, "building_count": 1, "area_m2": 126.63019929229189}}, {"type": "Feature", "geometry": {"type": "Polygon", "coordinates": [[[5595.62798189594, 3926.2477425166826], [5592.624592395841, 3931.1649912577122], [5597.943676699829, 3934.4307091150126], [5600.502099069439, 3929.9693358151985], [5606.277779134276, 3933.2980924722915], [5606.868362457182, 3932.4055485595827], [5607.486817987036, 3932.756048669153], [5608.965363209513, 3929.962906518505], [5608.586340511146, 3929.64069863681], [5610.3793701331215, 3926.705091167444], [5600.451749581574, 3920.5457454031216], [5596.705726380243, 3926.803010720093], [5595.62798189594, 3926.2477425166826]]]}, "properties": {"id": 96, "height_median_m": 3.0, "building_count": 1, "area_m2": 126.64625685780474}}, {"type": "Feature", "geometry": {"type": "Polygon", "coordinates": [[[5630.16743495081, 3990.093554973876], [5632.499010785425, 3995.6307854946945], [5638.034153276533, 3993.246698609157], [5637.640207762557, 3992.130385962366], [5643.952604056568, 3989.3355008025974], [5642.042073587513, 3985.124753450553], [5641.059754386166, 3982.675210883028], [5639.682309366371, 3979.6641490191278], [5639.149441735289, 3978.4561710538887], [5636.104876985992, 3979.7920110540745], [5635.902884717065, 3979.334107072337], [5634.891237409584, 3979.825537475583], [5632.913603800166, 3980.7485436997504], [5633.110237843327, 3981.1943009150514], [5632.210236515037, 3981.4857648222523], [5632.300403277243, 3981.6936914765142], [5628.389426262301, 3983.171348648967], [5631.148276421869, 3989.648853582562], [5630.16743495081, 3990.093554973876]]]}, "properties": {"id": 97, "height_median_m": 8.0, "building_count": 2, "area_m2": 154.13649922629133}}, {"type": "Feature", "geometry": {"type": "Polygon", "coordinates": [[[5602.83735884814, 3979.772163523457], [5596.8458204935, 3975.7642283689693], [5592.223804364811, 3982.3433276132355], [5598.313590210094, 3986.5739435817777], [5594.18869603356, 3992.473903581514], [5600.850784390244, 3997.102102027517], [5604.906380559993, 3991.3840157970276], [5605.58928343177, 3991.715751206368], [5607.446153349023, 3989.190105646472], [5606.6548859507075, 3988.629557440873], [5608.225279830253, 3986.4045663118964], [5604.501960676616, 3983.739134440958], [5605.936963737268, 3981.0282484491863], [5603.2303207896, 3979.215400761154], [5602.83735884814, 3979.772163523457]]]}, "properties": {"id": 98, "height_median_m": 3.0, "building_count": 1, "area_m2": 178.3529696829203}}]}