{"type": "FeatureCollection", "crs": {"type": "name", "properties": {"name": "EPSG:32628_local_enu_m_section_centroid", "lng0": -16.633695541699144, "lat0": 28.02980866415221}}, "features": [{"type": "Feature", "geometry": {"type": "Polygon", "coordinates": [[[-259.16330738287695, 210.2460934237955], [-241.18126564382342, 173.73313342383312], [-230.76543818817123, 154.80873342415407], [-229.58628791038365, 145.68049342386686], [-226.73667473848184, 139.2239334239531], [-223.10096138150465, 136.4409334238607], [-220.2513482096028, 147.23897342388696], [-220.15308568668658, 152.91629342379068], [-219.76003559397435, 154.69741342403964], [-218.18783522347454, 153.58421342408178], [-213.7660216810729, 150.13329342409378], [-207.87027029108768, 146.90501342393915], [-204.13629441084515, 145.56917342414792], [-202.85888160979223, 148.35217342384482], [-210.13030832374662, 155.4766534240497], [-216.32084728317872, 166.38601342379488], [-211.80077121751177, 178.51989342400785], [-208.16505786053457, 183.52929342401595], [-209.83552075429972, 190.09717342404414], [-210.32683337027728, 201.45181342385158], [-217.69652260749697, 212.69513342394006], [-219.46524802452745, 223.60449342408074], [-229.48802538711834, 234.402533424107], [-258.86851981343, 249.09677342418348], [-264.66600868014996, 235.0704534240026], [-269.18608474546784, 227.500693424131], [-276.55577398303654, 217.70453342394816], [-259.16330738287695, 210.2460934237955]]]}, "properties": {"name": "", "kind": "water", "category": "agua", "extrude": false}}, {"type": "Feature", "geometry": {"type": "Polygon", "coordinates": [[[-414.8111440752751, -36.43902657588271], [-392.8986014094485, -62.48790657616212], [-381.2053611527433, -78.62930657614427], [-374.916559670395, -97.10842657615657], [-363.3215819369552, -125.60634657618508], [-350.9405040184401, -150.76466657594452], [-337.0854882519923, -166.46078657586443], [-321.65827211539374, -189.05874657615584], [-309.6702442892417, -206.42466657621029], [-303.1849177603627, -209.09634657618824], [-298.5665791717795, -207.9831465758349], [-300.92487972770374, -196.0719065758508], [-313.993795308378, -159.67026657600286], [-322.5426348237344, -124.60446657594616], [-322.8374223931813, -100.11406657608234], [-339.6403138544472, -67.94258657583697], [-347.50131570764444, -45.567266576169914], [-350.1544038330156, -28.980586576125518], [-358.6049808251067, -0.26002657586815303], [-390.73682589970576, 14.211573423979473], [-403.0196412953047, -3.043026575960539], [-424.2443462989722, -21.85610657592065], [-414.8111440752751, -36.43902657588271]]]}, "properties": {"name": "", "kind": "water", "category": "agua", "extrude": false}}, {"type": "Feature", "geometry": {"type": "Polygon", "coordinates": [[[444.10157090411866, -791.1886265761802], [444.3963584735655, -797.8678265759274], [446.5581339833082, -802.5432665759877], [451.96257275731585, -806.1055065760901], [457.36701153132356, -806.6621065758713], [463.65581301402096, -805.1036265758512], [467.19326384773285, -800.9847865759675], [470.0428770196347, -795.9753865759594], [469.0602517880287, -791.1886265761802], [466.5054261855737, -785.511306575881], [460.8061998421191, -781.3924665759974], [453.53477312816483, -781.0585065760496], [447.83554678436116, -783.841506576142], [444.10157090411866, -791.1886265761802]]]}, "properties": {"name": "", "kind": "water", "category": "agua", "extrude": false}}, {"type": "Feature", "geometry": {"type": "Polygon", "coordinates": [[[363.91935200199526, -824.6959465758214], [369.6185783457989, -778.8321065761339], [334.8336451454795, -774.379306575907], [330.7066191725248, -820.0205065761565], [363.91935200199526, -824.6959465758214]]]}, "properties": {"name": "", "kind": "water", "category": "agua", "extrude": false}}, {"type": "Feature", "geometry": {"type": "Polygon", "coordinates": [[[324.22129264364577, -796.6433065758551], [286.88153384122063, -792.5244665759715], [284.3267082391148, -814.0092265759096], [321.37167947209304, -817.6827865761264], [324.22129264364577, -796.6433065758551]]]}, "properties": {"name": "", "kind": "water", "category": "agua", "extrude": false}}, {"type": "Feature", "geometry": {"type": "Polygon", "coordinates": [[[-70.89231299990207, -692.6704265761527], [-56.74250966435645, -708.2552265759582], [-38.76046792530298, -740.649346576037], [-28.148115423469218, -743.7663065760772], [-5.842522665279437, -738.6455865759547], [2.804579373342285, -725.1758665759505], [-6.039047711461001, -711.0382265760506], [-25.396764774832718, -692.6704265761527], [-36.00911727666648, -680.3139065761064], [-38.76046792530298, -672.2988665761726], [-37.67958017043163, -665.7309865761443], [-44.9510068847351, -661.0555465760841], [-55.17030929385664, -655.3782265761804], [-60.279960498068306, -656.046146576076], [-63.42436123941703, -660.9442265759697], [-70.30273786100828, -671.0743465761003], [-77.86895214475865, -682.4289865759077], [-81.60292802500116, -686.6591465759058], [-70.89231299990207, -692.6704265761527]]]}, "properties": {"name": "", "kind": "water", "category": "agua", "extrude": false}}, {"type": "Feature", "geometry": {"type": "Polygon", "coordinates": [[[-336.98722572907604, -1652.4714665760437], [-337.38027582178825, -1624.1961865758485], [-367.54687043317534, -1625.1980665760875], [-366.3677201550386, -1658.3714265761762], [-336.98722572907604, -1652.4714665760437]]]}, "properties": {"name": "", "kind": "water", "category": "agua", "extrude": false}}, {"type": "Feature", "geometry": {"type": "Polygon", "coordinates": [[[-408.5223425925777, -2076.15538657614], [-410.38933053287343, -2080.162906575909], [-410.8806431485019, -2084.393066575907], [-409.99628044016123, -2088.7345465760195], [-407.9327674536839, -2092.5194265759555], [-404.6901041890698, -2095.5250665758813], [-400.7596032626458, -2097.30618657613], [-396.43605224350944, -2097.8627865759113], [-391.7194511316609, -2096.7495865759533], [-387.59242515870613, -2094.18922657609], [-384.64454946353897, -2090.4043465761542], [-383.1706116163045, -2085.728906576094], [-383.367136662486, -2080.942146575919], [-385.1358620795165, -2076.4893465760874], [-388.4767878670468, -2072.9271065759854], [-392.7020763632669, -2070.7007065760695], [-397.5169399980317, -2069.9214665760596], [-401.7422284942518, -2070.812026576184], [-405.5744668977596, -2072.9271065759854], [-408.5223425925777, -2076.15538657614]]]}, "properties": {"name": "", "kind": "water", "category": "agua", "extrude": false}}, {"type": "Feature", "geometry": {"type": "Polygon", "coordinates": [[[-387.1993750659939, -2285.65962657596], [-384.4480244173574, -2268.1823865761867], [-410.48759305578966, -2268.5163465761343], [-411.6667433339264, -2286.43886657597], [-387.1993750659939, -2285.65962657596]]]}, "properties": {"name": "", "kind": "water", "category": "agua", "extrude": false}}]}