{"type": "FeatureCollection", "crs": {"type": "name", "properties": {"name": "EPSG:32628_local_enu_m_section_centroid", "lng0": -16.44315863509971, "lat0": 28.473882491439245}}, "features": [{"type": "Feature", "geometry": {"type": "Point", "coordinates": [-680.9046992003978, 1594.7137070166789]}, "properties": {"osm_id": null, "category": "restauracion", "name": "KM47 Parrilla", "extrude": false}}, {"type": "Feature", "geometry": {"type": "Point", "coordinates": [-1018.9906963347867, 1106.9094670167165]}, "properties": {"osm_id": null, "category": "restauracion", "name": "Restaurante Ferdi's", "extrude": false}}, {"type": "Feature", "geometry": {"type": "Point", "coordinates": [857.3621242289051, 468.15530701661515]}, "properties": {"osm_id": null, "category": "restauracion", "name": "La Baranda", "extrude": false}}, {"type": "Feature", "geometry": {"type": "Point", "coordinates": [341.67089271029795, 1005.2743070166487]}, "properties": {"osm_id": null, "category": "restauracion", "name": "Parilla", "extrude": false}}, {"type": "Feature", "geometry": {"type": "Point", "coordinates": [228.06225517841267, 440.43662701659673]}, "properties": {"osm_id": null, "category": "salud", "name": "", "extrude": false}}, {"type": "Feature", "geometry": {"type": "Point", "coordinates": [126.88109134717372, 438.76682701685763]}, "properties": {"osm_id": null, "category": "restauracion", "name": "Los Angeles", "extrude": false}}, {"type": "Feature", "geometry": {"type": "Point", "coordinates": [847.9681283607111, 356.5013470165313]}, "properties": {"osm_id": null, "category": "restauracion", "name": "", "extrude": false}}, {"type": "Feature", "geometry": {"type": "Point", "coordinates": [1265.1202573859657, 42.91290701689434]}, "properties": {"osm_id": null, "category": "restauracion", "name": "Felix", "extrude": false}}, {"type": "Feature", "geometry": {"type": "Point", "coordinates": [1424.231062404981, 22.986627016580883]}, "properties": {"osm_id": null, "category": "restauracion", "name": "Tacoa", "extrude": false}}, {"type": "Feature", "geometry": {"type": "Point", "coordinates": [1620.9178508967732, -25.103612983417776]}, "properties": {"osm_id": null, "category": "restauracion", "name": "Restaurante la Pedrera", "extrude": false}}, {"type": "Feature", "geometry": {"type": "Point", "coordinates": [838.4762783687886, -50.70721298323946]}, "properties": {"osm_id": null, "category": "restauracion", "name": "Tasca la Carambola", "extrude": false}}, {"type": "Feature", "geometry": {"type": "Point", "coordinates": [920.7715963399108, -165.4781329833635]}, "properties": {"osm_id": null, "category": "restauracion", "name": "San Nicolás", "extrude": false}}, {"type": "Feature", "geometry": {"type": "Point", "coordinates": [-151.90530686863136, 283.1414670166588]}, "properties": {"osm_id": null, "category": "alojamiento", "name": "", "extrude": false}}, {"type": "Feature", "geometry": {"type": "Point", "coordinates": [521.3310636910749, -426.9688129832326]}, "properties": {"osm_id": null, "category": "restauracion", "name": "Terrazas del Sauzal", "extrude": false}}, {"type": "Feature", "geometry": {"type": "Point", "coordinates": [659.1096697588491, -586.8243329834296]}, "properties": {"osm_id": null, "category": "publico", "name": "Policia Municipal", "extrude": false}}, {"type": "Feature", "geometry": {"type": "Point", "coordinates": [1360.2344655523002, -581.0356929834114]}, "properties": {"osm_id": null, "category": "restauracion", "name": "Bodegas Linaje del Pago", "extrude": false}}, {"type": "Feature", "geometry": {"type": "Point", "coordinates": [990.6394406100392, -639.0334129833118]}, "properties": {"osm_id": null, "category": "restauracion", "name": "La Bodega", "extrude": false}}, {"type": "Feature", "geometry": {"type": "Point", "coordinates": [911.18189222426, -651.3899329833582]}, "properties": {"osm_id": null, "category": "restauracion", "name": "Casa Luis", "extrude": false}}, {"type": "Feature", "geometry": {"type": "Point", "coordinates": [898.6565643998853, -653.5050129831595]}, "properties": {"osm_id": null, "category": "restauracion", "name": "El Repunte", "extrude": false}}, {"type": "Feature", "geometry": {"type": "Point", "coordinates": [915.5853277875194, -675.7690129831076]}, "properties": {"osm_id": null, "category": "finanzas", "name": "", "extrude": false}}, {"type": "Feature", "geometry": {"type": "Point", "coordinates": [567.9096265378272, -587.9375329833874]}, "properties": {"osm_id": null, "category": "restauracion", "name": "La Tasquita de San Pedro", "extrude": false}}, {"type": "Feature", "geometry": {"type": "Point", "coordinates": [594.5259481644931, -606.9732529831809]}, "properties": {"osm_id": null, "category": "restauracion", "name": "Rico Rico", "extrude": false}}, {"type": "Feature", "geometry": {"type": "Point", "coordinates": [751.28825421646, -634.1353329834182]}, "properties": {"osm_id": null, "category": "restauracion", "name": "terrazas sauzal", "extrude": false}}, {"type": "Feature", "geometry": {"type": "Point", "coordinates": [761.3672289500578, -641.7050929832898]}, "properties": {"osm_id": null, "category": "restauracion", "name": "Avenida", "extrude": false}}, {"type": "Feature", "geometry": {"type": "Point", "coordinates": [778.3938464614204, -650.6106929833481]}, "properties": {"osm_id": null, "category": "salud", "name": "", "extrude": false}}, {"type": "Feature", "geometry": {"type": "Point", "coordinates": [774.6753897635646, -675.9916529833365]}, "properties": {"osm_id": null, "category": "restauracion", "name": "Samoga", "extrude": false}}, {"type": "Feature", "geometry": {"type": "Point", "coordinates": [781.7208866647102, -897.7410929834841]}, "properties": {"osm_id": null, "category": "restauracion", "name": "Serendipia", "extrude": false}}]}