{"type": "FeatureCollection", "crs": {"type": "name", "properties": {"name": "EPSG:32628_local_enu_m_section_centroid", "lng0": -16.599964816985864, "lat0": 28.392730967983248}}, "features": [{"type": "Feature", "geometry": {"type": "Point", "coordinates": [-1459.9463702387022, 1149.264115895053]}, "properties": {"osm_id": null, "category": "publico", "name": "Biblioteca Escolar Municipal Juan Antonio Castellano", "extrude": false}}, {"type": "Feature", "geometry": {"type": "Point", "coordinates": [-1245.6772902942243, 1018.6857558952902]}, "properties": {"osm_id": null, "category": "finanzas", "name": "Caja Canarias", "extrude": false}}, {"type": "Feature", "geometry": {"type": "Point", "coordinates": [-1218.9426198989647, 1004.1028358949326]}, "properties": {"osm_id": null, "category": "salud", "name": "", "extrude": false}}, {"type": "Feature", "geometry": {"type": "Point", "coordinates": [-1201.6091522799838, 993.4161158950208]}, "properties": {"osm_id": null, "category": "restauracion", "name": "Arcoíris", "extrude": false}}, {"type": "Feature", "geometry": {"type": "Point", "coordinates": [-1212.6751513815618, 965.1408358952211]}, "properties": {"osm_id": null, "category": "publico", "name": "Ludoteca el Bosque de los Caramelos", "extrude": false}}, {"type": "Feature", "geometry": {"type": "Point", "coordinates": [-874.525639019468, 977.7199958951009]}, "properties": {"osm_id": null, "category": "restauracion", "name": "El Molino", "extrude": false}}, {"type": "Feature", "geometry": {"type": "Point", "coordinates": [-1082.6251796418828, 965.474795895169]}, "properties": {"osm_id": null, "category": "restauracion", "name": "Dorada", "extrude": false}}, {"type": "Feature", "geometry": {"type": "Point", "coordinates": [-1020.0484236618009, 946.2164358951466]}, "properties": {"osm_id": null, "category": "finanzas", "name": "caja siete", "extrude": false}}, {"type": "Feature", "geometry": {"type": "Point", "coordinates": [-342.96596537280766, 846.3623958949324]}, "properties": {"osm_id": null, "category": "restauracion", "name": "", "extrude": false}}, {"type": "Feature", "geometry": {"type": "Point", "coordinates": [1124.600959694299, 721.9066358951354]}, "properties": {"osm_id": null, "category": "salud", "name": "", "extrude": false}}, {"type": "Feature", "geometry": {"type": "Point", "coordinates": [1466.1779939019837, 709.2161558951414]}, "properties": {"osm_id": null, "category": "restauracion", "name": "Urbano", "extrude": false}}, {"type": "Feature", "geometry": {"type": "Point", "coordinates": [1130.7704990163622, 688.8445958951611]}, "properties": {"osm_id": null, "category": "alojamiento", "name": "Rural Bentor", "extrude": false}}, {"type": "Feature", "geometry": {"type": "Point", "coordinates": [1457.6581538858507, 628.3978358951161]}, "properties": {"osm_id": null, "category": "restauracion", "name": "", "extrude": false}}, {"type": "Feature", "geometry": {"type": "Point", "coordinates": [1436.3095892478486, 579.0830758950451]}, "properties": {"osm_id": null, "category": "restauracion", "name": "Tasca El Tejadito", "extrude": false}}, {"type": "Feature", "geometry": {"type": "Point", "coordinates": [-1129.9249811103386, 957.1257958952873]}, "properties": {"osm_id": null, "category": "restauracion", "name": "Central", "extrude": false}}, {"type": "Feature", "geometry": {"type": "Point", "coordinates": [-2602.878011935051, 150.61239589516973]}, "properties": {"osm_id": null, "category": "restauracion", "name": "", "extrude": false}}, {"type": "Feature", "geometry": {"type": "Point", "coordinates": [-2358.8384565321253, 80.3694758949419]}, "properties": {"osm_id": null, "category": "restauracion", "name": "Los Camioneros", "extrude": false}}, {"type": "Feature", "geometry": {"type": "Point", "coordinates": [-1779.8810522216695, -51.4334041048933]}, "properties": {"osm_id": null, "category": "restauracion", "name": "El Mirador", "extrude": false}}, {"type": "Feature", "geometry": {"type": "Point", "coordinates": [-1380.7216510087576, -153.06856410496096]}, "properties": {"osm_id": null, "category": "alojamiento", "name": "Hacienda el Terrero", "extrude": false}}, {"type": "Feature", "geometry": {"type": "Point", "coordinates": [1417.800971282007, 535.8909158949402]}, "properties": {"osm_id": null, "category": "finanzas", "name": "BBVA", "extrude": false}}, {"type": "Feature", "geometry": {"type": "Point", "coordinates": [1408.6935560924435, 427.0199558949487]}, "properties": {"osm_id": null, "category": "salud", "name": "", "extrude": false}}, {"type": "Feature", "geometry": {"type": "Point", "coordinates": [1413.5900158719583, 388.1692758949562]}, "properties": {"osm_id": null, "category": "finanzas", "name": "Banco Santander", "extrude": false}}, {"type": "Feature", "geometry": {"type": "Point", "coordinates": [1342.2975614843679, 87.15999589519896]}, "properties": {"osm_id": null, "category": "restauracion", "name": "Casa Tomás", "extrude": false}}, {"type": "Feature", "geometry": {"type": "Point", "coordinates": [742.6770969050282, -57.88996410480706]}, "properties": {"osm_id": null, "category": "restauracion", "name": "Casa Celso", "extrude": false}}, {"type": "Feature", "geometry": {"type": "Point", "coordinates": [738.2702831036042, -66.12764410496979]}, "properties": {"osm_id": null, "category": "restauracion", "name": "Casa Celso", "extrude": false}}, {"type": "Feature", "geometry": {"type": "Point", "coordinates": [906.1209243397724, -175.7778441049713]}, "properties": {"osm_id": null, "category": "restauracion", "name": "Pizzeria Carpio", "extrude": false}}, {"type": "Feature", "geometry": {"type": "Point", "coordinates": [1287.06549517321, -195.8154441050037]}, "properties": {"osm_id": null, "category": "restauracion", "name": "Barmerina", "extrude": false}}, {"type": "Feature", "geometry": {"type": "Point", "coordinates": [843.2503807729751, -201.82672410485523]}, "properties": {"osm_id": null, "category": "restauracion", "name": "La Tostada Mexicana", "extrude": false}}, {"type": "Feature", "geometry": {"type": "Point", "coordinates": [590.2013393758263, -312.2561641048668]}, "properties": {"osm_id": null, "category": "restauracion", "name": "San Pedro Bambubar", "extrude": false}}, {"type": "Feature", "geometry": {"type": "Point", "coordinates": [580.3104906218051, -320.93912410469625]}, "properties": {"osm_id": null, "category": "restauracion", "name": "Mirador San Pedro", "extrude": false}}]}