{"type": "FeatureCollection", "crs": {"type": "name", "properties": {"name": "EPSG:32628_local_enu_m_section_centroid", "lng0": -13.866086896551721, "lat0": 28.499225423197483}}, "features": [{"type": "Feature", "geometry": {"type": "LineString", "coordinates": [[-377.9298791040526, 126.06135034375455], [-412.17060277551747, 126.06135034375455]]}, "properties": {"osm_id": null, "type": "primary", "width_m": 12, "extrude": false}}, {"type": "Feature", "geometry": {"type": "LineString", "coordinates": [[-382.0387659446701, 132.51791034366832], [-373.038347151011, 130.51415034398147], [-326.27530167989187, 131.1820703438771], [-320.6011246142524, 127.17455034371241], [-308.7636172880343, 113.81615034382264]]}, "properties": {"osm_id": null, "type": "service", "width_m": 3.5, "extrude": false}}, {"type": "Feature", "geometry": {"type": "LineString", "coordinates": [[-232.26005754219292, 130.73679034381485], [-248.2064517092023, 126.72927034365017], [-287.43653797269656, 123.3896703437766], [-296.0456342100567, 120.16139034401746], [-301.3284887192234, 115.37463034384274], [-302.3067951099707, 107.58223034374225]]}, "properties": {"osm_id": null, "type": "service", "width_m": 3.5, "extrude": false}}, {"type": "Feature", "geometry": {"type": "LineString", "coordinates": [[-308.7636172880343, 104.68791034393092], [-320.20980205812725, 116.93311034386284], [-331.4603255500707, 121.38591034369426], [-364.6249121918004, 122.61043034376655], [-377.9298791040526, 126.06135034375455]]}, "properties": {"osm_id": null, "type": "service", "width_m": 3.5, "extrude": false}}, {"type": "Feature", "geometry": {"type": "LineString", "coordinates": [[-306.0243593942893, 107.02563034396107], [-308.7636172880343, 113.81615034382264]]}, "properties": {"osm_id": null, "type": "service", "width_m": 3.5, "extrude": false}}, {"type": "Feature", "geometry": {"type": "LineString", "coordinates": [[-308.7636172880343, 104.68791034393092], [-307.58964961913745, 106.02375034372216], [-306.0243593942893, 107.02563034396107], [-302.3067951099707, 107.58223034374225], [-299.9588597725247, 106.69167034401326], [-298.19790826935326, 105.02187034387873], [-297.12177123961806, 102.79547034396302]]}, "properties": {"osm_id": null, "type": "tertiary", "width_m": 7, "extrude": false}}, {"type": "Feature", "geometry": {"type": "LineString", "coordinates": [[-297.12177123961806, 102.79547034396302], [-297.0239406006302, 100.45775034393287], [-297.80658571305435, 98.12003034390273], [-299.3718759380763, 96.33891034365377], [-301.5241499973729, 95.22571034369591], [-304.0677466129684, 95.00307034386253], [-306.51351258957607, 95.78231034387258], [-308.47012537072317, 97.45211034400711], [-309.5462624004584, 99.78983034403726], [-309.6440930394462, 102.23887034378635], [-308.7636172880343, 104.68791034393092]]}, "properties": {"osm_id": null, "type": "tertiary", "width_m": 7, "extrude": false}}, {"type": "Feature", "geometry": {"type": "LineString", "coordinates": [[155.93191825213208, 263.54155034388896], [138.42023386010072, 261.87175034375446], [121.69119458066726, 261.64911034392105], [119.83241243850799, 261.87175034375446], [118.56061413079709, 262.42835034393113], [117.48447710106191, 263.76419034372236], [116.99532390577514, 265.21135034402346], [115.33220304176534, 272.5584703436663], [108.71891846813666, 303.39411034412035]]}, "properties": {"osm_id": null, "type": "residential", "width_m": 5, "extrude": false}}, {"type": "Feature", "geometry": {"type": "LineString", "coordinates": [[59.804487297692724, 303.39411034412035], [67.8843430972099, 263.09627034382675]]}, "properties": {"osm_id": null, "type": "residential", "width_m": 5, "extrude": false}}, {"type": "Feature", "geometry": {"type": "LineString", "coordinates": [[171.29132858469308, 267.32643034382477], [165.03016768477897, 295.04511034384325], [162.10904907328253, 303.39411034412035]]}, "properties": {"osm_id": null, "type": "residential", "width_m": 5, "extrude": false}}, {"type": "Feature", "geometry": {"type": "LineString", "coordinates": [[67.8843430972099, 263.09627034382675], [115.33220304176534, 272.5584703436663]]}, "properties": {"osm_id": null, "type": "residential", "width_m": 5, "extrude": false}}, {"type": "Feature", "geometry": {"type": "LineString", "coordinates": [[67.8843430972099, 263.09627034382675], [72.97153632822716, 260.20195034401536], [78.54788275470499, 258.19819034393305], [119.93024307766959, 251.51899034379042], [124.91960566969901, 249.8491903436559], [128.24584739771862, 246.95487034384456], [129.90896826190223, 244.50583034369998], [131.37642784776259, 240.164350343983], [131.86558104304933, 235.71155034375607]]}, "properties": {"osm_id": null, "type": "residential", "width_m": 5, "extrude": false}}, {"type": "Feature", "geometry": {"type": "LineString", "coordinates": [[306.39544112804555, 245.1737503439911], [300.42777214526876, 262.6509903437645], [286.6149652863414, 303.39411034412035]]}, "properties": {"osm_id": null, "type": "residential", "width_m": 5, "extrude": false}}, {"type": "Feature", "geometry": {"type": "LineString", "coordinates": [[354.9733460840018, 296.55872171301326], [362.35456667097327, 275.78675034382087], [378.3009608378089, 230.92479034397684], [379.2792672285562, 227.0285903439266], [383.3881540689999, 214.78339034399468], [385.2469362111592, 211.55511034384006]]}, "properties": {"osm_id": null, "type": "residential", "width_m": 5, "extrude": false}}, {"type": "Feature", "geometry": {"type": "LineString", "coordinates": [[191.23015315671907, 303.39411034412035], [205.04289906069732, 264.2094703437846], [213.35850338092015, 241.3888703436598], [217.46739022153764, 233.37383034372593], [222.45675281356705, 225.4701103439065], [235.37039716969414, 208.43815034379986]]}, "properties": {"osm_id": null, "type": "primary", "width_m": 12, "extrude": false}}, {"type": "Feature", "geometry": {"type": "LineString", "coordinates": [[206.9016812028566, 199.1985903437937], [206.80385056386876, 213.67019034403683], [206.314697368582, 220.90599034396064], [205.23856033884678, 227.9191503436556], [202.4993024451018, 237.15871034366174], [198.29258496549647, 250.07183034388476], [186.7485695562419, 282.02067034390126], [179.20260396297124, 303.39411034412035]]}, "properties": {"osm_id": null, "type": "primary", "width_m": 12, "extrude": false}}, {"type": "Feature", "geometry": {"type": "LineString", "coordinates": [[362.35456667097327, 275.78675034382087], [376.93669852468105, 283.7676914325007]]}, "properties": {"osm_id": null, "type": "residential", "width_m": 5, "extrude": false}}, {"type": "Feature", "geometry": {"type": "LineString", "coordinates": [[171.29132858469308, 267.32643034382477], [155.93191825213208, 263.54155034388896]]}, "properties": {"osm_id": null, "type": "residential", "width_m": 5, "extrude": false}}, {"type": "Feature", "geometry": {"type": "LineString", "coordinates": [[300.42777214526876, 262.6509903437645], [290.546877600024, 258.97743034394307]]}, "properties": {"osm_id": null, "type": "service", "width_m": 3.5, "extrude": false}}, {"type": "Feature", "geometry": {"type": "LineString", "coordinates": [[362.35456667097327, 275.78675034382087], [306.39544112804555, 245.1737503439911]]}, "properties": {"osm_id": null, "type": "residential", "width_m": 5, "extrude": false}}, {"type": "Feature", "geometry": {"type": "LineString", "coordinates": [[198.29258496549647, 250.07183034388476], [195.2598351546142, 253.41143034375833], [192.2270853437319, 256.19443034385074], [188.50952105941332, 258.53215034388086], [177.65032012359498, 264.2094703437846], [171.29132858469308, 267.32643034382477]]}, "properties": {"osm_id": null, "type": "residential", "width_m": 5, "extrude": false}}, {"type": "Feature", "geometry": {"type": "LineString", "coordinates": [[378.3009608378089, 230.92479034397684], [382.40984767842633, 233.03987034377812], [387.79053282675466, 236.1568303438183], [406.75081247086564, 246.61417293105714]]}, "properties": {"osm_id": null, "type": "residential", "width_m": 5, "extrude": false}}, {"type": "Feature", "geometry": {"type": "LineString", "coordinates": [[306.39544112804555, 245.1737503439911], [312.1674488326728, 227.47387034398884], [313.3414165013959, 224.13427034371978], [316.7654888684033, 215.4513103438903]]}, "properties": {"osm_id": null, "type": "residential", "width_m": 5, "extrude": false}}, {"type": "Feature", "geometry": {"type": "LineString", "coordinates": [[155.93191825213208, 263.54155034388896], [145.56187051160052, 255.5265103439551], [139.20287897269858, 249.18127034376027], [134.50700829763272, 243.05867034379432], [132.25690359934828, 238.9398303439107], [131.86558104304933, 235.71155034375607], [131.7677504040615, 211.10983034377782], [132.3547342383361, 207.324950343842], [133.82219382437026, 204.43063034403067], [139.9855240851227, 196.19295034386795], [146.3445156240246, 190.51563034396423], [154.8557812223969, 185.0609503438939], [160.9212808441615, 181.83267034373927], [176.47635245487194, 176.15535034383555]]}, "properties": {"osm_id": null, "type": "residential", "width_m": 5, "extrude": false}}, {"type": "Feature", "geometry": {"type": "LineString", "coordinates": [[341.223148633785, 211.10983034377782], [341.0274873556355, 215.33999034377587]]}, "properties": {"osm_id": null, "type": "footway", "width_m": 2, "extrude": false}}, {"type": "Feature", "geometry": {"type": "LineString", "coordinates": [[294.16661124535466, 210.4419103438822], [308.8412071044794, 214.226790343818], [316.7654888684033, 215.4513103438903], [322.24400465589326, 215.89659034395254], [341.0274873556355, 215.33999034377587], [376.63783997379903, 212.22303034373567], [385.2469362111592, 211.55511034384006]]}, "properties": {"osm_id": null, "type": "residential", "width_m": 5, "extrude": false}}, {"type": "Feature", "geometry": {"type": "LineString", "coordinates": [[323.8092948809153, 210.4419103438822], [337.6034149884543, 211.10983034377782], [341.223148633785, 211.10983034377782], [363.0393811444095, 209.2173903438099]]}, "properties": {"osm_id": null, "type": "footway", "width_m": 2, "extrude": false}}, {"type": "Feature", "geometry": {"type": "LineString", "coordinates": [[235.37039716969414, 208.43815034379986], [247.01224321793657, 206.87967034377976], [260.8063633254756, 206.76835034366533], [273.0351932081664, 207.77023034390425], [294.16661124535466, 210.4419103438822]]}, "properties": {"osm_id": null, "type": "residential", "width_m": 5, "extrude": false}}, {"type": "Feature", "geometry": {"type": "LineString", "coordinates": [[376.63783997379903, 212.22303034373567], [371.0614935473212, 207.10231034400863], [368.90921948802463, 203.09479034384395], [347.19081761638796, 202.87215034401058], [321.4613595434692, 203.5400703439062]]}, "properties": {"osm_id": null, "type": "service", "width_m": 3.5, "extrude": false}}, {"type": "Feature", "geometry": {"type": "LineString", "coordinates": [[206.9016812028566, 199.1985903437937], [210.22792293105, 203.65139034402063], [214.6303016888048, 207.21363034372757], [220.9892932277067, 209.88531034370553], [227.73960732290757, 210.4419103438822], [231.6528328853756, 209.77399034398658], [235.37039716969414, 208.43815034379986]]}, "properties": {"osm_id": null, "type": "primary", "width_m": 12, "extrude": false}}, {"type": "Feature", "geometry": {"type": "LineString", "coordinates": [[368.90921948802463, 203.09479034384395], [371.1593241864829, 200.0891503439182], [370.1810177957355, 196.52691034381576], [367.7352518193016, 195.7476703438057]]}, "properties": {"osm_id": null, "type": "service", "width_m": 3.5, "extrude": false}}, {"type": "Feature", "geometry": {"type": "LineString", "coordinates": [[205.82554417329519, 196.972190343878], [206.9016812028566, 199.1985903437937]]}, "properties": {"osm_id": null, "type": "primary", "width_m": 12, "extrude": false}}, {"type": "Feature", "geometry": {"type": "LineString", "coordinates": [[358.8326636648042, 192.51939034365108], [353.25631723832635, 190.84959034391204], [347.19081761638796, 202.87215034401058]]}, "properties": {"osm_id": null, "type": "service", "width_m": 3.5, "extrude": false}}, {"type": "Feature", "geometry": {"type": "LineString", "coordinates": [[294.16661124535466, 210.4419103438822], [275.6766204627498, 200.7570703438138], [247.20790449608603, 181.83267034373927]]}, "properties": {"osm_id": null, "type": "residential", "width_m": 5, "extrude": false}}, {"type": "Feature", "geometry": {"type": "LineString", "coordinates": [[235.37039716969414, 208.43815034379986], [240.65325167903467, 204.98723034381186], [244.85996915864, 200.20047034403262], [247.3057351350739, 194.63447034384785], [248.1862108866596, 188.62319034399633], [247.20790449608603, 181.83267034373927]]}, "properties": {"osm_id": null, "type": "primary", "width_m": 12, "extrude": false}}, {"type": "Feature", "geometry": {"type": "LineString", "coordinates": [[367.7352518193016, 195.7476703438057], [358.8326636648042, 192.51939034365108]]}, "properties": {"osm_id": null, "type": "service", "width_m": 3.5, "extrude": false}}, {"type": "Feature", "geometry": {"type": "LineString", "coordinates": [[385.2469362111592, 211.55511034384006], [398.7475644015609, 209.66267034387215], [418.37398228153825, 207.16427410046123]]}, "properties": {"osm_id": null, "type": "residential", "width_m": 5, "extrude": false}}, {"type": "Feature", "geometry": {"type": "LineString", "coordinates": [[216.97823702625087, 168.36295034373506], [212.57585826849606, 171.03463034371302], [208.8582939841775, 174.70819034392989], [205.43422161699627, 180.7194703437814], [204.06459267012377, 187.62131034375741], [204.4559152264227, 192.2967503438177], [205.82554417329519, 196.972190343878]]}, "properties": {"osm_id": null, "type": "primary", "width_m": 12, "extrude": false}}, {"type": "Feature", "geometry": {"type": "LineString", "coordinates": [[247.20790449608603, 181.83267034373927], [245.9361061882014, 179.38363034399018]]}, "properties": {"osm_id": null, "type": "primary", "width_m": 12, "extrude": false}}, {"type": "Feature", "geometry": {"type": "LineString", "coordinates": [[245.9361061882014, 179.38363034399018], [243.58817085075532, 175.0421503438777], [238.8923001758632, 170.3667103438174], [232.33764735881184, 167.2497503437772], [225.09818006832418, 166.35919034365273], [220.9892932277067, 166.9157903438294], [216.97823702625087, 168.36295034373506]]}, "properties": {"osm_id": null, "type": "primary", "width_m": 12, "extrude": false}}, {"type": "Feature", "geometry": {"type": "LineString", "coordinates": [[216.97823702625087, 168.36295034373506], [205.62988289514573, 168.8082303437973], [188.1181985031144, 167.69503034383945], [175.20455414716108, 166.9157903438294]]}, "properties": {"osm_id": null, "type": "primary", "width_m": 12, "extrude": false}}, {"type": "Feature", "geometry": {"type": "LineString", "coordinates": [[244.85996915864, 154.89323034373086], [246.9144125789487, 153.00079034376296], [248.9688559990837, 152.33287034386734], [252.001605809966, 152.44419034398177], [329.28781066823143, 179.60627034382355]]}, "properties": {"osm_id": null, "type": "residential", "width_m": 5, "extrude": false}}, {"type": "Feature", "geometry": {"type": "LineString", "coordinates": [[316.7654888684033, 215.4513103438903], [319.89606931844725, 208.43815034379986], [321.4613595434692, 203.5400703439062], [329.28781066823143, 179.60627034382355], [344.94071291810354, 135.52355034398957], [362.84371986626, 85.31823034379414]]}, "properties": {"osm_id": null, "type": "residential", "width_m": 5, "extrude": false}}, {"type": "Feature", "geometry": {"type": "LineString", "coordinates": [[419.3898292434624, 160.4401385231465], [415.67226495914383, 159.23471034384335], [404.32391082803866, 155.3385103437931], [393.17121797508304, 151.77627034369067], [344.94071291810354, 135.52355034398957], [271.1764110660071, 110.14259034400126], [265.0130808050809, 106.35771034366996], [261.78466971622294, 103.12943034391083]]}, "properties": {"osm_id": null, "type": "residential", "width_m": 5, "extrude": false}}, {"type": "Feature", "geometry": {"type": "LineString", "coordinates": [[190.27047256258476, 130.84811034392928], [208.8582939841775, 136.30279034399962], [212.28236635118495, 135.41223034387514], [216.48908383096406, 131.40471034371046], [233.8051069446722, 113.59351034398927], [236.83785675555447, 111.36711034367806], [240.4575904008852, 110.69919034378245], [244.6643078804905, 111.36711034367806]]}, "properties": {"osm_id": null, "type": "residential", "width_m": 5, "extrude": false}}, {"type": "Feature", "geometry": {"type": "LineString", "coordinates": [[419.3898292434624, 113.36225202161486], [406.9653380827959, 147.65743034380705], [404.32391082803866, 155.3385103437931], [389.4536536907645, 197.6401103437736], [387.0078877143306, 205.65515034370748], [385.2469362111592, 211.55511034384006]]}, "properties": {"osm_id": null, "type": "residential", "width_m": 5, "extrude": false}}, {"type": "Feature", "geometry": {"type": "LineString", "coordinates": [[278.2202170783453, 56.70899034365121], [362.84371986626, 85.31823034379414], [409.0197815031046, 100.45775034393287], [415.47660368099434, 103.12943034391083], [419.3898292434624, 104.70100681446283]]}, "properties": {"osm_id": null, "type": "residential", "width_m": 5, "extrude": false}}, {"type": "Feature", "geometry": {"type": "LineString", "coordinates": [[188.1181985031144, 167.69503034383945], [186.2594163609551, 147.43479034397367], [190.27047256258476, 130.84811034392928], [201.42316541554038, 87.9899103437721], [217.0760676652387, 38.229870344034396], [221.282785144844, 25.094110343978002]]}, "properties": {"osm_id": null, "type": "residential", "width_m": 5, "extrude": false}}, {"type": "Feature", "geometry": {"type": "LineString", "coordinates": [[247.89271896952226, 103.12943034391083], [201.42316541554038, 87.9899103437721]]}, "properties": {"osm_id": null, "type": "residential", "width_m": 5, "extrude": false}}, {"type": "Feature", "geometry": {"type": "LineString", "coordinates": [[362.84371986626, 85.31823034379414], [364.50684073026986, 80.30883034378604], [379.377097867544, 36.6713903440143]]}, "properties": {"osm_id": null, "type": "residential", "width_m": 5, "extrude": false}}, {"type": "Feature", "geometry": {"type": "LineString", "coordinates": [[245.9361061882014, 179.38363034399018], [245.34912235392676, 169.1421903437451], [244.6643078804905, 163.1309103438936], [244.85996915864, 154.89323034373086], [246.42525938348817, 148.88195034387934], [248.67536408194638, 140.6442703437166], [261.78466971622294, 103.12943034391083], [263.4477905802327, 98.3426703437361], [278.2202170783453, 56.70899034365121], [302.97136876086427, -14.647129656138986], [313.04792458408474, -41.58656965614739], [314.8088760872562, -46.03936965597882], [319.70040804029776, -58.952489656201834], [322.3418352948811, -64.62980965610555]]}, "properties": {"osm_id": null, "type": "primary", "width_m": 12, "extrude": false}}, {"type": "Feature", "geometry": {"type": "LineString", "coordinates": [[306.2976104888839, -71.75428965631042], [305.71062665460926, -63.961889656209934], [301.50390917500397, -50.49216965620573], [265.2087420832304, 53.92599034395431], [252.19726708811544, 90.99555034369786], [251.61028325384083, 92.55403034371795], [250.4363155851178, 96.11627034382039], [247.89271896952226, 103.12943034391083], [244.6643078804905, 111.36711034367806], [232.04415544167452, 142.42539034396557], [216.97823702625087, 168.36295034373506]]}, "properties": {"osm_id": null, "type": "primary", "width_m": 12, "extrude": false}}, {"type": "Feature", "geometry": {"type": "LineString", "coordinates": [[203.575439474837, 33.77707034380748], [212.28236635118495, 31.773310343725143], [215.9020999965157, 29.99219034387167], [221.282785144844, 25.094110343978002]]}, "properties": {"osm_id": null, "type": "residential", "width_m": 5, "extrude": false}}, {"type": "Feature", "geometry": {"type": "LineString", "coordinates": [[385.05127493300967, 20.084710343969903], [379.377097867544, 36.6713903440143]]}, "properties": {"osm_id": null, "type": "pedestrian", "width_m": 4, "extrude": false}}, {"type": "Feature", "geometry": {"type": "LineString", "coordinates": [[387.5948715486052, 12.626270343817225], [386.81222643618116, 14.852670343732939], [386.7143957971933, 17.524350343710893]]}, "properties": {"osm_id": null, "type": "pedestrian", "width_m": 4, "extrude": false}}, {"type": "Feature", "geometry": {"type": "LineString", "coordinates": [[-412.17060277551747, 130.81618769683473], [-382.0387659446701, 132.51791034366832], [-308.37229473173534, 135.74619034382295], [-223.9444532219701, 138.86315034386314], [-190.87769721940208, 141.64615034395553], [-154.3868688496528, 146.32159034401582], [-125.33116904854067, 151.21967034390948], [-14.391224353258771, 171.36859034366083], [16.22976567287535, 174.1515903437532], [39.70911904750968, 174.26291034386765], [139.4963708898359, 169.1421903437451], [151.72520077252676, 169.6987903439218], [159.74731317543848, 171.03463034371302], [167.2802723832372, 172.92707034368092], [176.47635245487194, 176.15535034383555], [190.6617951187099, 183.94775034393604], [205.82554417329519, 196.972190343878]]}, "properties": {"osm_id": null, "type": "primary", "width_m": 12, "extrude": false}}, {"type": "Feature", "geometry": {"type": "LineString", "coordinates": [[175.20455414716108, 166.9157903438294], [145.2683785944632, 159.79131034402002], [134.31134701965703, 158.67811034366667], [123.2564848056892, 158.67811034366667], [66.31905287218794, 164.132790343737], [38.53515137878665, 166.02523034370492], [30.12171641957599, 165.80259034387154], [22.9800797680762, 165.3573103438093], [-35.62047302943489, 157.34227034387544], [-49.805915693272844, 155.3385103437931]]}, "properties": {"osm_id": null, "type": "residential", "width_m": 5, "extrude": false}}, {"type": "Feature", "geometry": {"type": "LineString", "coordinates": [[175.20455414716108, 166.9157903438294], [160.52995828803637, 166.02523034370492], [150.64906374279158, 165.80259034387154], [139.30070961168644, 166.02523034370492], [40.883086716232704, 170.7006703437652], [14.175322252566605, 170.58935034365078], [-15.36953074383233, 167.80635034395388], [-130.22270100158224, 144.9857503438291], [-183.83389120689012, 135.41223034387514], [-232.26005754219292, 130.73679034381485], [-301.0349968020861, 127.84247034400352], [-320.6011246142524, 127.17455034371241], [-377.9298791040526, 126.06135034375455]]}, "properties": {"osm_id": null, "type": "primary", "width_m": 12, "extrude": false}}, {"type": "Feature", "geometry": {"type": "LineString", "coordinates": [[-49.805915693272844, 155.3385103437931], [-94.6123483832449, 148.88195034387934], [-183.83389120689012, 135.41223034387514]]}, "properties": {"osm_id": null, "type": "service", "width_m": 3.5, "extrude": false}}, {"type": "Feature", "geometry": {"type": "LineString", "coordinates": [[-62.13257621495152, 149.6611903438894], [-172.5833677149466, 126.5066303438168], [-178.64886733671122, 122.83307034399542]]}, "properties": {"osm_id": null, "type": "residential", "width_m": 5, "extrude": false}}, {"type": "Feature", "geometry": {"type": "LineString", "coordinates": [[-308.7636172880343, 113.81615034382264], [-305.2417142816914, 122.94439034371436], [-301.0349968020861, 127.84247034400352], [-293.9911907897479, 132.1839503437205], [-232.35788818118073, 135.18959034364627], [-223.9444532219701, 138.86315034386314]]}, "properties": {"osm_id": null, "type": "service", "width_m": 3.5, "extrude": false}}, {"type": "Feature", "geometry": {"type": "LineString", "coordinates": [[-297.12177123961806, 102.79547034396302], [-284.69728007895156, 104.35395034398312], [-251.82618535435918, 114.81803034366607], [-187.9427780475076, 118.15763034393512], [-178.64886733671122, 122.83307034399542]]}, "properties": {"osm_id": null, "type": "residential", "width_m": 5, "extrude": false}}, {"type": "Feature", "geometry": {"type": "LineString", "coordinates": [[22.9800797680762, 165.3573103438093], [50.47048934434017, 85.76351034385638], [64.5581013690165, 43.35059034376144], [81.0914793703005, -6.743409656319557], [93.32030925299135, -43.479009656115295], [107.60358255599093, -86.55984965610585]]}, "properties": {"osm_id": null, "type": "residential", "width_m": 5, "extrude": false}}, {"type": "Feature", "geometry": {"type": "LineString", "coordinates": [[64.2646094518792, -154.79900965625134], [48.41604592403143, -105.70688965601377], [34.32843389918132, -61.958129656127596], [22.68658785093889, -25.779129656113042], [6.544532405780036, 24.426190343686898], [-7.0539264236095125, 66.50515034383403], [-35.62047302943489, 157.34227034387544]]}, "properties": {"osm_id": null, "type": "residential", "width_m": 5, "extrude": false}}, {"type": "Feature", "geometry": {"type": "LineString", "coordinates": [[-412.17060277551747, -68.7920324286057], [-367.7554926418443, -53.943089656193735], [-254.85893516524155, -16.316929656273516], [-139.61444235136645, 22.199790343771184], [-7.0539264236095125, 66.50515034383403], [50.47048934434017, 85.76351034385638], [190.27047256258476, 130.84811034392928]]}, "properties": {"osm_id": null, "type": "residential", "width_m": 5, "extrude": false}}, {"type": "Feature", "geometry": {"type": "LineString", "coordinates": [[-308.47012537072317, 97.45211034400711], [-412.17060277551747, 63.1131401859831]]}, "properties": {"osm_id": null, "type": "tertiary", "width_m": 7, "extrude": false}}, {"type": "Feature", "geometry": {"type": "LineString", "coordinates": [[-162.5068118917262, 82.980510343764], [-279.51225620877267, 44.35247034400035], [-392.1153217678906, 7.171590343746885], [-412.17060277551747, 0.5509266990523543]]}, "properties": {"osm_id": null, "type": "residential", "width_m": 5, "extrude": false}}, {"type": "Feature", "geometry": {"type": "LineString", "coordinates": [[302.97136876086427, -14.647129656138986], [310.3086666905136, -12.30940965610884], [313.53707777937154, -11.196209656150984], [387.5948715486052, 12.626270343817225], [400.89983846103127, 16.856430343815276], [419.3898292434624, 22.77378409390394]]}, "properties": {"osm_id": null, "type": "pedestrian", "width_m": 4, "extrude": false}}, {"type": "Feature", "geometry": {"type": "LineString", "coordinates": [[323.124480407479, -65.18640965628222], [333.4945281478368, -63.07132965608545], [348.5604465632604, -58.173249656191786], [404.6174027453498, -40.139409656241725], [419.3898292434624, -36.054276110150596]]}, "properties": {"osm_id": null, "type": "secondary", "width_m": 9, "extrude": false}}, {"type": "Feature", "geometry": {"type": "LineString", "coordinates": [[419.3898292434624, -44.15036545836884], [399.6280401531466, -51.16008965610135], [362.7458892270984, -63.182649656199885], [351.6910270133044, -67.07884965625013], [330.8531008932534, -73.98068965622613], [327.037705969947, -77.3202896560997]]}, "properties": {"osm_id": null, "type": "secondary", "width_m": 9, "extrude": false}}, {"type": "Feature", "geometry": {"type": "LineString", "coordinates": [[125.31092822599797, -81.43912965598332], [151.8230314115146, -52.16196965634026], [178.0416426798939, -23.330089655968465], [184.5962954969453, -16.09428965604465], [221.282785144844, 25.094110343978002], [239.77277592744892, 44.68643034394816], [265.2087420832304, 53.92599034395431]]}, "properties": {"osm_id": null, "type": "tertiary", "width_m": 7, "extrude": false}}, {"type": "Feature", "geometry": {"type": "LineString", "coordinates": [[387.5948715486052, 12.626270343817225], [389.35582305177667, 7.171590343746885], [401.388991656318, -30.3432496560589], [402.07380612975425, -32.34700965614124], [404.6174027453498, -40.139409656241725]]}, "properties": {"osm_id": null, "type": "pedestrian", "width_m": 4, "extrude": false}}, {"type": "Feature", "geometry": {"type": "LineString", "coordinates": [[323.124480407479, -51.38272965633021], [320.6787144308713, -43.924289656177535], [320.8743757090208, -41.69788965626182], [310.3086666905136, -12.30940965610884]]}, "properties": {"osm_id": null, "type": "footway", "width_m": 2, "extrude": false}}, {"type": "Feature", "geometry": {"type": "LineString", "coordinates": [[221.282785144844, 25.094110343978002], [256.4039845677208, -93.9069696561441]]}, "properties": {"osm_id": null, "type": "residential", "width_m": 5, "extrude": false}}, {"type": "Feature", "geometry": {"type": "LineString", "coordinates": [[363.43070370053465, -44.92616965602096], [402.07380612975425, -32.34700965614124]]}, "properties": {"osm_id": null, "type": "footway", "width_m": 2, "extrude": false}}, {"type": "Feature", "geometry": {"type": "LineString", "coordinates": [[364.50684073026986, -39.13752965600281], [365.3873164818556, -38.58092965622163]]}, "properties": {"osm_id": null, "type": "footway", "width_m": 2, "extrude": false}}, {"type": "Feature", "geometry": {"type": "LineString", "coordinates": [[349.04959975854723, -40.139409656241725], [351.397535096167, -41.58656965614739], [354.1367929897383, -42.47712965627187], [356.9738815226449, -42.699769656105246], [359.8109700553777, -42.14316965632406], [362.35456667097327, -40.91864965625177], [364.50684073026986, -39.13752965600281]]}, "properties": {"osm_id": null, "type": "footway", "width_m": 2, "extrude": false}}, {"type": "Feature", "geometry": {"type": "LineString", "coordinates": [[320.6787144308713, -43.924289656177535], [314.8088760872562, -46.03936965597882], [301.50390917500397, -50.49216965620573]]}, "properties": {"osm_id": null, "type": "footway", "width_m": 2, "extrude": false}}, {"type": "Feature", "geometry": {"type": "LineString", "coordinates": [[201.42316541554038, 87.9899103437721], [64.5581013690165, 43.35059034376144], [6.544532405780036, 24.426190343686898], [-107.42816210021037, -14.313169656191178], [-124.05937074065601, -19.990489656094894], [-238.03206524682017, -57.727969656129545], [-350.83079208426136, -95.35412965604976]]}, "properties": {"osm_id": null, "type": "residential", "width_m": 4, "extrude": false}}, {"type": "Feature", "geometry": {"type": "LineString", "coordinates": [[-107.42816210021037, -14.313169656191178], [-87.95986492720569, -32.01304965619343], [-110.65657318924214, -40.25072965596067]]}, "properties": {"osm_id": null, "type": "footway", "width_m": 2, "extrude": false}}, {"type": "Feature", "geometry": {"type": "LineString", "coordinates": [[-87.95986492720569, -32.01304965619343], [-85.90542150689694, -33.905489656161336]]}, "properties": {"osm_id": null, "type": "footway", "width_m": 2, "extrude": false}}, {"type": "Feature", "geometry": {"type": "LineString", "coordinates": [[-178.64886733671122, 122.83307034399542], [-162.5068118917262, 82.980510343764], [-139.61444235136645, 22.199790343771184], [-124.05937074065601, -19.990489656094894], [-115.54810514228372, -42.14316965632406], [-105.76504123620056, -67.63544965603131], [-92.85139688024726, -101.92200965607796], [-76.51368015693895, -145.22548965629738], [-58.12152001349566, -194.0949696563061]]}, "properties": {"osm_id": null, "type": "residential", "width_m": 5, "extrude": false}}, {"type": "Feature", "geometry": {"type": "LineString", "coordinates": [[-112.12403277527626, -40.80732965613734], [-115.54810514228372, -42.14316965632406]]}, "properties": {"osm_id": null, "type": "footway", "width_m": 2, "extrude": false}}, {"type": "Feature", "geometry": {"type": "LineString", "coordinates": [[-168.47448087432912, -229.38340965619616], [-188.23626996464492, -180.6252496563019], [-205.74795435667627, -137.32176965608247], [-219.05292126892851, -104.59368965605591], [-238.03206524682017, -57.727969656129545], [-254.85893516524155, -16.316929656273516], [-279.51225620877267, 44.35247034400035], [-301.5241499973729, 95.22571034369591]]}, "properties": {"osm_id": null, "type": "residential", "width_m": 5, "extrude": false}}, {"type": "Feature", "geometry": {"type": "LineString", "coordinates": [[124.82177503071118, -87.78436965617814], [123.35431544467706, -81.99572965616]]}, "properties": {"osm_id": null, "type": "footway", "width_m": 2, "extrude": false}}, {"type": "Feature", "geometry": {"type": "LineString", "coordinates": [[155.54059569583313, -93.01640965601962], [137.44192746952717, -98.69372965631882], [129.12632314930434, -101.25408965618234]]}, "properties": {"osm_id": null, "type": "footway", "width_m": 2, "extrude": false}}, {"type": "Feature", "geometry": {"type": "LineString", "coordinates": [[137.44192746952717, -98.69372965631882], [137.7354193866645, -99.47296965632887]]}, "properties": {"osm_id": null, "type": "footway", "width_m": 2, "extrude": false}}, {"type": "Feature", "geometry": {"type": "LineString", "coordinates": [[125.31092822599797, -89.12020965596938], [103.39686507621181, -96.02204965634087], [62.69931922685723, -109.04648965628283]]}, "properties": {"osm_id": null, "type": "footway", "width_m": 2, "extrude": false}}, {"type": "Feature", "geometry": {"type": "LineString", "coordinates": [[325.3745851057634, -50.603489656320164], [323.124480407479, -51.38272965633021]]}, "properties": {"osm_id": null, "type": "footway", "width_m": 2, "extrude": false}}, {"type": "Feature", "geometry": {"type": "LineString", "coordinates": [[348.5604465632604, -58.173249656191786], [346.89732569925064, -53.38648965601706], [346.50600314295167, -52.273289656059205], [347.0929869774001, -50.158209656257924], [363.43070370053465, -44.92616965602096]]}, "properties": {"osm_id": null, "type": "footway", "width_m": 2, "extrude": false}}, {"type": "Feature", "geometry": {"type": "LineString", "coordinates": [[323.124480407479, -51.38272965633021], [324.68977063232717, -55.50156965621383], [325.7659076620624, -56.39212965633831], [327.1355366089349, -57.06004965623393], [329.8747945026799, -57.727969656129545], [333.1032055917116, -57.83928965624398], [346.89732569925064, -53.38648965601706]]}, "properties": {"osm_id": null, "type": "footway", "width_m": 2, "extrude": false}}, {"type": "Feature", "geometry": {"type": "LineString", "coordinates": [[213.94548721536856, -106.82008965597163], [184.5962954969453, -16.09428965604465]]}, "properties": {"osm_id": null, "type": "residential", "width_m": 5, "extrude": false}}, {"type": "Feature", "geometry": {"type": "LineString", "coordinates": [[322.3418352948811, -64.62980965610555], [323.124480407479, -65.18640965628222]]}, "properties": {"osm_id": null, "type": "primary", "width_m": 12, "extrude": false}}, {"type": "Feature", "geometry": {"type": "LineString", "coordinates": [[306.2976104888839, -71.75428965631042], [307.6672394357564, -68.30336965632242], [310.11300541236403, -65.52036965623003], [313.3414165013959, -63.73924965598107], [315.298029282543, -63.29396965631432], [317.2546420636901, -63.182649656199885], [319.11342420584936, -63.40528965603326], [322.3418352948811, -64.62980965610555]]}, "properties": {"osm_id": null, "type": "primary", "width_m": 12, "extrude": false}}, {"type": "Feature", "geometry": {"type": "LineString", "coordinates": [[323.124480407479, -65.18640965628222], [325.5702463839129, -67.52412965631237], [327.1355366089349, -70.64108965635256], [327.62468980422165, -73.98068965622613], [327.037705969947, -77.3202896560997]]}, "properties": {"osm_id": null, "type": "primary", "width_m": 12, "extrude": false}}, {"type": "Feature", "geometry": {"type": "LineString", "coordinates": [[296.2210546656634, -81.10516965603551], [300.8190947015677, -78.32216965633862], [304.4388283467246, -74.98256965606956], [306.19977984989606, -72.53352965632047]]}, "properties": {"osm_id": null, "type": "tertiary", "width_m": 7, "extrude": false}}, {"type": "Feature", "geometry": {"type": "LineString", "coordinates": [[312.6566020279596, -83.77684965601347], [310.99348116394975, -82.88628965628448], [309.5260215779157, -81.77308965632662], [307.27591687945744, -78.8787696561198], [306.19977984989606, -75.4278496561318], [306.19977984989606, -72.53352965632047], [306.2976104888839, -71.75428965631042]]}, "properties": {"osm_id": null, "type": "primary", "width_m": 12, "extrude": false}}, {"type": "Feature", "geometry": {"type": "LineString", "coordinates": [[327.037705969947, -77.3202896560997], [326.54855277448644, -78.54480965617199]]}, "properties": {"osm_id": null, "type": "primary", "width_m": 12, "extrude": false}}, {"type": "Feature", "geometry": {"type": "LineString", "coordinates": [[326.54855277448644, -78.54480965617199], [325.3745851057634, -80.32592965602547], [322.92881912932955, -82.77496965617004], [319.89606931844725, -84.22212965607571], [316.27633567311653, -84.66740965613795], [312.6566020279596, -83.77684965601347]]}, "properties": {"osm_id": null, "type": "primary", "width_m": 12, "extrude": false}}, {"type": "Feature", "geometry": {"type": "LineString", "coordinates": [[310.99348116394975, -82.88628965628448], [305.61279601544766, -80.88252965620214], [301.4060785358423, -80.32592965602547], [296.2210546656634, -81.10516965603551]]}, "properties": {"osm_id": null, "type": "tertiary", "width_m": 7, "extrude": false}}, {"type": "Feature", "geometry": {"type": "LineString", "coordinates": [[333.29886686986106, -103.59180965621249], [341.6144711899101, -105.8182096561282], [346.1146805868266, -105.03896965611816], [349.3430916758583, -102.58992965597358], [370.7680016301839, -75.65048965596517], [370.9636629083334, -74.20332965605951], [371.25715482547065, -70.4184496561237], [369.3005420443236, -66.63356965618789], [362.7458892270984, -63.182649656199885]]}, "properties": {"osm_id": null, "type": "residential", "width_m": 5, "extrude": false}}, {"type": "Feature", "geometry": {"type": "LineString", "coordinates": [[419.3898292434624, -80.50702439287207], [412.6395151482615, -60.84492965616974], [408.53062830781784, -56.61476965617169], [399.6280401531466, -51.16008965610135]]}, "properties": {"osm_id": null, "type": "residential", "width_m": 5, "extrude": false}}, {"type": "Feature", "geometry": {"type": "LineString", "coordinates": [[151.8230314115146, -52.16196965634026], [163.85620001605596, -91.23528965616615], [172.66095753156557, -120.06716965614245]]}, "properties": {"osm_id": null, "type": "residential", "width_m": 5, "extrude": false}}, {"type": "Feature", "geometry": {"type": "LineString", "coordinates": [[256.4039845677208, -93.9069696561441], [296.2210546656634, -81.10516965603551]]}, "properties": {"osm_id": null, "type": "tertiary", "width_m": 7, "extrude": false}}, {"type": "Feature", "geometry": {"type": "LineString", "coordinates": [[399.6280401531466, -51.16008965610135], [378.59445275511996, -80.21460965630652], [351.0062125398681, -118.17472965617455], [345.7233580305276, -125.8558096561606]]}, "properties": {"osm_id": null, "type": "tertiary", "width_m": 7, "extrude": false}}, {"type": "Feature", "geometry": {"type": "LineString", "coordinates": [[326.54855277448644, -78.54480965617199], [328.0160123605206, -87.22776965600147], [331.5379153666897, -98.35976965597553], [333.29886686986106, -103.59180965621249], [338.38606010087835, -118.50868965612236]]}, "properties": {"osm_id": null, "type": "primary", "width_m": 12, "extrude": false}}, {"type": "Feature", "geometry": {"type": "LineString", "coordinates": [[325.5702463839129, -126.18976965610841], [324.0049561590647, -118.50868965612236], [319.3090854839988, -102.47860965625463], [314.906706726244, -88.897569656136], [312.6566020279596, -83.77684965601347]]}, "properties": {"osm_id": null, "type": "primary", "width_m": 12, "extrude": false}}, {"type": "Feature", "geometry": {"type": "LineString", "coordinates": [[163.0735549034581, -123.07280965606822], [162.19307915204615, -120.17848965625689]]}, "properties": {"osm_id": null, "type": "footway", "width_m": 2, "extrude": false}}, {"type": "Feature", "geometry": {"type": "LineString", "coordinates": [[338.38606010087835, -118.50868965612236], [341.6144711899101, -120.06716965614245], [344.15806780550565, -122.51620965628703], [345.7233580305276, -125.8558096561606]]}, "properties": {"osm_id": null, "type": "primary", "width_m": 12, "extrude": false}}, {"type": "Feature", "geometry": {"type": "LineString", "coordinates": [[325.5702463839129, -126.18976965610841], [328.21167363867005, -121.40300965632917], [332.90754431356214, -118.50868965612236], [338.38606010087835, -118.50868965612236]]}, "properties": {"osm_id": null, "type": "primary", "width_m": 12, "extrude": false}}, {"type": "Feature", "geometry": {"type": "LineString", "coordinates": [[419.3898292434624, -126.40108897793723], [352.278010847579, -155.80088965609477]]}, "properties": {"osm_id": null, "type": "residential", "width_m": 5, "extrude": false}}, {"type": "Feature", "geometry": {"type": "LineString", "coordinates": [[325.2767544667756, -129.3067296561486], [325.5702463839129, -126.18976965610841]]}, "properties": {"osm_id": null, "type": "primary", "width_m": 12, "extrude": false}}, {"type": "Feature", "geometry": {"type": "LineString", "coordinates": [[345.7233580305276, -125.8558096561606], [345.4298661133903, -132.53500965630323]]}, "properties": {"osm_id": null, "type": "primary", "width_m": 12, "extrude": false}}, {"type": "Feature", "geometry": {"type": "LineString", "coordinates": [[334.179342621273, -138.88024965610256], [329.77696386351823, -137.21044965596803], [326.64638341364804, -133.75952965598003], [325.2767544667756, -129.3067296561486]]}, "properties": {"osm_id": null, "type": "primary", "width_m": 12, "extrude": false}}, {"type": "Feature", "geometry": {"type": "LineString", "coordinates": [[232.72896991493698, -162.92536965629964], [218.4456966121112, -120.40112965609026], [216.97823702625087, -115.8370096561444], [213.94548721536856, -106.82008965597163]]}, "properties": {"osm_id": null, "type": "residential", "width_m": 5, "extrude": false}}, {"type": "Feature", "geometry": {"type": "LineString", "coordinates": [[345.4298661133903, -132.53500965630323], [342.7884388586331, -136.31988965623904], [338.77738265717727, -138.54628965615476], [334.179342621273, -138.88024965610256]]}, "properties": {"osm_id": null, "type": "primary", "width_m": 12, "extrude": false}}, {"type": "Feature", "geometry": {"type": "LineString", "coordinates": [[256.4039845677208, -93.9069696561441], [278.5137089956564, -176.95168965608502], [276.752757492485, -182.29504965604093], [265.0130808050809, -193.7610096559628], [251.8059445319903, -199.21568965603313], [245.64261427106408, -201.77604965629214]]}, "properties": {"osm_id": null, "type": "residential", "width_m": 5, "extrude": false}}, {"type": "Feature", "geometry": {"type": "LineString", "coordinates": [[345.82118866951544, -183.29692965627984], [336.5272779587191, -148.45376965605652], [334.179342621273, -138.88024965610256]]}, "properties": {"osm_id": null, "type": "primary", "width_m": 12, "extrude": false}}, {"type": "Feature", "geometry": {"type": "LineString", "coordinates": [[345.82118866951544, -183.29692965627984], [335.8424634854566, -160.9216096562173], [330.7552702542656, -157.58200965634373], [328.4073349166457, -156.91408965605262], [321.7548514606065, -155.02164965608472]]}, "properties": {"osm_id": null, "type": "service", "width_m": 3.5, "extrude": false}}, {"type": "Feature", "geometry": {"type": "LineString", "coordinates": [[334.179342621273, -138.88024965610256], [326.7442140526359, -149.23300965606657], [321.7548514606065, -155.02164965608472], [316.7654888684033, -161.70084965622735], [282.62259583610006, -206.0062096562902], [254.8386943428726, -241.0720096563469]]}, "properties": {"osm_id": null, "type": "primary", "width_m": 12, "extrude": false}}, {"type": "Feature", "geometry": {"type": "LineString", "coordinates": [[232.72896991493698, -162.92536965629964], [245.64261427106408, -201.77604965629214], [252.49075900542655, -218.2514096562221], [255.62133945529666, -219.69856965612777], [259.2410731006274, -220.81176965608563]]}, "properties": {"osm_id": null, "type": "residential", "width_m": 5, "extrude": false}}, {"type": "Feature", "geometry": {"type": "LineString", "coordinates": [[154.75795058340907, -251.98136965609208], [232.72896991493698, -162.92536965629964]]}, "properties": {"osm_id": null, "type": "residential", "width_m": 5, "extrude": false}}, {"type": "Feature", "geometry": {"type": "LineString", "coordinates": [[186.65073891725405, -316.43564965630173], [201.91231861082719, -295.5074896561449], [209.1517859013148, -285.9339696561909], [259.2410731006274, -220.81176965608563], [312.6566020279596, -152.34996965610677], [321.16786762615806, -139.77080965622704], [325.2767544667756, -129.3067296561486]]}, "properties": {"osm_id": null, "type": "primary", "width_m": 12, "extrude": false}}, {"type": "Feature", "geometry": {"type": "LineString", "coordinates": [[419.3898292434624, -224.97328965614287], [416.6505713498912, -226.3777696562704], [385.1491055721713, -210.12504965617381], [373.89858208005404, -199.32700965614757], [383.1924927908504, -233.72488965630865]]}, "properties": {"osm_id": null, "type": "footway", "width_m": 2, "extrude": false}}, {"type": "Feature", "geometry": {"type": "LineString", "coordinates": [[282.62259583610006, -206.0062096562902], [290.0577244047372, -213.46464965604738], [304.3409977077368, -259.885089656307], [311.18914244192547, -282.1490896562551], [276.361434936186, -294.50560965630143]]}, "properties": {"osm_id": null, "type": "residential", "width_m": 5, "extrude": false}}, {"type": "Feature", "geometry": {"type": "LineString", "coordinates": [[355.40859129762293, -241.51728965601365], [332.4183911182754, -247.41724965614623], [320.9722063480086, -254.31908965612223], [304.3409977077368, -259.885089656307]]}, "properties": {"osm_id": null, "type": "footway", "width_m": 2, "extrude": false}}, {"type": "Feature", "geometry": {"type": "LineString", "coordinates": [[418.95820943759855, -240.93914434483324], [415.2809424030186, -233.16828965613198], [405.59570913592336, -237.39844965613003], [395.8126452298402, -243.18708965614817], [396.88878225940164, -255.54360965619452], [406.08486233121016, -265.4510896560963], [414.2048053732835, -266.007689656273], [414.2755245827405, -266.12410337960785]]}, "properties": {"osm_id": null, "type": "footway", "width_m": 2, "extrude": false}}, {"type": "Feature", "geometry": {"type": "LineString", "coordinates": [[254.8386943428726, -241.0720096563469], [216.29342255281458, -291.38864965626124], [208.5648020668664, -301.63008965611084], [203.77110075298646, -310.6470096562836], [199.7600445513568, -324.8959696562979]]}, "properties": {"osm_id": null, "type": "primary", "width_m": 12, "extrude": false}}, {"type": "Feature", "geometry": {"type": "LineString", "coordinates": [[201.91231861082719, -295.5074896561449], [199.27089135607002, -292.9471296562814], [196.6294641014867, -290.6094096562512], [183.03100527192333, -278.03024965597604]]}, "properties": {"osm_id": null, "type": "residential", "width_m": 5, "extrude": false}}, {"type": "Feature", "geometry": {"type": "LineString", "coordinates": [[216.29342255281458, -291.38864965626124], [209.1517859013148, -285.9339696561909]]}, "properties": {"osm_id": null, "type": "footway", "width_m": 2, "extrude": false}}, {"type": "Feature", "geometry": {"type": "LineString", "coordinates": [[379.2763720451195, -320.6609900672287], [355.40859129762293, -241.51728965601365], [362.6480585881106, -239.73616965616017], [365.8764696771423, -238.73428965631675], [373.2137676066178, -236.61920965611998], [376.3443480566617, -235.83996965610993], [383.1924927908504, -233.72488965630865], [401.68995259832127, -294.6481680031296]]}, "properties": {"osm_id": null, "type": "footway", "width_m": 2, "extrude": false}}, {"type": "Feature", "geometry": {"type": "LineString", "coordinates": [[221.7719383401308, -313.6526496562094], [276.361434936186, -294.50560965630143]]}, "properties": {"osm_id": null, "type": "residential", "width_m": 5, "extrude": false}}, {"type": "Feature", "geometry": {"type": "LineString", "coordinates": [[291.38686761395525, -342.2618896563523], [276.361434936186, -294.50560965630143], [261.1976858817745, -250.422889656072], [254.8386943428726, -241.0720096563469]]}, "properties": {"osm_id": null, "type": "residential", "width_m": 5, "extrude": false}}, {"type": "Feature", "geometry": {"type": "LineString", "coordinates": [[347.9783881316535, -338.0327061338419], [329.8747945026799, -327.233689656328], [324.3962787151899, -319.1073296562797], [319.70040804029776, -294.8395696562493], [315.78718247782973, -283.7075696562752], [311.18914244192547, -282.1490896562551]]}, "properties": {"osm_id": null, "type": "footway", "width_m": 2, "extrude": false}}, {"type": "Feature", "geometry": {"type": "LineString", "coordinates": [[184.98761805324423, -338.58832965613544], [181.0743924907762, -336.2506096561053], [178.3351345970312, -332.79968965611727], [177.25899756746983, -328.4582096560048], [177.74815076275658, -324.3393696561212], [179.60693290491588, -320.6658096562998], [182.73751335478602, -317.8828096562074], [186.65073891725405, -316.43564965630173], [190.955287036021, -316.43564965630173], [194.86851259831522, -318.10544965604083], [197.90126240919753, -320.9997696562476], [199.7600445513568, -324.8959696562979]]}, "properties": {"osm_id": null, "type": "primary", "width_m": 12, "extrude": false}}, {"type": "Feature", "geometry": {"type": "LineString", "coordinates": [[199.7600445513568, -324.8959696562979], [199.9557058295063, -329.23744965601486], [198.5860768826338, -333.24496965617953], [195.84681898906257, -336.5845696560531], [192.5205772608692, -338.477009656021], [188.8030129765506, -339.1449296563121], [184.98761805324423, -338.58832965613544]]}, "properties": {"osm_id": null, "type": "primary", "width_m": 12, "extrude": false}}, {"type": "Feature", "geometry": {"type": "LineString", "coordinates": [[345.4298661133903, -132.53500965630323], [348.2669546461231, -140.99532965629933], [349.4409223148462, -145.78208965607857], [352.278010847579, -155.80088965609477], [364.8003326474071, -197.32324965606523], [376.3443480566617, -235.83996965610993], [396.42970708763306, -302.50865367362195]]}, "properties": {"osm_id": null, "type": "primary", "width_m": 12, "extrude": false}}, {"type": "Feature", "geometry": {"type": "LineString", "coordinates": [[254.66539006678212, -342.2618896563523], [221.7719383401308, -313.6526496562094], [213.55416465906958, -306.1942096560567], [208.5648020668664, -301.63008965611084]]}, "properties": {"osm_id": null, "type": "residential", "width_m": 5, "extrude": false}}, {"type": "Feature", "geometry": {"type": "LineString", "coordinates": [[393.8057547498948, -305.8029272802136], [373.2137676066178, -236.61920965611998], [344.94071291810354, -141.66324965619495], [344.15806780550565, -141.44060965596609], [343.0819307759443, -141.44060965596609], [338.48389074004, -143.55568965616285], [338.09256818374104, -144.44624965628734], [337.7012456276159, -145.44812965613076], [337.8969069055916, -146.45000965597418], [365.8764696771423, -238.73428965631675], [388.0890392569936, -312.38677192331835]]}, "properties": {"osm_id": null, "type": "footway", "width_m": 2, "extrude": false}}, {"type": "Feature", "geometry": {"type": "LineString", "coordinates": [[384.78479724680165, -315.79449847637375], [362.6480585881106, -239.73616965616017], [345.82118866951544, -183.29692965627984]]}, "properties": {"osm_id": null, "type": "primary", "width_m": 12, "extrude": false}}, {"type": "Feature", "geometry": {"type": "LineString", "coordinates": [[-302.3582849197997, -342.2618896563523], [-369.61427478400356, -293.94900965612476]]}, "properties": {"osm_id": null, "type": "residential", "width_m": 5, "extrude": false}}, {"type": "Feature", "geometry": {"type": "LineString", "coordinates": [[166.5252861946719, -342.2618896563523], [177.25899756746983, -328.4582096560048]]}, "properties": {"osm_id": null, "type": "primary", "width_m": 12, "extrude": false}}, {"type": "Feature", "geometry": {"type": "LineString", "coordinates": [[184.98761805324423, -338.58832965613544], [180.8686108015292, -342.2618896563523]]}, "properties": {"osm_id": null, "type": "primary", "width_m": 12, "extrude": false}}, {"type": "Feature", "geometry": {"type": "LineString", "coordinates": [[195.84681898906257, -336.5845696560531], [197.70852144876727, -342.2618896563523]]}, "properties": {"osm_id": null, "type": "residential", "width_m": 5, "extrude": false}}, {"type": "Feature", "geometry": {"type": "LineString", "coordinates": [[127.46320228529454, -96.02204965634087], [153.87747483182335, -87.78436965617814], [155.54059569583313, -93.01640965601962], [155.7362569739826, -93.79564965602967], [160.23646637072525, -108.15592965615835], [133.82219382437026, -116.39360965632108]]}, "properties": {"osm_id": null, "type": "footway", "width_m": 2, "extrude": false}}, {"type": "Feature", "geometry": {"type": "LineString", "coordinates": [[-412.17060277551747, -167.59560009942476], [-332.63429321879374, -141.66324965619495], [-219.05292126892851, -104.59368965605591], [-105.76504123620056, -67.63544965603131], [22.68658785093889, -25.779129656113042], [81.0914793703005, -6.743409656319557], [203.575439474837, 33.77707034380748], [217.0760676652387, 38.229870344034396], [239.77277592744892, 44.68643034394816]]}, "properties": {"osm_id": null, "type": "residential", "width_m": 5, "extrude": false}}, {"type": "Feature", "geometry": {"type": "LineString", "coordinates": [[62.11233539258261, -107.15404965631492], [60.449214528572796, -101.81068965596353]]}, "properties": {"osm_id": null, "type": "footway", "width_m": 2, "extrude": false}}, {"type": "Feature", "geometry": {"type": "LineString", "coordinates": [[136.26795980080414, -124.2973296561405], [133.82219382437026, -116.39360965632108], [130.78944401331415, -106.70876965625268], [129.12632314930434, -101.25408965618234], [127.46320228529454, -96.02204965634087], [125.50658950414743, -89.78812965626048], [125.31092822599797, -89.12020965596938], [124.82177503071118, -87.78436965617814]]}, "properties": {"osm_id": null, "type": "footway", "width_m": 2, "extrude": false}}, {"type": "Feature", "geometry": {"type": "LineString", "coordinates": [[62.69931922685723, -109.04648965628283], [62.11233539258261, -107.15404965631492]]}, "properties": {"osm_id": null, "type": "footway", "width_m": 2, "extrude": false}}, {"type": "Feature", "geometry": {"type": "LineString", "coordinates": [[110.92982428401054, -113.27664965628088], [130.78944401331415, -106.70876965625268]]}, "properties": {"osm_id": null, "type": "footway", "width_m": 2, "extrude": false}}, {"type": "Feature", "geometry": {"type": "LineString", "coordinates": [[162.19307915204615, -120.17848965625689], [161.2147727612988, -116.83888965598783], [136.26795980080414, -124.2973296561405], [70.81926226893057, -145.11416965618295], [72.18889121580307, -148.78772965600433]]}, "properties": {"osm_id": null, "type": "footway", "width_m": 2, "extrude": false}}, {"type": "Feature", "geometry": {"type": "LineString", "coordinates": [[72.18889121580307, -148.78772965600433], [72.97153632822716, -152.01600965615896]]}, "properties": {"osm_id": null, "type": "footway", "width_m": 2, "extrude": false}}, {"type": "Feature", "geometry": {"type": "LineString", "coordinates": [[183.03100527192333, -278.03024965597604], [154.75795058340907, -251.98136965609208], [119.53892052137068, -219.58724965601334], [98.30967184519454, -200.10624965615762], [77.27608444699412, -180.6252496563019], [53.40540851606085, -158.24992965623935]]}, "properties": {"osm_id": null, "type": "residential", "width_m": 5, "extrude": false}}, {"type": "Feature", "geometry": {"type": "LineString", "coordinates": [[8.501145187100937, -258.3266096562869], [25.230184466534414, -239.40220965621236], [77.27608444699412, -180.6252496563019]]}, "properties": {"osm_id": null, "type": "residential", "width_m": 5, "extrude": false}}, {"type": "Feature", "geometry": {"type": "LineString", "coordinates": [[-412.17060277551747, 57.80479659365298], [-392.1153217678906, 7.171590343746885], [-367.7554926418443, -53.943089656193735], [-350.83079208426136, -95.35412965604976], [-332.63429321879374, -141.66324965619495], [-320.1119714189656, -173.1668096561492], [-302.89377894424535, -216.9155696560354], [-283.5233124102285, -266.34164965622074]]}, "properties": {"osm_id": null, "type": "residential", "width_m": 5, "extrude": false}}, {"type": "Feature", "geometry": {"type": "LineString", "coordinates": [[-350.83079208426136, -95.35412965604976], [-412.17060277551747, -115.93851840204096]]}, "properties": {"osm_id": null, "type": "residential", "width_m": 5, "extrude": false}}, {"type": "Feature", "geometry": {"type": "LineString", "coordinates": [[178.0416426798939, -23.330089655968465], [167.2802723832372, -20.324449656042702], [93.32030925299135, -43.479009656115295], [34.32843389918132, -61.958129656127596], [-92.85139688024726, -101.92200965607796], [-205.74795435667627, -137.32176965608247], [-320.1119714189656, -173.1668096561492], [-412.17060277551747, -202.02622906169182]]}, "properties": {"osm_id": null, "type": "residential", "width_m": 5, "extrude": false}}, {"type": "Feature", "geometry": {"type": "LineString", "coordinates": [[-410.50588461813214, -251.00954202871193], [-302.89377894424535, -216.9155696560354], [-188.23626996464492, -180.6252496563019], [-76.51368015693895, -145.22548965629738], [48.41604592403143, -105.70688965601377], [60.449214528572796, -101.81068965596353], [107.60358255599093, -86.55984965610585], [123.35431544467706, -81.99572965616], [125.31092822599797, -81.43912965598332]]}, "properties": {"osm_id": null, "type": "tertiary", "width_m": 7, "extrude": false}}, {"type": "Feature", "geometry": {"type": "LineString", "coordinates": [[98.30967184519454, -200.10624965615762], [45.97027994742375, -258.21528965617244], [28.947748750852963, -277.02836965613255]]}, "properties": {"osm_id": null, "type": "residential", "width_m": 5, "extrude": false}}, {"type": "Feature", "geometry": {"type": "LineString", "coordinates": [[-122.68974179378351, -214.8004896562341], [-180.4098188398827, -271.12840965600003]]}, "properties": {"osm_id": null, "type": "residential", "width_m": 5, "extrude": false}}, {"type": "Feature", "geometry": {"type": "LineString", "coordinates": [[67.39518990174933, -277.5849696563092], [45.97027994742375, -258.21528965617244], [25.230184466534414, -239.40220965621236], [-3.629854056428274, -213.35332965632844]]}, "properties": {"osm_id": null, "type": "residential", "width_m": 5, "extrude": false}}, {"type": "Feature", "geometry": {"type": "LineString", "coordinates": [[256.4039845677208, -93.9069696561441], [244.46864660234104, -97.80316965619434], [213.94548721536856, -106.82008965597163], [172.66095753156557, -120.06716965614245], [163.0735549034581, -123.07280965606822], [72.97153632822716, -152.01600965615896], [64.2646094518792, -154.79900965625134], [53.40540851606085, -158.24992965623935], [-58.12152001349566, -194.0949696563061], [-122.68974179378351, -214.8004896562341], [-168.47448087432912, -229.38340965619616], [-216.509324653333, -244.8568896562827], [-283.5233124102285, -266.34164965622074], [-369.61427478400356, -293.94900965612476], [-390.53326438883073, -300.6892583830074]]}, "properties": {"osm_id": null, "type": "tertiary", "width_m": 7, "extrude": false}}, {"type": "Feature", "geometry": {"type": "LineString", "coordinates": [[-119.3635000657639, -316.65828965613514], [-180.4098188398827, -271.12840965600003], [-216.509324653333, -244.8568896562827]]}, "properties": {"osm_id": null, "type": "residential", "width_m": 5, "extrude": false}}, {"type": "Feature", "geometry": {"type": "LineString", "coordinates": [[-58.12152001349566, -194.0949696563061], [-52.7408348651673, -202.66660965602114], [-22.51116739533212, -230.1626496562062], [8.501145187100937, -258.3266096562869], [28.947748750852963, -277.02836965613255], [50.37265870517855, -296.5093696559883], [100.70760950958582, -342.2618896563523]]}, "properties": {"osm_id": null, "type": "residential", "width_m": 5, "extrude": false}}, {"type": "Feature", "geometry": {"type": "LineString", "coordinates": [[13.771563598213485, -342.2618896563523], [11.142572441684303, -339.9241696563222], [-64.77400346970867, -266.89824965600195], [-122.68974179378351, -214.8004896562341]]}, "properties": {"osm_id": null, "type": "residential", "width_m": 5, "extrude": false}}, {"type": "Feature", "geometry": {"type": "LineString", "coordinates": [[172.66095753156557, -120.06716965614245], [182.6396827157982, -149.45564965629544], [119.53892052137068, -219.58724965601334], [67.39518990174933, -277.5849696563092], [50.37265870517855, -296.5093696559883], [11.142572441684303, -339.9241696563222], [9.213399961617094, -342.2618896563523]]}, "properties": {"osm_id": null, "type": "residential", "width_m": 5, "extrude": false}}, {"type": "Feature", "geometry": {"type": "LineString", "coordinates": [[-283.5233124102285, -266.34164965622074], [-279.70791748674833, -273.24348965619674], [-225.90106600329096, -312.2054896563037], [-184.5427385171135, -342.2618896563523]]}, "properties": {"osm_id": null, "type": "residential", "width_m": 5, "extrude": false}}, {"type": "Feature", "geometry": {"type": "LineString", "coordinates": [[53.40540851606085, -158.24992965623935], [42.44837694125467, -172.4988896562536], [-3.629854056428274, -213.35332965632844], [-22.51116739533212, -230.1626496562062], [-64.77400346970867, -266.89824965600195], [-119.3635000657639, -316.65828965613514], [-147.75325080623372, -342.2618896563523]]}, "properties": {"osm_id": null, "type": "residential", "width_m": 5, "extrude": false}}, {"type": "Feature", "geometry": {"type": "LineString", "coordinates": [[-259.2141250266415, -342.2618896563523], [-225.90106600329096, -312.2054896563037], [-180.4098188398827, -271.12840965600003]]}, "properties": {"osm_id": null, "type": "residential", "width_m": 5, "extrude": false}}]}