{"type": "FeatureCollection", "crs": {"type": "name", "properties": {"name": "wgs84_and_EPSG:32628_local_enu_m_section_centroid", "lng0": -13.866086896551721, "lat0": 28.499225423197483}}, "features": [{"type": "Feature", "geometry": {"type": "Polygon", "coordinates": [[[-13.8628, 28.4999], [-13.8629, 28.4997], [-13.8631, 28.4992], [-13.8632, 28.4989], [-13.8634, 28.4986], [-13.8635, 28.4983], [-13.8636, 28.498], [-13.8638, 28.4975], [-13.8644, 28.4977], [-13.8646, 28.4977], [-13.8653, 28.4977], [-13.8657, 28.4977], [-13.8662, 28.4977], [-13.8665, 28.4977], [-13.8668, 28.4978], [-13.8676, 28.4979], [-13.8682, 28.498], [-13.8693, 28.498], [-13.8693, 28.4981], [-13.8691, 28.4985], [-13.869, 28.4988], [-13.8689, 28.4989], [-13.8687, 28.4993], [-13.8687, 28.4995], [-13.8685, 28.4998], [-13.8684, 28.5001], [-13.8683, 28.5003], [-13.8682, 28.5005], [-13.8681, 28.5008], [-13.868, 28.501], [-13.8679, 28.5012], [-13.8678, 28.5013], [-13.8675, 28.5012], [-13.8671, 28.5011], [-13.8666, 28.5009], [-13.8661, 28.5008], [-13.8656, 28.5007], [-13.8648, 28.5005], [-13.8639, 28.5002], [-13.8628, 28.4999]]]}, "properties": {"cusec": "3501701003", "mun": "017", "nmun": "Puerto del Rosario", "area_m2": 173703.58250744175, "perimeter_m": 1746.4966489322169, "coords_system": "wgs84"}}, {"type": "Feature", "geometry": {"type": "Polygon", "coordinates": [[[321.55919018245703, -75.09388965618399], [311.7761262763739, -52.82988965623588], [292.2099984642076, 2.8301103440298903], [282.42693455795063, 36.22611034395206], [262.8608067457843, 69.62211034387423], [253.0777428397012, 103.0181103437964], [243.294678933618, 136.41411034371856], [223.7285511214517, 192.07411034398433], [165.03016768477897, 169.81011034403622], [145.4640398726127, 169.81011034403622], [76.9825925298568, 169.81011034403622], [37.8503369053504, 169.81011034403622], [-11.064982625065374, 169.81011034403622], [-40.414174343488625, 169.81011034403622], [-69.76336606173808, 158.67811034366667], [-148.0278773105771, 147.54611034369262], [-206.72626074724982, 136.41411034371856], [-314.33996371451207, 136.41411034371856], [-314.33996371451207, 125.2821103437445], [-294.773835902172, 80.75411034384828], [-284.9907719960889, 47.358110343926114], [-275.2077080900057, 36.22611034395206], [-255.64158027783935, -8.301889656339654], [-255.64158027783935, -30.565889656287766], [-236.0754524654993, -63.961889656209934], [-226.29238855941614, -97.3578896561321], [-216.509324653333, -119.62188965608021], [-206.72626074724982, -141.88588965602833], [-196.9431968411667, -175.28188965634598], [-187.1601329350835, -197.5458896562941], [-177.37706902900038, -219.8098896562422], [-167.5940051229172, -230.94188965621626], [-138.24481340449395, -219.8098896562422], [-99.11255778016134, -208.67788965626815], [-50.197238249571775, -186.41388965632004], [-1.281918718982219, -175.28188965634598], [47.63340081143356, -164.14988965597644], [125.89791206027259, -141.88588965602833], [213.94548721536856, -108.48988965610616], [321.55919018245703, -75.09388965618399]]]}, "properties": {"cusec": "3501701003", "mun": "017", "nmun": "Puerto del Rosario", "area_m2": 173703.58250744175, "perimeter_m": 1746.4966489322169, "coords_system": "local_m_enu"}}]}