{"type": "FeatureCollection", "crs": {"type": "name", "properties": {"name": "EPSG:32628_local_enu_m_section_centroid", "lng0": -17.922006428067906, "lat0": 27.771293719748492}}, "features": [{"type": "Feature", "geometry": {"type": "Polygon", "coordinates": [[[-234.18501927388544, -2643.4359175979002], [-216.84944980665819, -2669.262157597951], [-182.9662913022936, -2702.1015575976962], [-121.01132996762095, -2745.51635759803], [-97.0764243965972, -2761.4351175977836], [-35.81094593847194, -2770.2293975977273], [-3.1097580797671385, -2773.2350375980486], [19.44618173851176, -2766.7784775977393], [34.910297683531844, -2749.6351975979137], [41.01714601891581, -2726.70327759807], [28.803449348497807, -2700.765717597905], [11.369382327728026, -2686.0714775978286], [-3.7992409563145273, -2678.6130375980715], [-29.704097603437905, -2660.6905175978404], [-42.60727715005336, -2644.9943975979204], [-69.89109955027152, -2593.3419175978192], [-82.30179132777458, -2573.0816775979533], [-109.97960394321267, -2542.4686775977284], [-130.86108534706932, -2522.54239759781], [-158.24340530083, -2506.9575975980047], [-190.15661272909495, -2505.955717597766], [-216.5539571453307, -2512.857557597742], [-236.15497034963514, -2528.7763175978907], [-249.45214011147053, -2547.3667575980176], [-255.36199333906953, -2567.181717597821], [-255.0665006777421, -2590.002317597946], [-247.87617925094077, -2617.3870375980164], [-234.18501927388544, -2643.4359175979002]]]}, "properties": {"name": "Depósito superior La Caldera", "kind": "water", "category": "agua", "extrude": false}}, {"type": "Feature", "geometry": {"type": "Polygon", "coordinates": [[[-2199.1127198548556, 2069.964202402145], [-2199.6052076236183, 2083.8792024022114], [-2208.962475233954, 2083.5452424022637], [-2208.469987464842, 2069.630242402197], [-2199.1127198548556, 2069.964202402145]]]}, "properties": {"name": "", "kind": "water", "category": "agua", "extrude": false}}, {"type": "Feature", "geometry": {"type": "Polygon", "coordinates": [[[-2419.9442354546554, 1880.831522402305], [-2418.466772148018, 1881.610762402315], [-2419.9442354546554, 1884.5050824021264], [-2421.3232012077506, 1883.7258424021163], [-2419.9442354546554, 1880.831522402305]]]}, "properties": {"name": "", "kind": "reservoir", "category": "agua", "extrude": false}}, {"type": "Feature", "geometry": {"type": "Polygon", "coordinates": [[[-1750.7518549972172, -1785.1587175979628], [-1750.7518549972172, -1779.592717597778], [-1751.8353280889842, -1774.3606775979365], [-1754.5932595951738, -1770.9097575979486], [-1758.2376690853457, -1770.019197597824], [-1762.4730638985225, -1772.8021975979163], [-1765.1324978508196, -1777.1436775980287], [-1765.2309954043621, -1781.485157597746], [-1762.965551667285, -1786.1605975978061], [-1760.6016103763154, -1789.1662375977319], [-1757.8436788701258, -1791.503957597762], [-1755.5782351330488, -1791.6152775978765], [-1753.1157962881866, -1790.947357597981], [-1750.7518549972172, -1785.1587175979628]]]}, "properties": {"name": "Las Albercas de Tiñor", "kind": "water", "category": "agua", "extrude": false}}, {"type": "Feature", "geometry": {"type": "Polygon", "coordinates": [[[-1783.8470330711416, -1814.3245575978867], [-1780.3996186884049, -1811.0962775977323], [-1776.0657263216854, -1807.4227175979108], [-1774.9822532299181, -1802.969917597684], [-1778.1341749513276, -1798.294477598019], [-1782.074077102827, -1797.1812775980611], [-1787.392945007421, -1800.298237597706], [-1790.5448667288306, -1806.866117597734], [-1792.1208275893603, -1811.318917597961], [-1791.9238324819255, -1815.2151175980114], [-1790.0523789600682, -1818.554717597885], [-1785.521491485564, -1818.7773575977183], [-1783.8470330711416, -1814.3245575978867]]]}, "properties": {"name": "", "kind": "water", "category": "agua", "extrude": false}}, {"type": "Feature", "geometry": {"type": "Polygon", "coordinates": [[[-1767.4964391417893, -2461.093757597922], [-1765.427990512147, -2460.091877597683], [-1764.2460198664874, -2457.754157598048], [-1764.5415125278148, -2455.3051175979035], [-1766.1174733886944, -2452.74475759804], [-1779.8086333657498, -2446.288197597731], [-1783.3545453020295, -2446.8447975979075], [-1785.4229939316715, -2449.405157597771], [-1784.930506162909, -2452.4107975976967], [-1783.3545453020295, -2454.5258775978937], [-1770.2543706479787, -2460.7597975979743], [-1767.4964391417893, -2461.093757597922]]]}, "properties": {"name": "", "kind": "water", "category": "agua", "extrude": false}}, {"type": "Feature", "geometry": {"type": "Polygon", "coordinates": [[[-244.62575997563883, -3735.819077598032], [-243.14829666900147, -3736.041717597865], [-238.91290185582469, -3743.277517597789], [-238.22341897927728, -3749.956717597932], [-236.4504630109626, -3749.288797598036], [-236.84445322618254, -3743.16619759807], [-234.4805119352129, -3737.154917597823], [-202.96129472216788, -3741.941677597998], [-193.6040271118319, -3736.709637597761], [-176.66244785982457, -3713.443757597969], [-177.15493562893695, -3710.1041575977], [-185.03473993193577, -3702.9796775978907], [-198.82439746288355, -3689.175997597939], [-206.0147188896849, -3667.357277598053], [-210.05311859507677, -3660.6780775979105], [-231.82107798291582, -3665.4648375976894], [-246.20172083651852, -3732.8134375977106], [-244.62575997563883, -3735.819077598032]]]}, "properties": {"name": "Charca de Tefirabe", "kind": "water", "category": "agua", "extrude": false}}, {"type": "Feature", "geometry": {"type": "Polygon", "coordinates": [[[-2176.261287375249, -3223.3017975979765], [-2171.828897454637, -3220.741437597718], [-2171.0409170241974, -3218.6263575979165], [-2177.344760467017, -3215.2867575980426], [-2182.6636283716107, -3216.288637597886], [-2188.0809938300977, -3219.62823759776], [-2185.2245647703653, -3221.854637598071], [-2179.807199311879, -3223.079157597748], [-2176.261287375249, -3223.3017975979765]]]}, "properties": {"name": "", "kind": "water", "category": "agua", "extrude": false}}, {"type": "Feature", "geometry": {"type": "Polygon", "coordinates": [[[-3892.6796597409816, -5352.29679759786], [-3880.367465517021, -5353.409997597817], [-3878.397514441271, -5348.400597597809], [-3879.480987533039, -5337.936517597731], [-3895.1420985858435, -5338.604437598022], [-3894.5511132628385, -5350.626997597725], [-3892.6796597409816, -5352.29679759786]]]}, "properties": {"name": "", "kind": "reservoir", "category": "agua", "extrude": false}}, {"type": "Feature", "geometry": {"type": "Polygon", "coordinates": [[[3445.1911025970676, -3253.469517597744], [3443.4181466287528, -3253.469517597744], [3445.9790830271572, -3260.37135759772], [3447.752038995472, -3261.707197597907], [3450.1159802864418, -3260.9279575978967], [3450.017482732549, -3259.3694775978765], [3448.8355120872393, -3257.810997597857], [3448.0475316567995, -3253.9147975978062], [3445.585092811937, -3245.45447759781], [3445.1911025970676, -3253.469517597744]]]}, "properties": {"name": "", "kind": "water", "category": "agua", "extrude": false}}, {"type": "Feature", "geometry": {"type": "Polygon", "coordinates": [[[3418.5967630733967, -3258.1449575978045], [3418.892255734724, -3264.044917597937], [3419.7787337187065, -3266.1599975977383], [3422.438167671003, -3266.271317597853], [3424.9991040697582, -3263.8222775977083], [3423.1276505475507, -3262.0411575978546], [3422.2411725635684, -3256.920437597732], [3418.5967630733967, -3258.1449575978045]]]}, "properties": {"name": "", "kind": "water", "category": "agua", "extrude": false}}, {"type": "Feature", "geometry": {"type": "Polygon", "coordinates": [[[3741.668739508595, -3463.307717597908], [3741.964232169923, -3461.3039575978255], [3739.698788432496, -3460.858677597763], [3737.4333446954183, -3458.2983175978998], [3737.137852034091, -3456.183237597703], [3740.8807590781553, -3449.392717597841], [3746.0026318753144, -3446.49839759803], [3749.647041365486, -3441.9342775976884], [3735.561891173561, -3445.941797597853], [3735.758886280996, -3449.0587575978934], [3736.152876496217, -3451.7304375978715], [3734.773910743121, -3455.4039975976925], [3734.379920527902, -3457.630397598004], [3734.5769156353363, -3459.188877598024], [3734.773910743121, -3462.19451759795], [3736.152876496217, -3463.75299759797], [3736.152876496217, -3465.2001575978757], [3740.5852664168283, -3466.202037597719], [3741.668739508595, -3463.307717597908]]]}, "properties": {"name": "Charco Los Chochos", "kind": "water", "category": "agua", "extrude": false}}, {"type": "Feature", "geometry": {"type": "Polygon", "coordinates": [[[1156.698937811786, -859.1989575980563], [1164.8742347764623, -868.2158775978336], [1178.7623898609525, -872.8913175978938], [1228.503654525557, -884.2459575977012], [1243.6722778095996, -883.3553975979723], [1254.900998941793, -877.2327975980063], [1263.864276336559, -864.2083575980644], [1265.0462469822187, -847.1763975979577], [1241.6038291799575, -741.9789975977876], [1231.0645909243117, -718.2678375979339], [1220.0328648995535, -704.3528375978674], [1211.9560654887696, -695.6698775980379], [1199.8408663722444, -683.6473175979394], [1188.415150132616, -676.8567975976823], [1169.2081271431816, -677.413397597859], [1153.2515234290493, -688.7680375980619], [1146.9476799865802, -703.9075575978052], [1148.2281481857824, -718.824437597715], [1149.1146261697647, -726.6168375978156], [1151.4785674607344, -848.0669575976867], [1156.698937811786, -859.1989575980563]]]}, "properties": {"name": "Depósito inferior", "kind": "water", "category": "agua", "extrude": false}}, {"type": "Feature", "geometry": {"type": "Polygon", "coordinates": [[[1035.448449094738, -5527.848437597976], [1032.2965273736781, -5526.846557597737], [1028.947610544484, -5527.069197597966], [1025.9926839308594, -5528.516357597872], [1023.7272401937821, -5530.854077597902], [1022.4467719945799, -5533.971037597942], [1022.3482744406875, -5537.199317597701], [1023.4317475324546, -5540.316277597742], [1025.5986937156395, -5542.876637598], [1028.4551227757215, -5544.323797597906], [1031.8040396045658, -5544.769077597968], [1034.9559613259755, -5543.989837597958], [1037.713892832165, -5541.986077597876], [1039.4868488001298, -5539.314397597898], [1040.1763316766771, -5536.086117597743], [1039.6838439079145, -5532.7465175978705], [1038.0093854934923, -5529.963517597777], [1035.448449094738, -5527.848437597976]]]}, "properties": {"name": "", "kind": "reservoir", "category": "agua", "extrude": false}}, {"type": "Feature", "geometry": {"type": "Polygon", "coordinates": [[[2986.6849896986528, -5248.101277597928], [2985.7000141607778, -5251.218237597968], [2985.7985117146704, -5254.557837597842], [2986.9804823603304, -5257.563477597768], [2989.1474285435147, -5260.012517597913], [2992.0038576035968, -5261.570997597933], [2995.2542768785493, -5262.016277597995], [2998.2092034925236, -5261.570997597933], [3000.8686374448207, -5260.1238375980265], [3002.9370860744625, -5257.897437597716], [3004.217554273665, -5255.225757597737], [3004.5130469349924, -5252.220117597812], [3004.02055916588, -5249.3257975980005], [3002.543095859243, -5246.654117598023], [3000.2776521218157, -5244.6503575979405], [2997.6182181695185, -5243.425837597868], [2994.5647940020012, -5243.09187759792], [2991.412872280942, -5243.871117597931], [2988.6549407747525, -5245.540917598065], [2986.6849896986528, -5248.101277597928]]]}, "properties": {"name": "", "kind": "water", "category": "agua", "extrude": false}}, {"type": "Feature", "geometry": {"type": "Polygon", "coordinates": [[[2651.202321485951, -5827.187917597995], [2641.8450538756147, -5824.293597597788], [2631.699805835189, -5827.299237597714], [2606.287436957178, -5834.757677597866], [2594.5662280558727, -5843.885917597758], [2598.4076326538293, -5846.446277598017], [2596.9301693468424, -5852.457557597869], [2590.8233210118083, -5854.461317597951], [2583.1405118162447, -5853.904717597774], [2580.284082756162, -5857.466957597877], [2582.5495264935894, -5879.842277597939], [2578.806619449525, -5879.953597598053], [2576.4426781585557, -5883.070557597698], [2577.8216439113003, -5885.85355759779], [2592.8917696414505, -5889.304477597779], [2609.3408611246955, -5890.751637597685], [2616.629680105039, -5893.757277598005], [2621.653055348656, -5899.323277597795], [2627.36591346847, -5902.885517597897], [2627.4644110223626, -5905.000597597698], [2635.738205540581, -5905.445877597761], [2637.9051517241155, -5894.313877597787], [2657.50616492842, -5837.095397597896], [2651.202321485951, -5827.187917597995]]]}, "properties": {"name": "Playa de Tamaduste", "kind": "water", "category": "agua", "extrude": false}}, {"type": "Feature", "geometry": {"type": "Polygon", "coordinates": [[[2141.083490401075, -5969.677517597742], [2144.9248949990315, -5963.888877597724], [2135.075139619933, -5955.76251759807], [2131.3322325758686, -5961.996437597755], [2141.083490401075, -5969.677517597742]]]}, "properties": {"name": "", "kind": "reservoir", "category": "agua", "extrude": false}}, {"type": "Feature", "geometry": {"type": "Polygon", "coordinates": [[[2253.272204169464, -7146.775197597949], [2242.7329659138186, -7147.443117597844], [2244.210429220456, -7152.452517597852], [2239.778039300194, -7158.018517598037], [2243.717941451693, -7167.369397597762], [2256.227130783089, -7149.780837597875], [2253.272204169464, -7146.775197597949]]]}, "properties": {"name": "", "kind": "water", "category": "agua", "extrude": false}}, {"type": "Feature", "geometry": {"type": "Polygon", "coordinates": [[[1129.5136129654602, -5568.03495759776], [1124.982725490956, -5578.165077597891], [1124.1947450608661, -5589.297077597865], [1127.1496716744907, -5599.983797597777], [1133.4535151169598, -5609.000717597949], [1142.5152900659684, -5615.457277597863], [1153.2515234290493, -5618.35159759807], [1164.2832494538075, -5617.57235759806], [1174.4284974942332, -5613.119557597833], [1229.9811178325444, -5556.680317597953], [1236.0879661675785, -5548.2199975979565], [1238.5504050124405, -5537.867237597992], [1237.3684343667808, -5526.51259759779], [1233.527029768824, -5517.05039759795], [1225.8442205732601, -5509.369317597964], [1215.7974700867267, -5504.137277597727], [1205.9477147072782, -5502.801437597936], [1194.6204960215425, -5505.027837597851], [1184.6722430885516, -5511.1504375978175], [1129.5136129654602, -5568.03495759776]]]}, "properties": {"name": "", "kind": "reservoir", "category": "agua", "extrude": false}}, {"type": "Feature", "geometry": {"type": "Polygon", "coordinates": [[[-2826.542137504931, -7065.066317597799], [-2859.144827809743, -7059.722957597843], [-2854.3184476739116, -7086.662397597852], [-2829.8910543337756, -7089.3340775978295], [-2826.542137504931, -7065.066317597799]]]}, "properties": {"name": "", "kind": "reservoir", "category": "agua", "extrude": false}}, {"type": "Feature", "geometry": {"type": "Polygon", "coordinates": [[[-3137.695909931389, -7352.271917598], [-3139.6658610071386, -7349.7115575977405], [-3143.3102704973107, -7352.605877597947], [-3141.2418218676685, -7355.166237597811], [-3137.695909931389, -7352.271917598]]]}, "properties": {"name": "", "kind": "reservoir", "category": "agua", "extrude": false}}, {"type": "Feature", "geometry": {"type": "Polygon", "coordinates": [[[-2304.9975901804264, -7034.5646375976885], [-2302.1411611203443, -7028.108077597774], [-2302.830643996892, -7022.2081175980375], [-2308.641999670598, -7013.191197597865], [-2321.4466816636714, -7022.319437597756], [-2309.134487439711, -7038.794797597686], [-2304.9975901804264, -7034.5646375976885]]]}, "properties": {"name": "", "kind": "reservoir", "category": "agua", "extrude": false}}]}