{"type": "FeatureCollection", "crs": {"type": "name", "properties": {"name": "wgs84_and_EPSG:32628_local_enu_m_section_centroid", "lng0": -16.322179471090617, "lat0": 28.47160998336061}}, "features": [{"type": "Feature", "geometry": {"type": "Polygon", "coordinates": [[[-16.32668, 28.48186], [-16.32641, 28.48184], [-16.32614, 28.48181], [-16.32349, 28.48154], [-16.321, 28.48126], [-16.31936, 28.48109], [-16.3188, 28.48105], [-16.31846, 28.48089], [-16.31809, 28.48048], [-16.31819, 28.48022], [-16.31826, 28.47994], [-16.31827, 28.47939], [-16.31829, 28.47835], [-16.31831, 28.47759], [-16.31832, 28.47729], [-16.31826, 28.47664], [-16.31822, 28.47623], [-16.31815, 28.47571], [-16.31808, 28.4753], [-16.318, 28.47484], [-16.31797, 28.47473], [-16.31788, 28.47448], [-16.31777, 28.47413], [-16.31755, 28.47349], [-16.31735, 28.47296], [-16.31726, 28.47275], [-16.31722, 28.47262], [-16.31717, 28.47235], [-16.31705, 28.47188], [-16.31699, 28.4717], [-16.31689, 28.47139], [-16.31686, 28.47122], [-16.31687, 28.47106], [-16.31692, 28.47084], [-16.31695, 28.47065], [-16.31696, 28.47053], [-16.31694, 28.47034], [-16.31693, 28.47022], [-16.31694, 28.46989], [-16.317, 28.46951], [-16.31709, 28.46906], [-16.31713, 28.46877], [-16.31714, 28.46867], [-16.31714, 28.46848], [-16.31713, 28.46821], [-16.3171, 28.46801], [-16.31707, 28.46786], [-16.317, 28.46764], [-16.31694, 28.46745], [-16.3168, 28.46721], [-16.31671, 28.46695], [-16.31664, 28.46676], [-16.31656, 28.4665], [-16.31649, 28.46623], [-16.31642, 28.46577], [-16.31638, 28.46539], [-16.31636, 28.46506], [-16.31634, 28.46486], [-16.31629, 28.46445], [-16.31623, 28.46412], [-16.31613, 28.46366], [-16.31611, 28.46354], [-16.3161, 28.46344], [-16.31612, 28.46309], [-16.31613, 28.46284], [-16.31613, 28.46274], [-16.31613, 28.4627], [-16.31613, 28.46262], [-16.31608, 28.46247], [-16.31616, 28.46247], [-16.31636, 28.46247], [-16.3165, 28.46251], [-16.31672, 28.46256], [-16.31706, 28.46262], [-16.31762, 28.46275], [-16.31852, 28.46297], [-16.31856, 28.46298], [-16.3186, 28.46299], [-16.31864, 28.46298], [-16.31869, 28.46297], [-16.31878, 28.46295], [-16.31891, 28.46289], [-16.31915, 28.46279], [-16.31923, 28.46273], [-16.31936, 28.46261], [-16.31944, 28.4625], [-16.31953, 28.46238], [-16.31961, 28.46227], [-16.31966, 28.46222], [-16.31971, 28.46218], [-16.31977, 28.46216], [-16.31986, 28.46212], [-16.31999, 28.46208], [-16.32005, 28.46204], [-16.32013, 28.46198], [-16.32019, 28.46193], [-16.32026, 28.46189], [-16.32032, 28.46187], [-16.32073, 28.4618], [-16.32083, 28.46179], [-16.32122, 28.46181], [-16.32162, 28.46182], [-16.32203, 28.46183], [-16.32214, 28.46183], [-16.32224, 28.4618], [-16.32235, 28.46178], [-16.32242, 28.46178], [-16.32625, 28.4626], [-16.32721, 28.46282], [-16.32763, 28.4629], [-16.32749, 28.46399], [-16.32742, 28.46492], [-16.32729, 28.46634], [-16.32727, 28.46646], [-16.32722, 28.46659], [-16.32716, 28.46671], [-16.32701, 28.46694], [-16.32685, 28.46719], [-16.32679, 28.4673], [-16.32674, 28.46747], [-16.32672, 28.46762], [-16.32669, 28.46803], [-16.32665, 28.46833], [-16.32653, 28.46884], [-16.32644, 28.46906], [-16.32612, 28.46956], [-16.32575, 28.4701], [-16.32558, 28.47032], [-16.32549, 28.47042], [-16.32537, 28.47053], [-16.32512, 28.47075], [-16.32489, 28.47094], [-16.32474, 28.4711], [-16.32467, 28.47118], [-16.32459, 28.47133], [-16.32445, 28.47168], [-16.32425, 28.47222], [-16.32399, 28.47286], [-16.32386, 28.47326], [-16.32383, 28.47339], [-16.32381, 28.47358], [-16.32377, 28.47409], [-16.32375, 28.47434], [-16.32372, 28.47491], [-16.3237, 28.47501], [-16.32364, 28.47526], [-16.32385, 28.47523], [-16.32409, 28.47523], [-16.32441, 28.47524], [-16.3247, 28.47528], [-16.325, 28.47535], [-16.32696, 28.47597], [-16.32733, 28.47609], [-16.32892, 28.47662], [-16.32864, 28.48031], [-16.32838, 28.48073], [-16.32814, 28.48089], [-16.32783, 28.48117], [-16.32761, 28.4814], [-16.32738, 28.48161], [-16.32723, 28.48175], [-16.32705, 28.48182], [-16.32678, 28.48187], [-16.32668, 28.48186]]]}, "properties": {"cusec": "3802304001", "mun": "023", "nmun": "San Cristóbal de La Laguna", "area_m2": 1946015.6908308188, "perimeter_m": 6806.349588426815, "coords_system": "wgs84"}}, {"type": "Feature", "geometry": {"type": "Polygon", "coordinates": [[[-440.4047855997535, -1141.0318522968407], [-413.9836038883693, -1138.8054522965294], [-387.5624221769852, -1135.465852296656], [-128.2434164916799, -1105.4094522966075], [115.41859262383896, -1074.239852296601], [275.9028074632803, -1055.3154522965265], [330.70229545718496, -1050.862652296695], [363.9734131675464, -1033.0514522965782], [400.1802177349602, -987.4102522967241], [390.3945948789306, -958.4670522966335], [383.54465887995326, -927.297452296627], [382.56609659438504, -866.0714522965719], [380.608972022901, -750.2986522966045], [378.65184745176464, -665.6954522966435], [377.6732851661964, -632.2994522967213], [383.54465887995326, -559.9414522966922], [387.458908022226, -514.300252296838], [394.308844021551, -456.4138522966566], [401.158780020876, -410.7726522968025], [408.98727830542157, -359.5654522967636], [411.9229651624738, -347.32025229683177], [420.7300257329352, -319.4902522966988], [431.49421087453294, -280.5282522965919], [453.02258115772844, -209.28345229691615], [472.5938268697876, -150.28385229677681], [481.400887440249, -126.90665229687085], [485.31513658286946, -112.43505229662773], [490.2079480107104, -82.37865229657913], [501.95069543822405, -30.058252296582424], [507.8220691516332, -10.020652296550026], [517.6076920076628, 24.48854770333], [520.543378864715, 43.41294770340454], [519.5648165787992, 61.22414770312574], [514.6720051509582, 85.71454770338505], [511.73631829425364, 106.8653477033753], [510.75775600833776, 120.22374770326508], [512.7148805798217, 141.37454770325533], [513.69344286539, 154.7329477031451], [512.7148805798217, 191.46854770333633], [506.843506866065, 233.77014770331684], [498.03644629560364, 283.86414770339786], [494.12219715333083, 316.1469477033621], [493.14363486776267, 327.2789477033362], [493.14363486776267, 348.4297477033265], [494.12219715333083, 378.4861477033751], [497.05788401003537, 400.75014770332314], [499.99357086673996, 417.44814770308653], [506.843506866065, 441.9385477033458], [512.7148805798217, 463.0893477033361], [526.4147525781241, 489.8061477031156], [535.2218131485855, 518.7493477032064], [542.0717491479105, 539.9001477031966], [549.9002474328037, 568.8433477032873], [556.750183431781, 598.899747703336], [563.6001194311061, 650.1069477033748], [567.5143685737264, 692.4085477033553], [569.4714931448628, 729.144147703151], [571.4286177159993, 751.4081477030992], [576.3214291441878, 797.0493477033488], [582.192802857597, 833.7849477031444], [591.9784257136266, 884.9921477031833], [593.9355502851106, 898.3505477034686], [594.9141125706789, 909.4825477034426], [592.9569879991948, 948.4445477031541], [591.9784257136266, 976.274547703287], [591.9784257136266, 987.406547703261], [591.9784257136266, 991.8593477030925], [591.9784257136266, 1000.7649477031508], [596.8712371418152, 1017.4629477033096], [589.042738856922, 1017.4629477033096], [569.4714931448628, 1017.4629477033096], [555.7716211462129, 1013.0101477030827], [534.2432508630174, 1007.4441477032934], [500.97213315230823, 1000.7649477031508], [446.1726451584035, 986.2933477033032], [358.1020394541373, 961.8029477034394], [354.1877903115169, 960.689747703086], [350.2735411692441, 959.5765477031282], [346.35929202697133, 960.689747703086], [341.4664805987827, 961.8029477034394], [332.65942002832134, 964.029347703355], [319.9381103155872, 970.7085477031022], [296.4526154609076, 981.8405477034718], [288.6241171760144, 988.5197477032189], [275.9028074632803, 1001.8781477031087], [268.07430917838707, 1014.123347703436], [259.26724860792564, 1027.4817477033257], [251.43875032303248, 1039.7269477032578], [246.5459388951915, 1045.2929477034425], [241.6531274670029, 1049.745747703274], [235.7817537535938, 1051.9721477031896], [226.97469318313242, 1056.4249477034166], [214.25338347005058, 1060.877747703248], [208.38200975664142, 1065.3305477034748], [200.55351147174824, 1072.009747703222], [194.68213775799143, 1077.5757477034067], [187.83220175866643, 1082.0285477032382], [181.96082804525727, 1084.254947703154], [141.8397743352231, 1092.0473477032544], [132.05415147919354, 1093.1605477032124], [93.89022234064342, 1090.9341477032965], [54.747730916525114, 1089.8209477033388], [14.62667720649096, 1088.7077477033808], [3.862492064893191, 1088.7077477033808], [-5.923130791136385, 1092.0473477032544], [-16.687315932734155, 1094.27374770317], [-23.537251932059153, 1094.27374770317], [-398.32660731893066, 1002.991347703462], [-492.2685867369536, 978.5009477032027], [-533.3682027322083, 969.5953477031444], [-519.668330733906, 848.2565477033876], [-512.8183947345809, 744.728947703352], [-500.0970850218468, 586.654547703404], [-498.13996045036276, 573.2961477031188], [-493.24714902252185, 558.8245477032712], [-487.37577530876496, 545.4661477033814], [-472.69734102489446, 519.8625477031642], [-457.040344455108, 492.0325477034268], [-451.16897074135125, 479.7873477030994], [-446.27615931351033, 460.86294770342033], [-444.3190347423739, 444.16494770326153], [-441.3833478853217, 398.5237477034075], [-437.46909874304896, 365.12774770308977], [-425.72635131588294, 308.3545477032617], [-416.91929074542156, 283.86414770339786], [-385.6052976058488, 228.20414770313207], [-349.3984930384351, 168.09134770343036], [-332.7629341830805, 143.60094770317104], [-323.9558736126191, 132.468947703197], [-312.2131261854531, 120.22374770326508], [-287.7490690452054, 95.73334770340125], [-265.24213647644166, 74.582547703411], [-250.56370219222342, 56.77134770329431], [-243.7137661932461, 47.86574770323597], [-235.88526790835294, 31.167747703472628], [-222.18539590970292, -7.794252296634312], [-202.61415019764377, -67.90705229673151], [-177.1715307718278, -139.15185229680276], [-164.45022105909365, -183.67985229669898], [-161.5145342023891, -198.1514522965466], [-159.55740963125268, -219.30225229653686], [-155.64316048863228, -276.0754522967605], [-153.68603591749587, -303.9054522968934], [-150.7503490607913, -367.35785229686417], [-148.79322448930728, -378.4898522968382], [-142.92185077589812, -406.3198522965756], [-163.47165877352546, -402.980252296702], [-186.95715362820502, -402.980252296702], [-218.27114676743014, -404.09345229665985], [-246.64945304995067, -408.5462522968868], [-276.0063216180394, -416.3386522965918], [-467.80452959670583, -485.3570522967473], [-504.01133416411955, -498.71545229663707], [-659.6027375753723, -557.7150522967764], [-632.2029935784199, -968.4858522966497], [-606.760374152604, -1015.2402522968571], [-583.274879298272, -1033.0514522965782], [-552.9394484442674, -1064.2210522965847], [-531.4110781610718, -1089.8246522968018], [-508.90414559230817, -1113.2018522967078], [-494.22571130809, -1128.7866522969089], [-476.61159016716726, -1136.5790522966138], [-450.1904084557831, -1142.1450522967987], [-440.4047855997535, -1141.0318522968407]]]}, "properties": {"cusec": "3802304001", "mun": "023", "nmun": "San Cristóbal de La Laguna", "area_m2": 1946015.6908308188, "perimeter_m": 6806.349588426815, "coords_system": "local_m_enu"}}]}