{"type": "FeatureCollection", "crs": {"type": "name", "properties": {"name": "EPSG:32628_local_enu_m_section_centroid", "lng0": -16.44072575379398, "lat0": 28.414170942285953}}, "features": [{"type": "Feature", "geometry": {"type": "Point", "coordinates": [-1360.6707722894537, -447.4015047276481]}, "properties": {"osm_id": null, "category": "restauracion", "name": "Los Dornajos", "extrude": false}}, {"type": "Feature", "geometry": {"type": "Point", "coordinates": [-1753.4832084726343, -851.827064727722]}, "properties": {"osm_id": null, "category": "restauracion", "name": "Guachinche La Finca", "extrude": false}}, {"type": "Feature", "geometry": {"type": "Point", "coordinates": [-2252.233594792993, -1153.392944727656]}, "properties": {"osm_id": null, "category": "restauracion", "name": "", "extrude": false}}, {"type": "Feature", "geometry": {"type": "Point", "coordinates": [-2714.953328940844, -1475.33038472757]}, "properties": {"osm_id": null, "category": "restauracion", "name": "Guachinche Antonio", "extrude": false}}, {"type": "Feature", "geometry": {"type": "Point", "coordinates": [-2357.6819980254995, -1913.4859047279092]}, "properties": {"osm_id": null, "category": "publico", "name": "Iglesia de San Juan", "extrude": false}}, {"type": "Feature", "geometry": {"type": "Point", "coordinates": [-1888.9897916423329, -2078.016864727771]}, "properties": {"osm_id": null, "category": "restauracion", "name": "", "extrude": false}}, {"type": "Feature", "geometry": {"type": "Point", "coordinates": [-1805.8647272557223, -2237.4271047279058]}, "properties": {"osm_id": null, "category": "publico", "name": "Ermita de La Resbala", "extrude": false}}]}