{"type": "FeatureCollection", "crs": {"type": "name", "properties": {"name": "EPSG:32628_local_enu_m_section_centroid", "lng0": -16.611467209196626, "lat0": 28.05687522689542}}, "features": [{"type": "Feature", "geometry": {"type": "Point", "coordinates": [-8.52613755322992, 665.4962179984068]}, "properties": {"osm_id": null, "category": "restauracion", "name": "Moraditas", "extrude": false}}, {"type": "Feature", "geometry": {"type": "Point", "coordinates": [-296.8540795156144, 503.3029779981797]}, "properties": {"osm_id": null, "category": "restauracion", "name": "amigos del norte", "extrude": false}}, {"type": "Feature", "geometry": {"type": "Point", "coordinates": [1.5923558106458686, 390.3131779983046]}, "properties": {"osm_id": null, "category": "finanzas", "name": "Caixa", "extrude": false}}, {"type": "Feature", "geometry": {"type": "Point", "coordinates": [424.5060832889583, 483.37669799826176]}, "properties": {"osm_id": null, "category": "restauracion", "name": "Don Boñuelo", "extrude": false}}]}