{"type": "FeatureCollection", "crs": {"type": "name", "properties": {"name": "EPSG:32628_local_enu_m_section_centroid", "lng0": -16.611467209196626, "lat0": 28.05687522689542}}, "features": [{"type": "Feature", "geometry": {"type": "Polygon", "coordinates": [[[636.0120659279883, -621.808262001583], [636.9944439244167, -598.0971020017291], [631.9843161425271, -593.6443020015022], [621.4728715803591, -600.5461420018737], [622.2587739776415, -627.81954200183], [636.0120659279883, -621.808262001583]]]}, "properties": {"name": "", "kind": "water", "category": "agua", "extrude": false}}]}