{"type": "FeatureCollection", "crs": {"type": "name", "properties": {"name": "EPSG:32628_local_enu_m_section_centroid", "lng0": -17.22430338012242, "lat0": 28.168710514430632}}, "features": [{"type": "Feature", "geometry": {"type": "Polygon", "coordinates": [[[2575.5030856145304, 5928.403866417896], [2566.474627606843, 5916.158666417964], [2552.9319405951383, 5911.2605864180705], [2518.5845460000774, 5910.147386418113], [2511.6169316681144, 5905.805906418001], [2543.020263869084, 5897.568226417838], [2564.708190170458, 5898.013506417899], [2576.8769813983467, 5893.338066417839], [2584.433408209337, 5887.4381064181025], [2597.8779598078127, 5880.981546417793], [2598.85931393906, 5867.177866417841], [2604.8455741401235, 5859.830746417803], [2612.107594711426, 5865.396746417988], [2614.3647092136093, 5883.319266417823], [2615.9348758235355, 5890.443746418028], [2623.000625568727, 5902.466306418127], [2612.990813429793, 5908.032306417916], [2606.121334510711, 5914.934146417892], [2587.573741429538, 5933.969866418081], [2575.5030856145304, 5928.403866417896]]]}, "properties": {"name": "Embalse de la Laja", "kind": "water", "category": "agua", "extrude": false}}, {"type": "Feature", "geometry": {"type": "Polygon", "coordinates": [[[1349.6936402266679, 4326.063786417968], [1350.9694005976037, 4325.061906418125], [1352.6377026207592, 4324.95058641801], [1354.0115984045758, 4325.952466417854], [1354.6004108832547, 4327.510946417874], [1354.1097338174563, 4329.069426417894], [1352.8339734468695, 4330.071306418133], [1351.1656714237135, 4330.182626417852], [1349.7917756398974, 4329.180746418008], [1349.2029631612183, 4327.622266417989], [1349.6936402266679, 4326.063786417968]]]}, "properties": {"name": "", "kind": "water", "category": "agua", "extrude": false}}, {"type": "Feature", "geometry": {"type": "Polygon", "coordinates": [[[994.3453092885557, 3667.0493864180016], [992.87327809151, 3666.492786417825], [992.3826010260605, 3665.9361864180437], [993.5602259834181, 3664.9343064178047], [994.3453092885557, 3667.0493864180016]]]}, "properties": {"name": "", "kind": "water", "category": "agua", "extrude": false}}, {"type": "Feature", "geometry": {"type": "Polygon", "coordinates": [[[2775.503057570603, 3194.607306418011], [2815.051629061241, 3220.4335464180613], [2875.1105018958956, 3259.5068664178875], [2866.180179301089, 3262.735146418042], [2864.610012691163, 3271.529426417986], [2878.5452413554367, 3293.9047464180485], [2885.1203140348302, 3301.5858264180347], [2897.3872406759488, 3306.483906417928], [2904.9436674869385, 3309.489546417854], [2910.9299276876536, 3311.1593464179887], [2906.4156986839844, 3314.6102664179766], [2898.0741885678567, 3315.278186417872], [2893.167417911619, 3322.7366264180246], [2884.237095316812, 3322.847946418139], [2878.5452413554367, 3319.2857064180366], [2864.5118772779333, 3319.50834641787], [2828.201774420377, 3316.614026418059], [2811.2243479491312, 3327.6347064179186], [2779.624744921703, 3343.219506418119], [2767.3578182809338, 3339.657266418017], [2744.2959961957436, 3324.629066417993], [2640.272458279313, 3316.057426417882], [2586.1017102324927, 3300.0273464180145], [2584.3352727961073, 3278.542586418076], [2584.3352727961073, 3271.9747064180483], [2584.1390019699975, 3246.1484664179975], [2605.2381157926925, 3234.2372264180135], [2642.7258436076063, 3207.5204264178383], [2667.7503739552917, 3195.4978664181353], [2710.6355494925906, 3195.9431464178024], [2737.9171943421106, 3201.954426418049], [2770.2037452614472, 3191.2677064181375], [2775.503057570603, 3194.607306418011]]]}, "properties": {"name": "Embalse de Mulagua", "kind": "water", "category": "agua", "extrude": false}}, {"type": "Feature", "geometry": {"type": "Polygon", "coordinates": [[[3018.6826113029642, 3191.8243064179187], [3020.449048739001, 3192.6035464179286], [3020.939725804799, 3194.4959864178963], [3019.9583716735515, 3195.9431464178024], [3017.112444692689, 3196.0544664179165], [3015.738548908873, 3195.052586418073], [3016.7199030401207, 3192.6035464179286], [3018.6826113029642, 3191.8243064179187]]]}, "properties": {"name": "", "kind": "water", "category": "agua", "extrude": false}}, {"type": "Feature", "geometry": {"type": "Polygon", "coordinates": [[[984.728038801841, 3474.020506418111], [985.5131221069785, 3473.241266418101], [986.3963408253455, 3472.9073064181534], [987.2795595433637, 3473.241266418101], [987.6721011959324, 3473.909186417997], [987.6721011959324, 3474.91106641784], [987.2795595433637, 3475.578986418131], [986.3963408253455, 3476.024266417798], [985.3168512808685, 3475.912946418079], [984.728038801841, 3475.467666418017], [984.728038801841, 3474.020506418111]]]}, "properties": {"name": "", "kind": "water", "category": "agua", "extrude": false}}, {"type": "Feature", "geometry": {"type": "Polygon", "coordinates": [[[1265.6897265888044, 2959.4994664179735], [1284.041048843867, 2974.19370641805], [1272.1666638553177, 2985.9936264179196], [1268.3393827432078, 3014.825506417896], [1273.049882573336, 3027.6273064180045], [1270.694632658272, 3036.7555464178963], [1256.07245610209, 3037.9800664179684], [1254.9929665579616, 3018.944346418175], [1241.4502795462565, 3005.0293464181086], [1233.2069048433582, 2976.086146418018], [1236.0528318238714, 2962.059826417837], [1240.6651962411188, 2951.150466418092], [1243.1185815694123, 2943.0241064180436], [1265.6897265888044, 2959.4994664179735]]]}, "properties": {"name": "Embalse de Los Tiles", "kind": "water", "category": "agua", "extrude": false}}, {"type": "Feature", "geometry": {"type": "Polygon", "coordinates": [[[-315.17364349783077, 2916.0846664180353], [-341.96461128190145, 2940.129786417837], [-348.73595478775405, 2933.0053064180274], [-329.30514298821464, 2905.731906418071], [-315.17364349783077, 2916.0846664180353]]]}, "properties": {"name": "", "kind": "water", "category": "agua", "extrude": false}}, {"type": "Feature", "geometry": {"type": "Polygon", "coordinates": [[[1638.702431890071, 2715.374706418159], [1639.8800568477773, 2717.9350664180224], [1645.6700462223823, 2727.619906418091], [1633.4031195812643, 2735.634946418025], [1612.107734932459, 2743.9839464179063], [1610.7338391486426, 2742.314146418167], [1607.4953705152116, 2737.0821064179304], [1638.702431890071, 2715.374706418159]]]}, "properties": {"name": "", "kind": "water", "category": "agua", "extrude": false}}, {"type": "Feature", "geometry": {"type": "Polygon", "coordinates": [[[3048.0250998282095, 2892.373506417786], [3061.8621930792538, 2891.260306417828], [3069.418619890244, 2883.6905464179563], [3091.106546191618, 2875.786826418137], [3099.251785481287, 2878.3471864180005], [3106.7100768790474, 2884.4697864179666], [3119.9583576514133, 2887.80938641784], [3122.5098783925873, 2897.828186417856], [3113.972097450698, 2907.958306417987], [3063.0398180369602, 2926.437426417999], [3051.1654330484107, 2913.0790264181096], [3038.0152876892744, 2898.384786418033], [3048.0250998282095, 2892.373506417786]]]}, "properties": {"name": "", "kind": "water", "category": "agua", "extrude": false}}, {"type": "Feature", "geometry": {"type": "Polygon", "coordinates": [[[2847.632586219917, 2818.79098641808], [2849.693429895641, 2817.9004264179557], [2851.8524089842467, 2817.9004264179557], [2853.913252659971, 2818.6796664179656], [2855.483419270246, 2820.126826417871], [2856.3666379882643, 2822.1305864179535], [2856.3666379882643, 2824.3569864178694], [2855.581554683127, 2826.3607464179518], [2854.1095234864297, 2827.919226417972], [2852.0486798107054, 2828.8097864180963], [2849.8897007217515, 2828.8097864180963], [2847.8288570460268, 2828.030546418086], [2846.2586904361, 2826.583386417785], [2845.3754717177335, 2824.579626418098], [2845.3754717177335, 2822.353226417787], [2846.160555022871, 2820.3494664181003], [2847.632586219917, 2818.79098641808]]]}, "properties": {"name": "", "kind": "water", "category": "agua", "extrude": false}}, {"type": "Feature", "geometry": {"type": "Polygon", "coordinates": [[[2684.531529600428, 2679.307026417863], [2682.765092164043, 2680.5315464179357], [2680.606113075089, 2680.976826417998], [2678.4471339864835, 2680.5315464179357], [2676.582561136869, 2679.307026417863], [2675.4049361795114, 2677.52590641801], [2674.9142591137133, 2675.299506418094], [2675.4049361795114, 2673.184426417897], [2676.582561136869, 2671.403306418044], [2678.4471339864835, 2670.1787864179714], [2680.606113075089, 2669.733506417909], [2682.765092164043, 2670.1787864179714], [2684.531529600428, 2671.2919864179294], [2685.807289971015, 2673.184426417897], [2686.1998316235836, 2675.299506418094], [2685.807289971015, 2677.52590641801], [2684.531529600428, 2679.307026417863]]]}, "properties": {"name": "", "kind": "water", "category": "agua", "extrude": false}}, {"type": "Feature", "geometry": {"type": "Polygon", "coordinates": [[[-3279.6482032826616, 2404.2353064178756], [-3274.6432972131943, 2407.018306417968], [-3264.6334850742596, 2448.2067064179905], [-3273.6619430819464, 2448.6519864180527], [-3280.3351511749183, 2444.5939707477373], [-3280.3351511749183, 2403.921819061227], [-3279.6482032826616, 2404.2353064178756]]]}, "properties": {"name": "Presa de Ariala", "kind": "water", "category": "agua", "extrude": false}}, {"type": "Feature", "geometry": {"type": "Polygon", "coordinates": [[[1849.4972992902158, 2453.2161064179986], [1846.4551014832437, 2454.8859064181333], [1844.590528633629, 2451.768946418093], [1847.4364556144913, 2450.321786417792], [1849.4972992902158, 2453.2161064179986]]]}, "properties": {"name": "", "kind": "water", "category": "agua", "extrude": false}}, {"type": "Feature", "geometry": {"type": "Polygon", "coordinates": [[[3233.7954368803194, 2439.1897864178177], [3234.0898431196592, 2448.540666417938], [3232.421541096503, 2453.438746417832], [3229.379343289531, 2455.8877864179767], [3225.94460382999, 2455.665146418143], [3221.626645652431, 2453.661386418061], [3220.547156107954, 2452.659506417822], [3218.682583258688, 2440.080346417942], [3233.7954368803194, 2439.1897864178177]]]}, "properties": {"name": "", "kind": "water", "category": "agua", "extrude": false}}, {"type": "Feature", "geometry": {"type": "Polygon", "coordinates": [[[2221.136108807666, 2014.7266264181071], [2232.2254104910776, 2018.0662264179805], [2226.926098182271, 2032.315186417995], [2217.3088276955564, 2026.192586418029], [2221.136108807666, 2014.7266264181071]]]}, "properties": {"name": "", "kind": "water", "category": "agua", "extrude": false}}, {"type": "Feature", "geometry": {"type": "Polygon", "coordinates": [[[-1495.6445280201012, 2083.188426418086], [-1481.1204868771486, 2054.3565464181097], [-1474.6435496106353, 2060.2565064178466], [-1467.5777998654432, 2066.490426417927], [-1469.0498310624891, 2081.852586417899], [-1466.4001749080858, 2126.0466264178476], [-1470.718133085645, 2165.5652264181313], [-1487.7936949701202, 2211.540386417933], [-1492.406059387019, 2212.7649064180055], [-1486.2235283598452, 2164.5633464178923], [-1495.6445280201012, 2083.188426418086]]]}, "properties": {"name": "Embalse de Meriga", "kind": "water", "category": "agua", "extrude": false}}, {"type": "Feature", "geometry": {"type": "Polygon", "coordinates": [[[2364.610082801505, 1749.0057864178443], [2368.3392285003856, 1751.454826417989], [2361.862291233872, 1761.3623064178907], [2358.133145534992, 1758.9132664181416], [2364.610082801505, 1749.0057864178443]]]}, "properties": {"name": "", "kind": "water", "category": "agua", "extrude": false}}, {"type": "Feature", "geometry": {"type": "Polygon", "coordinates": [[[2513.5796399306096, 1672.5289464179316], [2513.5796399306096, 1666.9629464181423], [2513.5796399306096, 1664.5139064179978], [2523.2950458302053, 1657.8347064178552], [2529.1831706180396, 1668.5214264181625], [2516.6218377375817, 1676.8704264180442], [2513.5796399306096, 1672.5289464179316]]]}, "properties": {"name": "", "kind": "water", "category": "agua", "extrude": false}}, {"type": "Feature", "geometry": {"type": "Polygon", "coordinates": [[[2113.2852897794746, 1658.7252664179796], [2119.6640916327583, 1662.9554264179776], [2114.070373084612, 1670.6365064179638], [2107.6915712309797, 1665.9610664179033], [2113.2852897794746, 1658.7252664179796]]]}, "properties": {"name": "", "kind": "water", "category": "agua", "extrude": false}}, {"type": "Feature", "geometry": {"type": "Polygon", "coordinates": [[[3980.7040662012196, 1542.7298264177832], [3986.9847326416225, 1550.633546417998], [3980.8022016144487, 1555.5316264178919], [3974.5215351740458, 1547.7392264177913], [3980.7040662012196, 1542.7298264177832]]]}, "properties": {"name": "", "kind": "water", "category": "agua", "extrude": false}}, {"type": "Feature", "geometry": {"type": "Polygon", "coordinates": [[[-1267.77409873583, 1281.239146417914], [-1262.3766510137937, 1280.0146264178418], [-1261.1008906432066, 1283.5768664179443], [-1264.5356301027475, 1287.36174641788], [-1268.6573174541966, 1283.354226418111], [-1267.77409873583, 1281.239146417914]]]}, "properties": {"name": "", "kind": "water", "category": "agua", "extrude": false}}, {"type": "Feature", "geometry": {"type": "Polygon", "coordinates": [[[-644.2216837176703, 1111.253506417982], [-645.6937149143673, 1108.0252264178275], [-643.7310066518721, 1104.4629864181204], [-638.2354235166066, 1099.4535864181123], [-632.6417049684604, 1100.3441464178413], [-628.0293405512131, 1105.3535464178494], [-640.099996366221, 1115.1497064180323], [-644.2216837176703, 1111.253506417982]]]}, "properties": {"name": "", "kind": "water", "category": "agua", "extrude": false}}, {"type": "Feature", "geometry": {"type": "Polygon", "coordinates": [[[-654.7221729224032, 1088.655546418086], [-650.6986209841834, 1086.095186417827], [-643.044058759964, 1087.5423464181283], [-639.7074547136523, 1090.547986418054], [-641.964569215487, 1092.5517464181364], [-650.6986209841834, 1095.6687064181765], [-652.5631938334493, 1094.6668264179377], [-654.7221729224032, 1088.655546418086]]]}, "properties": {"name": "", "kind": "water", "category": "agua", "extrude": false}}, {"type": "Feature", "geometry": {"type": "Polygon", "coordinates": [[[-60.11970477691974, 1071.0669864178028], [-68.55935030592809, 1081.9763464179434], [-77.68594372684463, 1074.8518664181343], [-69.34443361106564, 1064.053826418108], [-60.11970477691974, 1071.0669864178028]]]}, "properties": {"name": "", "kind": "water", "category": "agua", "extrude": false}}, {"type": "Feature", "geometry": {"type": "Polygon", "coordinates": [[[-408.30415055661064, 1059.0444264180999], [-402.5141611820057, 1062.272706417859], [-410.0705879929958, 1077.9688264181743], [-414.97735864958247, 1071.9575464179272], [-408.30415055661064, 1059.0444264180999]]]}, "properties": {"name": "", "kind": "water", "category": "agua", "extrude": false}}, {"type": "Feature", "geometry": {"type": "Polygon", "coordinates": [[[2709.2616537087742, 1401.4647464181085], [2714.9535076701495, 1403.6911464180243], [2716.523674280076, 1406.140186418169], [2716.229268040737, 1408.8118664181468], [2714.364695191471, 1411.8175064180725], [2710.6355494925906, 1413.0420264181448], [2702.9809872683713, 1412.5967464180826], [2700.3313311139677, 1411.149586418177], [2700.9201435926466, 1402.0213464178896], [2709.2616537087742, 1401.4647464181085]]]}, "properties": {"name": "", "kind": "water", "category": "agua", "extrude": false}}, {"type": "Feature", "geometry": {"type": "Polygon", "coordinates": [[[2802.4902961807834, 1133.9627864179924], [2811.0280771230214, 1152.2192664181714], [2796.6021713929495, 1154.2230264178581], [2789.5364216477574, 1139.1948264178338], [2802.4902961807834, 1133.9627864179924]]]}, "properties": {"name": "", "kind": "water", "category": "agua", "extrude": false}}, {"type": "Feature", "geometry": {"type": "Polygon", "coordinates": [[[-2948.637454800327, 751.2446264180855], [-2947.36169442974, 758.0351464179471], [-2958.058454460932, 757.1445864178226], [-2958.74540235284, 754.3615864181256], [-2960.0211627234266, 749.4635064178365], [-2948.637454800327, 751.2446264180855]]]}, "properties": {"name": "", "kind": "water", "category": "agua", "extrude": false}}, {"type": "Feature", "geometry": {"type": "Polygon", "coordinates": [[[-2969.540297796912, 643.0415864179896], [-2971.110464406838, 643.1529064181041], [-2972.680631016765, 642.8189464181562], [-2974.0545268005812, 642.0397064181462], [-2975.0358809321774, 640.7038664179595], [-2975.6246934108563, 639.2567064180538], [-2975.6246934108563, 637.5869064179193], [-2975.134016345058, 636.1397464180136], [-2974.1526622138103, 634.803906417827], [-2972.8769018432235, 633.913346418098], [-2971.3067352332973, 633.4680664180357], [-2969.736568623022, 633.5793864181501], [-2968.2645374259764, 634.2473064180457], [-2967.0869124686187, 635.2491864178892], [-2966.301829163481, 636.6963464177948], [-2966.007422924142, 638.2548264178149], [-2966.2036937506005, 639.8133064178351], [-2966.890641642509, 641.2604664181362], [-2968.068266599866, 642.373666418094], [-2969.540297796912, 643.0415864179896]]]}, "properties": {"name": "", "kind": "water", "category": "agua", "extrude": false}}, {"type": "Feature", "geometry": {"type": "Polygon", "coordinates": [[[1956.0723579478201, 828.1667464180605], [1961.5679410827368, 826.6082664180403], [1964.3157326503695, 827.3875064180504], [1965.1989513687365, 830.2818264178618], [1964.512003476828, 833.0648264179541], [1962.4511598011036, 837.1836664178377], [1960.1940452989202, 840.0779864180446], [1956.9555766658384, 841.079866417888], [1950.7730456386646, 838.5195064180244], [1950.8711810518937, 830.8384264180384], [1956.0723579478201, 828.1667464180605]]]}, "properties": {"name": "", "kind": "water", "category": "agua", "extrude": false}}, {"type": "Feature", "geometry": {"type": "Polygon", "coordinates": [[[3082.56876524938, 594.7287064181576], [3084.237067272536, 593.7268264179187], [3086.1016401221505, 593.3928664179709], [3088.0643483846457, 593.8381464180331], [3089.6345149945723, 594.951346417991], [3090.6158691258197, 596.509826418011], [3091.008410778388, 598.5135864180934], [3090.517733712939, 600.4060264180613], [3089.438244168462, 601.9645064180814], [3087.7699421453062, 602.9663864179248], [3085.807233882811, 603.3003464178727], [3083.942661033196, 602.8550664178103], [3082.37249442327, 601.7418664178525], [3081.293004878793, 600.0720664181135], [3080.9985986394536, 598.1796264181456], [3081.3911402920226, 596.2871864177822], [3082.56876524938, 594.7287064181576]]]}, "properties": {"name": "", "kind": "water", "category": "agua", "extrude": false}}, {"type": "Feature", "geometry": {"type": "Polygon", "coordinates": [[[1963.138107693012, 532.7234664180925], [1964.0213264110303, 538.6234264178296], [1963.7269201716906, 542.9649064179421], [1954.992868403343, 542.9649064179421], [1940.1744210207023, 541.8517064179842], [1938.8986606501153, 532.5008264178637], [1963.138107693012, 532.7234664180925]]]}, "properties": {"name": "", "kind": "water", "category": "agua", "extrude": false}}, {"type": "Feature", "geometry": {"type": "Polygon", "coordinates": [[[3663.2360047305897, 513.1311464181224], [3665.885660884993, 512.9085064178935], [3668.8297232790846, 514.8009464178614], [3665.787525472112, 521.7027864178374], [3664.3154942750666, 521.8141064179518], [3659.6049944449383, 521.9254264180663], [3658.7217757265717, 519.8103464178695], [3659.899400684278, 514.8009464178614], [3663.2360047305897, 513.1311464181224]]]}, "properties": {"name": "", "kind": "water", "category": "agua", "extrude": false}}, {"type": "Feature", "geometry": {"type": "Polygon", "coordinates": [[[2603.373542943078, 470.1616264178507], [2601.607105506693, 467.93522641793504], [2600.920157614785, 465.82014641813373], [2601.1164284412434, 463.9277064181658], [2602.49032422506, 462.70318641809354], [2604.8455741401235, 462.4805464178647], [2607.004553228729, 463.03714641804135], [2608.1821781864355, 464.59562641806144], [2608.7709906651144, 466.5993864181438], [2607.985907359977, 468.38050641799725], [2605.6306574449127, 470.05030641813175], [2604.7474387268944, 479.62382641808574], [2598.564907699721, 491.86902641801765], [2597.0928765030235, 493.5388264181522], [2588.3588247343273, 498.3255864179314], [2582.7651061861807, 503.5576264181684], [2581.5874812284746, 504.7821464178452], [2579.5266375527503, 511.79530641793565], [2578.5452834215025, 513.1311464181224], [2575.5030856145304, 515.2462264179236], [2573.736648178145, 518.029226418016], [2571.57766908954, 520.5895864178796], [2564.413783931119, 557.2138664179563], [2562.941752734073, 556.8799064180085], [2570.2037733057236, 519.6990264181505], [2572.657158634017, 517.0273464181726], [2574.8161377226224, 514.578306418028], [2575.9937626803285, 513.2424664178413], [2577.6620647034842, 512.2405864179979], [2578.250877182163, 510.4594664181444], [2579.0359604873006, 506.6745864178131], [2582.0781582942727, 501.4425464179716], [2587.671876842419, 496.87842641802575], [2597.4854181552437, 491.20110641812204], [2602.88286587728, 479.4011864178569], [2603.079136703739, 476.2842264178167], [2603.373542943078, 470.1616264178507]]]}, "properties": {"name": "", "kind": "water", "category": "agua", "extrude": false}}, {"type": "Feature", "geometry": {"type": "Polygon", "coordinates": [[[1965.002680542278, 480.51438641781476], [1967.4560658705711, 494.763346417829], [1959.6052328202418, 496.09918641801573], [1957.151847491948, 481.85022641800145], [1965.002680542278, 480.51438641781476]]]}, "properties": {"name": "", "kind": "water", "category": "agua", "extrude": false}}, {"type": "Feature", "geometry": {"type": "Polygon", "coordinates": [[[3693.069170321632, 472.72198641810974], [3691.7934099510458, 474.05782641790097], [3689.928837101431, 474.83706641791105], [3688.0642642521652, 474.83706641791105], [3686.29782681578, 474.05782641790097], [3684.923931031964, 472.72198641810974], [3684.1388477268265, 470.9408664178608], [3684.1388477268265, 469.04842641789287], [3684.923931031964, 467.2673064180394], [3686.29782681578, 465.9314664178527], [3688.0642642521652, 465.1522264178426], [3690.0269725146604, 465.1522264178426], [3691.7934099510458, 465.9314664178527], [3693.069170321632, 467.2673064180394], [3693.8542536267705, 469.04842641789287], [3693.8542536267705, 470.9408664178608], [3693.069170321632, 472.72198641810974]]]}, "properties": {"name": "", "kind": "water", "category": "agua", "extrude": false}}, {"type": "Feature", "geometry": {"type": "Polygon", "coordinates": [[[1692.186232045332, 468.4918264181117], [1691.0086070876255, 467.2673064180394], [1690.223523782488, 465.70882641801927], [1690.027252956378, 464.03902641788477], [1690.4197946089469, 462.36922641814573], [1691.303013326965, 460.9220664178446], [1692.578773697552, 459.92018641800115], [1694.1489403078272, 459.25226641810553], [1695.9153777442123, 459.25226641810553], [1697.4855443541387, 459.6975464181678], [1698.859440137955, 460.69942641801117], [1699.8407942692027, 462.14658641791686], [1700.2333359217714, 463.70506641793696], [1700.2333359217714, 465.3748664180715], [1699.5463880298632, 466.93334641809156], [1698.4668984853863, 468.2691864178828], [1696.9948672883404, 469.15974641800733], [1695.3265652651849, 469.4937064179551], [1693.6582632420289, 469.27106641812173], [1692.186232045332, 468.4918264181117]]]}, "properties": {"name": "", "kind": "water", "category": "agua", "extrude": false}}, {"type": "Feature", "geometry": {"type": "Polygon", "coordinates": [[[3257.0535297919687, 440.327866418031], [3259.899456772482, 446.5617864181114], [3260.1938630118216, 453.35230641797295], [3257.8386130967574, 459.6975464181678], [3253.226248679859, 464.7069464181759], [3247.0437176526852, 467.4899464178728], [3240.272374146833, 467.8239064178206], [3233.893572293549, 465.48618641779046], [3228.8886662240816, 460.81074641812563], [3226.0427392432193, 454.6881464181597], [3225.74833300388, 447.89762641790264], [3228.103582918944, 441.44106641798885], [3232.7159473358424, 436.5429864180952], [3238.8984783630162, 433.64866641788836], [3245.669821868869, 433.426026418055], [3252.0486237221526, 435.76374641808513], [3257.0535297919687, 440.327866418031]]]}, "properties": {"name": "", "kind": "water", "category": "agua", "extrude": false}}, {"type": "Feature", "geometry": {"type": "Polygon", "coordinates": [[[-714.4866395177186, 1042.7917064180033], [-710.5612229923794, 1040.0087064179108], [-709.6780042743611, 1041.0105864181496], [-714.8791811699386, 1047.2445064178346], [-716.253076953755, 1046.4652664178245], [-714.4866395177186, 1042.7917064180033]]]}, "properties": {"name": "", "kind": "water", "category": "agua", "extrude": false}}, {"type": "Feature", "geometry": {"type": "Polygon", "coordinates": [[[1380.9007016015273, 727.6447864179506], [1363.040056412263, 735.9937864178323], [1346.2589007674756, 739.4447064178203], [1330.851640906156, 743.3409064178705], [1312.3040478249836, 743.8975064180472], [1297.9762775081408, 745.4559864180674], [1267.4561640251898, 755.4747864180836], [1257.151945646567, 748.9069064180553], [1257.151945646567, 730.7617464179908], [1264.6102370443275, 718.9618264181212], [1270.2039555928225, 711.1694264180207], [1285.5130800409127, 697.6997064180165], [1304.9438918401036, 679.554546417952], [1321.1362350065606, 656.177346418046], [1342.3334842421364, 636.8076664179092], [1377.8585037945552, 670.5376264181747], [1391.4993262194896, 683.4507464180023], [1407.8879402120567, 698.9242264180888], [1380.9007016015273, 727.6447864179506]]]}, "properties": {"name": "Embalse de Hermigua", "kind": "water", "category": "agua", "extrude": false}}, {"type": "Feature", "geometry": {"type": "Polygon", "coordinates": [[[1510.9301239968906, 569.3477464181693], [1535.6602481052369, 558.9949864178097], [1539.7819354566861, 569.6817064181171], [1515.05181134834, 581.2589864181534], [1510.9301239968906, 569.3477464181693]]]}, "properties": {"name": "", "kind": "water", "category": "agua", "extrude": false}}, {"type": "Feature", "geometry": {"type": "Polygon", "coordinates": [[[2204.551223988988, 308.63630641791474], [2207.5934217959602, 310.97402641794486], [2204.1586823364196, 314.5362664180473], [2201.901567834585, 311.6419464178405], [2204.551223988988, 308.63630641791474]]]}, "properties": {"name": "", "kind": "water", "category": "agua", "extrude": false}}, {"type": "Feature", "geometry": {"type": "Polygon", "coordinates": [[[2854.796471378338, 317.20794641802524], [2852.2449506368152, 318.98906641787875], [2849.202752829843, 319.5456664180554], [2846.062419609642, 318.98906641787875], [2843.5108988684674, 317.20794641802524], [2841.7444614320825, 314.5362664180473], [2841.1556489534037, 311.5306264181215], [2841.7444614320825, 308.41366641808133], [2843.5108988684674, 305.85330641782235], [2846.062419609642, 304.07218641796885], [2849.202752829843, 303.5155864177922], [2852.2449506368152, 304.07218641796885], [2854.796471378338, 305.85330641782235], [2856.5629088147234, 308.41366641808133], [2857.151721293402, 311.5306264181215], [2856.5629088147234, 314.5362664180473], [2854.796471378338, 317.20794641802524]]]}, "properties": {"name": "", "kind": "water", "category": "agua", "extrude": false}}, {"type": "Feature", "geometry": {"type": "Polygon", "coordinates": [[[2526.926056115856, 295.6118664179728], [2536.6414620158002, 309.5268664180392], [2526.533514463636, 316.8739864180775], [2514.855400301197, 305.29670641804114], [2526.926056115856, 295.6118664179728]]]}, "properties": {"name": "", "kind": "water", "category": "agua", "extrude": false}}, {"type": "Feature", "geometry": {"type": "Polygon", "coordinates": [[[2146.945736482627, 269.5629864180888], [2153.2264029226817, 274.01578641792025], [2146.945736482627, 281.9195064181352], [2141.1557471080223, 277.13274641796045], [2146.945736482627, 269.5629864180888]]]}, "properties": {"name": "", "kind": "water", "category": "agua", "extrude": false}}, {"type": "Feature", "geometry": {"type": "Polygon", "coordinates": [[[-2354.91820537321, 198.76346641807984], [-2356.095830330568, 198.98610641791322], [-2357.1753198750453, 198.76346641807984], [-2358.2548094195217, 198.20686641790317], [-2358.94175731143, 197.31630641817418], [-2359.432434377228, 196.31442641793527], [-2359.530569790109, 195.08990641786298], [-2359.2361635507696, 193.97670641790512], [-2358.549215658861, 193.08614641817613], [-2357.665996940843, 192.30690641816608], [-2356.5865073963664, 191.97294641782278], [-2355.40888243866, 191.97294641782278], [-2354.329392894532, 192.30690641816608], [-2353.4461741761647, 193.08614641817613], [-2352.759226284257, 194.08802641801955], [-2352.464820044917, 195.2012264179774], [-2352.5629554581465, 196.31442641793527], [-2353.0536325235958, 197.42762641789312], [-2353.936851241963, 198.20686641790317], [-2354.91820537321, 198.76346641807984]]]}, "properties": {"name": "", "kind": "water", "category": "agua", "extrude": false}}, {"type": "Feature", "geometry": {"type": "Polygon", "coordinates": [[[-1955.4089385272127, 135.75634641817132], [-1956.7828343110286, 136.3129464179525], [-1958.2548655077258, 136.3129464179525], [-1959.6287612915423, 135.75634641817132], [-1960.8063862492486, 134.86578641804684], [-1961.591469554386, 133.64126641797455], [-1961.8858757937257, 132.30542641778783], [-1961.7877403804962, 130.85826641788216], [-1961.1989279018173, 129.52242641809093], [-1960.21757377057, 128.52054641785202], [-1958.9418133996342, 127.74130641784197], [-1957.5679176158178, 127.51866641800859], [-1956.0958864191207, 127.74130641784197], [-1954.8201260485337, 128.52054641785202], [-1953.8387719169373, 129.52242641809093], [-1953.2499594382587, 130.85826641788216], [-1953.1518240250293, 132.30542641778783], [-1953.544365677598, 133.64126641797455], [-1954.3294489827356, 134.86578641804684], [-1955.4089385272127, 135.75634641817132]]]}, "properties": {"name": "", "kind": "water", "category": "agua", "extrude": false}}, {"type": "Feature", "geometry": {"type": "Polygon", "coordinates": [[[-2436.9594107485786, -88.88741358218311], [-2431.267556787203, -93.45153358212897], [-2419.883848864103, -109.37029358188227], [-2409.38335965937, -130.85505358221582], [-2391.522714470106, -130.85505358221582], [-2375.1341004775386, -127.29281358211338], [-2367.773944493007, -125.62301358197885], [-2361.100736400384, -126.62489358221777], [-2355.310747025779, -115.49289358184822], [-2344.123309929138, -108.47973358215327], [-2345.6934765390642, -106.3646535819565], [-2347.3617785622205, -104.02693358192636], [-2358.843621898201, -109.70425358183007], [-2366.7925903617597, -109.03633358193446], [-2375.722912956566, -111.0400935820168], [-2381.218496091483, -109.37029358188227], [-2383.0830689410977, -104.02693358192636], [-2376.7042670878136, -88.33081358200644], [-2374.8396942381996, -77.5327735819802], [-2374.8396942381996, -62.838533581903704], [-2379.255787828988, -51.37257358198184], [-2386.9103500532074, -40.12925358189335], [-2394.5649122770783, -32.22553358207392], [-2399.079141281096, -30.221773581991584], [-2410.5609846170764, -33.78401358209402], [-2423.3185883236442, -43.35753358204798], [-2426.557056957075, -48.14429358182721], [-2436.9594107485786, -88.88741358218311]]]}, "properties": {"name": "Embalse de Vallehermoso", "kind": "water", "category": "agua", "extrude": false}}, {"type": "Feature", "geometry": {"type": "Polygon", "coordinates": [[[-405.45822357609717, -107.70049358214322], [-424.8890353752879, -120.94757358191856], [-474.64368983166844, -166.92273358211594], [-464.43760686627485, -166.36613358193927], [-436.9596911902959, -152.33981358215388], [-403.691786139712, -146.4398535820213], [-374.34929761411854, -125.73433358209329], [-405.45822357609717, -107.70049358214322]]]}, "properties": {"name": "Presa de los Ancones", "kind": "water", "category": "agua", "extrude": false}}, {"type": "Feature", "geometry": {"type": "Polygon", "coordinates": [[[2056.1704793385625, 240.50846641788368], [2055.189125207315, 243.7367464180383], [2051.558114921664, 242.62354641808045], [2052.5394690529115, 239.39526641792582], [2056.1704793385625, 240.50846641788368]]]}, "properties": {"name": "", "kind": "water", "category": "agua", "extrude": false}}, {"type": "Feature", "geometry": {"type": "Polygon", "coordinates": [[[2746.4549752843486, 214.45958641799976], [2738.2116005814505, 233.7179464180221], [2728.0055176164055, 229.37646641790963], [2736.248892318955, 210.11810641788728], [2746.4549752843486, 214.45958641799976]]]}, "properties": {"name": "", "kind": "water", "category": "agua", "extrude": false}}, {"type": "Feature", "geometry": {"type": "Polygon", "coordinates": [[[2157.44622568736, 176.0541864180695], [2157.44622568736, 179.05982641799525], [2154.7965695329567, 178.50322641781858], [2154.6002987064976, 174.71834641788277], [2157.44622568736, 176.0541864180695]]]}, "properties": {"name": "", "kind": "water", "category": "agua", "extrude": false}}, {"type": "Feature", "geometry": {"type": "Polygon", "coordinates": [[[2158.721986057947, 164.03162641797095], [2158.721986057947, 166.81462641806334], [2154.3058924671586, 166.7033064179489], [2154.5021632932685, 163.80898641813758], [2158.721986057947, 164.03162641797095]]]}, "properties": {"name": "", "kind": "water", "category": "agua", "extrude": false}}, {"type": "Feature", "geometry": {"type": "Polygon", "coordinates": [[[2112.8927481269056, 158.68826641801505], [2114.5610501500614, 157.68638641817162], [2117.014435478355, 161.359946417993], [2113.4815606055845, 163.69766641802315], [2110.2430919725025, 160.24674641803514], [2112.8927481269056, 158.68826641801505]]]}, "properties": {"name": "", "kind": "water", "category": "agua", "extrude": false}}, {"type": "Feature", "geometry": {"type": "Polygon", "coordinates": [[[2324.9633758976374, 158.68826641801505], [2324.767105071179, 160.58070641798295], [2323.589480113821, 162.5844664180653], [2321.4305010248668, 162.80710641789867], [2320.547282306849, 161.359946417993], [2320.841688546188, 159.57882641813953], [2322.8043968086836, 158.02034641811943], [2324.9633758976374, 158.68826641801505]]]}, "properties": {"name": "", "kind": "water", "category": "agua", "extrude": false}}, {"type": "Feature", "geometry": {"type": "Polygon", "coordinates": [[[2108.5747899493467, 157.909026418005], [2111.5188523430893, 156.3505464179849], [2112.8927481269056, 158.68826641801505], [2110.2430919725025, 160.24674641803514], [2108.5747899493467, 157.909026418005]]]}, "properties": {"name": "", "kind": "water", "category": "agua", "extrude": false}}, {"type": "Feature", "geometry": {"type": "Polygon", "coordinates": [[[3168.142845497519, 22.65522641778631], [3164.9043768640877, 25.21558641804532], [3160.8808249258677, 26.440106418117608], [3156.7591375744187, 25.994826418055368], [3153.029991875538, 24.102386418087463], [3150.380335721135, 20.874106417932836], [3149.2027107637773, 16.86658641816365], [3149.5952524163463, 12.747746417884542], [3151.557960678841, 8.962866417948732], [3154.7964293119235, 6.40250641808521], [3158.8199812501434, 5.177986418012921], [3163.0398040148216, 5.623266418075161], [3166.670814300473, 7.515706418043067], [3169.320470454876, 10.743986417802205], [3170.498095412582, 14.75150641796688], [3170.1055537600137, 18.98166641796493], [3168.142845497519, 22.65522641778631]]]}, "properties": {"name": "", "kind": "water", "category": "agua", "extrude": false}}, {"type": "Feature", "geometry": {"type": "Polygon", "coordinates": [[[2870.9888145444465, -56.49329358210437], [2876.4843976797124, -51.37257358198184], [2867.4559396716763, -44.025453581943594], [2861.7640857103006, -48.47825358217051], [2870.9888145444465, -56.49329358210437]]]}, "properties": {"name": "", "kind": "water", "category": "agua", "extrude": false}}, {"type": "Feature", "geometry": {"type": "Polygon", "coordinates": [[[2471.4795476984486, -71.41017358201424], [2481.685630663842, -85.43649358219511], [2484.040880578906, -83.76669358206058], [2489.2420574748326, -79.98181358212477], [2479.035974509439, -65.9554935819439], [2471.4795476984486, -71.41017358201424]]]}, "properties": {"name": "", "kind": "water", "category": "agua", "extrude": false}}, {"type": "Feature", "geometry": {"type": "Polygon", "coordinates": [[[2847.730721633146, -124.509813582021], [2849.595294482412, -125.73433358209329], [2851.754273571366, -126.0682935820411], [2853.913252659971, -125.51169358186442], [2855.6796900963564, -124.17585358207319], [2856.7591796408333, -122.28341358210528], [2857.0535858801727, -120.16833358190851], [2856.5629088147234, -118.05325358210723], [2855.2871484437874, -116.27213358185827], [2853.4225755945217, -115.15893358190041], [2851.263596505568, -114.8249735819526], [2849.104617416614, -115.27025358201485], [2847.3381799805775, -116.60609358220157], [2846.160555022871, -118.49853358216947], [2845.8661487835316, -120.61361358197075], [2846.3568258493297, -122.84001358188647], [2847.730721633146, -124.509813582021]]]}, "properties": {"name": "", "kind": "water", "category": "agua", "extrude": false}}, {"type": "Feature", "geometry": {"type": "Polygon", "coordinates": [[[3689.8307016885506, -175.60569358194542], [3690.419514167229, -173.0453335820819], [3688.0642642521652, -172.15477358195741], [3686.6903684683493, -174.49249358198756], [3689.8307016885506, -175.60569358194542]]]}, "properties": {"name": "", "kind": "water", "category": "agua", "extrude": false}}, {"type": "Feature", "geometry": {"type": "Polygon", "coordinates": [[[2649.497187113459, -179.39057358188123], [2652.048707854633, -175.2717335819976], [2645.37549976201, -171.26421358183293], [2642.7258436076063, -175.2717335819976], [2649.497187113459, -179.39057358188123]]]}, "properties": {"name": "", "kind": "water", "category": "agua", "extrude": false}}, {"type": "Feature", "geometry": {"type": "Polygon", "coordinates": [[[3436.543200403676, -176.27361358184103], [3449.889616589271, -192.97161358199986], [3459.5068870759856, -184.39997358188933], [3444.099627214666, -168.59253358185498], [3436.543200403676, -176.27361358184103]]]}, "properties": {"name": "", "kind": "water", "category": "agua", "extrude": false}}, {"type": "Feature", "geometry": {"type": "Polygon", "coordinates": [[[3761.3714178591854, -185.40185358212824], [3761.6658240985253, -186.06977358202386], [3765.591240623515, -188.0735335821062], [3766.0819176893137, -188.0735335821062], [3767.65208429924, -184.956573582066], [3762.647178229773, -182.61885358203585], [3761.3714178591854, -185.40185358212824]]]}, "properties": {"name": "", "kind": "water", "category": "agua", "extrude": false}}, {"type": "Feature", "geometry": {"type": "Polygon", "coordinates": [[[2932.323447749688, -202.211173582006], [2937.0339475798164, -199.76213358186143], [2939.879874560678, -198.87157358213244], [2924.7670209386984, -180.39245358212014], [2915.4441566916717, -186.8490135820339], [2908.5746777725894, -192.97161358199986], [2922.5099064368637, -209.78093358187763], [2932.323447749688, -202.211173582006]]]}, "properties": {"name": "", "kind": "water", "category": "agua", "extrude": false}}, {"type": "Feature", "geometry": {"type": "Polygon", "coordinates": [[[2835.5619304049087, -209.89225358199207], [2838.99666986445, -211.78469358195997], [2842.922086389789, -212.11865358190778], [2846.74936750155, -211.00545358194992], [2849.791565308522, -208.4450935820864], [2851.6561381581364, -204.9941735820984], [2852.0486798107054, -201.09797358204816], [2850.871054852999, -197.31309358211234], [2848.4176695250544, -194.19613358207215], [2844.8847946522837, -192.4150135818232], [2840.9593781272933, -191.96973358215644], [2837.2302324284133, -193.19425358183324], [2834.1880346210924, -195.64329358197782], [2832.3234617718267, -199.09421358196582], [2831.9309201192577, -203.1017335821305], [2833.0104096637347, -206.8866135820663], [2835.5619304049087, -209.89225358199207]]]}, "properties": {"name": "", "kind": "water", "category": "agua", "extrude": false}}, {"type": "Feature", "geometry": {"type": "Polygon", "coordinates": [[[-1175.5268103950682, -463.0339335819795], [-1175.0361333296187, -455.1302135821601], [-1182.4944247273793, -454.68493358209787], [-1182.886966379948, -462.58865358191724], [-1175.5268103950682, -463.0339335819795]]]}, "properties": {"name": "", "kind": "water", "category": "agua", "extrude": false}}, {"type": "Feature", "geometry": {"type": "Polygon", "coordinates": [[[-1176.0174874608663, -472.9414135818813], [-1175.5268103950682, -465.0376935820618], [-1182.9851017928288, -464.70373358211407], [-1183.3776434453978, -472.60745358193344], [-1176.0174874608663, -472.9414135818813]]]}, "properties": {"name": "", "kind": "water", "category": "agua", "extrude": false}}, {"type": "Feature", "geometry": {"type": "Polygon", "coordinates": [[[203.47201488622895, -477.2828935819938], [217.2109727240441, -477.0602535821604], [217.01470189793403, -468.3772935819354], [203.27574405977023, -468.5999335821643], [203.47201488622895, -477.2828935819938]]]}, "properties": {"name": "", "kind": "water", "category": "agua", "extrude": false}}, {"type": "Feature", "geometry": {"type": "Polygon", "coordinates": [[[2867.750345911364, -254.08629358194048], [2869.516783347401, -261.21077358214535], [2872.853387393712, -258.7617335820008], [2870.694408305107, -252.19385358197258], [2867.750345911364, -254.08629358194048]]]}, "properties": {"name": "", "kind": "water", "category": "agua", "extrude": false}}, {"type": "Feature", "geometry": {"type": "Polygon", "coordinates": [[[3063.9230367549785, -402.69849358204897], [3065.7876096045925, -403.477733582059], [3067.8484532803177, -403.477733582059], [3069.7130261295833, -402.8098135821634], [3071.185057326629, -401.3626535818622], [3072.068276044647, -399.5815335820088], [3072.068276044647, -397.46645358220746], [3071.381328152739, -395.57401358184404], [3069.909296955693, -394.1268535819384], [3068.044724106427, -393.3476135819284], [3066.0820158439324, -393.23629358220944], [3064.2174429943175, -394.015533581824], [3062.6472763843913, -395.3513735820107], [3061.8621930792538, -397.2438135819786], [3061.8621930792538, -399.2475735820609], [3062.549140971162, -401.1400135820288], [3063.9230367549785, -402.69849358204897]]]}, "properties": {"name": "", "kind": "water", "category": "agua", "extrude": false}}, {"type": "Feature", "geometry": {"type": "Polygon", "coordinates": [[[3854.7963311573053, -473.83197358200573], [3855.9739561150113, -473.0527335819957], [3854.7963311573053, -471.1602935820278], [3853.7168416128284, -472.4961335822145], [3854.7963311573053, -473.83197358200573]]]}, "properties": {"name": "", "kind": "water", "category": "agua", "extrude": false}}, {"type": "Feature", "geometry": {"type": "Polygon", "coordinates": [[[3693.559847387431, -472.16217358187123], [3701.508815850641, -482.0696535821685], [3713.775742491759, -474.9451735819636], [3706.1211802678886, -464.48109358188515], [3693.559847387431, -472.16217358187123]]]}, "properties": {"name": "", "kind": "water", "category": "agua", "extrude": false}}, {"type": "Feature", "geometry": {"type": "Polygon", "coordinates": [[[3746.6511058897745, -514.4637735818517], [3740.5667102758302, -507.116653582209], [3735.169262553794, -511.5694535820404], [3741.3517935809678, -518.9165735820786], [3746.6511058897745, -514.4637735818517]]]}, "properties": {"name": "", "kind": "water", "category": "agua", "extrude": false}}, {"type": "Feature", "geometry": {"type": "Polygon", "coordinates": [[[3659.01618196626, -567.5634135818585], [3667.2595566688096, -564.8917335818805], [3664.3154942750666, -553.3144535818442], [3655.4833070934897, -558.7691335819146], [3659.01618196626, -567.5634135818585]]]}, "properties": {"name": "", "kind": "water", "category": "agua", "extrude": false}}, {"type": "Feature", "geometry": {"type": "Polygon", "coordinates": [[[3348.3194640014826, -566.3388935821818], [3350.1840368507487, -567.4520935821396], [3352.4411513525833, -567.7860535820873], [3354.600130441537, -567.2294535819107], [3356.268432464693, -565.8936135821194], [3357.446057422399, -564.0011735821515], [3357.740463661739, -561.8860935819548], [3357.249786595941, -559.659693582039], [3355.875890812124, -557.9898935819045], [3354.0113179628584, -556.8766935819467], [3351.754203460675, -556.5427335819988], [3349.693359785299, -557.0993335821755], [3347.926922348914, -558.4351735819668], [3346.7492973912076, -560.3276135819347], [3346.454891151868, -562.4426935821315], [3347.043703630547, -564.5577735819327], [3348.3194640014826, -566.3388935821818]]]}, "properties": {"name": "", "kind": "water", "category": "agua", "extrude": false}}, {"type": "Feature", "geometry": {"type": "Polygon", "coordinates": [[[3075.3067446780783, -565.782293582005], [3073.2459010023535, -560.7728935819969], [3069.418619890244, -560.2162935822157], [3067.4559116277487, -563.6672135822038], [3070.0074323689228, -568.453973581983], [3075.3067446780783, -565.782293582005]]]}, "properties": {"name": "", "kind": "water", "category": "agua", "extrude": false}}, {"type": "Feature", "geometry": {"type": "Polygon", "coordinates": [[[3307.4951321399085, -616.0989335819194], [3310.144788294312, -617.4347735821061], [3313.088850688055, -617.6574135819395], [3315.836642255688, -616.7668535822105], [3318.093756757871, -614.8744135818471], [3319.467652541687, -612.3140535819836], [3319.6639233677975, -609.3084135820578], [3318.780704649779, -606.5254135819655], [3316.9161318001647, -604.2990135820497], [3314.266475645761, -602.963173581863], [3311.3224132520186, -602.7405335820297], [3308.574621684386, -603.6310935821541], [3306.3175071822025, -605.523533582122], [3304.9436113983857, -608.0838935819855], [3304.7473405722762, -611.0895335819113], [3305.630559290294, -613.8725335820037], [3307.4951321399085, -616.0989335819194]]]}, "properties": {"name": "", "kind": "water", "category": "agua", "extrude": false}}, {"type": "Feature", "geometry": {"type": "Polygon", "coordinates": [[[3535.7581030767487, -620.9970135822085], [3538.8984362969504, -616.5442135819817], [3539.4872487756293, -613.4272535819414], [3524.0799889143095, -600.8480935820617], [3521.5284681731355, -601.6273335820717], [3517.9955933003653, -604.7442935821119], [3518.2899995397047, -606.3027735821321], [3535.7581030767487, -620.9970135822085]]]}, "properties": {"name": "", "kind": "water", "category": "agua", "extrude": false}}, {"type": "Feature", "geometry": {"type": "Polygon", "coordinates": [[[3560.095685532526, -611.8687735819213], [3557.446029378123, -609.865013581839], [3554.2075607450406, -609.085773581829], [3550.96909211161, -609.6423735820056], [3548.1231651307476, -611.4234935818591], [3546.1604568682524, -614.0951735818371], [3545.3753735634637, -617.3234535819917], [3545.866050628913, -620.5517335821463], [3547.6324880652983, -623.4460535819576], [3550.2821442197014, -625.3384935819256], [3553.5206128531327, -626.1177335819356], [3556.7590814862147, -625.5611335821544], [3559.605008467077, -623.8913335820199], [3561.567716729572, -621.2196535820419], [3562.3528000347096, -617.9913735818873], [3561.8621229689115, -614.6517735820137], [3560.095685532526, -611.8687735819213]]]}, "properties": {"name": "", "kind": "water", "category": "agua", "extrude": false}}, {"type": "Feature", "geometry": {"type": "Polygon", "coordinates": [[[3067.750317867088, -655.617533582203], [3067.1615053884093, -634.1327735818695], [3059.4088077509605, -634.3554135820983], [3060.5864327086665, -658.8458135819621], [3067.750317867088, -655.617533582203]]]}, "properties": {"name": "", "kind": "water", "category": "agua", "extrude": false}}, {"type": "Feature", "geometry": {"type": "Polygon", "coordinates": [[[366.96561315828643, -531.1617735820106], [373.93322749024907, -505.8921335821367], [335.0716038915189, -495.0940935821104], [328.00585414632695, -520.2524135818699], [366.96561315828643, -531.1617735820106]]]}, "properties": {"name": "", "kind": "water", "category": "agua", "extrude": false}}, {"type": "Feature", "geometry": {"type": "Polygon", "coordinates": [[[-366.4003291509083, -555.8748135821032], [-363.2599959307068, -548.8616535820129], [-367.6760895214953, -546.8578935819305], [-370.81642274169684, -553.871053582021], [-366.4003291509083, -555.8748135821032]]]}, "properties": {"name": "", "kind": "water", "category": "agua", "extrude": false}}, {"type": "Feature", "geometry": {"type": "Polygon", "coordinates": [[[-1155.6053215300792, -726.6396935820454], [-1150.1097383948138, -723.077453581943], [-1154.918373638171, -717.5114535821536], [-1162.3766650359316, -721.2963335820895], [-1155.6053215300792, -726.6396935820454]]]}, "properties": {"name": "", "kind": "water", "category": "agua", "extrude": false}}, {"type": "Feature", "geometry": {"type": "Polygon", "coordinates": [[[-522.8281776777739, -741.4452535818408], [-527.146135855333, -735.4339735819893], [-535.0951043185432, -741.2226135820074], [-530.777146140984, -747.233893581859], [-522.8281776777739, -741.4452535818408]]]}, "properties": {"name": "", "kind": "water", "category": "agua", "extrude": false}}, {"type": "Feature", "geometry": {"type": "Polygon", "coordinates": [[[3707.4950760517045, -881.5971335819531], [3711.224221750585, -878.480173581913], [3699.840513827485, -864.5651735818466], [3696.0132327153756, -867.6821335818868], [3707.4950760517045, -881.5971335819531]]]}, "properties": {"name": "", "kind": "water", "category": "agua", "extrude": false}}, {"type": "Feature", "geometry": {"type": "Polygon", "coordinates": [[[3383.8444835539012, -912.6554135818452], [3387.671764666011, -910.5403335820439], [3383.353806488103, -902.636613581829], [3379.526525376342, -904.7516935820258], [3383.8444835539012, -912.6554135818452]]]}, "properties": {"name": "", "kind": "water", "category": "agua", "extrude": false}}, {"type": "Feature", "geometry": {"type": "Polygon", "coordinates": [[[3771.6756362374604, -932.2477335822109], [3775.797323588909, -930.1326535820141], [3773.736479913184, -926.1251335818495], [3769.7129279749647, -928.2402135820462], [3771.6756362374604, -932.2477335822109]]]}, "properties": {"name": "", "kind": "water", "category": "agua", "extrude": false}}, {"type": "Feature", "geometry": {"type": "Polygon", "coordinates": [[[3983.0593161162833, -952.9532535821388], [3985.0220243787785, -953.0645735818578], [3986.886597228393, -952.3966535819623], [3988.456763838319, -951.060813582171], [3989.2418471434567, -949.279693581922], [3989.438117969567, -947.2759335818397], [3988.751170077659, -945.3834935818718], [3987.377274293842, -943.9363335819661], [3985.512701444577, -943.0457735818416], [3983.549993182082, -942.9344535821226], [3981.685420332467, -943.6023735820183], [3980.1152537225407, -944.938213582205], [3979.330170417403, -946.7193335820584], [3979.1338995912934, -948.7230935821408], [3979.8208474832013, -950.6155335821087], [3981.194743267017, -952.1740135821289], [3983.0593161162833, -952.9532535821388]]]}, "properties": {"name": "", "kind": "water", "category": "agua", "extrude": false}}, {"type": "Feature", "geometry": {"type": "Polygon", "coordinates": [[[-758.0587629465766, -863.2293335820553], [-749.7172528307976, -854.5463735818304], [-758.0587629465766, -846.4200135821775], [-766.302137649475, -855.6595735821837], [-758.0587629465766, -863.2293335820553]]]}, "properties": {"name": "", "kind": "water", "category": "agua", "extrude": false}}, {"type": "Feature", "geometry": {"type": "Polygon", "coordinates": [[[-1024.1038679380185, -878.1462135819652], [-1020.1784514126796, -874.0273735820815], [-1028.3236907023484, -866.3462935820955], [-1029.8938573126236, -868.127413581949], [-1028.2255552894678, -869.6858935819691], [-1030.5808052045318, -872.0236135819993], [-1024.1038679380185, -878.1462135819652]]]}, "properties": {"name": "", "kind": "water", "category": "agua", "extrude": false}}, {"type": "Feature", "geometry": {"type": "Polygon", "coordinates": [[[-478.7653771831175, -1357.4901335819318], [-450.6986490281111, -1344.910973582052], [-357.27373572999176, -1303.1659735818525], [-354.525944162359, -1295.596213581981], [-346.2825694594607, -1271.3284535819505], [-334.2119136448013, -1198.9704535819214], [-341.5720696293327, -1157.3367735818365], [-352.5632358998638, -1130.9539335820048], [-359.33457940571634, -1128.1709335819123], [-372.8772664174214, -1101.565453581852], [-367.577954108266, -1083.420293582183], [-398.88315089635466, -1067.2788935822007], [-399.76636961437293, -1051.026173582104], [-409.7761817536564, -1035.2187335820697], [-421.8468375683158, -1033.326293582102], [-434.21189962266317, -1011.507573582216], [-434.11376420943384, -991.8039335821313], [-437.8429099083142, -962.972053582155], [-455.6054196846977, -942.2665335818316], [-464.1432006269355, -929.4647335821185], [-480.23740837981467, -918.5553735819778], [-498.09805356942763, -906.9780935819415], [-506.2432928590966, -890.0574535819493], [-507.02837616388547, -872.357573581947], [-507.7153240557936, -853.4331735818726], [-512.2295530598116, -841.9672135819507], [-514.5848029748755, -833.9521735820167], [-544.6142393920286, -864.3425335820132], [-551.4837183111105, -863.4519735818888], [-592.0136439333452, -837.6257335818382], [-610.7575078406277, -837.1804535821714], [-626.3610385280574, -842.6351335818463], [-622.4356220030668, -847.8671735820832], [-618.0195284122783, -853.6558135821014], [-583.4758629911074, -870.4651335819791], [-563.2599678864304, -895.5121335820196], [-548.343385090909, -937.8137335820002], [-530.777146140984, -964.1965735818319], [-490.05094969263934, -984.1228535821454], [-486.5180748202177, -988.9096135819245], [-482.2001166423098, -988.4643335818623], [-477.5877522254113, -999.3736935820029], [-482.5926582948787, -1003.9378135819488], [-482.2982520555392, -1055.1450135819878], [-479.25605424856707, -1074.737333581958], [-484.6535019706032, -1079.190133582185], [-471.20895037212745, -1104.4597735820587], [-460.3159195148258, -1183.496973581835], [-456.7830446420554, -1199.9723335821604], [-484.849772797062, -1196.07613358211], [-513.4071780171693, -1189.508253582082], [-525.6741046582873, -1207.8760535819797], [-535.9783230369102, -1250.400293582189], [-539.6093333225612, -1288.5830535818905], [-566.5965719330907, -1330.7733335821522], [-555.1147285967614, -1338.8996935822004], [-550.5023641798629, -1344.7996535819375], [-542.357124890194, -1349.5864135821123], [-530.8752815542134, -1354.4844935820058], [-523.1225839171133, -1358.4920135821706], [-517.8232716079577, -1366.9523335821666], [-517.234459129279, -1373.0749335821326], [-508.99108442638067, -1368.9560935818536], [-478.7653771831175, -1357.4901335819318]]]}, "properties": {"name": "Embalse del Garabato", "kind": "water", "category": "agua", "extrude": false}}, {"type": "Feature", "geometry": {"type": "Polygon", "coordinates": [[[1436.4453454325128, -1221.4570935820984], [1444.786855548292, -1208.5439735818754], [1406.9065860808091, -1192.4025735818932], [1400.9203258797454, -1201.196853581837], [1436.4453454325128, -1221.4570935820984]]]}, "properties": {"name": "", "kind": "water", "category": "agua", "extrude": false}}, {"type": "Feature", "geometry": {"type": "Polygon", "coordinates": [[[4019.0750127345004, -1004.7170535819589], [4027.318387437398, -1002.3793335819288], [4013.677565012464, -983.0096535821874], [4007.0043569198406, -987.7964135819667], [4019.0750127345004, -1004.7170535819589]]]}, "properties": {"name": "", "kind": "water", "category": "agua", "extrude": false}}, {"type": "Feature", "geometry": {"type": "Polygon", "coordinates": [[[3972.85323315089, -1172.1423335820275], [3971.6756081935323, -1170.9178135819552], [3970.2035769964864, -1170.2498935820595], [3968.535274973331, -1170.2498935820595], [3966.965108363404, -1170.8064935818406], [3965.6893479924684, -1171.9196935821942], [3965.0024001005604, -1173.4781735822141], [3965.0024001005604, -1175.1479735819532], [3965.5912125795876, -1176.7064535819734], [3966.7688375369457, -1177.9309735820457], [3968.240868733991, -1178.5988935819412], [3969.909170757147, -1178.7102135820558], [3971.479337367073, -1178.04229358216], [3972.755097738009, -1176.9290935822023], [3973.4420456295684, -1175.3706135821822], [3973.4420456295684, -1173.7008135820477], [3972.85323315089, -1172.1423335820275]]]}, "properties": {"name": "", "kind": "water", "category": "agua", "extrude": false}}, {"type": "Feature", "geometry": {"type": "Polygon", "coordinates": [[[3592.480371865092, -1175.481933581901], [3591.3027469073854, -1173.7008135820477], [3587.3773303823955, -1176.2611735819112], [3588.554955339753, -1178.04229358216], [3592.480371865092, -1175.481933581901]]]}, "properties": {"name": "", "kind": "water", "category": "agua", "extrude": false}}, {"type": "Feature", "geometry": {"type": "Polygon", "coordinates": [[[3595.424434258835, -1291.4773735820975], [3597.4852779345592, -1291.032093582035], [3598.7610383051465, -1289.2509735821816], [3599.055444544486, -1286.6906135819227], [3598.074090413238, -1284.2415735821735], [3596.307652976853, -1282.9057335819869], [3594.2468093014772, -1282.7944135818725], [3592.9710489305417, -1284.0189335819448], [3592.480371865092, -1286.2453335818605], [3592.5785072779727, -1288.0264535821093], [3593.8542676489083, -1290.1415335819106], [3595.424434258835, -1291.4773735820975]]]}, "properties": {"name": "", "kind": "water", "category": "agua", "extrude": false}}, {"type": "Feature", "geometry": {"type": "Polygon", "coordinates": [[[2016.0330953692453, -1340.6808135820538], [2020.5473243729145, -1334.6695335822023], [2012.4020850832455, -1328.546933581841], [2007.8878560795763, -1334.4468935819734], [2016.0330953692453, -1340.6808135820538]]]}, "properties": {"name": "", "kind": "water", "category": "agua", "extrude": false}}, {"type": "Feature", "geometry": {"type": "Polygon", "coordinates": [[[1437.132293324421, -1223.5721735818997], [1467.161729741574, -1240.1588535819442], [1470.6946046143441, -1235.0381335822171], [1472.6573128768393, -1213.1080935822167], [1451.1656574015756, -1205.7609735821784], [1437.132293324421, -1223.5721735818997]]]}, "properties": {"name": "", "kind": "water", "category": "agua", "extrude": false}}, {"type": "Feature", "geometry": {"type": "Polygon", "coordinates": [[[824.9635862290125, -1331.88653358211], [828.7908673407736, -1332.2204935820578], [833.2069609315622, -1330.32805358209], [834.9733983679473, -1328.212973581893], [835.3659400205161, -1324.5394135820718], [834.4827213021492, -1321.533773582146], [830.8517110164981, -1320.6432135820214], [826.6318882521683, -1322.0903735819272], [823.099013379398, -1325.2073335819673], [822.1176592481504, -1328.435613582122], [822.902742553288, -1330.105413581861], [824.9635862290125, -1331.88653358211]]]}, "properties": {"name": "", "kind": "water", "category": "agua", "extrude": false}}, {"type": "Feature", "geometry": {"type": "Polygon", "coordinates": [[[-176.21389850800938, -1524.470133581938], [-171.69966950399146, -1512.0022935821728], [-197.607418570044, -1501.7608535819277], [-199.47199141930986, -1507.6608135820602], [-199.76639765864928, -1513.338133581964], [-176.21389850800938, -1524.470133581938]]]}, "properties": {"name": "", "kind": "water", "category": "agua", "extrude": false}}, {"type": "Feature", "geometry": {"type": "Polygon", "coordinates": [[[238.9970344386475, -1526.5852135821347], [233.0107742379325, -1524.0248535818757], [232.02942010668488, -1525.249373581948], [234.28653460851953, -1532.7078135821007], [238.9970344386475, -1539.275693582129], [245.7683779445001, -1534.1549735820063], [238.9970344386475, -1526.5852135821347]]]}, "properties": {"name": "", "kind": "water", "category": "agua", "extrude": false}}, {"type": "Feature", "geometry": {"type": "Polygon", "coordinates": [[[2315.934917889602, -1467.69693358211], [2347.632656330259, -1432.7424535821676], [2333.9918339053247, -1424.6160935821192], [2332.6179381215084, -1423.8368535821091], [2308.8691681444093, -1415.1538935818844], [2268.633648761863, -1412.1482535819584], [2260.0958678196253, -1406.3596135819403], [2259.408919927717, -1395.6728935820286], [2251.5580868773873, -1380.6446935820043], [2231.2440563598298, -1360.3844535821386], [2200.233265811429, -1350.9222535819035], [2176.9751728997803, -1342.1279735819596], [2158.525715231837, -1331.88653358211], [2149.69352805026, -1322.5356535819894], [2145.9643823513798, -1306.0602935820593], [2147.338278135196, -1293.3698135820653], [2155.3853820116356, -1275.1133335818863], [2151.7543717259846, -1253.0719735821672], [2143.5109970230865, -1217.0042935818715], [2140.8613408686824, -1209.2118935821666], [2134.4825390150504, -1201.9760935818472], [2140.2725283896552, -1187.2818535821661], [2138.898632605839, -1167.2442535821338], [2128.7906850536747, -1160.119773581929], [2119.9584978720977, -1161.121653582168], [2111.5188523430893, -1165.2404935820514], [2112.6964773007953, -1171.6970535819653], [2117.4069771309237, -1200.9742135820038], [2117.6032479570335, -1219.453333582016], [2126.2391643125006, -1266.8756535821192], [2118.388331262171, -1278.341613582041], [2112.0095294088874, -1300.8282535818225], [2115.836810520648, -1314.63193358217], [2112.0095294088874, -1320.6432135820214], [2117.4069771309237, -1329.326173581851], [2112.0095294088874, -1334.335573581859], [2112.794612713676, -1341.7940135820118], [2111.22444610375, -1353.1486535822146], [2119.860362459217, -1367.1749735820001], [2125.846622659932, -1369.1787335820825], [2135.071351494078, -1376.8598135820685], [2135.4638931466466, -1382.2031735820244], [2154.1096216410483, -1397.1200535819341], [2152.931996683342, -1409.1426135820327], [2163.923162953873, -1415.9331335818943], [2175.0124646372847, -1415.1538935818844], [2185.8073600813573, -1432.6311335820533], [2180.80245401189, -1436.6386535822178], [2180.0173707067524, -1444.8763335819851], [2188.8495578883294, -1448.661213581921], [2198.0742867224753, -1461.0177335819671], [2204.6493594022177, -1476.157253582106], [2215.9349319117396, -1487.5118935819135], [2225.1596607458855, -1490.9628135819014], [2241.548274738453, -1502.985373582], [2255.4835034027265, -1501.2042535821465], [2270.498221611129, -1512.0022935821728], [2315.934917889602, -1467.69693358211]]]}, "properties": {"name": "Embalse Agulo", "kind": "water", "category": "agua", "extrude": false}}, {"type": "Feature", "geometry": {"type": "Polygon", "coordinates": [[[-1052.0724606794472, -1536.4926935820365], [-1045.0067109342551, -1532.7078135821007], [-1049.9134815908417, -1530.592733581904], [-1054.6239814209698, -1533.2644135818819], [-1052.0724606794472, -1536.4926935820365]]]}, "properties": {"name": "", "kind": "water", "category": "agua", "extrude": false}}, {"type": "Feature", "geometry": {"type": "Polygon", "coordinates": [[[-198.3925018748329, -1608.18277358217], [-195.0558978285213, -1599.2771735821116], [-195.74284572042947, -1599.0545335818829], [-202.31791840017198, -1601.280933582194], [-205.85079327259362, -1605.9563735818588], [-198.3925018748329, -1608.18277358217]]]}, "properties": {"name": "", "kind": "water", "category": "agua", "extrude": false}}, {"type": "Feature", "geometry": {"type": "Polygon", "coordinates": [[[-205.45825162002487, -1602.2828135820375], [-206.53774116450182, -1601.3922535819129], [-214.38857421483135, -1604.1752535820053], [-216.35128247732655, -1610.1865335818568], [-210.5612931027216, -1609.7412535821902], [-205.45825162002487, -1602.2828135820375]]]}, "properties": {"name": "", "kind": "water", "category": "agua", "extrude": false}}, {"type": "Feature", "geometry": {"type": "Polygon", "coordinates": [[[-1809.3834437918504, -1663.0635335820302], [-1807.5188709425845, -1661.50505358201], [-1806.1449751587681, -1658.7220535819179], [-1805.4580272668602, -1655.4937735821586], [-1808.5002250738323, -1654.157933581972], [-1812.0330999466025, -1655.1598135822107], [-1813.799537382639, -1657.8314935821888], [-1812.6219124252816, -1662.618253581968], [-1809.3834437918504, -1663.0635335820302]]]}, "properties": {"name": "", "kind": "water", "category": "agua", "extrude": false}}, {"type": "Feature", "geometry": {"type": "Polygon", "coordinates": [[[-53.93717374974602, -1677.8690935818256], [-51.87633007402145, -1658.0541335820221], [-67.77426700079054, -1657.3862135821266], [-68.16680865335931, -1676.9785335820966], [-53.93717374974602, -1677.8690935818256]]]}, "properties": {"name": "", "kind": "water", "category": "agua", "extrude": false}}, {"type": "Feature", "geometry": {"type": "Polygon", "coordinates": [[[-1811.1498812282357, -1729.0762935818645], [-1810.6592041627862, -1709.5952935820087], [-1819.8839329965833, -1709.3726535821754], [-1820.3746100623814, -1728.7423335819167], [-1811.1498812282357, -1729.0762935818645]]]}, "properties": {"name": "", "kind": "water", "category": "agua", "extrude": false}}, {"type": "Feature", "geometry": {"type": "Polygon", "coordinates": [[[286.7889806321841, -1743.1026135820455], [290.8125325704039, -1747.221453581929], [296.5043865321282, -1742.3233735820354], [296.01370946633006, -1735.310213581945], [289.6349076130462, -1733.0838135820293], [285.7094910877072, -1740.0969735821197], [286.7889806321841, -1743.1026135820455]]]}, "properties": {"name": "", "kind": "water", "category": "agua", "extrude": false}}, {"type": "Feature", "geometry": {"type": "Polygon", "coordinates": [[[497.19130637975996, -1744.9950535820133], [500.82231666541105, -1740.4309335820674], [496.7987647271912, -1737.0913335821938], [493.16775444154024, -1741.5441335820253], [497.19130637975996, -1744.9950535820133]]]}, "properties": {"name": "", "kind": "water", "category": "agua", "extrude": false}}, {"type": "Feature", "geometry": {"type": "Polygon", "coordinates": [[[375.89593575309294, -1746.2195735820856], [379.1344043861751, -1740.4309335820674], [371.57797757518506, -1735.9781335818407], [367.94696728953403, -1745.55165358219], [375.89593575309294, -1746.2195735820856]]]}, "properties": {"name": "", "kind": "water", "category": "agua", "extrude": false}}, {"type": "Feature", "geometry": {"type": "Polygon", "coordinates": [[[612.9910938711615, -1768.8175335819815], [615.2482083733449, -1768.4835735820338], [618.5848124196565, -1764.8100135822124], [616.8183749832713, -1763.2515335821922], [612.009739739914, -1767.370373582076], [612.9910938711615, -1768.8175335819815]]]}, "properties": {"name": "", "kind": "water", "category": "agua", "extrude": false}}, {"type": "Feature", "geometry": {"type": "Polygon", "coordinates": [[[-1731.3657903547023, -1773.2703335822084], [-1729.1086758528677, -1772.4910935821983], [-1721.1597073893088, -1768.0382935819714], [-1721.061571976428, -1766.5911335820658], [-1722.2391969337857, -1765.5892535818268], [-1727.6366446558218, -1765.3666135819935], [-1733.328498617546, -1766.4798135819515], [-1731.3657903547023, -1773.2703335822084]]]}, "properties": {"name": "", "kind": "water", "category": "agua", "extrude": false}}, {"type": "Feature", "geometry": {"type": "Polygon", "coordinates": [[[-2273.85835412909, -1841.7321335821873], [-2272.5825937585028, -1831.268053582109], [-2283.4756246158045, -1830.3774935819845], [-2283.671895441915, -1842.4000535820828], [-2273.85835412909, -1841.7321335821873]]]}, "properties": {"name": "", "kind": "water", "category": "agua", "extrude": false}}, {"type": "Feature", "geometry": {"type": "Polygon", "coordinates": [[[-1897.9015864337318, -1893.3846135818928], [-1893.191086603604, -1895.722333581923], [-1888.9712638392741, -1886.482773581917], [-1897.312773955053, -1881.139413581961], [-1902.0232737851811, -1886.9280535819792], [-1897.9015864337318, -1893.3846135818928]]]}, "properties": {"name": "", "kind": "water", "category": "agua", "extrude": false}}, {"type": "Feature", "geometry": {"type": "Polygon", "coordinates": [[[494.5416502253566, -1892.8280135821117], [490.125556634568, -1892.4940535821638], [489.3404733294305, -1903.0694535819614], [493.7565669202191, -1903.403413581909], [494.5416502253566, -1892.8280135821117]]]}, "properties": {"name": "", "kind": "water", "category": "agua", "extrude": false}}, {"type": "Feature", "geometry": {"type": "Polygon", "coordinates": [[[691.6956952002181, -1922.9957335818792], [698.5651741193001, -1911.3071335821242], [673.9331854241832, -1908.1901735820838], [675.1108103815408, -1920.3240535819014], [691.6956952002181, -1922.9957335818792]]]}, "properties": {"name": "", "kind": "water", "category": "agua", "extrude": false}}, {"type": "Feature", "geometry": {"type": "Polygon", "coordinates": [[[-3093.3871891651015, -1922.8844135821603], [-3090.6393975974693, -1930.5654935821465], [-3085.928897767341, -1932.7918935820621], [-3052.1703156509593, -1920.9919735821925], [-3055.016242631821, -1905.184533582158], [-3056.4882738285182, -1897.1694935818286], [-3098.2939598213397, -1908.969413582094], [-3093.3871891651015, -1922.8844135821603]]]}, "properties": {"name": "", "kind": "water", "category": "agua", "extrude": false}}, {"type": "Feature", "geometry": {"type": "Polygon", "coordinates": [[[-1978.7651668517424, -1944.5918135819318], [-1983.4756666818703, -1937.0220535820602], [-1995.3500516704196, -1944.257853581984], [-1990.7376872535212, -1951.8276135818555], [-1978.7651668517424, -1944.5918135819318]]]}, "properties": {"name": "", "kind": "water", "category": "agua", "extrude": false}}, {"type": "Feature", "geometry": {"type": "Polygon", "coordinates": [[[-2167.7739725372835, -1988.229253582099], [-2169.736680799779, -1983.999093582101], [-2173.662097324769, -1986.0028535821832], [-2172.190066128072, -1990.7896135819626], [-2167.7739725372835, -1988.229253582099]]]}, "properties": {"name": "", "kind": "water", "category": "agua", "extrude": false}}, {"type": "Feature", "geometry": {"type": "Polygon", "coordinates": [[[-2152.955525154643, -2032.534613582162], [-2147.9506190851753, -2029.7516135820695], [-2142.45503594991, -2023.0724135819269], [-2146.2823170620195, -2021.959213581969], [-2152.4648480891933, -2026.3006935820815], [-2154.623827177799, -2031.198773581975], [-2152.955525154643, -2032.534613582162]]]}, "properties": {"name": "", "kind": "water", "category": "agua", "extrude": false}}, {"type": "Feature", "geometry": {"type": "Polygon", "coordinates": [[[3216.719874996193, -1899.2845735820256], [3213.7758126021013, -1893.3846135818928], [3195.915167412837, -1901.6222935820556], [3198.761094393699, -1907.076973582126], [3216.719874996193, -1899.2845735820256]]]}, "properties": {"name": "", "kind": "water", "category": "agua", "extrude": false}}, {"type": "Feature", "geometry": {"type": "Polygon", "coordinates": [[[2857.2498567062826, -2051.125053581893], [2855.875960922815, -2049.455253582154], [2853.913252659971, -2048.342053582196], [2851.754273571366, -2048.008093581853], [2849.595294482412, -2048.676013582144], [2847.8288570460268, -2050.011853581935], [2846.74936750155, -2051.904293581903], [2846.4549612622104, -2054.1306935822145], [2846.8475029147794, -2055.4665335820055], [2847.0437737412376, -2056.2457735820158], [2848.4176695250544, -2058.026893581869], [2850.3803777875496, -2059.140093581827], [2852.5393568761547, -2059.3627335820556], [2854.6983359651085, -2058.8061335818793], [2856.464773401494, -2057.3589735819733], [2857.544262945971, -2055.4665335820055], [2857.83866918531, -2053.24013358209], [2857.2498567062826, -2051.125053581893]]]}, "properties": {"name": "", "kind": "water", "category": "agua", "extrude": false}}, {"type": "Feature", "geometry": {"type": "Polygon", "coordinates": [[[2552.8338051819087, -2080.7361735818795], [2555.679732162771, -2081.1814535819417], [2556.2685446414494, -2081.8493735818374], [2559.408877861651, -2081.8493735818374], [2559.899554927101, -2071.496613581873], [2560.9790444715777, -2063.4815735819393], [2560.0958257535594, -2061.477813581857], [2553.030076008019, -2061.255173582024], [2552.8338051819087, -2080.7361735818795]]]}, "properties": {"name": "", "kind": "water", "category": "agua", "extrude": false}}, {"type": "Feature", "geometry": {"type": "Polygon", "coordinates": [[[2609.4579385570223, -2088.751213582209], [2606.6120115761605, -2092.758733581978], [2611.911323885316, -2097.6568135818716], [2614.757250865829, -2095.8756935820184], [2619.860292348526, -2085.522933582054], [2615.8367404103064, -2083.2965335821386], [2609.4579385570223, -2088.751213582209]]]}, "properties": {"name": "", "kind": "water", "category": "agua", "extrude": false}}, {"type": "Feature", "geometry": {"type": "Polygon", "coordinates": [[[2654.5020931829263, -2113.686893582135], [2658.329374295036, -2116.2472535819984], [2658.231238881807, -2103.2228135820565], [2653.12819739911, -2103.7794135818376], [2654.5020931829263, -2113.686893582135]]]}, "properties": {"name": "", "kind": "water", "category": "agua", "extrude": false}}, {"type": "Feature", "geometry": {"type": "Polygon", "coordinates": [[[3130.851388508715, -2251.7236935820506], [3127.0241073966054, -2235.137013582006], [3101.018222917672, -2237.474733582036], [3108.1821080760933, -2253.950093581966], [3130.851388508715, -2251.7236935820506]]]}, "properties": {"name": "", "kind": "water", "category": "agua", "extrude": false}}, {"type": "Feature", "geometry": {"type": "Polygon", "coordinates": [[[-2393.976099798399, -2085.522933582054], [-2368.362756971686, -2066.375893582146], [-2400.8455787171324, -2055.0212535819433], [-2409.775901311939, -2062.924973582158], [-2393.976099798399, -2085.522933582054]]]}, "properties": {"name": "", "kind": "water", "category": "agua", "extrude": false}}, {"type": "Feature", "geometry": {"type": "Polygon", "coordinates": [[[-2190.5413883831343, -2112.017093582], [-2186.4197010316857, -2092.5360935821445], [-2195.9388361051706, -2090.532333582062], [-2200.0605234562713, -2110.0133335819182], [-2190.5413883831343, -2112.017093582]]]}, "properties": {"name": "", "kind": "water", "category": "agua", "extrude": false}}, {"type": "Feature", "geometry": {"type": "Polygon", "coordinates": [[[657.4464360183865, -2205.5258935820198], [649.1049259026076, -2220.3314535822105], [644.4925614857091, -2231.7974135821323], [647.9273009449013, -2241.7048935820344], [667.9469252231196, -2262.410413581962], [676.877247817926, -2272.317893581864], [692.4807785053557, -2278.3291735821113], [714.6593818725279, -2269.8688535821148], [710.2432882817393, -2250.499173581978], [706.1216009302901, -2236.1388935818495], [688.8497682197047, -2243.15205358194], [677.8586019491737, -2241.8162135821485], [672.3630188139082, -2231.7974135821323], [671.2835292697797, -2222.6691735818454], [676.9753832311553, -2212.873013582058], [687.4758724358883, -2200.293853582178], [692.6770493318144, -2187.714693581903], [679.6250393855588, -2189.8297735820997], [665.9842169606243, -2191.944853581901], [657.4464360183865, -2205.5258935820198]]]}, "properties": {"name": "Embalse de Amalahuigue", "kind": "water", "category": "agua", "extrude": false}}, {"type": "Feature", "geometry": {"type": "Polygon", "coordinates": [[[-231.07159444673798, -2259.8500535820986], [-226.36109461661, -2259.293453581922], [-219.4916156975281, -2258.291573582079], [-219.7860219368675, -2255.285933582153], [-229.50142783646288, -2256.176493581882], [-231.3660006860774, -2258.1802535819643], [-231.07159444673798, -2259.8500535820986]]]}, "properties": {"name": "", "kind": "water", "category": "agua", "extrude": false}}, {"type": "Feature", "geometry": {"type": "Polygon", "coordinates": [[[2544.296024239671, -2649.3587335818675], [2544.8848367183496, -2648.6908135819717], [2544.6885658922397, -2647.577613582014], [2543.805347174222, -2646.5757335821704], [2535.3657016452134, -2638.1154135821744], [2534.1880766875065, -2637.781453581831], [2530.6552018147368, -2640.787093582152], [2530.360795575397, -2641.4550135820477], [2530.4589309886264, -2642.345573582172], [2538.996711930864, -2650.694573582054], [2544.296024239671, -2649.3587335818675]]]}, "properties": {"name": "", "kind": "water", "category": "agua", "extrude": false}}, {"type": "Feature", "geometry": {"type": "Polygon", "coordinates": [[[3036.15071483966, -2665.5001335818492], [3040.861214669788, -2662.605813582038], [3038.113423102155, -2658.1530135822068], [3033.4029232720272, -2660.9360135819034], [3036.15071483966, -2665.5001335818492]]]}, "properties": {"name": "", "kind": "water", "category": "agua", "extrude": false}}, {"type": "Feature", "geometry": {"type": "Polygon", "coordinates": [[[1820.7436232436496, -2756.003293581943], [1840.4688412821797, -2759.120253581983], [1841.9408724792256, -2749.5467335820294], [1822.215654440347, -2746.5410935821037], [1820.7436232436496, -2756.003293581943]]]}, "properties": {"name": "", "kind": "water", "category": "agua", "extrude": false}}, {"type": "Feature", "geometry": {"type": "Polygon", "coordinates": [[[2041.3520319562704, -2782.9427335819514], [2044.492365176472, -2779.825773581911], [2036.8378029522523, -2772.8126135822163], [2033.9918759717389, -2775.818253582142], [2041.3520319562704, -2782.9427335819514]]]}, "properties": {"name": "", "kind": "water", "category": "agua", "extrude": false}}, {"type": "Feature", "geometry": {"type": "Polygon", "coordinates": [[[2676.582561136869, -2821.6820935818296], [2686.1016962103545, -2809.7708535818456], [2684.4333941871987, -2808.1010535821065], [2667.0634260633838, -2798.1935735822044], [2655.777853553513, -2793.5181335821444], [2647.9270205035327, -2808.6576535818876], [2676.582561136869, -2821.6820935818296]]]}, "properties": {"name": "", "kind": "water", "category": "agua", "extrude": false}}, {"type": "Feature", "geometry": {"type": "Polygon", "coordinates": [[[2629.5756982484704, -2820.4575735821527], [2640.861270757992, -2823.685853581912], [2641.35194782379, -2818.4538135820703], [2631.047729445167, -2817.0066535821647], [2629.5756982484704, -2820.4575735821527]]]}, "properties": {"name": "", "kind": "water", "category": "agua", "extrude": false}}, {"type": "Feature", "geometry": {"type": "Polygon", "coordinates": [[[2774.2272971996667, -2820.234933581924], [2771.872047284603, -2814.223653582072], [2760.095797709283, -2818.4538135820703], [2759.016308164806, -2819.678333582143], [2763.4324017555946, -2826.6914935818377], [2774.2272971996667, -2820.234933581924]]]}, "properties": {"name": "", "kind": "water", "category": "agua", "extrude": false}}, {"type": "Feature", "geometry": {"type": "Polygon", "coordinates": [[[2447.73077772135, -2824.79905358187], [2457.4461836209452, -2823.351893581964], [2463.432443822009, -2822.4613335818394], [2464.1193917139176, -2820.680213581986], [2461.469735559165, -2816.5613735821025], [2450.282298462524, -2818.4538135820703], [2445.081121566947, -2825.133013582213], [2447.73077772135, -2824.79905358187]]]}, "properties": {"name": "", "kind": "water", "category": "agua", "extrude": false}}, {"type": "Feature", "geometry": {"type": "Polygon", "coordinates": [[[-2221.8465851708747, -2587.130853581969], [-2216.9398145146365, -2577.8912935819626], [-2224.6925121517365, -2573.772453582079], [-2229.5992828079748, -2583.1233335821994], [-2221.8465851708747, -2587.130853581969]]]}, "properties": {"name": "", "kind": "water", "category": "agua", "extrude": false}}, {"type": "Feature", "geometry": {"type": "Polygon", "coordinates": [[[-1765.4187787104236, -2605.3873335821477], [-1765.3206432971942, -2595.8138135821937], [-1774.1528304787714, -2595.8138135821937], [-1774.6435075445695, -2602.6043335820555], [-1765.4187787104236, -2605.3873335821477]]]}, "properties": {"name": "", "kind": "water", "category": "agua", "extrude": false}}, {"type": "Feature", "geometry": {"type": "Polygon", "coordinates": [[[-2382.1998502227307, -2972.075413582187], [-2379.1576524157585, -2975.081053582113], [-2374.8396942381996, -2977.530093581862], [-2371.5030901918876, -2972.5206935818537], [-2376.998673327153, -2968.0678935820224], [-2381.0222252653725, -2965.8414935821065], [-2383.8681522462352, -2968.958453582147], [-2382.1998502227307, -2972.075413582187]]]}, "properties": {"name": "", "kind": "water", "category": "agua", "extrude": false}}, {"type": "Feature", "geometry": {"type": "Polygon", "coordinates": [[[2553.618888487046, -2868.5478135821513], [2554.6002426182936, -2866.0987735820067], [2551.9505864638904, -2865.2082135818823], [2550.9692323326426, -2867.657253582027], [2553.618888487046, -2868.5478135821513]]]}, "properties": {"name": "", "kind": "water", "category": "agua", "extrude": false}}, {"type": "Feature", "geometry": {"type": "Polygon", "coordinates": [[[2655.777853553513, -2880.347733582021], [2662.9417387119347, -2883.464693582061], [2664.806311561549, -2880.1250935821877], [2658.0349680556965, -2875.6722935819607], [2655.777853553513, -2880.347733582021]]]}, "properties": {"name": "", "kind": "water", "category": "agua", "extrude": false}}, {"type": "Feature", "geometry": {"type": "Polygon", "coordinates": [[[2803.76605655137, -2929.99645358204], [2803.0791086594622, -2921.3134935822104], [2799.4480983738113, -2921.5361335820435], [2800.2331816789488, -2930.3304135819876], [2803.76605655137, -2929.99645358204]]]}, "properties": {"name": "", "kind": "water", "category": "agua", "extrude": false}}, {"type": "Feature", "geometry": {"type": "Polygon", "coordinates": [[[-3117.8229070341085, -3206.070053581871], [-3118.509854925668, -3221.5435335819575], [-3105.261574153651, -3216.756773582178], [-3104.280220022055, -3215.4209335819914], [-3116.547146663173, -3205.2908135818607], [-3117.8229070341085, -3206.070053581871]]]}, "properties": {"name": "", "kind": "water", "category": "agua", "extrude": false}}, {"type": "Feature", "geometry": {"type": "Polygon", "coordinates": [[[-2253.2499173721926, -3044.3220935821014], [-2255.703302700137, -3030.407093582035], [-2259.3343129861373, -3030.295773581921], [-2266.1056564919895, -3040.4258935820512], [-2253.2499173721926, -3044.3220935821014]]]}, "properties": {"name": "", "kind": "water", "category": "agua", "extrude": false}}, {"type": "Feature", "geometry": {"type": "Polygon", "coordinates": [[[-2309.8740507473062, -3071.372853581829], [-2308.6964257896, -3072.7086935820157], [-2307.0281237664444, -3071.9294535820054], [-2306.243040461307, -3070.259653581871], [-2306.6355821138754, -3068.3672135819033], [-2307.813207071582, -3067.476653582174], [-2308.7945612028298, -3068.3672135819033], [-2309.775915334077, -3070.0370135820376], [-2309.8740507473062, -3071.372853581829]]]}, "properties": {"name": "", "kind": "water", "category": "agua", "extrude": false}}, {"type": "Feature", "geometry": {"type": "Polygon", "coordinates": [[[-2327.930966762681, -3121.46685358191], [-2317.2342067318377, -3112.3386135820183], [-2324.9869043689378, -3107.4405335821248], [-2333.426549897946, -3116.346133582183], [-2327.930966762681, -3121.46685358191]]]}, "properties": {"name": "", "kind": "water", "category": "agua", "extrude": false}}]}