{"type": "FeatureCollection", "crs": {"type": "name", "properties": {"name": "EPSG:32628_local_enu_m_section_centroid", "lng0": -16.71344342772926, "lat0": 28.36566502197799}}, "features": [{"type": "Feature", "geometry": {"type": "Point", "coordinates": [-117.69903871713319, 391.5148865896093]}, "properties": {"osm_id": null, "category": "restauracion", "name": "Apartamentos Estrella del Norte", "extrude": false}}, {"type": "Feature", "geometry": {"type": "Point", "coordinates": [-125.33946555063056, 369.0282465898278]}, "properties": {"osm_id": null, "category": "salud", "name": "", "extrude": false}}, {"type": "Feature", "geometry": {"type": "Point", "coordinates": [285.1865454725308, -228.64883341036517]}, "properties": {"osm_id": null, "category": "restauracion", "name": "La Tasquita", "extrude": false}}, {"type": "Feature", "geometry": {"type": "Point", "coordinates": [-364.9354147185076, -241.67327341030713]}, "properties": {"osm_id": null, "category": "finanzas", "name": "Banco Santander", "extrude": false}}, {"type": "Feature", "geometry": {"type": "Point", "coordinates": [-337.11642470910454, -252.13735341038557]}, "properties": {"osm_id": null, "category": "finanzas", "name": "BBVA", "extrude": false}}, {"type": "Feature", "geometry": {"type": "Point", "coordinates": [-71.9544319053806, -278.74283341044617]}, "properties": {"osm_id": null, "category": "restauracion", "name": "Rincon de mary", "extrude": false}}, {"type": "Feature", "geometry": {"type": "Point", "coordinates": [419.38378601237514, -286.0899534100889]}, "properties": {"osm_id": null, "category": "publico", "name": "Colegio de Educación Infantil y Primaria Emeterio Gutiérrez Albelo", "extrude": false}}, {"type": "Feature", "geometry": {"type": "Point", "coordinates": [-316.0562738214139, -306.2388734102358]}, "properties": {"osm_id": null, "category": "finanzas", "name": "Caixabank", "extrude": false}}, {"type": "Feature", "geometry": {"type": "Point", "coordinates": [-289.31477990365113, -309.4671534103904]}, "properties": {"osm_id": null, "category": "finanzas", "name": "CajaCanarias", "extrude": false}}, {"type": "Feature", "geometry": {"type": "Point", "coordinates": [-221.53048030249536, -387.836433410271]}, "properties": {"osm_id": null, "category": "restauracion", "name": "La Tentatción", "extrude": false}}, {"type": "Feature", "geometry": {"type": "Point", "coordinates": [-195.08284895521152, -390.9533934103112]}, "properties": {"osm_id": null, "category": "restauracion", "name": "San Augustine 80 Cafeteria - Restaurante", "extrude": false}}]}