{"type": "FeatureCollection", "crs": {"type": "name", "properties": {"name": "EPSG:32628_local_enu_m_section_centroid", "lng0": -15.426347189232, "lat0": 28.10466813143311}}, "features": [{"type": "Feature", "geometry": {"type": "Polygon", "coordinates": [[[-225.33843615289763, -48.95012886609816], [-225.0354779590505, -48.95012886609816], [-225.3251108519084, -45.99498766169233], [-221.6608984228832, -45.47573527318404], [-221.6608984228832, -45.100030273562936], [-218.60424025196727, -44.666873876425036], [-218.60424025196727, -45.35040910209518], [-216.08101739236315, -45.007147913083294], [-216.07582207274203, -45.07389891351924], [-211.2379425906363, -44.388327178283824], [-205.59055914651543, -43.85480328126363], [-205.68664484713997, -42.87443530441216], [-199.92756315656058, -42.12109883651446], [-200.0068767693711, -41.491688865945484], [-199.91582629967698, -41.491688865945484], [-200.69154483928318, -36.105294960456725], [-199.49826189653535, -35.87982949630645], [-199.90847939577264, -33.089514203589594], [-195.68197524583786, -32.42403168885433], [-195.58221774835343, -33.10258604431596], [-192.040144193382, -32.65641342803384], [-192.0233301162517, -32.789845098027115], [-184.9725969393275, -32.141745642879606], [-185.1108145684322, -31.514971205156485], [-183.6355027270307, -31.362923808208564], [-175.94977702539973, -30.782050438600972], [-176.4898074281887, -25.0680162682789], [-176.62594394649255, -23.833341785468427], [-175.63892836111174, -23.72144648242946], [-175.6428341170135, -23.6804888658288], [-172.8255024051487, -23.6804888658288], [-173.09154339245293, -21.267660756707023], [-168.23937746008363, -20.792285567434583], [-161.59803619092344, -20.138989642013502], [-161.74167067445777, -19.48765143430465], [-158.5094568930869, -19.19450952630025], [-158.5094568930869, -19.575388361902622], [-151.55769208565783, -18.787285478439347], [-151.60824730522106, -18.50072001295859], [-148.39546557605024, -18.063650702130655], [-148.39546557605024, -18.63836467413043], [-144.69667945707383, -18.307321434753277], [-143.98325709675407, -26.27965779415326], [-143.7187445779168, -26.879399255429362], [-146.78466369541212, -27.265593706904635], [-146.6893627847295, -28.12991434522709], [-161.32980448271476, -29.532517873304336], [-161.33638178420142, -29.472865794549264], [-169.39623712459388, -30.247208275363693], [-168.29370316162536, -41.74640886588325], [-169.15378432403662, -41.74640886588325], [-173.15301773781837, -42.11401616734266], [-173.15301773781837, -40.76334356758127], [-185.9806863091035, -42.000993179230434], [-186.08380441313713, -40.94887318207205], [-194.0021730852132, -41.91067764510037], [-193.17492552949022, -48.47547581711722], [-192.93288921572068, -50.2590112118525], [-193.6164928113651, -50.36972307123698], [-193.51649827996795, -51.04988973933081], [-196.51956024830469, -51.42816647302339], [-200.9293039699231, -52.053067458332244], [-200.9293039699231, -52.17305225239277], [-206.90392257262036, -52.850378698095675], [-206.75527721019952, -53.60869732484334], [-219.30400401128446, -55.16772791689506], [-219.259968033908, -55.61702954842942], [-224.46433601562688, -56.25833955300815], [-225.33843615289763, -48.95012886609816]]]}, "properties": {"id": 0, "height_median_m": 24.0, "building_count": 25, "area_m2": 915.8407873786425}}, {"type": "Feature", "geometry": {"type": "Polygon", "coordinates": [[[-216.08808689010326, -12.024814369205115], [-212.5972561792647, -11.703939160211112], [-212.70495441512747, -11.459749972030549], [-207.62937680356305, -11.219998061794282], [-207.64477251931646, -11.019280408575463], [-207.30598863166452, -10.991846824034525], [-202.45752559498206, -10.357626957161115], [-199.73433080964855, -10.10035923202588], [-196.06266436039226, -9.897311937875289], [-196.159932168652, -8.794612949277651], [-192.24549394465495, -8.46178594741654], [-192.24614107173585, -8.456650533416045], [-190.66934556664597, -8.344927366696574], [-190.76484110250954, -7.478841596546866], [-190.764094431556, -7.47873578644891], [-191.35325897437335, -2.0240557863682196], [-190.4365376788276, -1.8941480008827876], [-190.87798242650953, 1.1085762432968354], [-186.494772672932, 1.5114784354439346], [-186.494772672932, 0.9558550232232406], [-182.95978541655808, 1.2898150231710488], [-182.95978541655808, 0.6360357838794767], [-180.44681945495213, 0.9647529310597188], [-179.58510430564337, -7.094699243658322], [-184.77717129957045, -7.530707150834352], [-184.00768831261837, -16.254128866175996], [-184.59685285540164, -16.254128866175996], [-184.50168137717145, -17.33306232297955], [-191.99364173834445, -18.040848489859854], [-191.99364173834445, -18.230692676230454], [-197.78709307525222, -18.69982696246686], [-197.78709307525222, -19.68486062860198], [-210.20769881645685, -20.85041738777591], [-210.12625189272424, -21.68142507414912], [-215.34986559073963, -22.067634013095397], [-216.08808689010326, -12.024814369205115]]]}, "properties": {"id": 1, "height_median_m": 27.0, "building_count": 11, "area_m2": 400.4300298572773}}, {"type": "Feature", "geometry": {"type": "Polygon", "coordinates": [[[-143.05860190601558, 4.483471133856403], [-142.7615634777043, 4.483471133856403], [-143.14703739736268, 7.433230703061968], [-139.54467270908705, 7.985109619428181], [-139.64328799795993, 8.432299624310842], [-136.69064183086616, 8.868908611058808], [-136.59244774030955, 8.423628610996571], [-135.40433096153464, 8.599315921145811], [-129.59521589542513, 9.280588770907851], [-129.70048679029017, 9.996645468552588], [-123.63475069200102, 10.85621570749001], [-123.72763699378154, 11.330077869502539], [-122.98442702696553, 11.435397514004292], [-120.97884361536451, 11.719607012476642], [-117.82701768934716, 12.166249550764503], [-117.9179937167572, 12.785072007571369], [-117.91695348067952, 12.785203039534421], [-118.69537719238126, 18.190380977427562], [-117.78842225063596, 18.447428585222166], [-118.32085494650443, 21.465451739675782], [-114.12572800703776, 22.008983466388738], [-114.12572800703776, 21.57485227262977], [-105.12302615253589, 22.992369081147572], [-105.17765302011735, 23.240085124349317], [-102.04785488113707, 23.683606123901857], [-102.04785488113707, 23.254427993968545], [-94.99052173501639, 24.534541405705525], [-94.99052173501639, 24.807082290153613], [-92.09651925776356, 25.23501961123027], [-91.99863421834235, 24.68017142586265], [-88.35562110828339, 25.238277643024883], [-87.07410422605534, 16.521350260516602], [-90.06827584310905, 16.144193388178927], [-89.88584439980465, 15.420331711764264], [-93.74618519402522, 14.857656268755566], [-97.14656835128858, 14.362023317831397], [-97.49620685841063, 14.311060718316263], [-97.49629649566783, 14.311772053753188], [-104.46807691803072, 13.309892053514684], [-104.50757770544867, 13.623358917085476], [-112.18005691453921, 12.579588911242107], [-110.81168059640584, 3.7150664118276264], [-114.22519316303365, 3.1197114255085268], [-118.74085025848755, 2.4928609324635977], [-118.74085025848755, 2.159772541681304], [-120.29418648410817, 1.9396506025624514], [-124.57065538661786, 1.2214109277618517], [-124.50577371630875, 0.48586487703450043], [-127.68273944214636, 0.11328136491495192], [-131.01377347799766, -0.4420574172970981], [-136.82924710601165, -1.3838925690921515], [-136.7595811785683, -1.8314367717269344], [-142.07148164576148, -2.7283242418183624], [-143.05860190601558, 4.483471133856403]]]}, "properties": {"id": 2, "height_median_m": 24.0, "building_count": 20, "area_m2": 599.3699402956099}}, {"type": "Feature", "geometry": {"type": "Polygon", "coordinates": [[[-104.9574606449848, -3.6904248988297623], [-103.93159535935963, -3.561203133176563], [-104.58724228958621, -0.5880459529776225], [-100.34537949607805, 0.07985485129229289], [-100.24718540569545, -0.47674514888694725], [-91.16095220732154, 0.9539240537959359], [-91.16095220732154, 1.2223845898118497], [-88.27761134894823, 1.5066251113950284], [-88.20780063824222, 1.1900550087896957], [-81.19037478866377, 2.0739957856690423], [-81.31694413127823, 2.647948827729928], [-78.08849680992553, 3.0871492978634385], [-78.08849680992553, 2.5357922569086204], [-74.41256097349256, 3.084122469219762], [-73.13194991727165, -5.5056605905009], [-76.18152838482328, -6.017842088107931], [-76.08980462685982, -6.8497201516487225], [-87.88121847529011, -8.608616049106788], [-87.97586594690651, -8.394017461932169], [-90.5285524142732, -8.857043383397134], [-90.57677038126374, -8.419736082665482], [-98.52892493310397, -9.501553337168808], [-97.63241093813518, -16.412759242948262], [-97.47570944368798, -17.478648865852797], [-97.89451311085494, -17.478648865852797], [-97.8002520744661, -18.654122090681273], [-104.99367759469482, -19.659532197609145], [-104.99367759469482, -19.880215547344218], [-107.9946102570225, -20.31919318185069], [-107.99367906352538, -20.326103015492887], [-110.92682869652361, -20.695573334221166], [-110.854355902743, -21.4350174515811], [-123.30242681135292, -23.22386800687972], [-123.22694428841324, -23.99402056674025], [-128.42349509339766, -24.76243664322963], [-129.3930375119737, -17.679063104289607], [-129.09814800372166, -17.567627002554417], [-129.50098715392804, -14.599155570782187], [-125.92166022859365, -14.148290382891657], [-125.92166022859365, -13.485150273494249], [-122.9193682230754, -13.059698058837048], [-122.87822225896784, -13.339574497293304], [-115.97625190617597, -12.53013537313965], [-116.0616355500302, -12.046149667221698], [-109.91137162187948, -11.174601062306323], [-109.96347460865103, -10.820194531489872], [-104.67267565676858, -10.07043996822719], [-104.87297968536947, -9.048583157077433], [-104.17006434895684, -8.934743697513522], [-104.9574606449848, -3.6904248988297623]]]}, "properties": {"id": 3, "height_median_m": 24.0, "building_count": 20, "area_m2": 601.7434149557514}}, {"type": "Feature", "geometry": {"type": "Polygon", "coordinates": [[[8.069414289634679, -8.13948058428645], [8.418329274987398, -8.098561045994735], [8.763628401612035, -8.049629004095065], [8.764734420598263, -8.057935852995527], [14.116824514733423, -7.43026130549429], [29.582038841775713, -5.531837994504618], [29.531809496521667, -5.474894336431633], [30.22193399859578, -5.425995861989946], [30.397069979061357, -5.397632011703013], [30.410315557445866, -5.412648167750673], [34.95596363248775, -5.090568230651921], [37.92880006125364, -4.965745092652716], [38.471011841428925, -8.776828769530578], [38.2643255254251, -10.417031802707887], [37.73942893090436, -11.96419080568099], [37.56889026974563, -12.157525900550967], [36.437308300734884, -12.973881205733356], [34.88541163872168, -13.794908180206145], [32.699180611872, -14.055799899124892], [31.087992575918303, -14.24806943104485], [30.33910420392018, -14.337437284784622], [30.33954234318494, -14.336775009180032], [9.49447920936592, -16.807339618640242], [5.119935681227817, -17.533091184930058], [3.939522141928457, -8.65228886619999], [4.510833791829806, -8.65228886619999], [8.070528322157777, -8.147847619531609], [8.069414289634679, -8.13948058428645]]]}, "properties": {"id": 4, "height_median_m": 6.0, "building_count": 3, "area_m2": 294.8212342601526}}, {"type": "Feature", "geometry": {"type": "Polygon", "coordinates": [[[47.34040256340293, 0.41502859074555837], [51.00473166051668, -0.14634321536448122], [51.1017455811673, 0.2935850775384591], [54.25253809410673, -0.13505117237811326], [54.15275726181933, -0.58752655817073], [60.9970372461131, -1.5887105817651879], [61.11793127934071, -1.0404933223190154], [67.22172886740347, -1.9054572221953334], [67.26167791232078, -1.4978548004138321], [72.80942773649589, -2.001001584194954], [72.85580527535173, -1.5278088659951208], [73.06090354626994, -1.5278088659951208], [73.75245001995438, 3.9601046291383235], [74.82434423144522, 3.8496339339853423], [75.11973785607543, 6.751925615922554], [79.3751900369767, 6.215893203396472], [79.27699594641973, 5.659293203217581], [82.7534233563972, 5.221389616849635], [82.7534233563972, -4.192385991752773], [78.67539183176662, -3.4818411247549435], [77.59579052036241, -11.641274305657316], [76.96701471712852, -11.522469935363588], [76.77425783657938, -12.287301458742803], [74.1036569948437, -11.908852913267063], [69.49722114486408, -11.192081399117034], [69.49722114486408, -11.637671026545261], [63.58411608659756, -10.713046446189441], [63.44304223982656, -11.512704579733244], [50.990467770595366, -9.697642586661098], [50.88077605232135, -10.402318378575393], [45.775427532113355, -9.630612200138174], [46.777963038219795, -2.4324777421674035], [46.96800625448437, -2.540201184358253], [47.34040256340293, 0.41502859074555837]]]}, "properties": {"id": 5, "height_median_m": 24.0, "building_count": 11, "area_m2": 390.47346293148473}}, {"type": "Feature", "geometry": {"type": "Polygon", "coordinates": [[[88.4154999542342, 4.746385077773523], [94.6828922494882, 3.893764183455263], [101.45742492737837, 2.9812629705778964], [101.36069601079316, 2.323309139506627], [105.08780621679055, 1.8785381266080325], [104.1045187205278, -5.417854129831684], [107.4001400608071, -6.0405470122410785], [107.4001400608071, -6.401433595167816], [114.27854667319299, -7.556672798673326], [114.46288320852075, -6.929740678479832], [120.47694292673432, -8.06607031030744], [120.60690569356086, -7.255726192432607], [126.04592064905815, -8.283403693400446], [127.1964695265536, -1.892106699564947], [128.00972801989516, -2.096988762985845], [128.56689078671204, 0.8506666557614583], [130.23103462348243, 0.6287142884194068], [130.23422859136136, 0.6471809574773019], [130.57419453337758, 0.5829459163020475], [130.92540971893445, 0.5361031854284282], [130.92214077641256, 0.5172030330132834], [132.63602130785878, 0.19337298740928013], [132.63602130785878, 0.007839654146047497], [137.8453686163568, -0.9764431738823944], [141.62086229436676, -1.587896839802294], [141.70617387961678, -0.9108886875564545], [144.86728094105936, -1.4842746198208931], [144.76969246048387, -2.0374418012435855], [151.58062383567813, -3.2029315765234196], [151.76359731729661, -2.476919170192773], [154.92352372183342, -3.050090945819222], [154.82607955518318, -3.3815004400665205], [158.61403237924407, -4.042162019112754], [157.11973835090257, -12.633369743134452], [154.173051729582, -12.13846909288196], [154.10341291232857, -12.848997984946504], [151.68567485629964, -12.52008702981755], [151.68567485629964, -12.86008947506198], [146.86404940501652, -12.131269858077845], [142.24640080583416, -11.41741930555584], [142.24640080583416, -11.300288424692276], [137.46619462597695, -10.466566699852436], [137.42489600425523, -10.459363755703203], [132.22013755740576, -9.386546538303865], [131.15778731616814, -15.408336053040193], [130.81218631464947, -17.367328866133853], [130.4194099527508, -17.367328866133853], [130.21293976889132, -18.537677344158467], [122.73420380986752, -17.18112664626082], [122.65278628120339, -17.6426309614419], [116.89253726269821, -16.675188083652316], [116.76114085393424, -17.41999096161201], [114.03594782170565, -16.96229050783622], [113.93882758431624, -17.18249571114367], [104.254161885187, -15.650508024221436], [104.08923815085973, -16.538613638230377], [98.88955659647918, -15.513441609636342], [100.31452870455949, -7.289319471675307], [93.93003830619789, -6.2301109218531145], [86.3040994502444, -4.828166841686038], [88.4154999542342, 4.746385077773523]]]}, "properties": {"id": 6, "height_median_m": 24.0, "building_count": 20, "area_m2": 772.7143597241748}}, {"type": "Feature", "geometry": {"type": "Polygon", "coordinates": [[[-63.72493636401881, 25.522951134127716], [-63.4314705003911, 25.522951134127716], [-63.915090991218406, 28.59324939377006], [-60.229813713744285, 29.04491423188004], [-60.229813713744285, 29.261729726548502], [-55.62705269327696, 29.91398302705902], [-55.677993442813936, 30.029483343058548], [-50.26516465750011, 30.664281113438115], [-50.369789035421256, 31.257330332992126], [-47.31965802710941, 31.689561771506327], [-47.224128550790084, 31.14806577791566], [-43.82697221418668, 31.64181767435324], [-43.48142247991886, 31.693362469398856], [-43.48122961853633, 31.692068838964722], [-35.82753882974165, 32.80447697308446], [-35.53327609986873, 31.02528900242213], [-33.99935019537172, 31.257151742943822], [-33.99935019537172, 31.010810473558706], [-31.588338160568448, 31.229474434891518], [-30.70905154659339, 24.05234457877796], [-24.87638504900942, 25.009393380223013], [-24.876385049009418, 25.009393380223013], [-24.473350497184295, 25.075525008857177], [-16.874418620353598, 25.649838658830166], [-17.26823919513989, 26.096302455782286], [-16.961300996029912, 26.13979840365618], [-17.059495086586494, 27.03035840378066], [-11.456020624357647, 27.824421944351826], [-12.469247491223898, 34.205911133957194], [-11.482568033652745, 34.205911133957194], [-11.868376024695788, 36.83019200725648], [-11.820127119061585, 36.836269616918315], [-11.820127119061585, 37.28154961698057], [-7.5851398626876385, 37.815004192349], [-7.5851398626876385, 37.4014808457079], [1.3852862617786625, 38.50088959083621], [1.2642859417890906, 39.049588827571796], [4.4150784546579835, 39.478225077478776], [4.497941384402518, 39.10246717610777], [11.28914971555518, 40.202325787051315], [11.197905680522032, 40.71953033284343], [14.248036688508469, 41.15176177134351], [14.347684716621268, 40.586920321008506], [18.193819333880644, 41.03412641261443], [18.66280909846277, 37.31235881500612], [20.15373013357212, 38.15746735675243], [24.744311662612184, 38.57380486460026], [24.80372568688022, 38.304380537466024], [31.636666647033646, 39.13434354821559], [31.50806580223933, 39.717508827868976], [34.65885831480193, 40.146145077764736], [34.75615066954948, 39.70495417225829], [38.519191800513575, 40.26627766485748], [39.5888018769981, 31.65690156634565], [36.775521224171555, 31.32696977712821], [36.970801321753136, 30.441434595016847], [34.5025897536709, 30.11857170044029], [34.59958592965, 29.898647787302743], [24.806268620866863, 28.556596957593335], [24.806268620866863, 28.67038648410464], [22.307049303755484, 28.343467513991094], [22.21012585982893, 29.002744526779807], [19.345227076409937, 28.554764014125556], [19.14363779610161, 30.61159113414586], [13.590733875108285, 30.61159113414586], [9.979344117805693, 30.1689818950791], [9.096668544364109, 30.057796832361944], [4.381897806029274, 29.450409467820716], [4.381897806029274, 29.556616144231878], [2.079605800422881, 29.230360326752287], [1.987665881160856, 29.855739212843126], [-5.436674947907774, 28.884572800598672], [-4.3043159206532335, 20.32640626147434], [-4.907396118188381, 20.21245696076164], [-4.806381113398185, 19.067277014689488], [-12.158760511920713, 18.400461428000032], [-12.042474136376729, 17.74130774169947], [-18.246103319317438, 17.060705716503392], [-18.031324633259743, 15.843261610816782], [-24.769730795314647, 15.20666578826097], [-24.668457617791752, 14.862233753414129], [-30.82796802518937, 14.024289194483613], [-30.478041011611587, 12.635829233397985], [-35.13928234679946, 11.975288738015365], [-36.491794857369364, 21.832262729792642], [-36.90918837035327, 21.759464606276318], [-37.06184396990921, 22.970895445249397], [-42.45220644280669, 22.265790561485826], [-47.648328768607875, 21.52945254137368], [-47.648328768607875, 21.419979977793137], [-57.53202049619228, 19.95847447091675], [-57.420594577939106, 19.20055106692227], [-62.627381549910005, 18.430621364752], [-63.72493636401881, 25.522951134127716]]]}, "properties": {"id": 7, "height_median_m": 24.0, "building_count": 28, "area_m2": 1105.0476369784087}}, {"type": "Feature", "geometry": {"type": "Polygon", "coordinates": [[[76.35721049007081, -31.38434449217161], [76.95121624064637, -32.7311611864806], [79.60471240404762, -33.14608494521387], [84.86322197985321, -33.808466158041206], [84.87226843190395, -33.760606133984055], [88.31909301209446, -34.31883075481], [88.41917873843481, -33.864972767454354], [91.44925512939665, -34.43749212227944], [91.35085472567731, -34.99526158147498], [98.25882982125381, -36.325119516718665], [98.45796048008971, -35.64787229647796], [101.36638430360757, -36.22129871112829], [101.30578524154632, -36.564796347521], [110.31684280857348, -38.316040975533625], [110.41465500073654, -37.87249276722919], [114.62306047712764, -38.66765212231539], [114.52307722481099, -39.23439374497459], [114.53728063706204, -39.23752469458203], [114.04862343478821, -41.45343481726678], [115.21807000631654, -41.67439650629401], [114.13793501143685, -47.24039650597141], [114.1575651217556, -47.244105527340764], [113.99189298719956, -47.901468681864735], [119.50472172444618, -48.90142799468781], [119.44400510204255, -49.58975601722076], [125.52543116232863, -50.45154966716124], [125.4267447326911, -51.01094042522348], [132.3289274508275, -52.04440707953542], [132.4068409502193, -51.69109332258521], [134.74629447900992, -52.02261526751334], [135.7330424533753, -46.09377214449676], [136.22292392496075, -46.20484523494975], [136.71175872705686, -43.21227933251338], [140.18432490623908, -43.86840514961634], [140.18432490623908, -43.444610702115114], [143.38691367355406, -43.88029335456109], [143.29656587594957, -44.494842567571055], [150.19491401168656, -45.61205282359759], [150.2814557257141, -45.219612767285355], [153.31153211661314, -45.79213212209858], [153.21570671510523, -46.335305526872006], [162.37656588550877, -47.70180812032703], [162.4583104752066, -47.33112154678616], [166.41478842461166, -48.12265436993868], [166.41478842461166, -48.445652178481566], [166.46571183099903, -48.45389939226969], [166.06958524582168, -50.92382871289776], [167.05656669376805, -51.14761157843986], [166.08137141779167, -56.675374890145726], [166.09746218067454, -56.67719905666878], [165.95312597370466, -57.331719363469205], [169.37013137990422, -58.106472793514186], [169.37013137990442, -58.106472793514214], [171.58759640205577, -58.609248887692914], [171.391208221117, -59.4998088878175], [171.40148547338254, -59.502139096727824], [171.17861306978355, -60.38646467594389], [184.51148887186577, -62.711868184323905], [185.9266483673849, -56.116296417481784], [189.7306290859088, -56.97879054787246], [190.13754414690177, -54.78757439837916], [197.33328555138726, -56.2206695481891], [197.33328555138726, -56.11360514946702], [198.3337260087559, -56.30263389056609], [201.34082275152696, -56.8039669373168], [201.4405768528912, -56.351612767235856], [204.4159014309368, -56.91378701237995], [204.4159014309368, -57.35393361666056], [211.27684639611877, -58.52798174094502], [211.27684639611877, -58.2479138760812], [214.39108302455884, -58.68922966737338], [214.29192730610416, -59.251280526599324], [217.82184636918026, -59.8070825164337], [216.43278733749105, -68.40757944118883], [213.52011553316242, -67.8995767171997], [213.37728776518443, -68.62821671748843], [210.89671140104292, -68.19557629841538], [210.89671140104292, -68.30934081001556], [206.1659727266974, -67.45611856887258], [201.26104916963868, -66.62794708729352], [201.26104916963868, -66.46725709783925], [191.0877581087465, -64.40775950409049], [190.7929427273609, -65.96747276604438], [190.73041793765228, -65.95458500732835], [188.82863525122343, -75.87218452218978], [184.21283588983272, -74.9564431884438], [184.50314842510517, -73.47540537080225], [175.0102379995187, -71.51870404439681], [174.91395998922016, -71.73699962690412], [171.94445840082224, -71.17592561005664], [172.14015620708318, -70.06663890614125], [168.9979453126111, -69.5100389059689], [169.29286297558124, -67.83833778336218], [166.30395296742785, -67.29181408886892], [166.30395296742785, -67.06641673327664], [161.38859357208761, -66.12015829958986], [158.96604773572935, -65.72781900328042], [159.16449914118496, -64.82790291452962], [158.5869935673043, -64.71878582434768], [160.0453922482292, -56.86538581832512], [152.42193340127278, -55.06486283712687], [152.30661012144654, -55.71855734401645], [149.91818122819987, -55.28532572576373], [149.91818122819987, -55.5194115775129], [145.76853468139055, -54.652822130939754], [139.97343332531696, -53.557863699569076], [139.8208910875667, -54.292829090947336], [138.94014159800898, -54.070944198781504], [137.37371311091928, -61.95113593467942], [134.49832817595092, -61.42957648109965], [134.33011063035548, -62.28774316785857], [132.046856765217, -61.85633258241256], [132.046856765217, -62.08064353698537], [127.01324573500192, -61.109329583538795], [122.2660662512409, -60.130829631851356], [122.36127219943302, -59.914964784922844], [120.0979786404042, -59.487325609864406], [120.19654905320853, -58.92859247663012], [117.63025417888382, -58.42698221928759], [117.43281719194746, -58.315067717593614], [114.45747320675335, -57.71273424074395], [114.45747320675335, -57.606115149968225], [108.75767244898125, -56.54681828824234], [107.02986751781287, -56.266994574905965], [107.22805452862315, -55.255937792311194], [106.64231971624767, -55.145265824393725], [108.12022399279685, -47.186829214322266], [100.45665635500957, -45.73883245333906], [100.34224538529655, -46.32250333320321], [87.9763980176768, -44.18920332053204], [87.90160366501924, -44.69795739936805], [82.78555280206541, -43.795746175319785], [82.83110144495812, -43.528171222002236], [73.41234339631387, -42.14401290411567], [73.41234339631387, -33.65453580685052], [76.35721049007081, -31.38434449217161]]]}, "properties": {"id": 8, "height_median_m": 24.0, "building_count": 39, "area_m2": 1620.1439054537168}}]}