{"type": "FeatureCollection", "crs": {"type": "name", "properties": {"name": "EPSG:32628_local_enu_m_section_centroid", "lng0": -14.359234039991588, "lat0": 28.072687751990625}}, "features": [{"type": "Feature", "geometry": {"type": "Polygon", "coordinates": [[[-1163.0434027331216, -1398.1218540788582], [-1160.235877106976, -1401.1858754280006], [-1159.018615875522, -1402.5143457243798], [-1160.8101333430507, -1401.160752218804], [-1163.5122153731756, -1404.2611256213834], [-1154.1044652916528, -1413.6930157708523], [-1157.5778483848576, -1416.8422223287043], [-1172.6022104933172, -1400.850044838941], [-1164.492865796308, -1393.9570889616791], [-1166.7845837418088, -1390.1792195898245], [-1148.2895426146713, -1379.4683350907333], [-1146.0000529981496, -1383.619950689164], [-1149.0671656421277, -1385.7504436697338], [-1148.2607468548433, -1387.5783296710902], [-1150.0971181904497, -1388.4546348238143], [-1148.9267474624055, -1390.554804000334], [-1156.8053149427603, -1394.7780079766007], [-1157.7897497746653, -1393.104465633832], [-1164.464059993957, -1396.5714054786827], [-1163.0434027331216, -1398.1218540788582]]]}, "properties": {"id": 0, "height_median_m": 3.0, "building_count": 2, "area_m2": 296.2705177333535}}, {"type": "Feature", "geometry": {"type": "Polygon", "coordinates": [[[-1146.66336582387, -1411.8494409901564], [-1144.6077572805998, -1409.297871330096], [-1146.1560305532387, -1408.2011757120104], [-1144.4970581781522, -1405.7680116804747], [-1146.2853164136684, -1404.6420692052318], [-1140.623712021349, -1397.3781103684976], [-1138.9617886934673, -1398.7076515159126], [-1137.5028407834625, -1396.723478649786], [-1135.739004437851, -1397.9451009206136], [-1133.6692988626087, -1395.040937192894], [-1129.6558274246725, -1398.0300234129832], [-1142.8608008846466, -1414.7224954256033], [-1146.66336582387, -1411.8494409901564]]]}, "properties": {"id": 1, "height_median_m": 3.0, "building_count": 1, "area_m2": 150.98292723719152}}, {"type": "Feature", "geometry": {"type": "Polygon", "coordinates": [[[-805.2489242129245, -1106.2535656479138], [-793.6398182800849, -1104.5941227789465], [-793.0494474300958, -1108.6086520639742], [-786.663181002167, -1107.829198601905], [-785.6807796765443, -1114.756960159043], [-792.8555393978608, -1115.6193823841313], [-793.4434591069576, -1111.732572597809], [-803.9419672775775, -1113.2893636354027], [-805.2489242129245, -1106.2535656479138]]]}, "properties": {"id": 2, "height_median_m": 3.0, "building_count": 1, "area_m2": 130.68340884321958}}, {"type": "Feature", "geometry": {"type": "Polygon", "coordinates": [[[-525.0972815103097, -953.7484192988816], [-513.9915270876867, -951.9673044113791], [-513.4119236699169, -956.5655001196355], [-524.5143611182041, -958.1086719828196], [-525.0972815103097, -953.7484192988816]]]}, "properties": {"id": 3, "height_median_m": 3.0, "building_count": 1, "area_m2": 50.703875814507}}, {"type": "Feature", "geometry": {"type": "Polygon", "coordinates": [[[-529.2037093969742, -935.5453827005003], [-528.6182504944098, -937.3147729140514], [-523.7281672102924, -935.208773109438], [-522.4876664842343, -938.301760701726], [-524.4415608394223, -939.1875277986554], [-523.7467541973027, -940.762425797664], [-535.9889595936468, -945.5832354655582], [-537.1546884952983, -942.9409116825517], [-531.0461429895812, -940.4843522310936], [-532.4222925872668, -936.8080600049885], [-529.2037093969742, -935.5453827005003]]]}, "properties": {"id": 4, "height_median_m": 3.0, "building_count": 1, "area_m2": 65.75162543302174}}, {"type": "Feature", "geometry": {"type": "Polygon", "coordinates": [[[-511.505061028136, -931.4559779315606], [-514.1816787906905, -927.103556564196], [-505.85223693433835, -921.72631189641], [-504.31405482000065, -923.9054072986047], [-511.505061028136, -931.4559779315606]]]}, "properties": {"id": 5, "height_median_m": 3.0, "building_count": 1, "area_m2": 38.965055285581485}}, {"type": "Feature", "geometry": {"type": "Polygon", "coordinates": [[[-171.7914954833263, -449.03821380879555], [-174.68031557732746, -452.70509630275853], [-181.11712977441738, -447.47696299844773], [-178.22830968041623, -443.81008050448474], [-171.7914954833263, -449.03821380879555]]]}, "properties": {"id": 6, "height_median_m": 3.0, "building_count": 1, "area_m2": 38.70617783981122}}, {"type": "Feature", "geometry": {"type": "Polygon", "coordinates": [[[-247.00676124692058, -331.9998884035869], [-248.22169429852548, -331.9998884035869], [-253.71029326299924, -331.5213942660216], [-253.4653288432812, -329.7168196678658], [-252.35153087352728, -318.3560591388272], [-245.66105619678586, -318.97757980586795], [-247.00676124692058, -331.9998884035869]]]}, "properties": {"id": 7, "height_median_m": 3.0, "building_count": 1, "area_m2": 88.33725126364055}}, {"type": "Feature", "geometry": {"type": "Polygon", "coordinates": [[[-216.76966757011854, -257.61063803215876], [-210.78865166587724, -248.57264154891234], [-206.46455091070814, -251.28089918969852], [-212.45015895339512, -260.4448472296736], [-216.76966757011854, -257.61063803215876]]]}, "properties": {"id": 8, "height_median_m": 3.0, "building_count": 1, "area_m2": 55.91377866496347}}, {"type": "Feature", "geometry": {"type": "Polygon", "coordinates": [[[-52.28773374214304, -204.47705821883068], [-46.65023617937214, -209.26894010470062], [-54.372192291996626, -218.37529996638466], [-60.11347699743013, -213.46450638426265], [-52.28773374214304, -204.47705821883068]]]}, "properties": {"id": 9, "height_median_m": 3.0, "building_count": 1, "area_m2": 89.18494579599795}}, {"type": "Feature", "geometry": {"type": "Polygon", "coordinates": [[[6.48764618385104, -32.78715858132821], [0.7875080587624067, -29.184372237132695], [7.865964218536299, -18.802617129545943], [13.457358129122088, -22.53022003782058], [6.48764618385104, -32.78715858132821]]]}, "properties": {"id": 10, "height_median_m": 3.0, "building_count": 1, "area_m2": 84.00525275747947}}, {"type": "Feature", "geometry": {"type": "Polygon", "coordinates": [[[12.16039787889295, -35.16076702211037], [17.368021025768318, -38.42569430356964], [15.259066765577131, -42.14370950480466], [9.939007055659419, -39.00339061129991], [12.16039787889295, -35.16076702211037]]]}, "properties": {"id": 11, "height_median_m": 3.0, "building_count": 1, "area_m2": 26.833233415559462}}, {"type": "Feature", "geometry": {"type": "Polygon", "coordinates": [[[38.30197476527677, -21.70951046616707], [30.266427928438727, -35.71147700320684], [29.40592020240709, -37.24400315151369], [24.57669602559425, -34.44379661131865], [25.432665404816007, -32.91935305767752], [33.16316046437332, -18.924118957592366], [38.30197476527677, -21.70951046616707]]]}, "properties": {"id": 12, "height_median_m": 3.0, "building_count": 1, "area_m2": 101.56953534247803}}, {"type": "Feature", "geometry": {"type": "Polygon", "coordinates": [[[52.46206851319975, -7.813980743073941], [57.32730180085162, -9.737448661322539], [53.14536737111605, -20.519889754876278], [47.966335872136355, -18.478296710106317], [52.46206851319975, -7.813980743073941]]]}, "properties": {"id": 13, "height_median_m": 3.0, "building_count": 1, "area_m2": 62.4560964208959}}, {"type": "Feature", "geometry": {"type": "Polygon", "coordinates": [[[115.81763520200319, 582.135679174718], [119.88433187537555, 589.5342271283264], [127.38670782585018, 586.011676406796], [123.4269136818216, 578.3703296396317], [115.81763520200319, 582.135679174718]]]}, "properties": {"id": 14, "height_median_m": 3.0, "building_count": 1, "area_m2": 71.44348904404353}}, {"type": "Feature", "geometry": {"type": "Polygon", "coordinates": [[[102.15581160323728, 859.1394925255638], [105.84776069802362, 857.7897451721922], [103.78911144333593, 852.2261031963124], [103.79968238857809, 852.222359312873], [102.74281664256405, 849.6770695504096], [91.97172456037346, 853.7066506902622], [94.69377131587964, 860.3702336044206], [101.56905971578846, 857.6986879751968], [102.15581160323728, 859.1394925255638]]]}, "properties": {"id": 15, "height_median_m": 3.0, "building_count": 1, "area_m2": 87.95140211016452}}, {"type": "Feature", "geometry": {"type": "Polygon", "coordinates": [[[41.49598424682416, 873.4073494698401], [48.22957238380985, 891.5319580853069], [48.17352118658956, 891.5531330216182], [54.50951506042245, 908.3469546281175], [57.848509262799965, 907.11488934801], [60.85260135080866, 915.149849339394], [60.842065414246846, 915.1538295895369], [70.54912692971558, 940.3546123674286], [73.40651579803445, 947.9971894137223], [69.7870429854078, 949.4449812451251], [76.6631505217833, 968.0281373761247], [76.65683788484374, 968.0305221545367], [76.87988438995235, 968.6138756429791], [76.87988438995333, 968.6138756429817], [79.78512774382467, 976.2122186182721], [79.68941075770321, 976.2393384817043], [82.5774044893104, 983.7206314660689], [86.43349571267005, 993.9562050219106], [93.76753495164924, 991.14481805852], [89.91124322430656, 981.0237247112466], [76.26510575092756, 944.21787220323], [111.347722206853, 931.4569416883139], [111.36302249794325, 931.5046276846801], [117.92995685112157, 929.1478235054782], [115.37322615985288, 922.2380820030828], [119.6959835033661, 920.5679226350093], [112.97028462600315, 902.5511683274935], [108.7452939716951, 904.1101600412991], [106.68479008620764, 898.6612618030075], [106.6632457949226, 898.6687746981163], [103.43966142402206, 890.1928810154066], [100.78754597243713, 891.1947931698465], [98.62719449991985, 885.5189500549682], [91.46900550108415, 888.1861158730733], [90.48624505540414, 885.2902430133292], [85.01414289397214, 887.3574854715109], [84.99060411166315, 887.2827889293507], [81.56927381130075, 888.6676156871141], [82.64677389426703, 891.4429998766135], [76.75555733476628, 893.6685747370431], [78.91612910369376, 899.3449966321491], [67.68841802369154, 903.5515298585159], [61.057258350354395, 885.8368273319107], [67.73538167348596, 883.2768752725214], [61.30464574952895, 865.9240633582501], [41.49598424682416, 873.4073494698401]]]}, "properties": {"id": 16, "height_median_m": 6.0, "building_count": 9, "area_m2": 3304.1639492831473}}, {"type": "Feature", "geometry": {"type": "Polygon", "coordinates": [[[185.06044572212363, 909.7757658364484], [186.7392692432872, 909.2321457752489], [196.0148329486447, 906.0327424585665], [196.0148329486447, 905.3110922850684], [194.7807496716876, 902.0476215193861], [198.9912951205555, 900.8907826273796], [200.95712235647366, 900.4451942875596], [205.10828664855157, 899.269028873206], [205.30449115356464, 900.2696737193644], [210.58626478918882, 899.6328629415106], [210.57741130693225, 899.5492465638796], [216.2136831366947, 898.8974315962314], [227.11463611919604, 898.8974315962314], [226.92162043296725, 901.7412013556311], [230.28327313666662, 902.2327987990504], [237.52745292246243, 903.4532169538401], [247.38690393265404, 906.3541762318396], [246.7078809718398, 908.6628586141992], [255.4548809065593, 912.1209813315007], [256.34671687790194, 912.4578977724912], [257.8331388712083, 909.3694374134692], [263.8533701953151, 913.1220552870816], [272.0489405728292, 919.6401819239622], [273.12359660168903, 918.200791461125], [278.28360919232387, 922.5326619811167], [277.6111723275766, 924.8189515963442], [277.7384421028313, 925.251669641341], [277.85859041519916, 925.6601746665211], [278.2046699949994, 926.0523989234747], [278.37095326603594, 926.2408536499266], [280.33366778346056, 926.7969571365418], [281.8443418707154, 928.7658727105282], [282.4578796032749, 928.2765565177319], [288.77448230546094, 937.3029071075995], [292.36469131634175, 935.2684515323868], [294.17794791361734, 938.6934981742179], [294.47684215455035, 939.2580772402522], [297.1217711918347, 944.2540636498111], [292.9560779425449, 946.3195570804486], [291.84218794196784, 946.792961215482], [293.8375925430309, 950.9389763034155], [294.88266281701243, 951.235080101608], [294.9038146331981, 951.2248063431119], [295.48816983569344, 952.4389688663141], [295.6491808477216, 952.3672804960155], [299.00459298128027, 959.7616284641458], [299.00595679000753, 959.7611647683118], [301.58462638043363, 965.1447130989693], [302.46863649251645, 964.6994330993089], [302.5427566450126, 964.8541754613241], [303.88230217739084, 963.3360210200954], [308.3747416268525, 972.7915541080058], [305.2079048158334, 974.3027492358782], [307.37620132903623, 978.8295521727675], [307.4233196742462, 978.8071983113927], [309.81112884685325, 983.678338129457], [311.7553853275989, 983.1274644296815], [313.8040068548299, 987.5266178274117], [315.4613904609904, 991.2016926933712], [315.18868947006183, 991.2789581186686], [315.25252244706957, 991.4043546901225], [313.65040085804816, 992.1027166884793], [315.61432185415083, 996.2204120741711], [315.6107171540119, 996.2219683920612], [315.77155544042114, 996.5500791096304], [316.42334293245403, 997.916662772477], [316.70968271542233, 998.5657008271106], [319.21719427799377, 999.5129847428759], [319.9207385617147, 1001.046353355905], [320.31363194498465, 1000.9350333557907], [320.3407283934113, 1000.9940898281455], [320.6667084763705, 1000.8278396751015], [322.76198221276155, 1005.0117433063772], [322.7619822127635, 1005.0117433063813], [325.2651660892456, 1010.0101737876431], [327.05061973592217, 1009.0658654271697], [336.5886930675056, 1004.3509366759448], [334.09954312863636, 999.1320092145544], [334.13489914844735, 999.1140830587203], [331.8627063365881, 994.4788010583553], [330.17171125612015, 995.33056313531], [326.0130184493322, 986.9515515961805], [326.9370655999972, 986.9515515961805], [325.9769683206476, 984.7753270283317], [329.2308624595749, 983.3225756160572], [326.36809718799833, 977.4575660580182], [323.2303064745672, 978.9022598994063], [322.343219404746, 977.0032329187381], [321.64620986422864, 977.3417810426332], [320.2297416559645, 974.5324471784785], [317.47694666251147, 969.0727269018228], [318.1161458751382, 968.7105133372645], [316.72490405616605, 965.8352748700356], [317.98243892563096, 963.69746159639], [317.49693643323866, 962.87210581674], [316.4132344759472, 957.9593144225714], [316.96442723485745, 957.7148719595568], [316.49639894739653, 956.8308168747144], [312.322557634685, 948.4084644334471], [308.2952145568742, 950.1896666529949], [308.289795692553, 950.1787486244723], [306.4765468369306, 951.0594711433778], [304.9100376861152, 947.8220128465754], [302.4092606610978, 942.5734586617206], [302.42863266120935, 942.5642682072787], [302.4124529393615, 942.5349289234873], [304.9772799167346, 941.3457796471703], [299.4609182515425, 930.8515386722298], [299.4924432126707, 930.8330128579731], [299.29713088321984, 930.5399521200511], [299.1348507035909, 930.2312328202944], [299.10361583849067, 930.2495881580481], [292.1134778360449, 919.761079793354], [291.27874772193076, 920.352348062585], [288.0348598085819, 916.4133339481775], [287.1455510165611, 917.1972446445972], [282.8314068264797, 912.1640670147393], [283.78350998958905, 911.0850147461563], [279.79934691916543, 907.8431939485114], [279.79934691916543, 907.2093751925485], [279.613567038718, 906.9988242681685], [279.2955727359532, 906.6384300515682], [278.9543881581264, 906.3806456661428], [278.6576109426044, 906.2124715961653], [277.85942692394616, 906.2124715961653], [274.3973204085591, 903.4658619597371], [276.0065089010328, 901.003798963916], [266.7911019732101, 895.0920174305551], [258.85864512790243, 891.3219610005592], [252.90406730615746, 889.1908449542825], [251.4170000377375, 893.7653581587399], [249.75238434995921, 898.901015418083], [239.4056658224716, 896.0741388219697], [240.5030745325093, 890.6017171578541], [240.57694916937044, 890.2389099297944], [240.57586132329575, 890.2387530159461], [241.06716204131024, 887.7887955222012], [227.75145153360043, 885.9023996742163], [227.6310081036029, 887.9499418096799], [221.50382832229434, 887.8447274146315], [215.85594880098108, 887.7397939376469], [215.85594880098108, 887.3513424114773], [203.75885221599512, 888.9118380045121], [203.7588522159951, 888.911838004512], [202.91522053995493, 889.0206644078854], [203.02253495656774, 889.2639108740042], [191.4034398241818, 892.2454201043646], [190.40146351286597, 889.0009193172682], [185.0690951120984, 890.3043895852268], [182.51125506588718, 890.973364386174], [180.83183307982694, 891.4265425947503], [178.50454233742613, 891.951674841525], [184.20949326865156, 907.7813039123354], [184.18394423242884, 907.7890254132724], [184.33867967723526, 908.1397597436865], [184.44715468769814, 908.4407472893779], [184.46860765633443, 908.4342637134033], [185.06044572212363, 909.7757658364484]]]}, "properties": {"id": 17, "height_median_m": 6.0, "building_count": 79, "area_m2": 2801.202998820422}}, {"type": "Feature", "geometry": {"type": "Polygon", "coordinates": [[[192.85418782554297, 938.5462999061695], [196.84359004227736, 948.4218385906349], [197.7203517232994, 948.0906168919892], [199.19847583821857, 951.9994413024936], [201.58604832118132, 957.6818744343354], [200.70506957312617, 958.0146892501061], [204.80659913912334, 968.0266468032281], [205.5929720725929, 967.6924376817952], [207.5199964231754, 972.3723627098548], [209.54905976169323, 977.4942200448182], [208.65973689380039, 977.8301870895305], [212.76406423265422, 987.7297028167549], [213.60646330379117, 987.3716825423054], [215.47626440601186, 992.1878458991802], [217.49459488606917, 996.9533573298467], [216.62554532137625, 997.322704085229], [220.61759781088907, 1007.3238648067671], [221.40925619454418, 1006.9874093648067], [223.2871095866929, 1011.4567087927537], [225.2343088585097, 1016.8016970871006], [224.37992159166072, 1017.1244662137992], [228.37195553543003, 1027.1255804728594], [229.25004572640162, 1026.7938568918046], [230.14792742815533, 1029.1682596086187], [233.54963420407455, 1037.4956533618804], [235.54019771640097, 1042.383601790631], [234.69864094917278, 1042.74126408525], [238.69069343868534, 1052.7424248067875], [239.582171139147, 1052.363546075886], [241.30799009728258, 1056.8621892359486], [243.40218105802435, 1061.9741726244897], [242.55520080220123, 1062.3341399060705], [246.5446030189272, 1072.2096785905148], [247.42136470010246, 1071.8784568918766], [249.0689691752516, 1076.2354635380616], [249.46453296704186, 1077.13207647548], [251.37907569809693, 1081.668971065301], [250.5125996236035, 1082.0372240853042], [254.49936551925688, 1092.025140473258], [255.37745571023186, 1091.6934168918087], [256.4836178301534, 1094.618606633006], [258.2498578309878, 1098.8445072753861], [283.42826254726435, 1086.517137282767], [282.86992601842735, 1085.0828300964142], [288.62417821248573, 1082.2473961789867], [289.0155239692401, 1083.023566714004], [298.6831460938892, 1078.3788960978811], [298.2886606639571, 1077.5964985327557], [300.5420082117255, 1076.4861512888003], [299.95352474450715, 1075.26341113247], [302.7032739796024, 1073.9278161504672], [299.7565424213169, 1067.779851088817], [298.2413887918539, 1064.6186837436683], [298.0861710521516, 1064.294842490482], [298.08617105215114, 1064.2948424904823], [293.7591220976238, 1055.2670280234363], [290.9319344400385, 1056.5928840237498], [290.4381205393566, 1055.361639063046], [290.4185093783362, 1055.3713025517611], [288.1604743211617, 1050.5868772987103], [272.07187055600593, 1058.3695904162716], [259.54054783739423, 1026.9926539490336], [239.60117648063834, 976.6759327971225], [226.73406506713513, 944.5048200518213], [218.09387184961187, 922.5567020010382], [213.70109427839358, 922.9123084690933], [211.08707008583642, 923.2541430408987], [207.6083321430681, 924.8311738562112], [206.24260709216662, 925.3839683627656], [190.88301404234113, 931.3002671152773], [191.7066735317309, 933.3005867569153], [193.69705240394424, 938.1880817907627], [192.85418782554297, 938.5462999061695]]]}, "properties": {"id": 18, "height_median_m": 3.0, "building_count": 56, "area_m2": 5727.737166237089}}, {"type": "Feature", "geometry": {"type": "Polygon", "coordinates": [[[150.14862682762035, 988.2483274095473], [141.25187755750576, 965.2178356800606], [97.38125727922043, 982.6198809197246], [106.2796186248973, 1005.3107447671043], [150.14862682762035, 988.2483274095473]]]}, "properties": {"id": 19, "height_median_m": 3.0, "building_count": 1, "area_m2": 1156.218419048425}}, {"type": "Feature", "geometry": {"type": "Polygon", "coordinates": [[[130.47410153396848, 1095.6274077247028], [130.6146074037475, 1095.9458882915337], [130.7529140420734, 1096.269496686781], [130.75664925511532, 1096.2678504231405], [132.22999944211458, 1099.6074504230119], [136.40658522996998, 1097.7666554681819], [134.93587193833164, 1094.433032442696], [139.44862941533856, 1092.5429029518168], [137.38493243006624, 1087.642432378555], [158.43697782821945, 1078.6406740396112], [161.42277752667317, 1085.831488420627], [160.43589555015762, 1086.2788757530225], [162.98563822295816, 1092.169446119051], [156.60564727544678, 1094.839231936921], [161.00210903531575, 1105.397738407981], [167.38441792148674, 1102.615701128844], [169.84198911887844, 1108.631846665617], [170.81952252695103, 1108.1886973592323], [173.32763551937776, 1114.5843974448514], [166.1950501643954, 1117.5017911938485], [164.7188082958779, 1113.8210212546333], [157.2195095463465, 1117.0809964848563], [145.7561878972609, 1121.952917292406], [144.4792844017096, 1118.9472772924532], [140.6919058711347, 1120.556916177094], [142.10524488060022, 1123.883704987465], [144.89325565481118, 1130.55429138267], [159.7958577627256, 1124.1436223367257], [159.82300686244082, 1124.2085791930222], [167.8779312430968, 1120.757397824177], [169.84091131410267, 1125.4292991261202], [185.21446409543725, 1119.0407219171423], [184.3310666718815, 1116.8158649875888], [188.95198476027483, 1114.9216127551786], [185.82518407901435, 1107.3509508934171], [186.88843038868092, 1106.903373991209], [183.84364255887002, 1099.5565818814307], [189.14478557628593, 1097.3314065789277], [186.49583713062978, 1090.771159029777], [189.0602548428409, 1089.7651163545636], [186.61470191498358, 1084.2218526890185], [184.16291507645585, 1085.2221835893204], [181.2138753709397, 1078.31486434525], [176.79533583543383, 1080.2066574011667], [173.64988551557593, 1072.7427519608796], [171.6965019688864, 1073.6179905659235], [169.03734226519364, 1067.1795888239342], [164.41947074818046, 1069.183945314275], [163.5365012172634, 1067.071355005969], [133.0312600584764, 1080.0361067333038], [135.19278955932262, 1085.1582862164303], [127.43168291741434, 1088.498515571882], [130.47779635596783, 1095.6257792630738], [130.47410153396848, 1095.6274077247028]]]}, "properties": {"id": 20, "height_median_m": 3.0, "building_count": 6, "area_m2": 1634.3215536618366}}, {"type": "Feature", "geometry": {"type": "Polygon", "coordinates": [[[170.91603310841188, 1062.1966987299468], [178.24768292531434, 1059.2640333212419], [175.52047614396378, 1052.7114522459951], [168.29722803607424, 1055.7660653648745], [170.91603310841188, 1062.1966987299468]]]}, "properties": {"id": 21, "height_median_m": 3.0, "building_count": 1, "area_m2": 55.24435572358166}}, {"type": "Feature", "geometry": {"type": "Polygon", "coordinates": [[[162.80922160371713, 1136.046306316638], [162.7002425812954, 1144.6919915961805], [168.51229612359293, 1144.6919915961805], [168.51229612359293, 1142.6306419508676], [172.6231013113147, 1140.7670734487226], [172.94124464153012, 1140.6359595887643], [172.93668626376825, 1140.6249146711957], [174.902935806877, 1139.7335465453505], [171.79010064224317, 1132.3128198791815], [169.82747928126878, 1133.0913278076628], [169.82456513233873, 1133.0842668451019], [169.50303445468168, 1133.2200244961198], [169.17673869828977, 1133.3494553881053], [169.17966947218846, 1133.3565566328496], [162.80922160371713, 1136.046306316638]]]}, "properties": {"id": 22, "height_median_m": 3.0, "building_count": 2, "area_m2": 99.6363849907053}}, {"type": "Feature", "geometry": {"type": "Polygon", "coordinates": [[[264.7477771133659, 1118.4377539606498], [265.72589313100065, 1120.7656744342914], [264.8449143829453, 1121.0984892500621], [268.9464439489424, 1131.1104468031838], [269.7351423299324, 1130.7752493647074], [271.8717930797292, 1135.860487655255], [273.602820513187, 1140.319203014701], [272.7922620557223, 1140.548861673818], [276.7960650167366, 1150.5794604728321], [277.67415520754975, 1150.2477368917716], [279.11018360428994, 1154.0452413061166], [281.6380751511711, 1160.0616344343684], [280.75567271388934, 1160.3949870893625], [284.84050404123144, 1170.2474790159], [285.7200237847239, 1170.0259699258718], [286.6159106071854, 1172.2822816962553], [286.63846565308654, 1172.274148194802], [290.0180969204545, 1180.7554291814874], [289.98705954452834, 1180.7671544343125], [290.96929300252157, 1183.1048744343261], [290.09133993434665, 1183.4365462134044], [294.083373878158, 1193.4376604729932], [294.96146406898094, 1193.1059368919289], [296.5426655243802, 1197.2873441123413], [298.8282963749604, 1202.6839825976383], [298.06158889259075, 1203.056384070852], [301.9435189001476, 1213.0445037343475], [302.8193724652713, 1212.6722652734595], [305.2033109795466, 1219.0583428058987], [306.6789499467357, 1222.4031307172315], [305.7933988774218, 1222.737672857595], [310.2046611216083, 1232.6175183520124], [311.08729503060647, 1232.2840782520504], [313.21262658501655, 1237.1015054478619], [314.04695262786373, 1238.9926480134047], [343.491790731715, 1224.638262604968], [346.5805964144619, 1223.1427393311733], [346.9259882496454, 1223.012257727153], [346.91040475655694, 1222.9814765604083], [351.9339714144562, 1220.5319964562927], [355.03980552965913, 1219.0175985414346], [355.3570871814048, 1218.8628927026796], [355.3569315753726, 1218.8625840834723], [381.0868501491381, 1206.2856716219871], [371.7446620455615, 1187.066453068122], [363.55762789204897, 1191.0430199477366], [365.6207470124427, 1195.496745739052], [353.2771732494225, 1201.537627221435], [352.2953968158852, 1199.5347995529999], [352.29466919794885, 1199.5351529680868], [350.42842562767515, 1195.7502729681437], [347.68116982998083, 1197.0846568497166], [347.09096205544193, 1195.8583339592572], [344.84248372322367, 1196.9662818752088], [344.6474545165639, 1196.5242148474888], [344.6116614340158, 1196.5414244829806], [344.4132164489809, 1196.204067377504], [341.29540499531856, 1197.7499851131045], [339.529829283811, 1194.081504277633], [329.7306089401912, 1198.7459418804426], [315.8227556599727, 1163.6941957837741], [312.48301994339914, 1155.2335161533133], [302.2905708000762, 1129.710281508757], [314.5894398938156, 1123.8002538992657], [312.8231496785651, 1120.1302884810198], [314.4989218589237, 1119.3482600016596], [314.10261933832663, 1118.5622585329631], [316.335748224005, 1117.4618741265463], [315.84532083644916, 1116.2390728876883], [318.6154559997514, 1114.8935761502216], [315.65405307438425, 1108.7150012248492], [314.1364651606469, 1105.5487550681553], [313.9916747419024, 1105.2466690389203], [313.9889012643362, 1105.248002551839], [309.568241391283, 1096.2298395527555], [306.8202579756552, 1097.5645768498089], [306.23005020113396, 1096.3382539593858], [303.96512323660727, 1097.4543070136551], [303.5722298533421, 1096.6750670136544], [298.43041343713764, 1099.208720418479], [301.5733108183219, 1105.664767523599], [292.6775034324539, 1110.030140957673], [290.6676614650328, 1105.785103170033], [288.94125246945805, 1102.2387647295297], [263.2621376577817, 1114.907151717163], [264.99160448644153, 1118.3372673402994], [264.7477771133659, 1118.4377539606498]]]}, "properties": {"id": 23, "height_median_m": 6.0, "building_count": 63, "area_m2": 5584.626572053736}}, {"type": "Feature", "geometry": {"type": "Polygon", "coordinates": [[[333.00705290666644, 1016.3691489620348], [333.0263012288966, 1016.4114953500972], [331.04428763023515, 1017.2538527039804], [331.5376136490555, 1018.3720604368916], [324.74563262318645, 1021.3841620009148], [329.08512421592826, 1030.1407784771807], [332.02065088171645, 1028.8100039012475], [332.02210512674395, 1028.8132217129264], [332.3413927010786, 1028.6646006713531], [332.6581984376952, 1028.5209818023056], [332.65676203888665, 1028.5178034790008], [337.8408313848467, 1026.1047381181256], [341.74391638604413, 1024.3669327381012], [345.64922151089405, 1033.3219049499571], [336.54243610220107, 1037.642341452317], [338.1642147621834, 1041.0733107199667], [340.7733097678127, 1046.7760576067915], [340.75538794360256, 1046.7850849128988], [340.91777053244783, 1047.0918081540171], [341.06474289554626, 1047.4130483481458], [341.13312350099415, 1047.378604719532], [343.61274962822836, 1052.858588704236], [345.60118540378494, 1051.9306502743646], [351.59832433256656, 1049.2353793499346], [350.2270176331553, 1045.6830353548605], [350.2422734362406, 1045.6767481030477], [350.10081053667784, 1045.3560982652214], [349.76101134908697, 1044.4758549147823], [349.6990241366257, 1044.3072493817021], [348.52862278801217, 1041.1237517623492], [348.40897129163056, 1040.7982990838009], [348.40588683684206, 1040.7995614278427], [347.0607871714808, 1037.2425134412279], [345.92568341554113, 1034.0758590955008], [348.55422359737145, 1032.780633976136], [352.40279690294136, 1030.963248740448], [347.98214913970355, 1021.4997702830373], [347.9865459166963, 1021.4976721679886], [347.83420145086933, 1021.1830520460067], [347.6868802103017, 1020.8676748748092], [347.68248783609255, 1020.8697347507028], [343.26113758369786, 1011.7388106427422], [340.39798961116486, 1013.1116559548659], [333.6476405526715, 1016.0868153606565], [333.63249732511207, 1016.0535001977512], [333.3149349341251, 1016.2334525555334], [333.00705290666644, 1016.3691489620348]]]}, "properties": {"id": 24, "height_median_m": 6.0, "building_count": 10, "area_m2": 448.8995560204975}}, {"type": "Feature", "geometry": {"type": "Polygon", "coordinates": [[[281.57369371981014, 1317.3036819506035], [272.88910224580707, 1321.744834997972], [274.55705235079614, 1325.0214364401493], [280.4131083983148, 1336.6366579452729], [283.12078319838406, 1342.1164862368664], [287.54346931059126, 1351.085320401323], [287.59406511578374, 1351.060389088394], [293.15293081103175, 1362.1398041854407], [293.12477589177877, 1362.1543082618648], [296.19018975969294, 1368.2340571313605], [296.35233484539236, 1368.1505276886487], [300.50744469028666, 1376.6967325551418], [300.5729735049069, 1376.6629752239025], [305.032172075841, 1385.3763680294435], [305.074845801679, 1385.3543845538297], [309.35211809731527, 1393.8376571311849], [309.47464412662447, 1393.7745375435532], [313.7721686584895, 1402.297977131179], [313.8501397680069, 1402.25781012089], [318.1922192196677, 1410.869617131295], [318.2367741395484, 1410.8466645539065], [322.51404643492356, 1419.329937131282], [322.6586949764171, 1419.2554210766825], [326.93155287133334, 1427.9028877436251], [327.0460448586727, 1427.843906912607], [330.0779772882798, 1433.7999808633324], [338.7387651496971, 1429.3710005804387], [338.4914220607036, 1428.8103551968813], [341.99527769993387, 1426.9042541657507], [337.5076422678008, 1418.2580604044879], [337.5739386719178, 1418.2219950932363], [333.42597406835034, 1410.1458574604533], [333.3670400607248, 1410.1766845374557], [329.00327782114937, 1401.6803862775234], [328.986020507543, 1401.6897742736753], [324.69097632137994, 1393.2353030717625], [324.6754963322064, 1393.242725541985], [320.2614000445152, 1384.6484262778165], [320.1987328075731, 1384.682517318435], [316.9711295681248, 1378.3045407041755], [316.29113383978836, 1376.9608201377446], [315.84587403261315, 1376.0809546689272], [315.8350671666556, 1376.0866075016863], [311.18236765773906, 1367.162951762459], [311.25008199650375, 1367.126115093317], [307.099471706908, 1359.0448262775951], [307.0822143933016, 1359.054214273747], [302.7847533778576, 1350.594985725304], [302.7194963151095, 1350.627527308094], [298.3651894214623, 1342.0231030712446], [298.3407767625604, 1342.0352768732403], [293.8141175643576, 1332.9898830760476], [293.86832200795, 1332.962853076324], [290.9645411492055, 1327.2247728241503], [285.39714070095397, 1316.1981431880015], [281.8846217769879, 1317.9497225656698], [281.57369371981014, 1317.3036819506035]]]}, "properties": {"id": 25, "height_median_m": 6.0, "building_count": 1, "area_m2": 1726.1245703057987}}, {"type": "Feature", "geometry": {"type": "Polygon", "coordinates": [[[360.1512979585549, 1068.6767322533572], [360.1527107655053, 1068.6797344737386], [355.78855025844183, 1069.5276300999294], [350.76152497732875, 1070.8681726805191], [347.81008455031105, 1071.76874208399], [379.96593803591225, 1137.906707575253], [380.66291019634855, 1137.5712692052575], [408.35871396593234, 1192.6783862832356], [417.30003090684806, 1188.2240955249194], [417.3017608865272, 1188.2274566345789], [417.61091843100735, 1188.069220864409], [417.9266423114485, 1187.9119368790498], [417.9183305466103, 1187.8957882771772], [426.4674109646548, 1183.570352599143], [426.4496785247529, 1183.5348876530497], [441.7915339038014, 1175.7774016630005], [432.5376662266205, 1157.452675590803], [417.198381624961, 1165.2088616878004], [400.02730160901183, 1130.847013331862], [399.37307665246504, 1131.1765494815277], [368.6484355783004, 1067.9391599781693], [367.2307675395054, 1068.07305109892], [363.0071636699964, 1068.407011098865], [360.1512979585549, 1068.6767322533572]]]}, "properties": {"id": 26, "height_median_m": 3.0, "building_count": 26, "area_m2": 3052.272766550728}}, {"type": "Feature", "geometry": {"type": "Polygon", "coordinates": [[[360.2133794772737, 1499.6140257455959], [363.2731803095831, 1506.1780393245592], [364.8459765039609, 1505.286786482054], [363.4464109568452, 1501.585706227338], [370.93084299426494, 1497.917653399399], [370.9325304000676, 1497.921113926974], [371.8121238606413, 1497.478058614888], [372.5993089396066, 1499.1508300344562], [373.60430074092613, 1498.6331060177504], [375.7609768878474, 1505.3547592376465], [374.7496835996013, 1505.698599598753], [374.76044894387974, 1505.7243567298792], [371.1290908648044, 1507.2815906728947], [373.1646559126908, 1512.2800430779407], [377.8544025374721, 1510.1252906011407], [380.52328910747326, 1517.183026056076], [380.28094146907745, 1517.2654244071325], [380.77205819828976, 1518.8239044072723], [379.7826516977302, 1519.1603032465875], [379.78544665990756, 1519.168539083864], [375.84999802532536, 1520.6180987071414], [377.6608356529429, 1525.6205470044354], [382.36129123944346, 1523.8448160187486], [382.84332823855135, 1525.3744829548396], [383.3585982493462, 1525.2284895122323], [385.58500214267724, 1532.2936244075313], [380.6599216006462, 1533.9681549217285], [382.4737795973789, 1538.9789470043], [387.07691598625905, 1537.2399811179525], [389.87525650425704, 1544.1114745686812], [389.599025926893, 1544.1897400452235], [390.0901426560449, 1545.6369000454579], [389.3043558895232, 1545.8595400452862], [389.3131112029131, 1545.885339083636], [385.37766256831094, 1547.334898706921], [387.18850019591935, 1552.3373470041897], [391.86112570290527, 1550.572129624154], [393.1908047507633, 1554.5907227029193], [395.08515668857467, 1559.2424178237695], [394.1192210675672, 1559.570836549171], [394.12215071085507, 1559.579137220669], [390.19060651275606, 1561.027258707154], [391.99746830927387, 1566.0187237505043], [395.923783844053, 1564.683773973096], [395.927702776488, 1564.6948776357506], [396.82845495793566, 1564.3545928422247], [398.51690301266547, 1568.4551172119056], [399.9256106299871, 1572.9254244073895], [398.92268370630075, 1573.266420198761], [398.9269864452816, 1573.2776073410225], [395.10275195240456, 1574.7223208499624], [396.91161403410365, 1579.7193116914548], [397.9621552551901, 1579.3323616183948], [401.77180720937287, 1578.0137964657158], [402.4229222422765, 1579.5950787869428], [402.6930280133875, 1579.5032426531254], [404.9649753228733, 1586.7129022591855], [400.10908734350687, 1588.4062407201607], [401.92200206644145, 1593.4144270040938], [406.80738278508846, 1591.5688352828313], [409.34383966719616, 1598.7554765489444], [409.3362994319946, 1598.7580402337048], [409.92563950689134, 1600.3165202337036], [408.94824519204747, 1600.648834921844], [408.9512655611788, 1600.6571787071655], [405.0091997070886, 1602.1091756775822], [405.73115584739577, 1603.881982402828], [406.82544972381174, 1607.1065077199185], [411.7319858976529, 1605.2992635172634], [412.32708259320464, 1606.985373973052], [412.6452708899307, 1606.8771897499505], [414.85264225044415, 1613.8819279615384], [413.7547811469154, 1614.2212674823336], [413.7624648430299, 1614.241949469702], [409.9317543567711, 1615.6891094699988], [411.7471127411405, 1620.575458255651], [415.5778232275964, 1619.1282982553457], [415.5815198457587, 1619.1382483378318], [416.64961208001915, 1618.6980640490444], [417.2317162253712, 1620.457315420931], [417.3426392711459, 1620.419601514874], [419.6933848348176, 1627.3464780591898], [414.8425892140427, 1629.0380407200032], [416.6555039369687, 1634.046227004369], [421.46085554601024, 1632.2308685583068], [422.0583997474424, 1633.8110439556958], [422.2806642636197, 1633.7354738789422], [424.48144708086943, 1640.7193044074897], [423.48530037112073, 1641.0579949218743], [423.48929888971526, 1641.0690408501387], [419.6558655911926, 1642.517229469863], [421.46811749827884, 1647.3952166379886], [426.2822340116291, 1645.716444664265], [426.98421410011315, 1647.5349107691386], [427.2449844898888, 1647.416694638106], [429.60354875631435, 1654.3666103343742], [424.6675964883153, 1656.0878687020418], [426.4751633214432, 1661.2093176356905], [427.3206015373889, 1660.8899292682079], [431.4778751772802, 1659.3194007358434], [432.0578607638179, 1661.0722493402352], [432.0641749931059, 1661.0704603052607], [434.58389670981904, 1668.2096851829035], [433.49560697601356, 1668.5460662748544], [433.5034576998155, 1668.5668271166048], [429.6799507868131, 1670.0112657618515], [430.6948482585617, 1672.8868139731885], [434.63098801033277, 1671.5485239557588], [434.6343184710055, 1671.5573311904452], [434.9558929521799, 1671.43805606902], [435.2941073494556, 1671.3230629589757], [435.29064045928556, 1671.3138949433885], [441.9545171284503, 1668.8421978859146], [441.9545171284504, 1668.8421978859144], [446.0895304922869, 1667.3084809713587], [444.78028045402135, 1663.6560022423585], [445.29872083996725, 1662.2850128809632], [445.40390794420637, 1661.3313146860348], [445.40390794420637, 1660.3959140048519], [445.29319582532844, 1659.6430701887543], [444.97618977012655, 1659.044279853778], [444.65804076027825, 1658.3231407505325], [443.9994132291543, 1657.7011024747412], [443.1791245833202, 1657.1200635979937], [442.2445302202279, 1656.5904591357466], [439.8828092046273, 1650.0018507555394], [440.3863635685896, 1648.4799947214378], [440.492740654031, 1647.7566291878302], [440.492740654031, 1646.926194004848], [440.3889819779104, 1646.220633687915], [440.2778450954239, 1645.7168122126366], [439.9572789433836, 1645.111297237725], [439.53335295262167, 1644.3906217061735], [438.9911020469704, 1643.8989799661172], [438.37915950327965, 1643.4366225131346], [437.1926364873277, 1642.6682061717602], [434.9036806243928, 1636.2825942892223], [435.2726813018636, 1635.0279896402337], [435.4833500181254, 1634.3117146662316], [435.4833500181254, 1632.75419924678], [435.2740751235252, 1632.1612526035863], [435.16527644658817, 1631.668031012394], [434.7297716906913, 1631.0510647885812], [434.1923229729417, 1630.3201331662071], [433.55793445305073, 1629.9606456659642], [432.22866826776027, 1628.9563093380573], [429.9637552730439, 1622.8352253410796], [430.45808342253156, 1621.3412530295213], [430.67040607368034, 1620.6193546663937], [430.67040607368034, 1619.7641140050214], [430.56664739756286, 1619.058553687692], [430.4562733335944, 1618.55819032949], [430.01431979886974, 1617.681647513942], [429.4776787910766, 1617.195092090611], [428.87694568663903, 1616.6277319868711], [427.26064858958097, 1615.4065274529778], [425.09769277265315, 1609.2291140925947], [425.5421694843862, 1608.221631662726], [425.759238783505, 1607.4835946663375], [425.759238783505, 1605.5921192465028], [425.5266981602439, 1604.9332529160035], [425.10583763763424, 1604.337032727429], [424.692764291679, 1603.7518443937522], [424.06400174221085, 1603.1580119868831], [422.4900399462501, 1601.9687941843708], [420.2512028919611, 1595.820591704004], [420.63740277736827, 1594.5075096394803], [420.8480714933296, 1593.7912346660758], [420.8480714933296, 1593.2098291879033], [420.95080631139064, 1592.5112311183802], [420.8331723061901, 1591.8446371759514], [420.5127273528196, 1591.2393511322887], [420.2100510889156, 1590.6676282318908], [419.89255237598223, 1590.1878515023152], [419.45179087920144, 1589.6883208719753], [418.7151677623512, 1589.2112688187785], [417.5932014104369, 1588.5754866977557], [415.3541678371419, 1582.1807948590363], [415.7281662766306, 1580.697264942775], [415.93690420315426, 1579.9875546661522], [415.93690420315426, 1578.6819860607561], [415.8259956262588, 1578.0535029499765], [415.6074093748049, 1577.5580398538514], [415.287469460856, 1576.953707775682], [414.7522679464598, 1576.3471449257415], [414.34449737662726, 1576.0005392934268], [413.8204157788566, 1575.5253710898044], [412.71971521356824, 1574.9907441016685], [410.329933375996, 1568.165514415283], [410.81680144819626, 1567.2458730038402], [410.92305950721214, 1566.523316851439], [411.0257369129789, 1565.9414771319614], [411.0257369129789, 1565.3235860608127], [410.9208969661517, 1564.7294919191036], [410.8135706750625, 1564.2429451562377], [410.5910909693967, 1563.7386568807353], [410.2771464580145, 1563.2642509543716], [409.8556888850423, 1562.6671849431336], [409.4214018844406, 1562.29804030253], [408.79299471438617, 1561.8232428865115], [407.68228152297445, 1561.319718632198], [405.4307654932457, 1554.621445922615], [405.8937293549274, 1553.5720592078608], [406.1145696228035, 1552.9463439457923], [406.1145696228035, 1551.5199060608822], [406.0097296759749, 1550.9258119187425], [405.9024033848739, 1550.4392651562555], [405.67992367922125, 1549.934976880783], [405.3554971971191, 1549.4447315023851], [404.8250086732257, 1548.8435100512363], [404.17649746157593, 1548.3535228865076], [403.1061061040255, 1547.8682778976995], [400.7077174779926, 1541.2819214358883], [401.18277972515546, 1540.2051116627847], [401.3998490242631, 1539.4670746659967], [401.3998490242631, 1538.8856691878393], [401.5018367146414, 1538.1921515964723], [401.3943136938712, 1537.4609936876248], [401.27939787852483, 1536.9400410185033], [400.95827531136047, 1536.4547882320117], [400.6521909362634, 1535.8766277758064], [400.11698942188127, 1535.2700649258818], [399.6906293025483, 1534.9076581466845], [399.17214844339304, 1534.5550905034502], [398.2394303365556, 1534.026549255381], [395.9704375241854, 1527.7520160693036], [396.4680591266103, 1526.624071662689], [396.67783271024757, 1525.9108401446647], [396.78711611611425, 1525.1677115965304], [396.6851284255482, 1524.474194004708], [396.6851284255482, 1523.847883847736], [396.4506835462294, 1523.4493268076403], [396.2504824821212, 1522.9955368807312], [395.9365379705752, 1522.5211309544009], [395.5150803977921, 1521.9240649431656], [395.07413204965366, 1521.5492581467372], [394.55565119062356, 1521.1966905035881], [393.50182390092795, 1520.5995205899885], [391.2552552861395, 1514.2851532664372], [391.6588861509297, 1513.1415303449032], [391.8648887659833, 1512.4411201446596], [391.9704078270078, 1511.723589187997], [391.9704078270078, 1510.88810606109], [391.859499250121, 1510.2596229499127], [391.6513442133865, 1509.7878039846823], [391.4367123224114, 1509.17967915715], [391.0148887096708, 1508.7016115023982], [390.700532774881, 1508.2265838683898], [390.0449922621016, 1507.731285666066], [388.79050350271365, 1507.0204073737875], [387.62155574311885, 1503.6574283016987], [385.7138429593707, 1499.8737908747025], [386.06955993605817, 1498.8659242232486], [386.1752304245625, 1498.0276034467472], [386.1752304245625, 1496.8420285264285], [385.95816112546, 1496.1039915300948], [385.74433885361077, 1495.619326807495], [385.53020421993716, 1495.255297249882], [385.09749236861046, 1494.6422876478355], [384.4646487225714, 1494.1641382213325], [383.84426488026537, 1493.6954028869163], [382.50303462679926, 1493.0873773681228], [379.5239991888773, 1487.1533684136596], [380.01784841318334, 1486.9294896799083], [377.9285964567751, 1482.8515717567855], [376.26078269376245, 1483.6298863011084], [376.25571367120824, 1483.6198327209152], [375.9479358450522, 1483.7758817700853], [374.158382351906, 1484.61100829467], [374.15838235190097, 1484.6110082946727], [374.15838235189796, 1484.611008294674], [372.20583347875004, 1485.6731968673157], [371.9008449803766, 1485.8278316757207], [371.9298371614501, 1485.8862456608715], [368.3753400289815, 1487.717353666304], [369.75590900767725, 1490.7348886463778], [368.760426524871, 1491.2989964409142], [369.44027046283344, 1492.619838561014], [368.5630144156492, 1493.0617165071176], [368.5650424601219, 1493.0658756156201], [364.9275585129003, 1494.959992418898], [365.95481038026867, 1497.0112388708808], [360.2133794772737, 1499.6140257455959]]]}, "properties": {"id": 27, "height_median_m": 3.0, "building_count": 58, "area_m2": 2724.179575394582}}, {"type": "Feature", "geometry": {"type": "Polygon", "coordinates": [[[461.5847945416752, 1247.4842977088417], [466.59410068308875, 1258.2473686627432], [467.97124868805236, 1257.578466952537], [475.0882682275835, 1272.6204120426733], [485.55274212905994, 1294.7586288105845], [491.48668340655166, 1291.8942147651646], [490.6990115524977, 1290.2204089469708], [493.1560360604796, 1288.9951704353025], [472.2260334073371, 1245.0553716181264], [470.0688662784714, 1246.1666416102619], [468.99112412962836, 1243.834795148012], [461.5847945416752, 1247.4842977088417]]]}, "properties": {"id": 28, "height_median_m": 9.0, "building_count": 1, "area_m2": 497.9968623573744}}, {"type": "Feature", "geometry": {"type": "Polygon", "coordinates": [[[443.4178645408086, 1256.608995750229], [448.222359116349, 1267.3808319848447], [449.7990587976562, 1266.5990502647473], [456.326889809956, 1280.6339131763848], [466.9854761468057, 1303.5515768533162], [473.0208587111929, 1300.6911659513223], [472.133931671121, 1298.792481553124], [474.59222661395165, 1297.5666095170689], [453.8654432332054, 1254.1997201476408], [451.4133418417086, 1255.3113415230594], [450.4268783633546, 1253.1871528620063], [443.4178645408086, 1256.608995750229]]]}, "properties": {"id": 29, "height_median_m": 9.0, "building_count": 1, "area_m2": 489.46748071382706}}, {"type": "Feature", "geometry": {"type": "Polygon", "coordinates": [[[500.0041744068931, 1308.0763705381682], [493.4032018994629, 1311.3876842480727], [503.7725579945756, 1332.4056102711575], [515.9117615272894, 1356.9892017400186], [521.8363545551732, 1354.0049567105734], [521.1500845958852, 1352.560519143925], [523.4105677025672, 1351.4466558204074], [502.67483333191694, 1308.2870049492917], [500.69064440179716, 1309.2989431950466], [500.0041744068931, 1308.0763705381682]]]}, "properties": {"id": 30, "height_median_m": 9.0, "building_count": 1, "area_m2": 472.4672946596839}}, {"type": "Feature", "geometry": {"type": "Polygon", "coordinates": [[[475.03409199329076, 1320.1760820647826], [484.3228975119577, 1339.1931990191124], [497.2425132970703, 1366.1124282798526], [503.47175951814745, 1363.13987014062], [502.7839164103489, 1361.692121464727], [505.33840012960474, 1360.4672769814802], [484.50824627387567, 1316.8667267072735], [482.63883492916716, 1317.7587983495598], [482.14726928044024, 1316.756002551762], [475.03409199329076, 1320.1760820647826]]]}, "properties": {"id": 31, "height_median_m": 9.0, "building_count": 1, "area_m2": 494.0162054903648}}, {"type": "Feature", "geometry": {"type": "Polygon", "coordinates": [[[530.1788989759108, 1369.5167451132702], [523.2648130209316, 1372.9449858076896], [532.3542553317413, 1391.7365273090586], [545.5723320475219, 1418.8816709355326], [551.599108598516, 1415.9011504152356], [550.9133558541023, 1414.4578014647861], [553.4684780582567, 1413.2326508356437], [532.6370473401353, 1369.8553513369288], [530.7705365646211, 1370.7460388457591], [530.1788989759108, 1369.5167451132702]]]}, "properties": {"id": 32, "height_median_m": 9.0, "building_count": 1, "area_m2": 487.6127169402267}}, {"type": "Feature", "geometry": {"type": "Polygon", "coordinates": [[[511.22308075574, 1378.5291175303714], [504.8986381137182, 1381.7422311779967], [514.0842904374754, 1400.7525732618465], [527.3006736637021, 1428.1194809539552], [533.4202107482382, 1425.1471288138252], [532.633652049206, 1423.3642590966556], [534.8994736713803, 1422.2477651954548], [514.6673072892328, 1378.9860635343146], [512.014521536082, 1380.210932332294], [511.22308075574, 1378.5291175303714]]]}, "properties": {"id": 33, "height_median_m": 9.0, "building_count": 1, "area_m2": 489.57056334770243}}, {"type": "Feature", "geometry": {"type": "Polygon", "coordinates": [[[559.6381165842505, 1431.5273044148296], [553.1211130697212, 1434.7278832345855], [562.215684572415, 1453.0769650936488], [571.2960711403633, 1471.2506521822174], [569.8239648568974, 1472.0292342942394], [575.1386569679177, 1482.7767428759194], [582.842308844709, 1479.017639053621], [581.6668278224198, 1476.686264001354], [583.8222294226133, 1475.6869395734548], [562.5925059585793, 1431.7456488999383], [560.32547195686, 1432.8627402062727], [559.6381165842505, 1431.5273044148296]]]}, "properties": {"id": 34, "height_median_m": 9.0, "building_count": 1, "area_m2": 513.9207731772101}}, {"type": "Feature", "geometry": {"type": "Polygon", "coordinates": [[[544.4220976806118, 1440.5309217652912], [542.0626257974174, 1441.7565386179524], [541.3785368880474, 1440.3166916506648], [534.8534175656469, 1443.5212562412921], [543.6496948124103, 1461.5336667283657], [552.8237468863421, 1480.3582106331592], [551.3524648188915, 1481.0251930836941], [556.5679042043324, 1491.9011430122778], [564.3723815900853, 1488.2661741475579], [563.0970495106168, 1485.5977820392948], [565.058653409203, 1484.7085199428245], [544.4220976806118, 1440.5309217652912]]]}, "properties": {"id": 35, "height_median_m": 9.0, "building_count": 1, "area_m2": 513.4246632192035}}, {"type": "Feature", "geometry": {"type": "Polygon", "coordinates": [[[492.7465688582606, 1559.497737242431], [493.6205695557501, 1561.9190474042164], [485.85682939541346, 1564.8148951389571], [503.85218546082655, 1612.7762341446416], [504.12903215548516, 1613.717514665726], [504.12903215548516, 1614.2076993449732], [504.36347703500616, 1614.6062563850585], [504.5840985295146, 1615.1063327073978], [505.0381417268928, 1615.4922701464827], [505.47726412958355, 1615.8655248869877], [506.18314527661266, 1616.1321915963276], [507.4031384191025, 1616.1321915963276], [507.97747964946916, 1615.8718230854683], [508.41292745520064, 1615.6250688673042], [508.89223968853594, 1615.2176527075117], [509.12108069900523, 1614.6989454475015], [509.3735271413405, 1614.126732441911], [508.65664565454404, 1612.0955644328449], [512.00859854221, 1610.8665127432203], [510.7287686769037, 1607.6308342665814], [513.277511664002, 1606.6309409177038], [503.94784817687196, 1581.922017536627], [510.0249071069609, 1579.6262354265127], [519.4650163882839, 1583.7086762820077], [522.0467923832058, 1584.8536399507025], [527.129842189787, 1572.979336777109], [524.8644873022895, 1571.8630728618514], [524.8692645948782, 1571.8512291351692], [524.5670298474346, 1571.716499349237], [524.234835574286, 1571.5528091115539], [524.2295003936971, 1571.566035938155], [510.4880753744712, 1565.4404025789731], [517.5123177853211, 1561.7661766033516], [535.5055849842875, 1552.4737691357202], [535.4994059607498, 1552.4625644854252], [545.8071701911656, 1547.1390509827286], [543.6358862356308, 1542.7853401436762], [539.0088044954496, 1533.8267790283962], [530.0266941817666, 1538.3777234276663], [530.0576309548596, 1538.4338222143913], [513.3299973994561, 1547.06298999963], [513.3458042762264, 1547.0916531897583], [502.96335616161514, 1552.4537376824887], [500.2108413232907, 1553.4519849295996], [500.90819840010244, 1555.597192137973], [492.7465688582606, 1559.497737242431]]]}, "properties": {"id": 36, "height_median_m": 6.0, "building_count": 4, "area_m2": 1653.7319221674272}}, {"type": "Feature", "geometry": {"type": "Polygon", "coordinates": [[[539.2857616615291, 1627.830751735532], [547.2797281479379, 1623.8444196625107], [545.7092775230449, 1620.6184463072711], [570.9474380931946, 1608.264490919456], [567.9018410947617, 1601.7309480021272], [563.7689074503537, 1603.7383766676437], [559.7409144318794, 1595.6103300333107], [530.6311052499696, 1609.9444283837583], [539.2857616615291, 1627.830751735532]]]}, "properties": {"id": 37, "height_median_m": 3.0, "building_count": 1, "area_m2": 593.5126387715497}}, {"type": "Feature", "geometry": {"type": "Polygon", "coordinates": [[[586.921012909139, 1510.425749049565], [588.0996930587964, 1512.9861090498723], [588.0919640171915, 1512.9900508684605], [588.2421514991588, 1513.2955610182596], [588.3926509124922, 1513.6224797994748], [588.400816214767, 1513.6183154875291], [592.0746112645854, 1521.0915193877395], [594.6280673631327, 1526.3228405067655], [596.8599210983714, 1530.9157691474134], [598.3617655838134, 1534.0064127868577], [599.3318065265227, 1536.0026586689355], [600.915905365109, 1539.2391234677725], [601.0637128249749, 1539.541939829795], [601.0645831546339, 1539.5415452796121], [604.7454228733769, 1547.0290793875008], [607.298446707735, 1552.2595149178637], [609.5556182603615, 1556.9718643362933], [611.0359622421807, 1560.062412812188], [612.0710831878608, 1562.2234588260383], [612.3794215726227, 1562.8671840255788], [613.5859632142381, 1565.2864592242076], [613.7415483734896, 1565.6052099283706], [613.7442448233928, 1565.603834736349], [617.4166737005073, 1572.9675392241916], [619.9692583163647, 1578.1970749176514], [622.2264298693052, 1582.9094243369757], [623.7067738508445, 1585.999972812442], [624.1684335936745, 1586.9637905684367], [626.2562489704142, 1591.2229418986208], [626.4123599821176, 1591.54276992813], [626.4128936949722, 1591.5424977340654], [627.884931457976, 1594.5454603840335], [634.3063663745357, 1591.3383648603237], [632.8388717341894, 1588.3446701979015], [635.785019350973, 1587.0090807814547], [632.9240367223136, 1581.147723362783], [629.9778821233232, 1582.483315944107], [626.5446180724406, 1575.4180067165214], [629.3936349823315, 1573.9705724314174], [626.532737623169, 1568.109389706221], [623.6833702362609, 1569.5570020500961], [620.1635846390217, 1562.3970829214297], [623.1094025619948, 1560.9503563039245], [620.2485434840856, 1555.0892520063655], [617.304179189331, 1556.5352647296522], [613.8768194916579, 1549.3798863715683], [616.7276666115607, 1548.042934878533], [613.866771184149, 1542.1817561105138], [611.0156426173006, 1543.5188395931857], [607.4945764215187, 1536.4586372545466], [610.4385909533571, 1535.0127963037257], [607.5824135050748, 1529.1612833627412], [604.6362589059098, 1530.496875944065], [601.2029948550243, 1523.4315667164717], [604.0520117649147, 1521.9841324313684], [601.1911144057525, 1516.1229497061722], [598.3417470188502, 1517.5705620500446], [594.8219614217707, 1510.4106429213762], [597.7762034227584, 1508.959779137738], [596.1757103346074, 1505.8901097327564], [589.5289282533643, 1509.1476378514099], [589.5095681809689, 1509.105583393319], [589.1893458271732, 1509.2688970990157], [588.8814935507595, 1509.4152099597923], [588.8854798251213, 1509.4238690497307], [586.921012909139, 1510.425749049565]]]}, "properties": {"id": 38, "height_median_m": 6.0, "building_count": 15, "area_m2": 807.6708533731698}}, {"type": "Feature", "geometry": {"type": "Polygon", "coordinates": [[[573.4706246348018, 1520.9649411427174], [576.9855635821536, 1528.1150012557107], [574.0397871287101, 1529.4504224111288], [576.9007697573696, 1535.3117798298006], [579.8469243563601, 1533.9761872484764], [583.2801884072427, 1541.041496476062], [580.431171497361, 1542.4889307611613], [583.2920688565221, 1548.350113486798], [586.1414362434392, 1546.9025011425224], [589.6612218406611, 1554.0624202711533], [586.7154039176977, 1555.5091468886542], [589.5762629956014, 1561.3702511866447], [592.5206272905336, 1559.924238462961], [595.9527217734476, 1567.0895017423766], [593.1019831059783, 1568.5378107610377], [595.9628804651219, 1574.3989934866388], [598.8122478522142, 1572.9513811427582], [602.3271867995668, 1580.1014412557524], [599.3814103459487, 1581.4368624111703], [602.2423929746083, 1587.2982198298423], [605.1885475737733, 1585.962627248518], [608.621811624659, 1593.0279364761118], [605.7727947147685, 1594.4753707612151], [608.6336920739309, 1600.3365534864115], [611.4827023952727, 1598.8891225486], [612.9546898586348, 1601.891982587107], [619.1720508128788, 1598.8014757512688], [617.7954767719027, 1595.7926725799628], [617.8030458434906, 1595.788812346236], [617.6541071578406, 1595.4836784173135], [617.4090168047621, 1594.9479799298742], [615.0981648782667, 1590.2472638050735], [614.9421405005531, 1589.9276132645061], [614.9412494418651, 1589.9280677052864], [611.2674543919999, 1582.4548638049805], [608.7139982935381, 1577.2235426861296], [606.5527757677064, 1572.775965911282], [604.9752431290553, 1569.52956372855], [604.832705597545, 1569.2362359443391], [604.8301171198433, 1569.237409389757], [602.3289751219734, 1564.1980620184208], [600.0976270810559, 1559.6061740454004], [598.5957825956108, 1556.5155304059497], [598.441177238039, 1556.197368259579], [598.4406184056666, 1556.1976532646215], [596.0436189490247, 1551.2868682748556], [592.4591662066911, 1543.8035231227914], [592.4640485048334, 1543.8010331460848], [592.3104866661048, 1543.493121396437], [592.1566785337639, 1543.1720125900888], [592.1516278243263, 1543.1745884567165], [589.7558828332736, 1538.3708036231067], [585.9258311746064, 1530.5797438050931], [583.3728073402368, 1525.3493082751017], [579.7883545978821, 1517.8659631226137], [579.7932368960313, 1517.8634731459035], [579.6396750573089, 1517.5555613962704], [579.4858669249701, 1517.2344525899105], [579.480816215525, 1517.2370284565422], [578.2039127201627, 1514.676668456685], [575.927191634658, 1515.8377983805376], [572.9841565636028, 1517.2831583060763], [569.032386438903, 1519.219886490908], [570.6239515914475, 1522.4111846336307], [573.4706246348018, 1520.9649411427174]]]}, "properties": {"id": 39, "height_median_m": 6.0, "building_count": 15, "area_m2": 792.196068094343}}, {"type": "Feature", "geometry": {"type": "Polygon", "coordinates": [[[640.9350044929788, 1616.9747821104547], [642.3093800902108, 1619.6450025481981], [642.300620349215, 1619.649740780594], [642.4685983365977, 1619.9543414337402], [642.6297973141823, 1620.2675286042318], [642.6386660294486, 1620.2627314265521], [644.1128224558314, 1622.9358734096932], [646.9141392682825, 1621.4031960587456], [648.7573257322417, 1624.7455137608472], [650.5993571516149, 1628.0857369785808], [647.7124153534087, 1629.6652621104574], [649.0867909508155, 1632.3354825482015], [649.0780312098511, 1632.3402207805805], [649.2460091972154, 1632.6448214337295], [649.4072081748201, 1632.9580086042204], [649.416076890055, 1632.9532114265578], [650.8902333162614, 1635.6263534096956], [652.8029166403707, 1634.5798718416816], [655.0442449121108, 1648.2968265076524], [654.8485529553956, 1648.3237094933759], [655.3968022175845, 1651.6790012500226], [655.8362136419769, 1654.9160047932733], [659.0608955911314, 1654.4730173539458], [659.1549943188876, 1655.5394715964967], [659.4985740093094, 1655.5394715964967], [660.0134376726255, 1658.3597856025483], [660.5811522122669, 1662.8636627016017], [657.8543791950782, 1663.7608606620147], [658.8466777559573, 1666.7598130295396], [659.7327626215935, 1669.7725072045175], [662.359118909373, 1668.9083496490991], [664.6664726372734, 1672.8308583189564], [666.623072148651, 1676.949042131128], [664.3786123036512, 1678.6122475358486], [666.3661470958415, 1681.1150738043189], [668.2377876747446, 1683.7353755129589], [670.4645765122823, 1682.0852648026957], [673.8742179864456, 1684.9476852180746], [677.0927599068266, 1688.1576503604324], [675.4918768171256, 1690.5767671070141], [678.1384517729127, 1692.3264504873719], [680.688453059019, 1694.0855850976905], [682.2705550100372, 1691.6948487915042], [686.5357943414521, 1693.4672960048333], [690.4736668751449, 1695.4959007996085], [689.79689716709, 1698.1804256596238], [692.5439995100123, 1698.9587727784065], [692.5414031329633, 1698.9686705009321], [692.8791681848849, 1699.0537374138032], [693.2176164697466, 1699.1496312737672], [693.2202382506952, 1699.1396367020989], [695.8656736199764, 1699.8058957445435], [696.5907731294511, 1697.2492438061643], [701.0985421724731, 1697.3952099333808], [705.6273494744228, 1697.8618151947376], [705.8038955973565, 1700.7630619046136], [708.9027782692173, 1700.5121995052914], [712.101371138595, 1700.3871967915427], [711.9209734680666, 1697.4226561978849], [716.2308182763453, 1696.2733621005298], [720.6969322616238, 1695.3530702262917], [721.7566274573197, 1697.9552155156437], [724.6369926464823, 1696.6996693683138], [727.6154288180041, 1695.4494592551835], [726.5004586453186, 1692.922188806234], [730.1872433856352, 1690.3287215891066], [734.1332018362308, 1688.09267428689], [735.9711334706211, 1690.0809858627074], [738.2858777403965, 1687.9572958803958], [741.6263048043103, 1685.1179275683332], [744.4995779768988, 1687.4121969508017], [745.7723104233619, 1685.7478514094284], [750.1935601618839, 1689.3038739750302], [754.2572721598215, 1684.0759536322596], [749.2884137652613, 1680.071414344529], [747.5211869649626, 1682.408085259435], [740.9451255291792, 1677.0687059930426], [740.1579070938075, 1678.0724113744548], [734.453320037269, 1673.5021761895161], [732.2006776138969, 1676.5414613305495], [731.2095984140038, 1677.3437650399674], [732.9692259266563, 1678.7514696817148], [729.07797191062, 1682.2028492609288], [726.5639804063186, 1684.5041227089384], [721.0000772354356, 1686.9882134143952], [720.9647858708, 1686.8948871867974], [720.632050982138, 1687.0379252109221], [720.3184919659, 1687.1648421928278], [720.3250971913778, 1687.1823093772978], [714.6882693209857, 1689.5779656999414], [711.2099555561774, 1689.9064737250899], [708.1748772765803, 1690.1283938423153], [705.2244716291841, 1690.2398538196799], [701.7410672790672, 1690.5688426232282], [698.4617478513849, 1689.6943558077085], [695.5161349307589, 1688.9154033792856], [692.6668053139231, 1688.1359301419675], [689.2854978224808, 1687.2600088495817], [686.3890306517637, 1685.2904074919757], [683.9352351832101, 1683.6218234542168], [681.4778633612644, 1681.9508074914863], [678.5768893816474, 1679.9781414978277], [674.8170492477058, 1675.1359140924149], [674.9059526744114, 1675.0704217789862], [674.6842369774503, 1674.7926931762659], [674.4823508931254, 1674.5130430404124], [674.3528003377688, 1674.608478794586], [670.7901244920298, 1669.6094131842008], [668.7395426071472, 1663.7994203159697], [668.8626882942526, 1663.758713748861], [668.7463397815889, 1663.429059013404], [668.6439333662561, 1663.093772197232], [668.5410668270789, 1663.1277753668003], [666.6935703488269, 1657.2269725538658], [666.1085381386803, 1653.1382397983984], [665.7158919523117, 1650.134490858302], [665.3227513723176, 1647.1269597981698], [664.7334112974104, 1643.0081197982695], [664.340237773493, 1640.0003367183838], [664.0356632413906, 1638.0442877333019], [661.8465173659182, 1633.984409611273], [658.6299155687408, 1627.969353006745], [658.6754510363371, 1627.9447224123214], [658.5074730489545, 1627.640121759175], [658.3462740713547, 1627.3269345886938], [658.2568844070285, 1627.3752863611453], [655.3258694339065, 1621.6058039973132], [655.3386553418896, 1621.5989270441191], [655.1677201639553, 1621.2944990629437], [655.0087349548555, 1620.9815486452817], [654.9958814636277, 1620.9884619484017], [653.1045757284008, 1617.6201301999681], [651.7323480487418, 1614.954082867363], [650.3553349398748, 1612.278738111721], [648.1229015919062, 1608.1823924383225], [641.8155341713111, 1611.63332635096], [643.8104660825834, 1615.4015381159452], [640.9350044929788, 1616.9747821104547]]]}, "properties": {"id": 40, "height_median_m": 9.0, "building_count": 21, "area_m2": 1437.4705808551041}}, {"type": "Feature", "geometry": {"type": "Polygon", "coordinates": [[[1180.298544668524, 2332.7005430873064], [1180.298544668524, 2336.817871596412], [1186.0079353044293, 2336.817871596412], [1186.0079353044293, 2332.6933300028018], [1192.7894201600645, 2332.581943086699], [1192.6830294003107, 2323.5387115961366], [1191.1579066337029, 2323.5387115961366], [1154.4658047221074, 2323.651102028414], [1154.4658047221074, 2332.8118630870254], [1180.298544668524, 2332.7005430873064]]]}, "properties": {"id": 41, "height_median_m": 3.0, "building_count": 1, "area_m2": 373.09021541395595}}]}