{"type": "FeatureCollection", "crs": {"type": "name", "properties": {"name": "EPSG:32628_local_enu_m_section_centroid", "lng0": -14.359234039991588, "lat0": 28.072687751990625}}, "features": [{"type": "Feature", "geometry": {"type": "Point", "coordinates": [735.2056714485201, 2569.01535159619]}, "properties": {"osm_id": null, "category": "restauracion", "name": "Brisa Marina", "extrude": false}}, {"type": "Feature", "geometry": {"type": "Point", "coordinates": [643.9561831969189, 2565.2304715962546]}, "properties": {"osm_id": null, "category": "restauracion", "name": "La Puntilla", "extrude": false}}, {"type": "Feature", "geometry": {"type": "Point", "coordinates": [661.0470453667151, 2563.894631596463]}, "properties": {"osm_id": null, "category": "restauracion", "name": "La Ola", "extrude": false}}, {"type": "Feature", "geometry": {"type": "Point", "coordinates": [697.5861300057525, 2559.7757915961843]}, "properties": {"osm_id": null, "category": "restauracion", "name": "Desertico La Strada", "extrude": false}}, {"type": "Feature", "geometry": {"type": "Point", "coordinates": [669.0031363767957, 2559.330511596517]}, "properties": {"osm_id": null, "category": "restauracion", "name": "Irish Times & Simon‘s Kitchen", "extrude": false}}, {"type": "Feature", "geometry": {"type": "Point", "coordinates": [736.286128252425, 2557.883351596216]}, "properties": {"osm_id": null, "category": "restauracion", "name": "Janet", "extrude": false}}, {"type": "Feature", "geometry": {"type": "Point", "coordinates": [685.7993285092269, 2552.3173515964268]}, "properties": {"osm_id": null, "category": "restauracion", "name": "Restaurante da Marty & Davide", "extrude": false}}, {"type": "Feature", "geometry": {"type": "Point", "coordinates": [656.6269948055399, 2550.536231596178]}, "properties": {"osm_id": null, "category": "restauracion", "name": "Las Tapas De Miguel", "extrude": false}}, {"type": "Feature", "geometry": {"type": "Point", "coordinates": [1178.389407714984, 2546.973991596471]}, "properties": {"osm_id": null, "category": "restauracion", "name": "Coronado", "extrude": false}}, {"type": "Feature", "geometry": {"type": "Point", "coordinates": [667.7262328812559, 2544.74759159616]}, "properties": {"osm_id": null, "category": "restauracion", "name": "Posada San Borondon II", "extrude": false}}, {"type": "Feature", "geometry": {"type": "Point", "coordinates": [675.8787705829715, 2539.626871596433]}, "properties": {"osm_id": null, "category": "restauracion", "name": "El Navegante Club & Lounge", "extrude": false}}, {"type": "Feature", "geometry": {"type": "Point", "coordinates": [638.553899177569, 2531.166551596437]}, "properties": {"osm_id": null, "category": "restauracion", "name": "Charly", "extrude": false}}, {"type": "Feature", "geometry": {"type": "Point", "coordinates": [1620.787357214908, 2530.832591596489]}, "properties": {"osm_id": null, "category": "restauracion", "name": "Bar las Tapas", "extrude": false}}, {"type": "Feature", "geometry": {"type": "Point", "coordinates": [68.26915344110171, 2530.2759915963125]}, "properties": {"osm_id": null, "category": "restauracion", "name": "Cofradía de Morro Jable", "extrude": false}}, {"type": "Feature", "geometry": {"type": "Point", "coordinates": [112.07676566958452, 2528.7175115962923]}, "properties": {"osm_id": null, "category": "restauracion", "name": "", "extrude": false}}, {"type": "Feature", "geometry": {"type": "Point", "coordinates": [792.666328743624, 2526.379791596262]}, "properties": {"osm_id": null, "category": "alojamiento", "name": "Igramar Morro Jable", "extrude": false}}, {"type": "Feature", "geometry": {"type": "Point", "coordinates": [640.813036131109, 2501.2214715965024]}, "properties": {"osm_id": null, "category": "restauracion", "name": "Bodega de Jandia", "extrude": false}}, {"type": "Feature", "geometry": {"type": "Point", "coordinates": [748.3675997861411, 2499.106391596306]}, "properties": {"osm_id": null, "category": "alojamiento", "name": "Appartementos Chada", "extrude": false}}, {"type": "Feature", "geometry": {"type": "Point", "coordinates": [956.9939862732997, 2492.315871596444]}, "properties": {"osm_id": null, "category": "alojamiento", "name": "Hotel Riu Palace Calypso", "extrude": false}}, {"type": "Feature", "geometry": {"type": "Point", "coordinates": [760.6455180116668, 2476.953711596472]}, "properties": {"osm_id": null, "category": "finanzas", "name": "Caixabank", "extrude": false}}, {"type": "Feature", "geometry": {"type": "Point", "coordinates": [826.0622663170258, 2473.614111596203]}, "properties": {"osm_id": null, "category": "publico", "name": "Guardia Civil", "extrude": false}}, {"type": "Feature", "geometry": {"type": "Point", "coordinates": [686.5851152755921, 2473.5027915964843]}, "properties": {"osm_id": null, "category": "restauracion", "name": "Punto de Encuentro", "extrude": false}}, {"type": "Feature", "geometry": {"type": "Point", "coordinates": [666.2528826942557, 2470.1631915962153]}, "properties": {"osm_id": null, "category": "restauracion", "name": "Cafe Arena", "extrude": false}}, {"type": "Feature", "geometry": {"type": "Point", "coordinates": [677.8432374991463, 2467.380191596518]}, "properties": {"osm_id": null, "category": "finanzas", "name": "Banco Santander", "extrude": false}}, {"type": "Feature", "geometry": {"type": "Point", "coordinates": [693.0678560986725, 2466.600951596508]}, "properties": {"osm_id": null, "category": "restauracion", "name": "Cafe Leonesa", "extrude": false}}, {"type": "Feature", "geometry": {"type": "Point", "coordinates": [665.8599893109857, 2459.5877915964174]}, "properties": {"osm_id": null, "category": "restauracion", "name": "Los Italianos", "extrude": false}}, {"type": "Feature", "geometry": {"type": "Point", "coordinates": [692.0856226406722, 2458.697231596293]}, "properties": {"osm_id": null, "category": "restauracion", "name": "Sushi", "extrude": false}}, {"type": "Feature", "geometry": {"type": "Point", "coordinates": [758.7792744413966, 2457.917991596283]}, "properties": {"osm_id": null, "category": "finanzas", "name": "BBVA", "extrude": false}}, {"type": "Feature", "geometry": {"type": "Point", "coordinates": [632.2676050461235, 2439.9954715964477]}, "properties": {"osm_id": null, "category": "finanzas", "name": "Canarias Caja Rural", "extrude": false}}, {"type": "Feature", "geometry": {"type": "Point", "coordinates": [947.0734283472187, 2439.550191596385]}, "properties": {"osm_id": null, "category": "publico", "name": "Policia Local", "extrude": false}}, {"type": "Feature", "geometry": {"type": "Point", "coordinates": [661.0470453667151, 2434.540791596377]}, "properties": {"osm_id": null, "category": "restauracion", "name": "Chasesito", "extrude": false}}, {"type": "Feature", "geometry": {"type": "Point", "coordinates": [619.9896868207725, 2428.6408315962444]}, "properties": {"osm_id": null, "category": "restauracion", "name": "Lemon Pie", "extrude": false}}, {"type": "Feature", "geometry": {"type": "Point", "coordinates": [868.9858684332387, 2418.622031596228]}, "properties": {"osm_id": null, "category": "restauracion", "name": "-", "extrude": false}}, {"type": "Feature", "geometry": {"type": "Point", "coordinates": [654.858974581, 2409.0485115962742]}, "properties": {"osm_id": null, "category": "finanzas", "name": "Banca March", "extrude": false}}, {"type": "Feature", "geometry": {"type": "Point", "coordinates": [771.4500860500176, 2396.4693515963945]}, "properties": {"osm_id": null, "category": "restauracion", "name": "Morro Jable Doner KebabPizza Pollo Asado", "extrude": false}}, {"type": "Feature", "geometry": {"type": "Point", "coordinates": [667.922679572891, 2389.790151596252]}, "properties": {"osm_id": null, "category": "restauracion", "name": "Herbania", "extrude": false}}, {"type": "Feature", "geometry": {"type": "Point", "coordinates": [679.1201409945115, 2380.995871596308]}, "properties": {"osm_id": null, "category": "restauracion", "name": "Parque Infantil", "extrude": false}}, {"type": "Feature", "geometry": {"type": "Point", "coordinates": [621.3648136620425, 2366.412951596346]}, "properties": {"osm_id": null, "category": "restauracion", "name": "Cafeteria San Francisco", "extrude": false}}, {"type": "Feature", "geometry": {"type": "Point", "coordinates": [662.2257255163503, 2360.067711596151]}, "properties": {"osm_id": null, "category": "restauracion", "name": "San Francisco", "extrude": false}}, {"type": "Feature", "geometry": {"type": "Point", "coordinates": [538.366086457887, 2333.796191596434]}, "properties": {"osm_id": null, "category": "alojamiento", "name": "Appartementos Casablanca", "extrude": false}}, {"type": "Feature", "geometry": {"type": "Point", "coordinates": [616.5518697175974, 2324.22267159648]}, "properties": {"osm_id": null, "category": "restauracion", "name": "Estrella del Mar", "extrude": false}}, {"type": "Feature", "geometry": {"type": "Point", "coordinates": [641.5005995517439, 2308.081271596498]}, "properties": {"osm_id": null, "category": "restauracion", "name": "El Dorado", "extrude": false}}, {"type": "Feature", "geometry": {"type": "Point", "coordinates": [611.444255735787, 2285.817271596154]}, "properties": {"osm_id": null, "category": "salud", "name": "Farmacia Soto", "extrude": false}}, {"type": "Feature", "geometry": {"type": "Point", "coordinates": [509.4884227915652, 2276.4663915964293]}, "properties": {"osm_id": null, "category": "alojamiento", "name": "Hotel La Colina", "extrude": false}}, {"type": "Feature", "geometry": {"type": "Point", "coordinates": [542.3932436357925, 2271.56831159614]}, "properties": {"osm_id": null, "category": "alojamiento", "name": "Appartementos Alberto", "extrude": false}}, {"type": "Feature", "geometry": {"type": "Point", "coordinates": [633.9374019249333, 2256.094831596449]}, "properties": {"osm_id": null, "category": "restauracion", "name": "Piccola Italia", "extrude": false}}, {"type": "Feature", "geometry": {"type": "Point", "coordinates": [607.6135452495166, 2255.5382315962725]}, "properties": {"osm_id": null, "category": "restauracion", "name": "Tacita De Plata", "extrude": false}}, {"type": "Feature", "geometry": {"type": "Point", "coordinates": [642.7775030471092, 2231.6044315961894]}, "properties": {"osm_id": null, "category": "restauracion", "name": "Casa Pepe", "extrude": false}}, {"type": "Feature", "geometry": {"type": "Point", "coordinates": [725.1868901765343, 2229.1553915964405]}, "properties": {"osm_id": null, "category": "alojamiento", "name": "Appartementos Balper", "extrude": false}}, {"type": "Feature", "geometry": {"type": "Point", "coordinates": [641.5988228974742, 2223.5893915962556]}, "properties": {"osm_id": null, "category": "restauracion", "name": "Rayos del Sol", "extrude": false}}, {"type": "Feature", "geometry": {"type": "Point", "coordinates": [600.148570968436, 2194.980151596508]}, "properties": {"osm_id": null, "category": "restauracion", "name": "Tagoror", "extrude": false}}]}