{"type": "FeatureCollection", "crs": {"type": "name", "properties": {"name": "EPSG:32628_local_enu_m_section_centroid", "lng0": -16.27875949048431, "lat0": 28.458051101019368}}, "features": [{"type": "Feature", "geometry": {"type": "Point", "coordinates": [-220.93971208930338, 240.57376547605259]}, "properties": {"osm_id": null, "category": "salud", "name": "Farmacia Ofra", "extrude": false}}, {"type": "Feature", "geometry": {"type": "Point", "coordinates": [-283.2821277570836, 156.86112547621605]}, "properties": {"osm_id": null, "category": "restauracion", "name": "Castro", "extrude": false}}, {"type": "Feature", "geometry": {"type": "Point", "coordinates": [-38.70803552234713, 14.260205475959111]}, "properties": {"osm_id": null, "category": "restauracion", "name": "Castro", "extrude": false}}]}