{"type": "FeatureCollection", "crs": {"type": "name", "properties": {"name": "EPSG:32628_local_enu_m_section_centroid", "lng0": -15.44477283500456, "lat0": 28.12996040717106}}, "features": [{"type": "Feature", "geometry": {"type": "Polygon", "coordinates": [[[-106.85300156780787, -70.36677490119303], [-104.83368038406309, -68.07698473234103], [-104.11241063380828, -67.25910771677833], [-98.72153612581141, -61.14617652520111], [-98.77607553233909, -61.09670096958982], [-89.86748921060976, -50.9948937176914], [-89.91657467648464, -50.93923371762214], [-84.16819374729106, -44.42091149924128], [-83.47590604495271, -45.09377986736582], [-81.07343748165931, -42.47430244591751], [-77.84022714253688, -42.22988455926369], [-72.59225015270081, -46.990599680454764], [-71.9089741032741, -46.21580526281395], [-64.01984800948972, -53.13389056762796], [-64.14059862076394, -53.27081458186746], [-59.44753009698436, -57.47212565462118], [-59.447530096984124, -57.4721256546214], [-59.447530096983996, -57.472125654621514], [-56.97792830580281, -59.805776993905184], [-57.110644857511225, -59.98135178647285], [-53.333376180288056, -63.27611956498252], [-53.52651237464392, -64.2616418936322], [-53.105373936849496, -64.58000586099608], [-53.45182630666797, -64.97286225090637], [-53.63244480064542, -64.80218672263561], [-53.72705448796728, -65.28495464541272], [-59.271378654661376, -71.57188862672109], [-52.62349053810571, -78.10509053146872], [-46.83345795349593, -71.22689244511878], [-47.1686581725247, -70.91014484525033], [-46.52591988843643, -70.86155637841088], [-46.38191674843499, -70.69048961712545], [-46.2249609450616, -70.83880507511648], [-44.75239697024271, -70.72748507500019], [-42.77626367676865, -72.59483313249827], [-42.666243290711456, -73.84239890150037], [-42.45813095972329, -76.55624952242303], [-47.671612975833604, -82.23619371783332], [-48.747321697025434, -82.23619371783332], [-51.760085991432966, -85.65248931765656], [-51.7231943270143, -85.68834613549537], [-52.00288290513069, -85.92620880009817], [-57.06881153859117, -91.20490350841091], [-56.46245952417461, -91.77787612099078], [-58.30019109212395, -93.7520766541597], [-58.0139205195895, -93.96848586063571], [-61.22740399508456, -97.61238507250418], [-61.50088016291306, -97.58853078667043], [-63.93107868183381, -100.34423142759509], [-65.3194961438544, -100.6940942846392], [-65.31949614385441, -100.69409428463922], [-67.68910529957505, -101.29120448526417], [-69.99888706390146, -100.24354240617657], [-69.90112987611163, -99.46758653359261], [-76.19437539788414, -96.70519958927244], [-72.89204968996069, -93.07403253797986], [-72.89632354337105, -93.07097870782752], [-72.62556029416714, -92.78100647116804], [-72.41780501352814, -92.55256318709756], [-72.39775695435877, -92.56688828478083], [-68.08940015280358, -87.86936860121575], [-68.03599027860157, -87.91055186417611], [-62.80986741163843, -81.98443923864902], [-61.070418835470676, -80.13528492246505], [-68.02321649949918, -73.70355242503784], [-69.20971837713412, -75.0489750140768], [-70.2541665133337, -74.0126756841549], [-72.91335313241525, -71.55571606611318], [-73.10863416590966, -71.3342789842556], [-76.21273834453245, -68.51838331059295], [-82.255334596491, -75.37032821339315], [-90.01083819747127, -68.35716821332176], [-91.09286547591958, -69.58412281814894], [-91.09286547595225, -69.58412281811884], [-93.05450706434401, -71.80850775483398], [-93.1090464707704, -71.75903219932923], [-98.08851029316045, -77.40544813278574], [-98.08382656059756, -77.40967732155377], [-98.31940096152663, -77.6672644237059], [-98.55153780426964, -77.93049380228132], [-98.55624681610237, -77.92624178752939], [-103.9937789046606, -83.8718713976527], [-111.65534425618215, -80.23240453396475], [-112.20683385924306, -77.10562242132218], [-110.23014598677977, -74.86417589301979], [-110.13197505122383, -74.75285588840049], [-106.52903749340066, -70.66733890115643], [-106.85300156780787, -70.36677490119303]]]}, "properties": {"id": 0, "height_median_m": 12.0, "building_count": 44, "area_m2": 1533.4429811545162}}, {"type": "Feature", "geometry": {"type": "Polygon", "coordinates": [[[-173.7448029868977, -48.256500831269996], [-171.8814175686512, -46.1435325497357], [-171.70401930652443, -45.94237346721864], [-171.70401930650706, -45.942373467227235], [-169.91597983650104, -43.91484301168887], [-167.16645618331668, -40.908396524792586], [-161.58078153422687, -34.65374634162415], [-159.30898844140867, -32.109869016719195], [-159.07437321175138, -31.8471547912515], [-159.0732143180483, -31.848249888385027], [-154.04577356016156, -26.2687249820294], [-154.45425111589023, -25.92133303430552], [-151.10839264199706, -22.33810647725445], [-151.206774815669, -22.25443682536432], [-147.27993754947576, -17.80163682544752], [-147.29014877823215, -17.792952630704416], [-147.0399736730976, -17.529532056065875], [-147.03997367309748, -17.52953205606575], [-145.43298031855693, -15.837456768775624], [-145.04979048191157, -16.163342638576058], [-140.2861131955704, -10.761615807968932], [-138.0047008049559, -8.174629792480971], [-137.776808014027, -7.916212916343667], [-137.77503733031514, -7.917832150261332], [-130.64194509042616, 0.06136628220193652], [-130.25446105329746, 0.06136628220193652], [-127.2811599770647, -2.572654538534713], [-124.72286591806188, 0.43987395700625015], [-124.48585665122862, 0.21911139952882586], [-121.70117028095146, -2.3746879615205256], [-121.4699910327354, -2.590020141370639], [-121.49805164230534, -2.6255826235198887], [-105.21683637978819, -17.39512674366382], [-100.62867248707401, -21.54322944016943], [-97.950220273822, -23.964785231996114], [-97.37069950037865, -24.48872285480394], [-91.8594252845141, -29.512796372756856], [-91.64291385536777, -32.581684978559586], [-93.70190950938441, -34.91646363837165], [-102.08149155556006, -44.647374091092296], [-102.34355303501353, -44.93821362991736], [-102.57708743484478, -45.203027755236775], [-102.57988090858152, -45.20049364872581], [-106.96006594381423, -50.06168499310921], [-111.67428121807602, -55.18458984908803], [-115.30684121861611, -59.08104248867154], [-117.46594344302017, -61.41804997654477], [-119.72113027610082, -63.86411308202594], [-120.70028078377693, -64.97441154487146], [-122.66369941924425, -67.20081154771589], [-122.76187034583916, -67.31213154177838], [-122.95494338814588, -67.53106489329065], [-124.6200352890929, -69.53024571664209], [-125.99756922170651, -71.20386169693307], [-126.1721042329311, -71.40177402348596], [-130.91011214261337, -72.56973473723602], [-132.79297671808115, -71.73943499194515], [-138.69274981495704, -68.8404384865451], [-140.91406517634658, -67.69551141508173], [-141.00753431767802, -67.58952296558947], [-144.28809455774504, -66.05777461708709], [-146.14628055662016, -65.05968766728196], [-147.22249231438875, -64.61592034032319], [-150.0765895821511, -63.16513082137376], [-153.4133116080881, -61.60715959728698], [-159.20910525118967, -58.71098636271642], [-165.49159217015392, -55.59425095019549], [-173.525837349197, -51.60847003480212], [-173.7448029868977, -48.256500831269996]]]}, "properties": {"id": 1, "height_median_m": 9.0, "building_count": 24, "area_m2": 2961.7519098903435}}, {"type": "Feature", "geometry": {"type": "Polygon", "coordinates": [[[-117.876802949, 10.973424886], [-117.876802949, 11.382859572], [-117.876802949, 15.096008048], [-111.203927218, 22.548006282], [-110.616495893, 22.548006282], [-108.561240147, 24.87854411], [-108.266727353, 25.212504108], [-108.070385487, 25.435144111], [-106.879434656, 26.785611548], [-106.388579998, 27.230891548], [-106.210101569, 27.433275476], [-105.114394615, 28.788693523], [-104.715955722, 29.127548035], [-101.157146351, 33.163026282], [-101.492761235, 33.543593607], [-98.088740712, 37.725213578], [-97.960033404, 37.883322216], [-97.944841088, 37.901984998], [-97.939610947, 37.897240463], [-93.268509176, 42.982122095], [-89.870123005, 46.973317396], [-89.651315151, 46.766554814], [-87.521624531, 49.181497361], [-87.488413106, 49.153252525], [-81.172858034, 56.155572857], [-76.270201117, 56.510423163], [-67.584865749, 48.723115394], [-67.591383436, 48.656599365], [-64.486324236, 45.918080731], [-65.055194828, 45.380526206], [-59.928199969, 40.72956032], [-59.558217701, 41.149098216], [-57.320340863, 39.499645679], [-55.624176378, 37.915710644], [-51.605022341, 33.358228916], [-50.994645188, 34.05036032], [-48.531321969, 31.815750656], [-48.633156294, 31.681030908], [-42.091185908, 25.93192166], [-41.670510289, 21.638731384], [-42.185316708, 21.035512849], [-42.792732697, 20.323780109], [-44.943191607, 17.80400447], [-45.113150503, 17.953900357], [-48.708975478, 13.876448615], [-51.071522816, 11.197460393], [-55.545818405, 6.123875203], [-56.387283533, 6.839503774], [-66.432864472, -4.551587776], [-65.802960143, -5.163822685], [-68.793957843, -8.68588293], [-69.584261632, -8.013764797], [-71.779165966, -10.50265582], [-74.141691755, -13.181619607], [-75.150204966, -14.32521363], [-79.764238754, -19.44593363], [-80.743950845, -20.556868894], [-83.186585093, -20.682768986], [-84.26608483, -19.792522787], [-84.27926622, -19.793234545], [-84.380098214, -19.69849777], [-85.063893805, -19.134582463], [-84.874255527, -19.124342533], [-96.9483575, -8.230178862], [-100.778743297, -4.777708479], [-102.840745309, -2.884889872], [-104.312500048, -1.549783972], [-110.590545799, 4.145360538], [-110.626063619, 4.103696645], [-110.887776879, 4.348093226], [-114.344352166, 7.28775638], [-115.061769782, 7.125054595], [-117.664433927, 9.215534967], [-117.834323838, 10.949340493], [-117.876802949, 10.973424886]]]}, "properties": {"id": 2, "height_median_m": 12.0, "building_count": 74, "area_m2": 3193.100971740524}}, {"type": "Feature", "geometry": {"type": "Polygon", "coordinates": [[[-71.18870241471552, -33.04253999002891], [-70.3969484984916, -32.144738120710834], [-71.08414502007072, -31.476818120840857], [-70.30972321847777, -30.598669838883332], [-71.19627641107623, -29.81677091793115], [-66.54650168887085, -24.664033916666078], [-66.15243278477986, -24.632116008855647], [-61.46752654317207, -19.46727766943305], [-61.42211550735113, -19.518771084258375], [-56.24836250190646, -13.652042768537768], [-55.92679042212519, -12.74043371790665], [-54.65906484970318, -12.74043371790665], [-53.491531720305225, -11.416520561829785], [-50.387758798695856, -6.5283344975362745], [-50.45811701282322, -6.468497973662801], [-50.2905877462095, -6.236314583488511], [-50.11605389975566, -5.840492572295859], [-50.04722365028768, -5.899029630357798], [-49.15964126149067, -4.668904934802042], [-48.19881363209754, -5.516310474498523], [-40.25179669606408, 3.364533613619547], [-41.041575060062755, 4.148150110421836], [-38.72654222813571, 6.773259707787259], [-38.61908524002541, 6.67848761316995], [-32.6771578064006, 13.183942390540262], [-31.386367962680765, 13.29653307851018], [-30.65782984900341, 13.984965501315601], [-28.7172364689304, 12.33457736123223], [-28.324552742447327, 12.77985736126716], [-26.100735716467298, 10.888600139485312], [-22.8800582424288, 8.210425168631124], [-23.269644462586072, 7.768657556813172], [-22.59034849123441, 7.2184566672301695], [-22.661603983666755, 7.132904263817366], [-19.123412407375806, 3.9805408483754743], [-14.095459891464808, -0.47367729965683075], [-14.054640982654803, -0.42739108384528685], [-13.956470051108099, -0.5387110839183471], [-13.491318446732961, -0.011256818754285584], [-7.244614654694635, -5.776807403734989], [-2.860060136592554, -9.608567216544932], [-3.1926799512015394, -9.98573831112733], [2.6744016140873477, -15.615133581193614], [4.101572210177506, -16.860000202175513], [4.871912714811303, -17.122056302240622], [5.395019674823279, -17.566935447148133], [5.635032553485202, -18.383416452080766], [5.635032553485202, -19.345562325052885], [5.227755570599167, -22.693814490540518], [1.9949319424577678, -26.72622726535823], [1.701859169704637, -26.47698193971201], [-6.095453210304956, -35.318670610330166], [-6.091134690905462, -35.322343318518556], [-6.332971776599098, -35.588002543477856], [-6.332971776599277, -35.58800254347806], [-12.845564074366967, -42.742117129909445], [-13.216931566008393, -42.426285637381696], [-24.59196501811724, -55.13521183376511], [-23.75035423511826, -55.79590639765775], [-32.41731694079887, -65.20253452921872], [-34.219023091510806, -63.83035177307525], [-36.8594543903516, -63.987935568465254], [-43.384768738922055, -57.9980110477489], [-42.843708710017616, -57.26177516129131], [-49.925710969514355, -51.868109065623834], [-55.873308178057734, -45.55209197847355], [-55.88179190852524, -45.561253927019386], [-56.36631252697212, -45.01183635142476], [-56.83426113308809, -45.54246225027555], [-61.343578761827125, -41.281380498660255], [-61.471200973174945, -41.40197716544612], [-64.17923174728385, -38.84302225021893], [-64.48815362517466, -39.193321293674195], [-71.18870241471552, -33.04253999002891]]]}, "properties": {"id": 3, "height_median_m": 9.0, "building_count": 100, "area_m2": 3214.5316352587333}}, {"type": "Feature", "geometry": {"type": "Polygon", "coordinates": [[[-73.05823171030376, 64.69156493682465], [-67.75454393794857, 70.70563155344807], [-67.75837969306012, 70.70909642391958], [-67.52407356682514, 70.96697125227404], [-67.29151535317034, 71.23067844040321], [-67.28764484976286, 71.22718218149815], [-64.18626189048608, 74.64053125237501], [-64.08980810409473, 74.74990411192687], [-59.52908018547733, 79.92149842498965], [-60.06030890573885, 80.32308628205047], [-59.17492770548704, 80.32308628205047], [-59.064764995418855, 80.44800424581993], [-59.00586243646761, 80.40347624587861], [-55.92706664679249, 83.89464762964383], [-53.58547005183091, 86.54987895484796], [-52.978193017753135, 87.2384950074293], [-51.02252649176351, 89.45610457858986], [-50.757557638676325, 89.75656350493283], [-50.75516294005467, 89.75357097275369], [-45.632618184195216, 95.45662015660577], [-42.983057800081475, 98.46106410923802], [-42.1976903463403, 99.35162410998896], [-39.404039195843445, 102.51945842535372], [-39.995328448466246, 102.96644966462179], [-32.90149263913051, 110.89037820289767], [-32.412605202758, 110.3360089157854], [-31.852267574636258, 110.97139847265203], [-22.304913991378267, 102.38109859692449], [-24.994664924873607, 99.21377257959358], [-20.922488610860494, 95.58565370601217], [-29.11592669321674, 86.44709141172933], [-22.36474551147674, 80.40075814629404], [-20.606626023001038, 81.72982679701234], [-19.88303378314288, 82.00333032366785], [-19.07712929528217, 81.87278064121125], [-18.330636637503307, 81.63092970050042], [-17.925991044268425, 81.40150767730692], [-17.925991044268425, 81.21856972432049], [-17.56942304530353, 80.81424281232181], [-17.336965454246112, 80.02346354780364], [-17.336965454246112, 79.12010690104516], [-18.394012300027516, 76.72285034278167], [-16.130257581974206, 74.42143500237079], [-25.144520890944243, 64.08094006614822], [-20.696287707810686, 60.08774808869352], [-20.428409232315435, 59.85992938986834], [-20.47465657500909, 59.807487652768074], [-14.049139979281227, 54.1772778927121], [-30.38372873694854, 35.880708939168606], [-30.678889463329117, 35.546014223470095], [-31.00432308411244, 35.18557376108011], [-34.35758245304856, 31.429547688243908], [-34.905809689091924, 30.86440487716978], [-35.134453957426295, 30.611165382114248], [-35.14358690691811, 30.619291033024606], [-36.22527421810109, 29.50422821316716], [-43.01543133817938, 35.6398744420863], [-42.031521074611476, 36.75557018493595], [-46.49040636253029, 40.86366022987519], [-67.00546288252023, 59.340377140887824], [-73.05823171030376, 64.69156493682465]]]}, "properties": {"id": 4, "height_median_m": 12.0, "building_count": 18, "area_m2": 2084.4428963836635}}, {"type": "Feature", "geometry": {"type": "Polygon", "coordinates": [[[-26.75379485938619, -95.20051658470601], [-26.753794859280127, -95.2005165847962], [-23.479050422130708, -91.48715108452362], [-23.043521990076275, -91.98101443281901], [-21.86547081020601, -92.87157443294352], [-21.656348942170418, -93.10870619828584], [-21.083272865509443, -93.65023469869122], [-18.42069557579686, -95.99850474854144], [-17.800238454004496, -96.70206623666922], [-19.195509274140377, -98.1523742147673], [-25.019775669706387, -104.87261221295225], [-27.738057699506033, -102.40671604225612], [-30.745674103159647, -99.72707032051977], [-29.33811787422642, -98.1309852394433], [-26.98116451567349, -95.45834025727409], [-26.75379485938619, -95.20051658470601]]]}, "properties": {"id": 5, "height_median_m": 12.0, "building_count": 3, "area_m2": 84.07059507688716}}, {"type": "Feature", "geometry": {"type": "Polygon", "coordinates": [[[-33.551831021745976, -82.40597554285702], [-33.52739919987061, -82.42675371795781], [-33.45144966864004, -82.42675371795781], [-32.76790388796974, -83.07267061516723], [-32.37522016127427, -83.40663061512686], [-30.94686809004985, -84.75635255658104], [-36.65956960227415, -91.34989257840974], [-37.865043897013, -92.85352237862304], [-42.62706057721848, -88.70945620474875], [-42.001348482719024, -87.99993588967949], [-41.608664757231836, -87.55465589116932], [-37.66892783794084, -83.08722845135668], [-37.06356680870699, -82.53807371767675], [-36.34770617621957, -82.53807371767675], [-33.551831021745976, -82.40597554285702]]]}, "properties": {"id": 6, "height_median_m": 12.0, "building_count": 2, "area_m2": 63.03433555574016}}, {"type": "Feature", "geometry": {"type": "Polygon", "coordinates": [[[-18.823796163028735, -80.41972952038395], [-18.209704085039277, -79.72338561335364], [-25.76560076346037, -73.16355837522278], [-26.209097728021405, -70.64906242142922], [-21.580374776576257, -65.4003657830308], [-17.555366578530883, -60.94756578320431], [-16.084222525922893, -59.27937589041135], [-14.610272893074747, -57.608004636424184], [-10.465584046475717, -53.020074628154376], [-10.524116645634711, -52.96697663812069], [-10.313048966503475, -52.734476672751164], [-10.108638910094353, -52.386793395908455], [-10.048772112616069, -52.44336455350251], [-6.851633030075595, -48.92158078712101], [-3.093025112730742, -44.862497053685246], [-3.334208765165333, -44.589009130774244], [0.1869147513386751, -40.762628765609975], [0.1594069574402936, -40.7368612936651], [2.3546833601726513, -38.35126973947672], [7.384662580405116, -32.38831337598352], [7.248530656854656, -32.26482096961355], [11.85525454810836, -27.041069957777722], [16.586677485421145, -27.323446395773793], [16.62282984861443, -27.276595389484655], [22.02957814008541, -31.992696249523718], [22.02957814008541, -33.52283569811673], [22.17777510666712, -33.648870610200376], [22.125190766526565, -33.708498125653925], [23.955283896746007, -35.20726581902251], [23.942897398083243, -35.22072614072008], [27.115983382193424, -38.09919882741313], [30.549082746687304, -41.127033717820716], [30.651246917939122, -41.127033717820716], [33.95219824084369, -44.157148163499684], [34.03748646121082, -44.051644413006855], [34.29371377725649, -44.342190956070745], [34.53830790494033, -44.54558476875108], [34.50487152234605, -44.586946445093076], [37.69011994299014, -47.424853996294694], [38.02443624807106, -47.61440140348861], [37.95795068369056, -47.69321892972738], [42.31124776049284, -51.49043436912559], [42.98660910155294, -50.97988796319119], [47.15646259073394, -54.80547877948616], [47.369692789573776, -54.56368841110507], [52.53824414091211, -59.135135771485665], [53.199789510159604, -59.69775061001329], [52.17874870561213, -60.85555017928881], [50.10942848111827, -63.202036288307696], [49.324061025474535, -63.98127629058061], [47.03667314902325, -66.57503815175038], [47.03667314902324, -66.57503815175036], [45.30509738198757, -68.53854212521323], [41.86911474970672, -72.32342215245268], [41.62778482778265, -72.59707593620386], [41.624014047800024, -72.59341093021703], [38.433132141866906, -76.1083021527693], [34.6965922073717, -80.34531629217594], [33.91122475399505, -81.12455629219943], [33.13355165853836, -82.00639134771039], [29.594438068691936, -86.01953574995568], [30.09457064074765, -86.46259872069433], [25.64221367913332, -91.38816758972953], [25.815821365525974, -91.5287824433606], [22.48445315479386, -95.30635593622468], [21.797256633196323, -94.6384359363368], [17.114291152478952, -99.94864037787825], [18.069949781088493, -100.63824223981509], [14.194676586561561, -105.15463635376534], [8.695232289761913, -105.62528109929623], [4.109018526736708, -101.39232107356906], [4.836285538431173, -100.56764352008543], [-0.32691919343448766, -96.12609598799982], [-0.5764804595597973, -96.4090836265992], [-8.131866392004548, -89.61428208845821], [-8.428612970569278, -89.95077506625083], [-9.344448316885014, -89.13803371780932], [-9.767459226475694, -89.13803371780932], [-15.820296960263095, -83.58181999019773], [-15.58022858049103, -83.30959672011994], [-18.823796163028735, -80.41972952038395]]]}, "properties": {"id": 7, "height_median_m": 12.0, "building_count": 92, "area_m2": 3260.8500354008265}}, {"type": "Feature", "geometry": {"type": "Polygon", "coordinates": [[[24.5542690604092, -23.940907755155862], [22.28634805869164, -21.883557688730907], [21.338486876145428, -20.21161822241843], [20.991059316035667, -16.66595844364537], [24.69198493879556, -12.604703965795787], [24.912141053051634, -12.79193692430617], [29.97627001733272, -7.04951575374085], [30.27078281209858, -7.272155753850196], [33.47978214636727, -3.6333412872301842], [33.39057768206742, -2.7229682544725127], [36.04374648283079, 0.04488457364372571], [36.56044706389793, 0.10347534768961396], [42.83915487939781, 7.086239776417817], [43.1743743920044, 6.8328271114429535], [47.72955598113571, 11.782911171463429], [47.68733913028562, 11.820524413509643], [47.92567457209441, 12.079521875707545], [50.189819604912564, 14.646927733533719], [50.139792894126145, 14.691323024182141], [50.77705851914684, 15.052633690721512], [50.55389081409224, 16.064869329415938], [59.02122612229739, 25.437718097659065], [63.041041509520056, 25.557671562555868], [68.62691610633347, 20.53823595185228], [68.49867498912192, 20.413592121009774], [76.2616932485314, 13.31879714346093], [76.16286925430272, 13.206736609290608], [82.4214133585819, 7.555567573771987], [82.03415042099442, 7.006651139288778], [86.12925412945614, 3.523948034117356], [86.91729961483358, 2.6303513033167594], [91.0404787451649, -1.0432086975222312], [91.43257694796449, -1.4878247483131342], [91.67859080746811, -1.7047975965344788], [91.66327851572447, -1.7221608250190859], [96.9690314140495, -6.624419478058734], [96.82502257610449, -7.277609320866454], [96.72238789899701, -7.626754186955577], [94.93075646097681, -13.270097336646707], [89.15192255891834, -19.56597674615946], [89.22896681540627, -19.63494801436803], [89.13066728036843, -19.741105946351666], [89.5199269490399, -20.844599251264015], [86.78029024004648, -24.07544780716396], [85.58236625094563, -23.657486396621543], [85.42056980448342, -24.024421499471682], [82.69921390383887, -21.59982051352038], [82.69921390383887, -27.9201223282535], [73.09502117419561, -38.47037515495449], [72.11645288868341, -38.58133898043115], [69.19785859636588, -41.89085139044947], [69.2020472307005, -41.8945323787405], [68.96413280073314, -42.155882547134766], [68.73680464403375, -42.413659161624686], [68.73269983638522, -42.410112793752084], [65.129620656597, -46.36811294743975], [65.6910799724737, -47.429215421117775], [60.15899536009163, -53.586102789264125], [59.229525366543825, -53.849593717919255], [58.37082498280178, -53.849593717919255], [57.484593507014594, -53.72397699216179], [56.69225136830654, -53.210566204300186], [56.379589622259395, -52.85602637277761], [48.87768194496795, -46.140196925622746], [47.99677998500917, -44.1424160257028], [45.69405333576664, -42.071499898043335], [43.83991305022939, -40.41164343683982], [43.54540025530543, -40.18900343700644], [41.82614273052039, -38.64989621127658], [39.01524571281147, -36.2635799711602], [38.588927047847584, -36.74699999172816], [34.5431609580384, -32.95719537854109], [34.444821787010895, -33.05012102305599], [30.832797141096925, -29.722266294395713], [31.329153738374114, -29.046859648017172], [26.677192243787484, -24.743531208544592], [26.601025194579808, -24.821541832846567], [25.04330375409037, -23.386371486616394], [24.5542690604092, -23.940907755155862]]]}, "properties": {"id": 8, "height_median_m": 9.0, "building_count": 87, "area_m2": 3233.588787431963}}, {"type": "Feature", "geometry": {"type": "Polygon", "coordinates": [[[-25.444305427, 20.947876991], [-18.546030968, 28.653360361], [-18.32936209, 28.677929323], [-12.4292872, 35.368263475], [-12.485491008, 35.419248896], [-4.526534014, 44.327025363], [-4.459922859, 44.401577503], [-3.970768925, 43.957840319], [-3.48113389, 44.513057339], [-3.323717443, 44.371744132], [2.186246467, 44.576595657], [2.186246467, 45.910433137], [20.92162158, 46.718659281], [20.978353121, 46.011027142], [38.693989889, 46.795733347], [39.04224676, 46.811159229], [40.115498514, 46.858698436], [47.009442999, 40.633792937], [47.139307416, 40.516531516], [47.793494149, 39.925831867], [47.624730304, 39.734463701], [52.852201813, 35.047491032], [52.95610386, 29.74564755], [47.730143458, 24.056756286], [47.048194298, 24.609106146], [47.032299984, 24.591082939], [45.761741304, 23.150344934], [45.756579286, 23.154925872], [41.575032774, 18.51418637], [41.340444476, 18.248177187], [41.338783865, 18.249697226], [36.959967978, 13.392322014], [36.72467117, 13.131186299], [36.724609975, 13.131241812], [32.18801644, 8.098845485], [32.583893862, 7.762169389], [28.205134346, 2.796916426], [28.34257365, 2.173524426], [26.428341331, 0.002898782], [25.130314431, 0.213168116], [24.378595042, -1.491642075], [15.464968669, -11.987915307], [11.833397167, -12.109032547], [9.945599939, -10.444082685], [7.837476777, -8.053596351], [7.475077958, -8.464535067], [4.693578814, -5.996144461], [4.717902196, -5.968563192], [-2.617263246, 0.685550023], [-2.829520983, 0.444862369], [-5.835559508, 3.035450787], [-5.166690733, 3.685557151], [-8.495978263, 6.686368378], [-10.999938125, 8.911798294], [-10.999938126, 8.911798295], [-12.327233338, 10.139621707], [-12.587099328, 10.373848632], [-12.58404972, 10.377191438], [-15.943231473, 13.484625235], [-17.020060051, 13.373619818], [-24.69528893, 20.26840485], [-25.444305427, 20.947876991]]]}, "properties": {"id": 9, "height_median_m": 9.0, "building_count": 69, "area_m2": 2775.395236811974}}, {"type": "Feature", "geometry": {"type": "Polygon", "coordinates": [[[46.69775257, 49.569933026], [46.352917858, 50.923470935], [45.408064494, 51.482466174], [45.107396746, 53.64174873], [45.097096123, 53.651367795], [45.088582962, 53.776862241], [44.440836886, 58.428730663], [43.565863368, 61.863158184], [44.374426817, 62.436197484], [44.156015102, 64.046025833], [44.164918433, 64.046586713], [43.516208694, 71.218669906], [43.516208694, 71.874307994], [42.452688259, 72.532109236], [42.029808476, 77.447194692], [42.698818399, 78.037230509], [41.94862882, 85.267928755], [40.604517594, 92.888639856], [35.032809224, 86.570653816], [35.024918404, 86.577282377], [40.508491892, 93.433077042], [40.450702686, 93.760724663], [41.443624931, 94.999230938], [41.442407853, 95.013031877], [41.538904746, 95.118076747], [42.076703061, 95.788891194], [42.108091585, 95.43296399], [51.875535087, 107.644633478], [52.16118822, 107.385502542], [57.879762933, 113.870026282], [57.634335604, 114.148326282], [60.584462662, 117.493594974], [64.077760653, 117.726606282], [65.498641371, 117.726606282], [71.769938566, 112.156105045], [71.474639679, 111.869089575], [75.039657287, 107.826571549], [75.676782181, 107.248602148], [76.781985508, 106.290246074], [77.471643231, 105.731652605], [80.326889145, 103.163838135], [81.91251878, 101.702955224], [82.108740284, 101.480451703], [87.594452024, 96.43682659], [87.669951775, 96.510208501], [87.768122707, 96.398888501], [88.427548833, 97.039817092], [94.207785585, 91.79626123], [94.222555645, 91.810616976], [95.446360623, 90.672684864], [95.446360676, 90.672684816], [99.624426971, 86.787788214], [98.9613992, 86.035954139], [101.022988764, 84.477474139], [100.282486375, 83.637788454], [99.19986405, 82.410159103], [90.757163928, 73.281919103], [90.659477979, 73.171149045], [88.107033756, 70.388149045], [88.011120425, 70.279389029], [87.912948984, 70.168068452], [86.734888792, 68.832218233], [84.158210965, 65.910418767], [84.215003134, 65.857945554], [84.007356683, 65.627496584], [83.805156804, 65.283572622], [83.746389133, 65.337871103], [78.988551402, 60.057555451], [79.529679003, 59.648484433], [61.75188416, 40.286769116], [60.658144655, 40.562377021], [55.949720626, 41.9861298], [56.140719644, 43.502200515], [46.69775257, 49.569933026]]]}, "properties": {"id": 10, "height_median_m": 9.0, "building_count": 52, "area_m2": 2746.7920886208613}}, {"type": "Feature", "geometry": {"type": "Polygon", "coordinates": [[[-24.386823909160597, 119.21412775034194], [-24.436702991201056, 120.17564628228189], [-24.127905104131287, 120.17564628228189], [-20.097408761567063, 124.74598951177535], [-20.17103696038152, 124.88513951197726], [-16.500274860898557, 129.04756549713093], [-15.518565544369094, 129.2702054969643], [-15.072686058894286, 129.77580632488196], [-15.0707676725833, 129.7741923658965], [-8.622380272743078, 136.97874960022483], [-6.657254278205372, 139.2070856465507], [-4.399322850036531, 141.6561256467078], [-1.6118216511079546, 144.81698628199973], [-1.9554199122923184, 145.2066062822068], [2.402948866161964, 150.14873736121902], [2.795632592837739, 149.81477736127613], [6.5057674598626, 154.0218497240164], [6.5057674598626, 154.914139861463], [12.386666886683033, 161.46775448239276], [17.194670101835538, 161.70479751736147], [22.6819019004276, 156.65660187355786], [22.298579881194257, 155.67860701753094], [22.67678682540103, 155.3926975580899], [22.66864677857328, 155.383098015766], [26.1265079822266, 152.1540317591617], [26.814531298852472, 151.63391340094032], [29.572927869434917, 149.02736530161255], [30.159849898654343, 148.50972721157953], [31.268501685993986, 148.19544090808375], [32.04651331468731, 147.56528452769868], [32.592476347772255, 146.82237698294753], [32.87204356095714, 146.08268091937836], [34.77652809879253, 144.46300173941884], [34.77652809915955, 144.46300173905695], [34.77653474606618, 144.46299608615922], [37.03895486765398, 142.23217007625553], [40.075356672037124, 139.4554772336053], [40.531316605861754, 139.05154640782646], [44.328508701320665, 135.70712851188762], [44.346380402836786, 135.7290827461402], [44.55340521602076, 135.4943289159055], [44.821054765893294, 135.79782759340924], [51.763235729666846, 129.45321406924924], [51.872246249229214, 128.0934881374516], [52.08309677895644, 125.82211446917012], [49.09454097562013, 122.68429539129393], [47.936886610584274, 123.6688288099918], [46.74079393281574, 122.19950599151258], [46.67779407906806, 122.26201431909307], [42.30056467850275, 117.29849641607983], [42.305615640452174, 117.29411657035743], [42.06495216850043, 117.0313258370938], [41.836881201062454, 116.77270691933417], [41.83200468363413, 116.7769605199832], [39.41433701382393, 114.13700583726931], [39.1450130237622, 113.83160844450009], [36.88826529147519, 111.27259068518202], [37.57546181307693, 110.60467068529006], [31.66176590220948, 103.898891105642], [24.705674275002476, 103.54035499893496], [24.61795238294716, 104.33612628214317], [19.425614993664517, 104.33612628214317], [17.950283630681444, 104.3026675210364], [14.560820559198655, 104.21107577904559], [13.489935693922497, 102.99675600890262], [8.187699832626386, 103.11464660146973], [7.115316174042277, 104.10957149413511], [3.32657391384277, 104.00216628219536], [-0.7972045765721006, 104.00216628219536], [-9.779487528245507, 103.7783118900798], [-10.286463718966276, 103.92203210452688], [-10.645875252427652, 104.19373297889045], [-10.973663491967567, 104.49108687955113], [-13.613766716456615, 106.8860629563334], [-15.227737197158971, 108.3501802128331], [-16.059515602133224, 109.10473002081757], [-19.332965240249216, 112.19797774980199], [-19.722208789797925, 111.75659870608156], [-24.21384986996739, 115.87970904364113], [-24.386823909160597, 119.21412775034194]]]}, "properties": {"id": 11, "height_median_m": 9.0, "building_count": 66, "area_m2": 2711.187484624682}}, {"type": "Feature", "geometry": {"type": "Polygon", "coordinates": [[[-14.288367892780856, -113.92873681585198], [-17.780457327691597, -110.62888531035473], [-15.885482161496947, -108.48009613273393], [-10.837342670388873, -102.98945056612129], [-7.387412631254221, -106.11906301155388], [-5.128442373638585, -108.22856487001012], [-4.347734317893693, -107.45394791472826], [-1.48764915466266, -110.02145475610156], [-1.8095935432802823, -110.38652055242358], [2.194959095372104, -113.89541684346872], [2.300668318278944, -117.97092796612527], [-1.5640266105000706, -122.35326225014249], [-2.161377381988412, -121.78879536577202], [-3.729935525017708, -123.45628131551204], [-3.7299355250327695, -123.45628131549807], [-6.865465569423076, -126.7895669298215], [-9.511890327684947, -124.45554266604628], [-9.518951177620634, -124.46329904433854], [-9.774222967353404, -124.22417740835103], [-10.036945797391596, -123.9924680207924], [-10.029874445233807, -123.98470010575765], [-14.555161277579137, -119.74571235158419], [-11.324875193575583, -116.44905521680789], [-14.288367892780856, -113.92873681585198]]]}, "properties": {"id": 12, "height_median_m": 6.0, "building_count": 8, "area_m2": 256.9963719479018}}, {"type": "Feature", "geometry": {"type": "Polygon", "coordinates": [[[69.60989884, 30.37777775], [69.524707903, 30.458278965], [68.655079152, 31.28003505], [68.445265809, 35.6814784], [69.232650901, 36.574326282], [70.116189286, 36.574326282], [74.179728731, 41.182138425], [73.879492766, 41.409104915], [77.004975729, 44.821953374], [77.294659076, 44.602964246], [78.490262661, 45.95870763], [78.494803501, 45.954677945], [83.947855553, 51.924892815], [84.829494534, 53.035699692], [86.214906259, 54.606674222], [87.385926412, 55.823885853], [88.18215216, 56.839617596], [88.574835887, 57.173577596], [90.819472025, 60.03702202], [90.581210861, 60.239652517], [94.3399192, 64.288696719], [94.246782675, 64.394308001], [96.653643977, 66.987083743], [97.039726983, 66.658737361], [97.4322274, 67.103809498], [98.411624113, 68.214387144], [99.478813646, 69.424516627], [99.574034618, 69.532491549], [100.064889274, 69.977771547], [101.230035265, 71.29897783], [103.653376034, 74.046902189], [103.642145346, 74.057179503], [103.885673957, 74.310314222], [104.116449966, 74.572000496], [104.170777569, 74.522284768], [105.845928062, 76.421805835], [109.57402424, 76.542589818], [117.634532858, 69.274528628], [117.683061903, 69.321696387], [117.826337694, 69.191086282], [119.101500482, 69.191086282], [123.77791565, 64.972968391], [123.189081645, 64.305265638], [126.274439803, 61.526955538], [126.944558281, 60.875634525], [127.431730969, 60.544179607], [130.491925786, 57.71670784], [130.541402805, 57.770567678], [131.552271342, 56.751665613], [132.721292963, 56.972599116], [134.180844709, 55.618471466], [134.078612776, 55.502546532], [136.966482795, 53.046541849], [137.103483469, 52.930028886], [138.51032912, 51.73356939], [138.470183697, 51.688046867], [145.524082716, 45.289085174], [145.630690575, 41.662475958], [140.782216085, 36.164594139], [140.787180574, 36.160841182], [140.530681971, 35.879369409], [140.530681964, 35.879369401], [133.185906596, 27.819493334], [133.215168899, 27.79460705], [132.566343016, 27.090865331], [130.937901456, 25.324594457], [130.937901456, 25.324594456], [130.466714043, 24.813526314], [129.785281456, 25.475844064], [129.206916911, 24.820013054], [127.115987138, 22.449023003], [126.885038776, 22.187141291], [121.910705125, 16.717469898], [122.577216302, 15.961685849], [114.620520253, 7.123396601], [114.659043107, 7.090634631], [107.653408782, -0.608908259], [103.928072621, -0.777880648], [100.017354306, 2.686589718], [100.142349009, 2.82832628], [97.708786917, 5.587841016], [97.461010449, 5.812612043], [97.474058095, 5.826667536], [94.875411357, 8.247180066], [93.013305324, 9.914167594], [88.595394875, 13.834761519], [88.169893162, 13.352267873], [84.311872366, 16.826346926], [84.929498586, 17.526698341], [82.237978877, 19.706715008], [82.252714368, 19.723424179], [77.76846724, 23.848884455], [75.137638941, 26.286052463], [73.524442111, 27.782727342], [72.229703666, 28.924626781], [69.62883016, 30.399244741], [69.60989884, 30.37777775]]]}, "properties": {"id": 13, "height_median_m": 9.0, "building_count": 82, "area_m2": 3217.9042994681213}}, {"type": "Feature", "geometry": {"type": "Polygon", "coordinates": [[[129.64033821339132, 11.449501318942238], [129.64190645107658, 11.44809350737161], [142.64144916480595, 25.823329976998103], [142.61830394665796, 25.843648919971503], [142.85634220228366, 26.10513511145886], [143.08549349210446, 26.36497905048995], [143.08960204616253, 26.361372194202172], [145.99897068456812, 29.55732791522589], [151.09666405729183, 35.224466361101314], [155.01497998563104, 35.584720737476104], [162.0023166738167, 29.472519064566498], [166.42187390664137, 25.463306945854637], [169.75552462726395, 22.461413812422478], [171.5135091133201, 20.966326394178953], [167.30970859872747, 10.360063211485823], [167.23824232434242, 10.42381350311775], [158.4135496630046, -11.664095106506903], [157.47714160622706, -14.007892944366423], [157.2997673177138, -14.451854816437383], [157.29775921671308, -14.450147016075908], [147.1790404927872, -39.403367413809505], [135.12519515916208, -28.376804198158496], [117.84819922179867, -12.570359623027509], [114.40952551358113, -9.473895158884432], [114.08873293842807, -5.957551310963963], [127.08029148318336, 8.584017828341324], [129.4136210295363, 11.195734721752295], [129.64033821339132, 11.449501318942238]]]}, "properties": {"id": 14, "height_median_m": 6.0, "building_count": 6, "area_m2": 2177.1380802630515}}, {"type": "Feature", "geometry": {"type": "Polygon", "coordinates": [[[150.87104322661028, -43.398590420017804], [151.6227649844925, -42.54618263875566], [151.64341744623508, -42.56374663658742], [157.88416299698656, -36.55932954670694], [162.5517266711867, -31.2665898391263], [161.65772468707107, -30.47812142849393], [167.34430662092106, -24.516535659166777], [167.9864953162162, -25.082916393104732], [176.30033855180739, -16.353838660072803], [176.28288537406416, -16.338445764350976], [179.95345544747818, -12.554620092586687], [170.60247419714005, -3.7560070034817823], [176.4592045976959, 2.5416675526080708], [183.43933382127074, 10.10637633722115], [188.68014056478356, 5.525496317811047], [177.19652532823716, -6.772810801371107], [181.39239470758832, -10.811378324656319], [190.33061348885371, -1.8021261479538786], [192.18973200668722, -3.577393406876877], [195.1270612003579, -0.4686871773559132], [201.1203419364887, -5.827090747100422], [201.81106686332666, -5.15574131712418], [207.36113355359777, -10.02425588577297], [207.8809619941936, -15.329346805212808], [204.28641649666184, -19.15831733822981], [203.44593689668207, -18.32439517772759], [198.4085398811642, -23.65569665852174], [198.41273345252753, -23.659468072107334], [197.81048091165067, -24.2285668857005], [198.57928607906496, -24.99137381923367], [196.0248187222491, -27.750053927078298], [195.99387584447348, -27.71496654324711], [191.1303742364184, -32.84954879452372], [190.354224923008, -32.079455014173995], [189.7782469781372, -32.732579760186134], [189.76660618240237, -32.72222684231191], [185.48488672731904, -37.15524951086202], [181.55548000399634, -41.27678460139421], [180.7695508669353, -42.056581903007334], [176.3100407091834, -46.69199967717507], [176.79871794373673, -47.13530442200846], [167.81040464601855, -56.63259371761615], [165.6607750415223, -56.63259371761615], [150.87104322661028, -43.398590420017804]]]}, "properties": {"id": 15, "height_median_m": 12.0, "building_count": 28, "area_m2": 1459.1642781689065}}]}