{"type": "FeatureCollection", "crs": {"type": "name", "properties": {"name": "EPSG:32628_local_enu_m_section_centroid", "lng0": -13.560105327529019, "lat0": 28.959643200663354}}, "features": [{"type": "Feature", "geometry": {"type": "Point", "coordinates": [312.2984021148518, 112.56685784442212]}, "properties": {"osm_id": null, "category": "restauracion", "name": "Gambrinus", "extrude": false}}, {"type": "Feature", "geometry": {"type": "Point", "coordinates": [306.06476018199453, 102.65937784452035]}, "properties": {"osm_id": null, "category": "restauracion", "name": "La Botica", "extrude": false}}, {"type": "Feature", "geometry": {"type": "Point", "coordinates": [269.1499118608367, 99.09713784441792]}, "properties": {"osm_id": null, "category": "restauracion", "name": "", "extrude": false}}, {"type": "Feature", "geometry": {"type": "Point", "coordinates": [288.1430396249651, 97.64997784451225]}, "properties": {"osm_id": null, "category": "restauracion", "name": "La Cerveceria", "extrude": false}}, {"type": "Feature", "geometry": {"type": "Point", "coordinates": [199.89804601316573, 93.30849784439977]}, "properties": {"osm_id": null, "category": "alojamiento", "name": "Hotel Diamar", "extrude": false}}, {"type": "Feature", "geometry": {"type": "Point", "coordinates": [318.532044047709, 55.125737844698364]}, "properties": {"osm_id": null, "category": "restauracion", "name": "Kilómetro 0 Sano", "extrude": false}}, {"type": "Feature", "geometry": {"type": "Point", "coordinates": [316.68143159889473, 30.746657844553482]}, "properties": {"osm_id": null, "category": "restauracion", "name": "Sakura", "extrude": false}}, {"type": "Feature", "geometry": {"type": "Point", "coordinates": [246.26075788865083, 15.941097844758048]}, "properties": {"osm_id": null, "category": "restauracion", "name": "Jufu Restaurant chino", "extrude": false}}]}