{"type": "FeatureCollection", "crs": {"type": "name", "properties": {"name": "wgs84_and_EPSG:32628_local_enu_m_section_centroid", "lng0": -13.871709276960788, "lat0": 28.733901229575174}}, "features": [{"type": "Feature", "geometry": {"type": "Polygon", "coordinates": [[[-13.8683, 28.7384], [-13.8683, 28.7384], [-13.8681, 28.7384], [-13.8697, 28.7339], [-13.8714, 28.7289], [-13.8716, 28.728], [-13.8745, 28.7287], [-13.8742, 28.7294], [-13.8746, 28.7295], [-13.8748, 28.7297], [-13.8745, 28.7307], [-13.8742, 28.7314], [-13.874, 28.7318], [-13.8741, 28.7322], [-13.8732, 28.7346], [-13.8733, 28.7363], [-13.8733, 28.7369], [-13.8731, 28.7372], [-13.8731, 28.7381], [-13.8729, 28.7391], [-13.8724, 28.739], [-13.8718, 28.7389], [-13.871, 28.7388], [-13.8703, 28.7387], [-13.8697, 28.7385], [-13.8692, 28.7385], [-13.8688, 28.7384], [-13.8685, 28.7384], [-13.8683, 28.7384]]]}, "properties": {"cusec": "3501401008", "mun": "014", "nmun": "Oliva, La", "area_m2": 443340.8428715749, "perimeter_m": 3214.8175961156335, "coords_system": "wgs84"}}, {"type": "Feature", "geometry": {"type": "Polygon", "coordinates": [[[332.7872397051361, -500.803123691438], [332.7872397051361, -500.803123691438], [352.30969232672857, -500.803123691438], [196.1300713536418, 0.13687630858100874], [30.18922406975877, 556.7368763084703], [10.666771447992874, 656.9248763082368], [-272.40879156561857, 579.0008763084184], [-243.12511263322978, 501.0768763086], [-282.17001787641476, 489.94487630823045], [-301.6924704981807, 467.68087630828234], [-272.40879156561857, 356.3608763085418], [-243.12511263322978, 278.4368763083279], [-223.6026600116373, 233.90887630843167], [-233.36388632243356, 189.38087630853545], [-145.5128495250939, -77.78712369163287], [-155.27407583589016, -267.0311236915873], [-155.27407583589016, -333.82312369143165], [-135.75162321429764, -367.2191236917493], [-135.75162321429764, -467.40712369151584], [-116.22917059253176, -578.7271236916519], [-67.42303903855051, -567.5951236916778], [-8.855681173599624, -556.4631236917037], [69.23412931294376, -545.3311236917297], [137.56271348869092, -534.1991236917556], [196.1300713536418, -511.93512369141206], [244.93620290779646, -511.93512369141206], [283.98110815098147, -500.803123691438], [313.2647870835436, -500.803123691438], [332.7872397051361, -500.803123691438]]]}, "properties": {"cusec": "3501401008", "mun": "014", "nmun": "Oliva, La", "area_m2": 443340.8428715749, "perimeter_m": 3214.8175961156335, "coords_system": "local_m_enu"}}]}