{"type": "FeatureCollection", "crs": {"type": "name", "properties": {"name": "EPSG:32628_local_enu_m_section_centroid", "lng0": -16.37105345049404, "lat0": 28.400740589143133}}, "features": [{"type": "Feature", "geometry": {"type": "Point", "coordinates": [624.0017893439176, 1816.585343413516]}, "properties": {"osm_id": null, "category": "restauracion", "name": "Bar Agrícola", "extrude": false}}, {"type": "Feature", "geometry": {"type": "Point", "coordinates": [1410.3138012019995, 159.14186341349918]}, "properties": {"osm_id": null, "category": "salud", "name": "Farmacia Lcdo. Juan Manuel Gómez Sierra", "extrude": false}}, {"type": "Feature", "geometry": {"type": "Point", "coordinates": [1359.786155109903, 141.55330341361136]}, "properties": {"osm_id": null, "category": "finanzas", "name": "Caja de Canarias", "extrude": false}}, {"type": "Feature", "geometry": {"type": "Point", "coordinates": [1953.8776838699687, 132.64770341355302]}, "properties": {"osm_id": null, "category": "restauracion", "name": "Los Moteros", "extrude": false}}, {"type": "Feature", "geometry": {"type": "Point", "coordinates": [970.2532555867547, -1.4928965863123267]}, "properties": {"osm_id": null, "category": "restauracion", "name": "Portugues", "extrude": false}}, {"type": "Feature", "geometry": {"type": "Point", "coordinates": [995.6150004274816, -90.9941765865625]}, "properties": {"osm_id": null, "category": "restauracion", "name": "Bar los Cazadores", "extrude": false}}, {"type": "Feature", "geometry": {"type": "Point", "coordinates": [980.2412786516292, -97.89601658653851]}, "properties": {"osm_id": null, "category": "restauracion", "name": "Bar Hamburgesería San José", "extrude": false}}]}