{"type": "FeatureCollection", "crs": {"type": "name", "properties": {"name": "wgs84_and_EPSG:32628_local_enu_m_section_centroid", "lng0": -15.42971488352028, "lat0": 28.14325924647686}}, "features": [{"type": "Feature", "geometry": {"type": "Polygon", "coordinates": [[[-15.4277, 28.1444], [-15.4278, 28.1429], [-15.4278, 28.1428], [-15.4275, 28.1428], [-15.4273, 28.1426], [-15.4271, 28.1424], [-15.427, 28.1423], [-15.4266, 28.1419], [-15.4263, 28.1417], [-15.4262, 28.1416], [-15.4272, 28.1414], [-15.4274, 28.1414], [-15.4275, 28.1414], [-15.4276, 28.1414], [-15.4277, 28.1414], [-15.4278, 28.1413], [-15.4279, 28.1413], [-15.4279, 28.1414], [-15.428, 28.1414], [-15.4281, 28.1415], [-15.4282, 28.1415], [-15.4283, 28.1416], [-15.4284, 28.1416], [-15.4285, 28.1417], [-15.4285, 28.1418], [-15.4291, 28.1418], [-15.4291, 28.1425], [-15.4299, 28.1426], [-15.4302, 28.1427], [-15.4307, 28.1428], [-15.4308, 28.1428], [-15.4309, 28.1428], [-15.4314, 28.1429], [-15.4316, 28.1429], [-15.4319, 28.1429], [-15.4322, 28.143], [-15.4335, 28.1432], [-15.4335, 28.1432], [-15.4335, 28.1433], [-15.4335, 28.1433], [-15.4334, 28.1433], [-15.4334, 28.1434], [-15.4333, 28.1434], [-15.4333, 28.1435], [-15.4332, 28.1435], [-15.4331, 28.1436], [-15.4331, 28.1436], [-15.4331, 28.1437], [-15.433, 28.1437], [-15.433, 28.1437], [-15.4329, 28.1438], [-15.4329, 28.1438], [-15.4329, 28.1438], [-15.4328, 28.1438], [-15.4328, 28.1439], [-15.4328, 28.1439], [-15.4328, 28.1439], [-15.4327, 28.1439], [-15.4327, 28.1439], [-15.4326, 28.144], [-15.4326, 28.144], [-15.4326, 28.1441], [-15.4325, 28.1441], [-15.4325, 28.1442], [-15.4324, 28.1442], [-15.4324, 28.1442], [-15.4324, 28.1442], [-15.4324, 28.1443], [-15.4324, 28.1443], [-15.4323, 28.1443], [-15.4322, 28.1443], [-15.4322, 28.1444], [-15.4321, 28.1444], [-15.4321, 28.1445], [-15.4321, 28.1445], [-15.4321, 28.1445], [-15.432, 28.1445], [-15.432, 28.1445], [-15.432, 28.1446], [-15.432, 28.1446], [-15.432, 28.1447], [-15.4319, 28.1448], [-15.4319, 28.1448], [-15.4318, 28.1448], [-15.4318, 28.1448], [-15.4318, 28.1449], [-15.4318, 28.1449], [-15.4318, 28.145], [-15.4318, 28.145], [-15.4312, 28.1447], [-15.4309, 28.1446], [-15.4298, 28.1444], [-15.4294, 28.1444], [-15.4281, 28.1444], [-15.4277, 28.1444]]]}, "properties": {"cusec": "3501603046", "mun": "016", "nmun": "Palmas de Gran Canaria, Las", "area_m2": 126644.29751011552, "perimeter_m": 2000.1838399116416, "coords_system": "wgs84"}}, {"type": "Feature", "geometry": {"type": "Polygon", "coordinates": [[[197.7784415786066, -126.98868219617012], [187.96256688473545, 39.99131780383621], [187.96256688473545, 51.12331780381027], [217.41019096634892, 51.12331780381027], [237.04194035409122, 73.38731780375838], [256.6736897420079, 95.65131780410198], [266.48956443587906, 106.78331780407603], [305.75306321136367, 151.31131780397226], [335.20068729315153, 173.57531780392037], [345.01656198702267, 184.70731780389443], [246.85781504813679, 206.97131780384254], [227.2260656602201, 206.97131780384254], [217.41019096634892, 206.97131780384254], [207.59431627247778, 206.97131780384254], [197.7784415786066, 206.97131780384254], [187.96256688473545, 218.1033178038166], [178.1466921908643, 218.1033178038166], [178.1466921908643, 206.97131780384254], [168.33081749681878, 206.97131780384254], [158.51494280294762, 195.83931780386848], [148.69906810907645, 195.83931780386848], [138.8831934152053, 184.70731780389443], [129.06731872133415, 184.70731780389443], [119.251444027463, 173.57531780392037], [119.251444027463, 162.44331780394631], [60.35619586406169, 162.44331780394631], [60.35619586406169, 84.51931780412792], [-18.170801687081923, 73.38731780375838], [-47.61842576869539, 62.25531780378432], [-96.69779923822554, 51.12331780381027], [-106.5136739320967, 51.12331780381027], [-116.32954862596786, 51.12331780381027], [-165.40892209549799, 39.99131780383621], [-185.04067148324032, 39.99131780383621], [-214.48829556502812, 39.99131780383621], [-243.93591964664162, 28.859317803862155], [-371.5422906673154, 6.5953178039140425], [-371.5422906673154, 6.5953178039140425], [-371.5422906673154, -4.536682196060013], [-371.5422906673154, -4.536682196060013], [-361.7264159734442, -4.536682196060013], [-361.7264159734442, -15.66868219603407], [-351.91054127939867, -15.66868219603407], [-351.91054127939867, -26.800682196008125], [-342.09466658552753, -26.800682196008125], [-332.2787918916564, -37.93268219598218], [-332.2787918916564, -37.93268219598218], [-332.2787918916564, -49.06468219595624], [-322.46291719778526, -49.06468219595624], [-322.46291719778526, -49.06468219595624], [-312.64704250391407, -60.19668219593029], [-312.64704250391407, -60.19668219593029], [-312.64704250391407, -60.19668219593029], [-302.83116781004287, -60.19668219593029], [-302.83116781004287, -71.32868219590435], [-302.83116781004287, -71.32868219590435], [-302.83116781004287, -71.32868219590435], [-293.01529311617173, -71.32868219590435], [-293.01529311617173, -71.32868219590435], [-283.1994184223006, -82.4606821958784], [-283.1994184223006, -82.4606821958784], [-283.1994184223006, -93.59268219624795], [-273.38354372825506, -93.59268219624795], [-273.38354372825506, -104.724682196222], [-263.5676690343839, -104.724682196222], [-263.5676690343839, -104.724682196222], [-263.5676690343839, -104.724682196222], [-263.5676690343839, -115.85668219619606], [-263.5676690343839, -115.85668219619606], [-253.75179434051276, -115.85668219619606], [-243.93591964664162, -115.85668219619606], [-243.93591964664162, -126.98868219617012], [-234.12004495277043, -126.98868219617012], [-234.12004495277043, -138.12068219614417], [-234.12004495277043, -138.12068219614417], [-234.12004495277043, -138.12068219614417], [-224.30417025889932, -138.12068219614417], [-224.30417025889932, -138.12068219614417], [-224.30417025889932, -149.25268219611823], [-224.30417025889932, -149.25268219611823], [-224.30417025889932, -160.38468219609229], [-214.48829556502812, -171.51668219606634], [-214.48829556502812, -171.51668219606634], [-204.672420871157, -171.51668219606634], [-204.672420871157, -171.51668219606634], [-204.672420871157, -182.6486821960404], [-204.672420871157, -182.6486821960404], [-204.672420871157, -193.78068219601445], [-204.672420871157, -193.78068219601445], [-145.77717270775568, -160.38468219609229], [-116.32954862596786, -149.25268219611823], [-8.354926993210766, -126.98868219617012], [30.908571782448224, -126.98868219617012], [158.51494280294762, -126.98868219617012], [197.7784415786066, -126.98868219617012]]]}, "properties": {"cusec": "3501603046", "mun": "016", "nmun": "Palmas de Gran Canaria, Las", "area_m2": 126644.29751011552, "perimeter_m": 2000.1838399116416, "coords_system": "local_m_enu"}}]}