{"type": "FeatureCollection", "crs": {"type": "name", "properties": {"name": "EPSG:32628_local_enu_m_section_centroid", "lng0": -15.472811557243618, "lat0": 28.10061922589979}}, "features": [{"type": "Feature", "geometry": {"type": "LineString", "coordinates": [[-247.0986113642675, 247.04422716498868], [-247.89471492511558, 246.1536671648642], [-266.8468895622537, 229.45566716470537], [-277.8450427195557, 223.66702716468723], [-286.5846465678826, 219.88214716475142]]}, "properties": {"osm_id": null, "type": "secondary", "width_m": 9, "extrude": false}}, {"type": "Feature", "geometry": {"type": "LineString", "coordinates": [[150.54166416450047, 247.04422716498868], [151.37752380454123, 213.2029471646088], [151.67211719281255, 204.5199871647793], [150.0027546598567, 195.05778716493978], [142.5397221602402, 153.31278716474046]]}, "properties": {"osm_id": null, "type": "residential", "width_m": 5, "extrude": false}}, {"type": "Feature", "geometry": {"type": "LineString", "coordinates": [[-328.80969886833515, 237.80466716458704], [-328.9372445561556, 239.4222639885983]]}, "properties": {"osm_id": null, "type": "service", "width_m": 3.5, "extrude": false}}, {"type": "Feature", "geometry": {"type": "LineString", "coordinates": [[8.643250411203296, 247.04422716498868], [7.026763614581472, 241.25558716457505], [-20.763212666857665, 237.80466716458704], [-40.795563060583454, 239.47446716472157]]}, "properties": {"osm_id": null, "type": "footway", "width_m": 2, "extrude": false}}, {"type": "Feature", "geometry": {"type": "LineString", "coordinates": [[-331.05447575691596, 238.56121361958458], [-328.80969886833515, 237.80466716458704], [-313.09805150078574, 232.79526716457895], [-284.0315038706362, 229.12170716475757], [-277.8450427195557, 223.66702716468723]]}, "properties": {"osm_id": null, "type": "residential", "width_m": 5, "extrude": false}}, {"type": "Feature", "geometry": {"type": "LineString", "coordinates": [[112.22043759803461, 247.04422716498868], [114.16055910260737, 234.68770716494234]]}, "properties": {"osm_id": null, "type": "residential", "width_m": 5, "extrude": false}}, {"type": "Feature", "geometry": {"type": "LineString", "coordinates": [[-96.28278773107786, 247.04422716498868], [-99.12505391283085, 242.14614716469953], [-101.87459220219996, 234.2424271648801], [-100.89261424176084, 213.2029471646088], [-100.10703187344441, 195.28042716477316], [-84.19898891359786, 189.491787164755], [-75.06659388119996, 188.15594716496378], [-55.6234302638423, 193.72194716475306]]}, "properties": {"osm_id": null, "type": "residential", "width_m": 5, "extrude": false}}, {"type": "Feature", "geometry": {"type": "LineString", "coordinates": [[-286.5846465678826, 219.88214716475142], [-293.06570110705997, 217.3217871648879], [-302.7872829156516, 214.2048271648477], [-316.92776554656814, 211.86710716481755], [-329.49708344067744, 211.86710716481755], [-342.06640133478675, 212.9803071647754], [-356.20688396552885, 215.65198716475336], [-360.5636410224023, 216.83455312297951]]}, "properties": {"osm_id": null, "type": "secondary", "width_m": 9, "extrude": false}}, {"type": "Feature", "geometry": {"type": "LineString", "coordinates": [[-203.54910829961804, 247.04422716498868], [-215.78403561750005, 233.24054716464119], [-242.49383614252596, 200.62378716472907], [-247.99291272108974, 195.3917471648876]]}, "properties": {"osm_id": null, "type": "residential", "width_m": 5, "extrude": false}}, {"type": "Feature", "geometry": {"type": "LineString", "coordinates": [[-55.6234302638423, 193.72194716475306], [-40.795563060583454, 239.47446716472157], [-38.350299632146346, 247.04422716498868]]}, "properties": {"osm_id": null, "type": "residential", "width_m": 5, "extrude": false}}, {"type": "Feature", "geometry": {"type": "LineString", "coordinates": [[-155.98157782441956, 227.56322716473747], [-128.68259052319996, 220.32742716481366], [-100.89261424176084, 213.2029471646088]]}, "properties": {"osm_id": null, "type": "residential", "width_m": 5, "extrude": false}}, {"type": "Feature", "geometry": {"type": "LineString", "coordinates": [[-151.71834539796185, 247.04422716498868], [-154.70500647588355, 233.68582716470343], [-155.98157782441956, 227.56322716473747], [-168.35450012640612, 181.14278716487334]]}, "properties": {"osm_id": null, "type": "residential", "width_m": 5, "extrude": false}}, {"type": "Feature", "geometry": {"type": "LineString", "coordinates": [[109.3488670962114, 216.54254716487785], [115.63352604326606, 215.98594716470117], [128.10464614122677, 214.98406716485775], [133.80011831208773, 214.5387871647955], [140.28117285126507, 214.09350716473327], [151.37752380454123, 213.2029471646088]]}, "properties": {"osm_id": null, "type": "residential", "width_m": 4, "extrude": false}}, {"type": "Feature", "geometry": {"type": "LineString", "coordinates": [[-75.06659388119996, 188.15594716496378], [-79.0927035192795, 212.9803071647754], [-74.18281371673497, 240.69898716479386]]}, "properties": {"osm_id": null, "type": "residential", "width_m": 5, "extrude": false}}, {"type": "Feature", "geometry": {"type": "LineString", "coordinates": [[-286.5846465678826, 219.88214716475142], [-283.93330607448763, 211.6444671645887], [-274.5063176539929, 183.59182716462243]]}, "properties": {"osm_id": null, "type": "residential", "width_m": 5, "extrude": false}}, {"type": "Feature", "geometry": {"type": "LineString", "coordinates": [[111.01822962899281, 199.84454716471902], [132.13075577930633, 197.39550716457444], [150.0027546598567, 195.05778716493978]]}, "properties": {"osm_id": null, "type": "footway", "width_m": 2, "extrude": false}}, {"type": "Feature", "geometry": {"type": "LineString", "coordinates": [[-247.99291272108974, 195.3917471648876], [-255.06315403663524, 191.38422716472292], [-274.5063176539929, 183.59182716462243], [-291.69093196237543, 177.35790716493753], [-319.5791060397887, 171.9032271648672], [-344.22675284778774, 172.79378716459618], [-367.1068393268568, 179.4729871647388], [-374.5698718264733, 181.25410716459228], [-382.1300734055654, 183.24135221218555]]}, "properties": {"osm_id": null, "type": "residential", "width_m": 5, "extrude": false}}, {"type": "Feature", "geometry": {"type": "LineString", "coordinates": [[263.12661570684037, 230.90282716461104], [292.88054790915777, 188.26726716468272]]}, "properties": {"osm_id": null, "type": "service", "width_m": 3.5, "extrude": false}}, {"type": "Feature", "geometry": {"type": "LineString", "coordinates": [[58.08961755933508, -17.67473283503506], [87.05796739333607, 7.928867164786624], [106.01014203064858, 24.738187164664396], [175.04319265210114, 84.18306716486597], [186.72873038174544, 94.20186716488217], [213.6349264987196, 117.69038716490257], [222.86551932726607, 125.70542716483644], [292.88054790915777, 188.26726716468272], [330.0873951129687, 220.21151335028506]]}, "properties": {"osm_id": null, "type": "tertiary", "width_m": 7, "extrude": false}}, {"type": "Feature", "geometry": {"type": "LineString", "coordinates": [[221.78534357067838, 119.80546716470386], [225.22226643238977, 122.81110716462962], [333.3327810192511, 216.87700057655363]]}, "properties": {"osm_id": null, "type": "pedestrian", "width_m": 4, "extrude": false}}, {"type": "Feature", "geometry": {"type": "LineString", "coordinates": [[337.1502020350714, 212.63208215592854], [288.65804267912995, 170.12210716461823], [251.04828679295062, 137.06006716464387], [229.24837607029488, 118.24698716468376], [226.49883778110018, 115.79794716493467], [225.12406863641561, 115.13002716464356], [223.74929949173105, 114.79606716469576], [222.57092593916923, 115.01870716492462], [221.5889479787301, 115.79794716493467], [220.99976120236195, 116.7998271647781], [220.99976120236195, 117.91302716473595], [221.19615679448466, 118.91490716457938], [221.78534357067838, 119.80546716470386]]}, "properties": {"osm_id": null, "type": "pedestrian", "width_m": 4, "extrude": false}}, {"type": "Feature", "geometry": {"type": "LineString", "coordinates": [[-168.35450012640612, 181.14278716487334], [-207.14262956532173, 190.49366716459843], [-222.756079136897, 194.27854716492973], [-242.49383614252596, 200.62378716472907]]}, "properties": {"osm_id": null, "type": "residential", "width_m": 5, "extrude": false}}, {"type": "Feature", "geometry": {"type": "LineString", "coordinates": [[151.67211719281255, 204.5199871647793], [160.9027100211846, 196.83890716479326], [182.50622515171764, 164.1108271647667], [213.6349264987196, 117.69038716490257]]}, "properties": {"osm_id": null, "type": "residential", "width_m": 5, "extrude": false}}, {"type": "Feature", "geometry": {"type": "LineString", "coordinates": [[-55.6234302638423, 193.72194716475306], [-49.73156250103308, 194.5011871647631], [34.81673989602061, 163.88818716493333], [30.496036870018656, 143.07134716489088], [24.898762495306286, 121.02998716477614]]}, "properties": {"osm_id": null, "type": "residential", "width_m": 5, "extrude": false}}, {"type": "Feature", "geometry": {"type": "LineString", "coordinates": [[105.61735084640316, 128.7110671647622], [110.13444946452782, 185.03898716492358]]}, "properties": {"osm_id": null, "type": "residential", "width_m": 5, "extrude": false}}, {"type": "Feature", "geometry": {"type": "LineString", "coordinates": [[-247.99291272108974, 195.3917471648876], [-246.4217479842825, 187.9333071647349], [-264.49014245713, 107.1149871647097]]}, "properties": {"osm_id": null, "type": "residential", "width_m": 5, "extrude": false}}, {"type": "Feature", "geometry": {"type": "LineString", "coordinates": [[-391.6562883387072, 83.23178716493075], [-388.808552253364, 94.09054716476774], [-384.880640411433, 110.2319471647499], [-377.81039909606193, 138.7298671647784], [-367.1068393268568, 179.4729871647388], [-359.44741123511756, 205.18790716467493], [-356.20688396552885, 215.65198716475336]]}, "properties": {"osm_id": null, "type": "residential", "width_m": 5, "extrude": false}}, {"type": "Feature", "geometry": {"type": "LineString", "coordinates": [[-247.20733035277328, 102.43954716464941], [-237.09295735976184, 140.6223071647463], [-231.9866719654435, 159.4353871647064], [-226.97858436692482, 178.24846716466652], [-222.756079136897, 194.27854716492973]]}, "properties": {"osm_id": null, "type": "residential", "width_m": 5, "extrude": false}}, {"type": "Feature", "geometry": {"type": "LineString", "coordinates": [[142.5397221602402, 153.31278716474046], [133.11273373974544, 140.39966716491293], [105.61735084640316, 128.7110671647622], [69.67695749300525, 116.35454716471585], [58.777002131677364, 114.46210716474795], [44.34192611266394, 115.46398716459137], [24.898762495306286, 121.02998716477614], [-3.5785983586495633, 133.49782716493692], [-22.727168587910363, 138.84118716489283], [-168.35450012640612, 181.14278716487334]]}, "properties": {"osm_id": null, "type": "residential", "width_m": 5, "extrude": false}}, {"type": "Feature", "geometry": {"type": "LineString", "coordinates": [[-237.09295735976184, 140.6223071647463], [-115.9168770371424, 107.1149871647097]]}, "properties": {"osm_id": null, "type": "service", "width_m": 3.5, "extrude": false}}, {"type": "Feature", "geometry": {"type": "LineString", "coordinates": [[190.85303781579913, 88.3019071647496], [186.72873038174544, 94.20186716488217], [180.83686261893624, 102.88482716471165], [148.33339212707529, 150.41846716492913], [142.5397221602402, 153.31278716474046]]}, "properties": {"osm_id": null, "type": "residential", "width_m": 5, "extrude": false}}, {"type": "Feature", "geometry": {"type": "LineString", "coordinates": [[151.67211719281255, 204.5199871647793], [159.3315452843773, 206.74638716469502], [191.5370651985772, 247.04422716498868]]}, "properties": {"osm_id": null, "type": "residential", "width_m": 5, "extrude": false}}, {"type": "Feature", "geometry": {"type": "LineString", "coordinates": [[182.50622515171764, 164.1108271647667], [188.88908189474643, 169.56550716483704], [263.12661570684037, 230.90282716461104], [279.77410629752256, 245.85572142022855]]}, "properties": {"osm_id": null, "type": "residential", "width_m": 5, "extrude": false}}, {"type": "Feature", "geometry": {"type": "LineString", "coordinates": [[339.72010014715437, 209.4177349985793], [305.4498658032671, 178.91638716495763], [301.22736057323925, 175.13150716462633], [231.7033209715671, 115.35266716487243], [221.88354136682696, 105.44518716457517]]}, "properties": {"osm_id": null, "type": "tertiary", "width_m": 7, "extrude": false}}, {"type": "Feature", "geometry": {"type": "LineString", "coordinates": [[249.28072646402066, 63.81150716488577], [257.43114353597946, 70.82466716458072], [329.8029192231693, 133.3865071648225], [361.7900877351805, 161.01613134651572]]}, "properties": {"osm_id": null, "type": "residential", "width_m": 5, "extrude": false}}, {"type": "Feature", "geometry": {"type": "LineString", "coordinates": [[231.7033209715671, 115.35266716487243], [229.24837607029488, 118.24698716468376], [225.22226643238977, 122.81110716462962], [222.86551932726607, 125.70542716483644]]}, "properties": {"osm_id": null, "type": "footway", "width_m": 2, "extrude": false}}, {"type": "Feature", "geometry": {"type": "LineString", "coordinates": [[213.6349264987196, 117.69038716490257], [221.88354136682696, 105.44518716457517]]}, "properties": {"osm_id": null, "type": "residential", "width_m": 5, "extrude": false}}, {"type": "Feature", "geometry": {"type": "LineString", "coordinates": [[285.22111981759303, 29.63626716495355], [301.9147451455815, 44.330507164634554], [331.17768836785376, 69.93410716485172], [357.3964999124857, 92.86602716469545], [364.46674122785674, 98.96079716473167]]}, "properties": {"osm_id": null, "type": "residential", "width_m": 5, "extrude": false}}, {"type": "Feature", "geometry": {"type": "LineString", "coordinates": [[221.88354136682696, 105.44518716457517], [203.6187513018567, 90.75094716489417], [194.2899606773361, 83.2925071647415]]}, "properties": {"osm_id": null, "type": "tertiary", "width_m": 7, "extrude": false}}, {"type": "Feature", "geometry": {"type": "LineString", "coordinates": [[194.2899606773361, 83.2925071647415], [190.85303781579913, 88.3019071647496]]}, "properties": {"osm_id": null, "type": "residential", "width_m": 5, "extrude": false}}, {"type": "Feature", "geometry": {"type": "LineString", "coordinates": [[257.43114353597946, 7.594907164838816], [203.6187513018567, 90.75094716489417]]}, "properties": {"osm_id": null, "type": "footway", "width_m": 2, "extrude": false}}, {"type": "Feature", "geometry": {"type": "LineString", "coordinates": [[251.34288018104752, -2.646532835406248], [222.76732153129194, 39.766387164688695], [194.2899606773361, 83.2925071647415]]}, "properties": {"osm_id": null, "type": "residential", "width_m": 5, "extrude": false}}, {"type": "Feature", "geometry": {"type": "LineString", "coordinates": [[272.35720853521246, 25.183467164726636], [285.22111981759303, 29.63626716495355]]}, "properties": {"osm_id": null, "type": "residential", "width_m": 5, "extrude": false}}, {"type": "Feature", "geometry": {"type": "LineString", "coordinates": [[251.34288018104752, -2.646532835406248], [257.43114353597946, 7.594907164838816], [265.28696721984136, 20.841987164614153], [272.35720853521246, 25.183467164726636]]}, "properties": {"osm_id": null, "type": "residential", "width_m": 5, "extrude": false}}, {"type": "Feature", "geometry": {"type": "LineString", "coordinates": [[364.46674122785674, 82.68353972800156], [357.3964999124857, 92.86602716469545], [329.8029192231693, 133.3865071648225], [301.22736057323925, 175.13150716462633]]}, "properties": {"osm_id": null, "type": "residential", "width_m": 5, "extrude": false}}, {"type": "Feature", "geometry": {"type": "LineString", "coordinates": [[221.88354136682696, 105.44518716457517], [249.28072646402066, 63.81150716488577], [272.35720853521246, 25.183467164726636], [345.2199732026218, -77.34225283507001], [364.46674122785674, -106.13702616847334]]}, "properties": {"osm_id": null, "type": "residential", "width_m": 5, "extrude": false}}, {"type": "Feature", "geometry": {"type": "LineString", "coordinates": [[345.2199732026218, -77.34225283507001], [364.46674122785674, -61.232373551990236]]}, "properties": {"osm_id": null, "type": "residential", "width_m": 5, "extrude": false}}, {"type": "Feature", "geometry": {"type": "LineString", "coordinates": [[-391.6562883387072, 77.81401540003174], [-290.61075620578777, 50.45310716460051], [-287.2720311402249, 49.785187164704894], [-286.486448771734, 49.56254716487152], [-285.8972619955403, 49.22858716492371], [-285.50447081129494, 48.78330716486147], [-285.20987742319807, 48.44934716491366], [-284.8170862389526, 48.00406716485142], [-284.7188884429785, 47.11350716472694], [-284.8170862389526, 46.33426716471689], [-285.1116796270495, 45.55502716470684], [-285.7008664034176, 44.887107164811226], [-286.486448771734, 44.21918716491561], [-287.4684267323476, 44.10786716480118], [-288.4504046927867, 44.330507164634554], [-289.6287782453486, 44.66446716458236], [-291.78912975834953, 45.221067164759035], [-391.6562883387072, 72.00793912876037]]}, "properties": {"osm_id": null, "type": "pedestrian", "width_m": 4, "extrude": false}}, {"type": "Feature", "geometry": {"type": "LineString", "coordinates": [[-391.3661815607497, 142.41860802147627], [-385.1752337997043, 140.73362716486074], [-377.81039909606193, 138.7298671647784], [-368.5798062676899, 136.16950716491488], [-264.49014245713, 107.1149871647097], [-247.20733035277328, 102.43954716464941], [-125.93305223383085, 70.37938716491396], [-119.45199769482794, 68.70958716477944]]}, "properties": {"osm_id": null, "type": "residential", "width_m": 5, "extrude": false}}, {"type": "Feature", "geometry": {"type": "LineString", "coordinates": [[-231.9866719654435, 159.4353871647064], [-110.90878943862373, 125.37146716488863], [-115.9168770371424, 107.1149871647097], [-125.93305223383085, 70.37938716491396]]}, "properties": {"osm_id": null, "type": "service", "width_m": 3.5, "extrude": false}}, {"type": "Feature", "geometry": {"type": "LineString", "coordinates": [[-384.880640411433, 110.2319471647499], [-271.75677936462375, 78.83970716491007]]}, "properties": {"osm_id": null, "type": "residential", "width_m": 5, "extrude": false}}, {"type": "Feature", "geometry": {"type": "LineString", "coordinates": [[184.07738988852492, 74.60954716491202], [181.81884057937538, 77.0585871646611], [177.79273094147027, 81.28874716465916], [175.04319265210114, 84.18306716486597]]}, "properties": {"osm_id": null, "type": "footway", "width_m": 2, "extrude": false}}, {"type": "Feature", "geometry": {"type": "LineString", "coordinates": [[106.01014203064858, 24.738187164664396], [80.77330844628142, 61.80774716480343], [69.38236410473397, 70.26806716479953], [-20.2722236866381, 101.43766716480599], [-100.69621864963813, 122.81110716462962], [-106.68628420859592, 118.46962716491262], [-119.45199769482794, 68.70958716477944], [-134.27986489791232, 12.715627164961347]]}, "properties": {"osm_id": null, "type": "residential", "width_m": 5, "extrude": false}}, {"type": "Feature", "geometry": {"type": "LineString", "coordinates": [[-391.6562883387072, 81.62632559664004], [-289.3341848572517, 53.570067164640705], [-279.2198118642403, 50.56442716471494], [-267.3378785424733, 47.22482716484137], [-134.27986489791232, 12.715627164961347], [-125.44206325361128, 9.487347164806721], [15.471774074637096, -28.472772835061306], [27.45190519255269, -27.80485283516569]]}, "properties": {"osm_id": null, "type": "tertiary", "width_m": 7, "extrude": false}}, {"type": "Feature", "geometry": {"type": "LineString", "coordinates": [[-290.61075620578777, 50.45310716460051], [-289.3341848572517, 53.570067164640705]]}, "properties": {"osm_id": null, "type": "footway", "width_m": 2, "extrude": false}}, {"type": "Feature", "geometry": {"type": "LineString", "coordinates": [[-268.0252631148155, 44.887107164811226], [-267.3378785424733, 47.22482716484137]]}, "properties": {"osm_id": null, "type": "footway", "width_m": 2, "extrude": false}}, {"type": "Feature", "geometry": {"type": "LineString", "coordinates": [[-291.78912975834953, 45.221067164759035], [-292.7711077187887, 41.6588271646566]]}, "properties": {"osm_id": null, "type": "footway", "width_m": 2, "extrude": false}}, {"type": "Feature", "geometry": {"type": "LineString", "coordinates": [[21.36364183744632, -45.50473283516794], [12.32944460119699, -41.6085328351177], [-95.58993325514531, -11.774772835297966], [-128.97718391147126, -2.2012528353440075], [-187.89586153991235, 13.60618716469034], [-270.1856146278165, 35.42490716457621], [-282.8531303180744, 38.65318716473084], [-292.7711077187887, 41.6588271646566], [-391.6562883387072, 67.48666353219932]]}, "properties": {"osm_id": null, "type": "tertiary", "width_m": 7, "extrude": false}}, {"type": "Feature", "geometry": {"type": "LineString", "coordinates": [[-269.3018344635259, 38.987147164678646], [-270.1856146278165, 35.42490716457621]]}, "properties": {"osm_id": null, "type": "footway", "width_m": 2, "extrude": false}}, {"type": "Feature", "geometry": {"type": "LineString", "coordinates": [[62.90130956573103, -26.691652835207833], [62.41032058551147, -27.248252835384505], [61.624738217020614, -27.693532835051258], [60.544562460607345, -27.916172835280122], [59.3661889080455, -27.582212835332314], [58.286013151457794, -26.691652835207833], [57.991419763360945, -25.68977283536441], [57.991419763360945, -24.687892835125496], [58.286013151457794, -23.908652835115447], [58.973397723800076, -23.1294128351054], [61.23194703294963, -21.12565283541855], [177.79273094147027, 81.28874716465916], [181.7206427832268, 84.85098716476159], [183.48820311215678, 86.07550716483388], [185.05936784896403, 86.52078716489612], [186.6305325857713, 85.96418716471945], [187.51431275006186, 84.85098716476159], [187.80890613833316, 83.73778716480373], [187.51431275006186, 81.95666716495026], [186.6305325857713, 81.06610716482578], [184.3719832766218, 79.39630716469125], [181.81884057937538, 77.0585871646611], [64.76706769063516, -25.021852835073304], [62.90130956573103, -26.691652835207833]]}, "properties": {"osm_id": null, "type": "pedestrian", "width_m": 4, "extrude": false}}, {"type": "Feature", "geometry": {"type": "LineString", "coordinates": [[-271.8549771607723, 39.65506716457426], [-272.54236173311466, 40.1003471646365], [-273.13154850930835, 40.656947164813175], [-273.5243396935537, 41.436187164823224], [-273.7207352856764, 42.326747164947705], [-273.6225374895279, 43.10598716495775], [-273.32794410143106, 43.77390716485337], [-272.93515291718563, 44.441827164748986], [-272.1495705488692, 45.1097471646446], [-271.06939479228146, 45.44370716459241], [-270.28381242396506, 45.44370716459241], [-268.0252631148155, 44.887107164811226], [-139.97533706877329, 10.26658716481677], [-139.38615029240515, 9.82130716475453], [-138.99335910833415, 9.376027164692289], [-138.60056792408872, 8.708107164796672], [-138.50237012794014, 8.15150716462], [-138.404172331966, 7.372267164609951], [-138.404172331966, 6.815667164828767], [-138.69876572006285, 6.259067164652095], [-139.0915569043083, 5.70246716487091], [-139.58254588452786, 5.145867164694238], [-140.171732660896, 4.8119071647464295], [-140.7609194370897, 4.700587164631997], [-141.44830400943198, 4.700587164631997], [-142.52847976601967, 4.8119071647464295], [-269.3018344635259, 38.987147164678646], [-271.8549771607723, 39.65506716457426]]}, "properties": {"osm_id": null, "type": "pedestrian", "width_m": 4, "extrude": false}}, {"type": "Feature", "geometry": {"type": "LineString", "coordinates": [[194.2899606773361, 83.2925071647415], [184.07738988852492, 74.60954716491202], [113.17858114199379, 11.379787164774626], [67.12381479575885, -27.582212835332314], [61.13374923680105, -35.931212835213984], [59.66078229614235, -41.497212835398756]]}, "properties": {"osm_id": null, "type": "tertiary", "width_m": 7, "extrude": false}}, {"type": "Feature", "geometry": {"type": "LineString", "coordinates": [[-125.44206325361128, 9.487347164806721], [-126.42404121422486, 6.593027164599903]]}, "properties": {"osm_id": null, "type": "footway", "width_m": 2, "extrude": false}}, {"type": "Feature", "geometry": {"type": "LineString", "coordinates": [[58.08961755933508, -17.67473283503506], [53.27792555293913, -13.55589283515144], [51.117574039938155, -3.4257728354162964], [42.181574599662966, 11.491107164889058], [52.19774979652586, 11.491107164889058], [62.41032058551147, 19.95142716488516], [71.64091341388351, 18.28162716475063], [87.05796739333607, 7.928867164786624]]}, "properties": {"osm_id": null, "type": "footway", "width_m": 2, "extrude": false}}, {"type": "Feature", "geometry": {"type": "LineString", "coordinates": [[-128.97718391147126, -2.2012528353440075], [-128.09340374700628, 0.8043871645817546]]}, "properties": {"osm_id": null, "type": "footway", "width_m": 2, "extrude": false}}, {"type": "Feature", "geometry": {"type": "LineString", "coordinates": [[-130.64654644425266, 1.4723071648728592], [-131.33393101659496, 1.9175871649350995], [-131.92311779278867, 2.474187164716284], [-132.31590897703407, 3.2534271647263324], [-132.51230456915678, 4.143987164850813], [-132.41410677300823, 4.923227164860862], [-132.11951338491136, 5.591147164756478], [-131.72672220066593, 6.259067164652095], [-130.9411398323495, 6.926987164943199], [-129.76276627978768, 7.260947164891007], [-129.0753817074454, 7.260947164891007], [-126.42404121422486, 6.593027164599903], [14.391598318223826, -31.367092835268124], [17.632125587638072, -32.257652835392605], [18.417707956128925, -32.70293283505936], [19.006894732322632, -33.25953283523603], [19.399685916568057, -33.70481283529827], [19.792477100813482, -34.48405283530832], [19.792477100813482, -35.48593283515174], [19.497883712542198, -36.376492835276224], [19.006894732322632, -37.267052835400705], [18.319510159980354, -37.71233283506746], [17.632125587638072, -38.04629283541075], [16.35555423910209, -38.1576128351297], [15.373576278662958, -37.93497283529632], [13.311422561636121, -37.37837283511965], [-128.09340374700628, 0.8043871645817546], [-130.64654644425266, 1.4723071648728592]]}, "properties": {"osm_id": null, "type": "pedestrian", "width_m": 4, "extrude": false}}, {"type": "Feature", "geometry": {"type": "LineString", "coordinates": [[45.12750848098036, -23.352052835334263], [51.903156408429005, -21.793572835314166], [58.08961755933508, -17.67473283503506]]}, "properties": {"osm_id": null, "type": "tertiary", "width_m": 7, "extrude": false}}, {"type": "Feature", "geometry": {"type": "LineString", "coordinates": [[-187.89586153991235, 13.60618716469034], [-191.6273777897206, -1.422012835333959], [-203.3129155193649, -43.27833283525223], [-206.65164058510214, -56.41409283530862]]}, "properties": {"osm_id": null, "type": "residential", "width_m": 5, "extrude": false}}, {"type": "Feature", "geometry": {"type": "LineString", "coordinates": [[67.12381479575885, -27.582212835332314], [64.76706769063516, -25.021852835073304], [61.23194703294963, -21.12565283541855], [58.08961755933508, -17.67473283503506]]}, "properties": {"osm_id": null, "type": "footway", "width_m": 2, "extrude": false}}, {"type": "Feature", "geometry": {"type": "LineString", "coordinates": [[27.45190519255269, -27.80485283516569], [32.754586178993776, -24.353932835177687], [38.84284953392571, -22.79545283515759], [45.12750848098036, -23.352052835334263]]}, "properties": {"osm_id": null, "type": "tertiary", "width_m": 7, "extrude": false}}, {"type": "Feature", "geometry": {"type": "LineString", "coordinates": [[-391.6562883387072, -7.226986469209038], [-353.6537412684569, -17.34077283508725], [-313.5890404810053, -28.027492835394554], [-302.00170054733513, -31.14445283503926], [-290.70895400176187, -34.03877283524608], [-252.80460472748567, -44.16889283537671], [-214.5074642689641, -54.410332835226285], [-206.65164058510214, -56.41409283530862]]}, "properties": {"osm_id": null, "type": "residential", "width_m": 5, "extrude": false}}, {"type": "Feature", "geometry": {"type": "LineString", "coordinates": [[15.471774074637096, -28.472772835061306], [14.391598318223826, -31.367092835268124]]}, "properties": {"osm_id": null, "type": "footway", "width_m": 2, "extrude": false}}, {"type": "Feature", "geometry": {"type": "LineString", "coordinates": [[45.12750848098036, -23.352052835334263], [50.822980651841306, -25.801092835083352], [55.438277066114544, -30.031252835081403], [58.48240874358051, -35.37461283503731], [59.66078229614235, -41.497212835398756]]}, "properties": {"osm_id": null, "type": "tertiary", "width_m": 7, "extrude": false}}, {"type": "Feature", "geometry": {"type": "LineString", "coordinates": [[55.83106825018553, -106.95337283505637], [141.55774419980108, -31.14445283503926], [222.76732153129194, 39.766387164688695]]}, "properties": {"osm_id": null, "type": "residential", "width_m": 5, "extrude": false}}, {"type": "Feature", "geometry": {"type": "LineString", "coordinates": [[21.36364183744632, -45.50473283516794], [21.36364183744632, -39.04817283525418], [23.425795554473158, -32.81425283517379], [27.45190519255269, -27.80485283516569]]}, "properties": {"osm_id": null, "type": "tertiary", "width_m": 7, "extrude": false}}, {"type": "Feature", "geometry": {"type": "LineString", "coordinates": [[12.32944460119699, -41.6085328351177], [13.311422561636121, -37.37837283511965]]}, "properties": {"osm_id": null, "type": "footway", "width_m": 2, "extrude": false}}, {"type": "Feature", "geometry": {"type": "LineString", "coordinates": [[113.17858114199379, 11.379787164774626], [141.55774419980108, -31.14445283503926], [166.59818219204553, -68.43665283540716], [168.66033590889793, -71.44229283533292], [189.47826867111456, -100.71945283537147]]}, "properties": {"osm_id": null, "type": "residential", "width_m": 5, "extrude": false}}, {"type": "Feature", "geometry": {"type": "LineString", "coordinates": [[-114.54210789245784, -81.34977283523469], [-111.79256960308872, -71.33097283521849], [-99.32144950495356, -26.023732835312217], [-95.58993325514531, -11.774772835297966]]}, "properties": {"osm_id": null, "type": "residential", "width_m": 5, "extrude": false}}, {"type": "Feature", "geometry": {"type": "LineString", "coordinates": [[59.66078229614235, -41.497212835398756], [58.8751999276515, -47.61981283536471], [56.223859434430956, -53.185812835153996], [51.903156408429005, -57.52729283526648], [46.40407982969078, -60.42161283507781]]}, "properties": {"osm_id": null, "type": "tertiary", "width_m": 7, "extrude": false}}, {"type": "Feature", "geometry": {"type": "LineString", "coordinates": [[46.40407982969078, -60.42161283507781], [40.80680545497841, -61.42349283531672], [35.20953108026604, -60.64425283530667], [30.00504788979909, -58.30653283527653], [25.97893825171956, -54.855612835288525], [23.033004370402164, -50.51413283517604], [21.36364183744632, -45.50473283516794]]}, "properties": {"osm_id": null, "type": "tertiary", "width_m": 7, "extrude": false}}, {"type": "Feature", "geometry": {"type": "LineString", "coordinates": [[-206.65164058510214, -56.41409283530862], [-196.93005877633612, -59.085772835286576], [-160.69507203484136, -68.88193283507391], [-121.21955802358347, -79.56865283538122], [-114.54210789245784, -81.34977283523469]]}, "properties": {"osm_id": null, "type": "residential", "width_m": 5, "extrude": false}}, {"type": "Feature", "geometry": {"type": "LineString", "coordinates": [[166.59818219204553, -68.43665283540716], [172.0972587706093, -64.98573283541916], [206.4664873873744, -73.33473283530083]]}, "properties": {"osm_id": null, "type": "footway", "width_m": 2, "extrude": false}}, {"type": "Feature", "geometry": {"type": "LineString", "coordinates": [[-114.54210789245784, -81.34977283523469], [-67.89815476968032, -95.04213283507227], [-12.41640000277618, -111.29485283516885]]}, "properties": {"osm_id": null, "type": "residential", "width_m": 5, "extrude": false}}, {"type": "Feature", "geometry": {"type": "LineString", "coordinates": [[168.66033590889793, -71.44229283533292], [67.02561699961028, -160.16433283517756]]}, "properties": {"osm_id": null, "type": "residential", "width_m": 5, "extrude": false}}, {"type": "Feature", "geometry": {"type": "LineString", "coordinates": [[-264.49014245713, 107.1149871647097], [-271.75677936462375, 78.83970716491007], [-275.78288900252886, 63.47754716493796], [-279.2198118642403, 50.56442716471494], [-282.8531303180744, 38.65318716473084], [-285.8972619955403, 25.74006716490331], [-298.17198650137834, -18.67661283527397], [-302.00170054733513, -31.14445283503926], [-304.8494366326784, -42.05381283517994], [-329.00609446045786, -132.00037283509687], [-330.9700503813362, -140.68333283532183], [-360.0365980114857, -248.21845283512658], [-366.4454343233512, -272.50990350332177]]}, "properties": {"osm_id": null, "type": "residential", "width_m": 5, "extrude": false}}, {"type": "Feature", "geometry": {"type": "LineString", "coordinates": [[168.26754472482693, -133.55885283511697], [275.00854902860743, -287.29177283534796], [288.0959311973925, -306.65874689057136]]}, "properties": {"osm_id": null, "type": "residential", "width_m": 5, "extrude": false}}, {"type": "Feature", "geometry": {"type": "LineString", "coordinates": [[247.08109583249046, -309.55577283529607], [154.61805107412994, -178.53213283507543]]}, "properties": {"osm_id": null, "type": "residential", "width_m": 5, "extrude": false}}, {"type": "Feature", "geometry": {"type": "LineString", "coordinates": [[189.47826867111456, -100.71945283537147], [206.4664873873744, -73.33473283530083], [209.4124212686918, -68.5479728351261], [212.65294853828047, -63.983852835180244], [228.95378268219798, -37.71233283506746], [251.34288018104752, -2.646532835406248]]}, "properties": {"osm_id": null, "type": "residential", "width_m": 5, "extrude": false}}, {"type": "Feature", "geometry": {"type": "LineString", "coordinates": [[364.46674122785674, -170.6638674927224], [347.6749181037196, -144.9134928353199], [251.34288018104752, -2.646532835406248]]}, "properties": {"osm_id": null, "type": "residential", "width_m": 5, "extrude": false}}, {"type": "Feature", "geometry": {"type": "LineString", "coordinates": [[331.17768836785376, 69.93410716485172], [364.46674122785674, 19.56324664798288]]}, "properties": {"osm_id": null, "type": "residential", "width_m": 5, "extrude": false}}, {"type": "Feature", "geometry": {"type": "LineString", "coordinates": [[364.46674122785674, -43.02770822377198], [301.9147451455815, 44.330507164634554]]}, "properties": {"osm_id": null, "type": "residential", "width_m": 5, "extrude": false}}, {"type": "Feature", "geometry": {"type": "LineString", "coordinates": [[252.44028362120065, -309.55577283529607], [275.00854902860743, -287.29177283534796], [299.8525914285547, -263.2466528351509], [326.071402973361, -238.19965283511038], [350.71904978136007, -213.37529283529875], [364.37619399882095, -200.32520225597693]]}, "properties": {"osm_id": null, "type": "residential", "width_m": 5, "extrude": false}}, {"type": "Feature", "geometry": {"type": "LineString", "coordinates": [[360.83858308755805, -227.8339072792484], [350.71904978136007, -213.37529283529875], [228.95378268219798, -37.71233283506746]]}, "properties": {"osm_id": null, "type": "residential", "width_m": 5, "extrude": false}}, {"type": "Feature", "geometry": {"type": "LineString", "coordinates": [[209.4124212686918, -68.5479728351261], [326.071402973361, -238.19965283511038], [344.7077933570957, -264.9878542342927]]}, "properties": {"osm_id": null, "type": "residential", "width_m": 5, "extrude": false}}, {"type": "Feature", "geometry": {"type": "LineString", "coordinates": [[319.44224922693166, -291.7343184579167], [299.8525914285547, -263.2466528351509], [189.47826867111456, -100.71945283537147]]}, "properties": {"osm_id": null, "type": "residential", "width_m": 5, "extrude": false}}, {"type": "Feature", "geometry": {"type": "LineString", "coordinates": [[154.61805107412994, -178.53213283507543], [160.9027100211846, -159.71905283511532], [168.26754472482693, -133.55885283511697], [189.47826867111456, -100.71945283537147]]}, "properties": {"osm_id": null, "type": "residential", "width_m": 5, "extrude": false}}, {"type": "Feature", "geometry": {"type": "LineString", "coordinates": [[46.40407982969078, -60.42161283507781], [48.66262913884032, -72.22153283534297], [55.83106825018553, -106.95337283505637], [59.85717788826506, -128.9947328351711], [67.02561699961028, -160.16433283517756], [75.17603407156905, -200.12821283512793], [77.92557236093816, -212.15077283522646], [84.8976158803351, -226.28841283512628], [103.35880153725361, -251.00145283521897]]}, "properties": {"osm_id": null, "type": "residential", "width_m": 5, "extrude": false}}, {"type": "Feature", "geometry": {"type": "LineString", "coordinates": [[-67.89815476968032, -95.04213283507227], [-98.33947154451442, -203.91309283506374], [-99.9106362813217, -214.59981283537104], [-98.33947154451442, -220.3884528353892]]}, "properties": {"osm_id": null, "type": "residential", "width_m": 5, "extrude": false}}, {"type": "Feature", "geometry": {"type": "LineString", "coordinates": [[-206.65164058510214, -56.41409283530862], [-236.3073749914454, -166.39825283525795], [-265.2757248254464, -273.5994128351149]]}, "properties": {"osm_id": null, "type": "residential", "width_m": 5, "extrude": false}}, {"type": "Feature", "geometry": {"type": "LineString", "coordinates": [[-159.9094896663505, -251.00145283521897], [-144.0014467066784, -191.44525283529845], [-114.54210789245784, -81.34977283523469]]}, "properties": {"osm_id": null, "type": "residential", "width_m": 5, "extrude": false}}, {"type": "Feature", "geometry": {"type": "LineString", "coordinates": [[-330.9700503813362, -140.68333283532183], [-281.87115235763525, -154.0417328352116], [-236.3073749914454, -166.39825283525795], [-189.66342186884236, -179.0887328352521], [-144.0014467066784, -191.44525283529845], [-98.33947154451442, -203.91309283506374]]}, "properties": {"osm_id": null, "type": "residential", "width_m": 5, "extrude": false}}, {"type": "Feature", "geometry": {"type": "LineString", "coordinates": [[77.92557236093816, -212.15077283522646], [88.62913213014333, -202.79989283510588], [168.26754472482693, -133.55885283511697]]}, "properties": {"osm_id": null, "type": "residential", "width_m": 5, "extrude": false}}, {"type": "Feature", "geometry": {"type": "LineString", "coordinates": [[-160.69507203484136, -68.88193283507391], [-189.66342186884236, -179.0887328352521], [-216.0786290055969, -279.0540928351852]]}, "properties": {"osm_id": null, "type": "residential", "width_m": 5, "extrude": false}}, {"type": "Feature", "geometry": {"type": "LineString", "coordinates": [[-98.33947154451442, -220.3884528353892], [-76.63775861800723, -220.61109283522256], [-23.21815756812993, -150.9247728351714], [-32.54694819265055, -136.23053283509492]]}, "properties": {"osm_id": null, "type": "service", "width_m": 3.5, "extrude": false}}, {"type": "Feature", "geometry": {"type": "LineString", "coordinates": [[-321.6609911458104, -304.8483587165532], [-310.25031541526806, -261.57685283541184], [-281.87115235763525, -154.0417328352116], [-252.80460472748567, -44.16889283537671]]}, "properties": {"osm_id": null, "type": "residential", "width_m": 5, "extrude": false}}, {"type": "Feature", "geometry": {"type": "LineString", "coordinates": [[88.62913213014333, -202.79989283510588], [92.26245058397744, -204.80365283518822], [107.09031778706186, -201.46405283531465], [118.5794599247579, -196.78861283525436], [128.00644834525266, -192.11317283519406], [134.38930508828145, -188.99621283515387], [143.03071114045977, -188.66225283520606], [150.10095245600527, -189.99809283539278]]}, "properties": {"osm_id": null, "type": "footway", "width_m": 2, "extrude": false}}, {"type": "Feature", "geometry": {"type": "LineString", "coordinates": [[-98.33947154451442, -203.91309283506374], [-85.8683514465537, -204.4696928352404]]}, "properties": {"osm_id": null, "type": "residential", "width_m": 5, "extrude": false}}, {"type": "Feature", "geometry": {"type": "LineString", "coordinates": [[112.58939436580009, -243.5430128350663], [124.37312989141853, -230.51857283512433], [138.61181031848366, -214.4884928352566], [149.11897449556614, -192.44713283514187], [150.10095245600527, -189.99809283539278], [154.61805107412994, -178.53213283507543]]}, "properties": {"osm_id": null, "type": "residential", "width_m": 5, "extrude": false}}, {"type": "Feature", "geometry": {"type": "LineString", "coordinates": [[30.00504788979909, -58.30653283527653], [20.479861673155764, -70.1064528351462], [-12.41640000277618, -111.29485283516885], [-21.352399443225806, -122.53817283525734], [-32.54694819265055, -136.23053283509492], [-85.8683514465537, -204.4696928352404], [-98.33947154451442, -220.3884528353892], [-109.53402029393916, -225.84313283506404], [-154.31221529163815, -248.10713283540764], [-159.9094896663505, -251.00145283521897], [-216.0786290055969, -279.0540928351852], [-226.19300199860837, -284.0634928351933], [-246.4217479842825, -293.74833283526175], [-276.5684713710197, -308.4425728353382], [-278.7964885922296, -309.55577283529607]]}, "properties": {"osm_id": null, "type": "residential", "width_m": 5, "extrude": false}}, {"type": "Feature", "geometry": {"type": "LineString", "coordinates": [[103.35880153725361, -251.00145283521897], [112.58939436580009, -243.5430128350663]]}, "properties": {"osm_id": null, "type": "residential", "width_m": 5, "extrude": false}}, {"type": "Feature", "geometry": {"type": "LineString", "coordinates": [[112.58939436580009, -243.5430128350663], [111.80381199748366, -268.03341283532563]]}, "properties": {"osm_id": null, "type": "residential", "width_m": 5, "extrude": false}}, {"type": "Feature", "geometry": {"type": "LineString", "coordinates": [[103.35880153725361, -251.00145283521897], [111.80381199748366, -268.03341283532563]]}, "properties": {"osm_id": null, "type": "residential", "width_m": 5, "extrude": false}}, {"type": "Feature", "geometry": {"type": "LineString", "coordinates": [[90.39669245907332, -280.38993283537195], [103.35880153725361, -251.00145283521897]]}, "properties": {"osm_id": null, "type": "residential", "width_m": 5, "extrude": false}}, {"type": "Feature", "geometry": {"type": "LineString", "coordinates": [[-226.19300199860837, -284.0634928351933], [-265.2757248254464, -273.5994128351149], [-310.25031541526806, -261.57685283541184], [-360.0365980114857, -248.21845283512658]]}, "properties": {"osm_id": null, "type": "residential", "width_m": 5, "extrude": false}}, {"type": "Feature", "geometry": {"type": "LineString", "coordinates": [[90.39669245907332, -280.38993283537195], [111.80381199748366, -268.03341283532563]]}, "properties": {"osm_id": null, "type": "residential", "width_m": 5, "extrude": false}}, {"type": "Feature", "geometry": {"type": "LineString", "coordinates": [[-382.1311021222383, -243.09773283539954], [-383.3733362066719, -242.77297106336079]]}, "properties": {"osm_id": null, "type": "residential", "width_m": 5, "extrude": false}}, {"type": "Feature", "geometry": {"type": "LineString", "coordinates": [[-265.2757248254464, -273.5994128351149], [-276.5684713710197, -308.4425728353382]]}, "properties": {"osm_id": null, "type": "residential", "width_m": 5, "extrude": false}}, {"type": "Feature", "geometry": {"type": "LineString", "coordinates": [[-154.31221529163815, -248.10713283540764], [-155.8833800284454, -257.1240528351849], [-195.26069624355472, -292.0785328351272], [-206.25884940085675, -306.88409283531814], [-206.55879903235768, -309.55577283529607]]}, "properties": {"osm_id": null, "type": "service", "width_m": 3.5, "extrude": false}}, {"type": "Feature", "geometry": {"type": "LineString", "coordinates": [[42.61645055351192, -309.55577283529607], [53.376123349087706, -302.98789283526787], [81.85348420286913, -285.62197283521346], [90.39669245907332, -280.38993283537195]]}, "properties": {"osm_id": null, "type": "residential", "width_m": 5, "extrude": false}}, {"type": "Feature", "geometry": {"type": "LineString", "coordinates": [[111.80381199748366, -268.03341283532563], [136.55053650995006, -309.55577283529607]]}, "properties": {"osm_id": null, "type": "residential", "width_m": 5, "extrude": false}}, {"type": "Feature", "geometry": {"type": "LineString", "coordinates": [[81.85348420286913, -285.62197283521346], [96.56487210550159, -309.55577283529607]]}, "properties": {"osm_id": null, "type": "pedestrian", "width_m": 4, "extrude": false}}, {"type": "Feature", "geometry": {"type": "LineString", "coordinates": [[57.29221508600746, -309.55577283529607], [53.376123349087706, -302.98789283526787]]}, "properties": {"osm_id": null, "type": "residential", "width_m": 5, "extrude": false}}]}