{"type": "FeatureCollection", "crs": {"type": "name", "properties": {"name": "wgs84_and_EPSG:32628_local_enu_m_section_centroid", "lng0": -16.728618363391785, "lat0": 28.1213434312346}}, "features": [{"type": "Feature", "geometry": {"type": "Polygon", "coordinates": [[[-16.72689, 28.12214], [-16.72689, 28.12214], [-16.72675, 28.12185], [-16.72724, 28.12107], [-16.72732, 28.12083], [-16.72756, 28.12021], [-16.72774, 28.12006], [-16.72908, 28.12008], [-16.7291, 28.12005], [-16.72973, 28.12038], [-16.73016, 28.12052], [-16.7302, 28.12092], [-16.73026, 28.1212], [-16.73107, 28.1217], [-16.73047, 28.1218], [-16.72999, 28.12191], [-16.72985, 28.12195], [-16.72953, 28.1221], [-16.7292, 28.12224], [-16.72851, 28.12257], [-16.7282, 28.12271], [-16.72804, 28.12277], [-16.72793, 28.1228], [-16.72742, 28.12245], [-16.72689, 28.12214]]]}, "properties": {"cusec": "3800101002", "mun": "001", "nmun": "Adeje", "area_m2": 76507.5990637876, "perimeter_m": 1145.4600872876683, "coords_system": "wgs84"}}, {"type": "Feature", "geometry": {"type": "Polygon", "coordinates": [[[169.68868510213747, -88.6740349645649], [169.68868510213747, -88.6740349645649], [183.43372045033593, -56.3912349642051], [135.32609673233895, 30.438365035671637], [127.47179081913254, 57.155165035451176], [103.90887307951326, 126.17356503560671], [86.236684774886, 142.87156503576554], [-45.32293927036244, 140.64516503545434], [-47.286515748576846, 143.9847650357234], [-109.13917481477226, 107.24916503553217], [-151.356069098126, 91.66436503572669], [-155.2832220545548, 47.13636503543498], [-161.17395148954682, 15.966765035428523], [-240.6987988600207, -39.69323496444176], [-181.7915045114957, -50.82523496441581], [-134.66566903260593, -63.070434964347726], [-120.92063368440749, -67.52323496417915], [-89.5034100319306, -84.22123496433798], [-57.104398139997684, -99.80603496453895], [10.638990360840946, -136.5416349643347], [41.074425774210646, -152.12643496453566], [56.7830376006235, -158.8056349642828], [67.58270823115154, -162.14523496455186], [117.65390842771171, -123.18323496444492], [169.68868510213747, -88.6740349645649]]]}, "properties": {"cusec": "3800101002", "mun": "001", "nmun": "Adeje", "area_m2": 76507.5990637876, "perimeter_m": 1145.4600872876683, "coords_system": "local_m_enu"}}]}