{"type": "FeatureCollection", "crs": {"type": "name", "properties": {"name": "wgs84_and_EPSG:32628_local_enu_m_section_centroid", "lng0": -13.594564208727654, "lat0": 28.95104614221873}}, "features": [{"type": "Feature", "geometry": {"type": "Polygon", "coordinates": [[[-13.5976, 28.953], [-13.5939, 28.9531], [-13.5933, 28.9532], [-13.5917, 28.9534], [-13.5916, 28.9525], [-13.5916, 28.9512], [-13.591, 28.9513], [-13.5908, 28.9501], [-13.5909, 28.9501], [-13.591, 28.95], [-13.5911, 28.95], [-13.5912, 28.95], [-13.5913, 28.95], [-13.5913, 28.9499], [-13.5915, 28.9499], [-13.5916, 28.9498], [-13.5917, 28.9498], [-13.5918, 28.9498], [-13.5919, 28.9498], [-13.592, 28.9497], [-13.5921, 28.9497], [-13.5922, 28.9497], [-13.5922, 28.9497], [-13.5922, 28.9496], [-13.5924, 28.9496], [-13.5925, 28.9495], [-13.5926, 28.9495], [-13.5927, 28.9494], [-13.5928, 28.9494], [-13.5929, 28.9494], [-13.593, 28.9493], [-13.5931, 28.9493], [-13.5931, 28.9493], [-13.5931, 28.9492], [-13.5932, 28.9491], [-13.5932, 28.9491], [-13.5933, 28.949], [-13.5933, 28.949], [-13.5933, 28.949], [-13.5935, 28.949], [-13.5935, 28.949], [-13.5936, 28.949], [-13.5936, 28.949], [-13.5937, 28.949], [-13.5938, 28.949], [-13.5939, 28.949], [-13.5941, 28.949], [-13.5942, 28.949], [-13.5942, 28.949], [-13.5943, 28.949], [-13.5944, 28.949], [-13.5945, 28.949], [-13.5946, 28.949], [-13.5947, 28.9489], [-13.5949, 28.9489], [-13.5951, 28.9489], [-13.5952, 28.9489], [-13.5953, 28.9489], [-13.5954, 28.9489], [-13.5955, 28.9489], [-13.5959, 28.9488], [-13.5961, 28.9488], [-13.5962, 28.9488], [-13.5963, 28.9488], [-13.5964, 28.9488], [-13.5966, 28.9487], [-13.5967, 28.9487], [-13.5968, 28.9487], [-13.5969, 28.9486], [-13.5971, 28.9486], [-13.5972, 28.9486], [-13.5973, 28.9485], [-13.5974, 28.9485], [-13.5978, 28.9495], [-13.5975, 28.9501], [-13.5976, 28.953], [-13.5976, 28.953]]]}, "properties": {"cusec": "3501802005", "mun": "018", "nmun": "San Bartolomé", "area_m2": 274992.20295258134, "perimeter_m": 2267.579962119589, "coords_system": "wgs84"}}, {"type": "Feature", "geometry": {"type": "Polygon", "coordinates": [[[-295.71260789890897, -217.50344821101308], [64.69973638605114, -228.63544821098714], [123.14498140526659, -239.7674482109612], [278.9989681230591, -262.0314482109093], [288.73984229289954, -161.8434482111428], [288.73984229289954, -17.127448211084584], [347.185087312115, -28.25944821105864], [366.6668356517958, 105.32455178902552], [356.92596148195537, 105.32455178902552], [347.185087312115, 116.45655178899958], [337.4442131421016, 116.45655178899958], [327.7033389722611, 116.45655178899958], [317.9624648024207, 116.45655178899958], [317.9624648024207, 127.58855178897363], [298.48071646273996, 127.58855178897363], [288.73984229289954, 138.7205517889477], [278.9989681230591, 138.7205517889477], [269.25809395321875, 138.7205517889477], [259.5172197832053, 138.7205517889477], [249.77634561336487, 149.85255178892174], [240.0354714435245, 149.85255178892174], [230.29459727368405, 149.85255178892174], [230.29459727368405, 149.85255178892174], [230.29459727368405, 160.9845517888958], [210.81284893400326, 160.9845517888958], [201.07197476416286, 172.11655178886986], [191.33110059432244, 172.11655178886986], [181.590226424309, 183.2485517888439], [171.8493522544686, 183.2485517888439], [162.10847808462822, 183.2485517888439], [152.36760391478782, 194.38055178881797], [142.6267297449474, 194.38055178881797], [142.6267297449474, 194.38055178881797], [142.6267297449474, 205.51255178879202], [132.885855575107, 216.64455178876608], [132.885855575107, 216.64455178876608], [123.14498140526659, 227.77655178874014], [123.14498140526659, 227.77655178874014], [123.14498140526659, 227.77655178874014], [103.66323306541275, 227.77655178874014], [103.66323306541275, 227.77655178874014], [93.92235889557234, 227.77655178874014], [93.92235889557234, 227.77655178874014], [84.18148472573195, 227.77655178874014], [74.44061055589154, 227.77655178874014], [64.69973638605114, 227.77655178874014], [45.21798804637033, 227.77655178874014], [35.47711387635689, 227.77655178874014], [35.47711387635689, 227.77655178874014], [25.736239706516486, 227.77655178874014], [15.995365536676083, 227.77655178874014], [6.254491366835679, 227.77655178874014], [-3.4863828030047253, 227.77655178874014], [-13.22725697284513, 238.90855178910968], [-32.70900531269897, 238.90855178910968], [-52.190753652379776, 238.90855178910968], [-61.931627822220186, 238.90855178910968], [-71.67250199206059, 238.90855178910968], [-81.413376161901, 238.90855178910968], [-91.1542503317414, 238.90855178910968], [-130.11774701127604, 250.04055178908374], [-149.59949535095686, 250.04055178908374], [-159.34036952079725, 250.04055178908374], [-169.08124369063765, 250.04055178908374], [-178.82211786047807, 250.04055178908374], [-198.3038662003319, 261.1725517890578], [-208.04474037017232, 261.1725517890578], [-217.78561454001272, 261.1725517890578], [-227.52648870985314, 272.30455178903185], [-247.00823704953393, 272.30455178903185], [-256.7491112195474, 272.30455178903185], [-266.4899853893878, 283.4365517890059], [-276.2308595592282, 283.4365517890059], [-315.1943562385898, 172.11655178886986], [-285.97173372906855, 105.32455178902552], [-295.71260789890897, -217.50344821101308], [-295.71260789890897, -217.50344821101308]]]}, "properties": {"cusec": "3501802005", "mun": "018", "nmun": "San Bartolomé", "area_m2": 274992.20295258134, "perimeter_m": 2267.579962119589, "coords_system": "local_m_enu"}}]}