{"type": "FeatureCollection", "crs": {"type": "name", "properties": {"name": "EPSG:32628_local_enu_m_section_centroid", "lng0": -17.79846406630219, "lat0": 28.604146480290062}}, "features": [{"type": "Feature", "geometry": {"type": "Point", "coordinates": [2732.0405800467274, -329.676374110319]}, "properties": {"osm_id": null, "category": "publico", "name": "Colegio de Educación Infantil y Primaria Lodero", "extrude": false}}, {"type": "Feature", "geometry": {"type": "Point", "coordinates": [1864.2674250433067, -203.66213411010648]}, "properties": {"osm_id": null, "category": "publico", "name": "Biblioteca Municipal Alonso Pérez Díaz", "extrude": false}}, {"type": "Feature", "geometry": {"type": "Point", "coordinates": [1913.2317623174092, -210.78661411031135]}, "properties": {"osm_id": null, "category": "restauracion", "name": "Jazmine Thai Restaurant", "extrude": false}}, {"type": "Feature", "geometry": {"type": "Point", "coordinates": [1792.1403174417292, -247.85617411045038]}, "properties": {"osm_id": null, "category": "salud", "name": "", "extrude": false}}, {"type": "Feature", "geometry": {"type": "Point", "coordinates": [1789.208321197881, -261.88249411023577]}, "properties": {"osm_id": null, "category": "finanzas", "name": "Caixabank", "extrude": false}}, {"type": "Feature", "geometry": {"type": "Point", "coordinates": [1767.6092822007354, -300.6218541101139]}, "properties": {"osm_id": null, "category": "restauracion", "name": "Dame un Mordisco", "extrude": false}}, {"type": "Feature", "geometry": {"type": "Point", "coordinates": [1857.719300098331, -307.52369411048534]}, "properties": {"osm_id": null, "category": "finanzas", "name": "Banco Santander", "extrude": false}}, {"type": "Feature", "geometry": {"type": "Point", "coordinates": [1826.542406704129, -359.5101341101388]}, "properties": {"osm_id": null, "category": "restauracion", "name": "Bar Cafetería Amanecer", "extrude": false}}]}