{"type": "FeatureCollection", "crs": {"type": "name", "properties": {"name": "wgs84_and_EPSG:32628_local_enu_m_section_centroid", "lng0": -16.606332106355726, "lat0": 28.352328602407763}}, "features": [{"type": "Feature", "geometry": {"type": "Polygon", "coordinates": [[[-16.61136, 28.38406], [-16.61135, 28.38402], [-16.6113, 28.38396], [-16.61118, 28.38372], [-16.61124, 28.38356], [-16.61121, 28.38325], [-16.61117, 28.38312], [-16.61115, 28.38297], [-16.61117, 28.38282], [-16.61106, 28.38259], [-16.61095, 28.38253], [-16.61087, 28.38237], [-16.61076, 28.3822], [-16.61073, 28.38207], [-16.61074, 28.38168], [-16.61077, 28.38152], [-16.61077, 28.38103], [-16.61075, 28.38061], [-16.61067, 28.38034], [-16.61067, 28.38022], [-16.61047, 28.37994], [-16.6104, 28.37973], [-16.61051, 28.37951], [-16.61055, 28.37941], [-16.61054, 28.37936], [-16.61042, 28.37918], [-16.61034, 28.37912], [-16.61029, 28.37896], [-16.6103, 28.37879], [-16.61028, 28.3787], [-16.61036, 28.37845], [-16.61027, 28.37816], [-16.6101, 28.37778], [-16.61004, 28.37767], [-16.61009, 28.37757], [-16.61022, 28.37733], [-16.61027, 28.37714], [-16.61027, 28.37698], [-16.6102, 28.37689], [-16.61018, 28.37678], [-16.61023, 28.3766], [-16.61025, 28.3765], [-16.6101, 28.37639], [-16.61004, 28.37637], [-16.60998, 28.37625], [-16.61006, 28.37603], [-16.61004, 28.37564], [-16.60996, 28.37538], [-16.60993, 28.37509], [-16.60981, 28.37485], [-16.60985, 28.37459], [-16.60969, 28.37418], [-16.60972, 28.37405], [-16.60966, 28.37394], [-16.60945, 28.37374], [-16.60935, 28.37364], [-16.60933, 28.37346], [-16.60934, 28.37318], [-16.60928, 28.37299], [-16.60913, 28.37264], [-16.609, 28.37246], [-16.6089, 28.37233], [-16.60871, 28.37187], [-16.60845, 28.37158], [-16.60835, 28.37136], [-16.60814, 28.37127], [-16.60814, 28.37097], [-16.60794, 28.37073], [-16.60781, 28.37028], [-16.6076, 28.37002], [-16.60766, 28.36972], [-16.6075, 28.36948], [-16.60745, 28.36912], [-16.60731, 28.36885], [-16.6071, 28.36871], [-16.60689, 28.36851], [-16.6069, 28.36829], [-16.60707, 28.36797], [-16.60709, 28.3677], [-16.60708, 28.3672], [-16.607, 28.36671], [-16.60666, 28.36633], [-16.60628, 28.36559], [-16.60608, 28.36534], [-16.60604, 28.36519], [-16.60574, 28.36497], [-16.60566, 28.36481], [-16.60554, 28.36424], [-16.60545, 28.36401], [-16.60521, 28.36366], [-16.60503, 28.36332], [-16.60458, 28.36295], [-16.60417, 28.36272], [-16.60404, 28.3626], [-16.60375, 28.36245], [-16.60342, 28.3621], [-16.60309, 28.36191], [-16.60285, 28.36175], [-16.60276, 28.3615], [-16.60265, 28.3614], [-16.60234, 28.36108], [-16.60202, 28.36091], [-16.60184, 28.36048], [-16.60155, 28.36009], [-16.60147, 28.35991], [-16.60129, 28.35935], [-16.60116, 28.35882], [-16.6011, 28.35848], [-16.60091, 28.35824], [-16.60082, 28.35798], [-16.60067, 28.35751], [-16.60065, 28.35736], [-16.6004, 28.35682], [-16.60026, 28.35633], [-16.60027, 28.35602], [-16.60047, 28.35529], [-16.60048, 28.35474], [-16.60004, 28.35375], [-16.59933, 28.3531], [-16.59855, 28.35212], [-16.59747, 28.35148], [-16.59683, 28.3508], [-16.59643, 28.34985], [-16.59614, 28.34921], [-16.59547, 28.3485], [-16.59525, 28.34841], [-16.59497, 28.34801], [-16.59463, 28.34779], [-16.59429, 28.34746], [-16.59425, 28.34721], [-16.59403, 28.34694], [-16.59386, 28.34676], [-16.59347, 28.34609], [-16.59305, 28.34531], [-16.59297, 28.34521], [-16.59291, 28.3449], [-16.59249, 28.34431], [-16.59239, 28.3442], [-16.5924, 28.3441], [-16.59264, 28.34379], [-16.59267, 28.34372], [-16.59268, 28.34342], [-16.59265, 28.34309], [-16.59253, 28.34264], [-16.5925, 28.34242], [-16.59256, 28.34223], [-16.59257, 28.34203], [-16.59257, 28.34175], [-16.5927, 28.34137], [-16.59274, 28.34096], [-16.59268, 28.34071], [-16.59253, 28.34036], [-16.59251, 28.34004], [-16.59235, 28.33965], [-16.59226, 28.33941], [-16.59221, 28.33888], [-16.59209, 28.33846], [-16.59197, 28.33788], [-16.59188, 28.33779], [-16.59173, 28.33777], [-16.59163, 28.3377], [-16.59166, 28.33758], [-16.59167, 28.33736], [-16.59167, 28.33704], [-16.59155, 28.33682], [-16.59146, 28.33676], [-16.59139, 28.33664], [-16.5914, 28.33654], [-16.5915, 28.3364], [-16.59159, 28.33615], [-16.59157, 28.33603], [-16.59148, 28.33591], [-16.59134, 28.33576], [-16.59125, 28.33557], [-16.59118, 28.33535], [-16.59117, 28.33517], [-16.59113, 28.33469], [-16.59103, 28.33421], [-16.59083, 28.33388], [-16.59051, 28.33347], [-16.59022, 28.33277], [-16.59017, 28.33255], [-16.5902, 28.33238], [-16.59022, 28.3321], [-16.59023, 28.33193], [-16.59036, 28.33181], [-16.59054, 28.33168], [-16.59058, 28.33164], [-16.59078, 28.33126], [-16.59086, 28.33108], [-16.59097, 28.33084], [-16.59103, 28.33062], [-16.59112, 28.33043], [-16.59119, 28.33032], [-16.59124, 28.33019], [-16.59127, 28.33006], [-16.5913, 28.33], [-16.59138, 28.33], [-16.59152, 28.33003], [-16.59157, 28.33002], [-16.59161, 28.32999], [-16.59166, 28.32994], [-16.59168, 28.32987], [-16.59173, 28.32957], [-16.59173, 28.32939], [-16.59173, 28.32919], [-16.59176, 28.32895], [-16.59179, 28.32875], [-16.59184, 28.32844], [-16.59185, 28.32806], [-16.59187, 28.32787], [-16.59186, 28.32772], [-16.59173, 28.32751], [-16.59159, 28.32729], [-16.59151, 28.32705], [-16.5914, 28.32677], [-16.59126, 28.32652], [-16.59116, 28.32636], [-16.59113, 28.32625], [-16.59113, 28.32614], [-16.59112, 28.32596], [-16.59105, 28.32577], [-16.59085, 28.32546], [-16.59078, 28.32527], [-16.59058, 28.32488], [-16.59047, 28.32464], [-16.59038, 28.32429], [-16.59037, 28.32402], [-16.59035, 28.3239], [-16.59027, 28.32366], [-16.59015, 28.32347], [-16.59004, 28.32317], [-16.5899, 28.32281], [-16.58989, 28.32261], [-16.58986, 28.32232], [-16.58982, 28.32207], [-16.58981, 28.32184], [-16.58978, 28.32162], [-16.58989, 28.3213], [-16.58987, 28.32115], [-16.58996, 28.32109], [-16.58999, 28.32104], [-16.58999, 28.32094], [-16.58994, 28.32089], [-16.58988, 28.32087], [-16.5899, 28.32063], [-16.59001, 28.32033], [-16.59002, 28.3201], [-16.58999, 28.31995], [-16.59001, 28.31987], [-16.5901, 28.31987], [-16.59019, 28.31989], [-16.59029, 28.31987], [-16.59035, 28.31975], [-16.59034, 28.31961], [-16.59023, 28.31954], [-16.59014, 28.31945], [-16.59013, 28.31934], [-16.59019, 28.31916], [-16.59034, 28.31894], [-16.59054, 28.31866], [-16.59069, 28.31836], [-16.59075, 28.31808], [-16.59073, 28.3178], [-16.59068, 28.31759], [-16.59073, 28.31753], [-16.5909, 28.31749], [-16.59096, 28.31745], [-16.59106, 28.31732], [-16.59111, 28.31714], [-16.59124, 28.31674], [-16.59135, 28.31652], [-16.59145, 28.31626], [-16.59147, 28.31614], [-16.59147, 28.31604], [-16.59142, 28.31576], [-16.59145, 28.31573], [-16.59156, 28.31581], [-16.59158, 28.31581], [-16.59164, 28.31581], [-16.59166, 28.31581], [-16.59168, 28.31582], [-16.59169, 28.31582], [-16.59177, 28.31586], [-16.5919, 28.31593], [-16.59201, 28.31599], [-16.59214, 28.3161], [-16.59215, 28.31612], [-16.59221, 28.31618], [-16.59229, 28.31625], [-16.59237, 28.31636], [-16.5925, 28.3165], [-16.59257, 28.31659], [-16.59266, 28.31666], [-16.59269, 28.31669], [-16.59276, 28.31674], [-16.59279, 28.31676], [-16.59282, 28.31679], [-16.59286, 28.31687], [-16.5929, 28.31698], [-16.59302, 28.31716], [-16.59307, 28.31725], [-16.59311, 28.31735], [-16.59315, 28.31751], [-16.59316, 28.31754], [-16.59316, 28.31755], [-16.59317, 28.31757], [-16.59321, 28.31761], [-16.59328, 28.31769], [-16.59355, 28.31807], [-16.59359, 28.31816], [-16.59361, 28.3182], [-16.59362, 28.31824], [-16.59365, 28.3183], [-16.59369, 28.31839], [-16.59374, 28.31852], [-16.59375, 28.31854], [-16.59381, 28.31864], [-16.59383, 28.31867], [-16.59383, 28.3187], [-16.59385, 28.31874], [-16.59385, 28.31876], [-16.59385, 28.31883], [-16.59384, 28.31893], [-16.59384, 28.31899], [-16.59383, 28.31905], [-16.59382, 28.31912], [-16.59379, 28.31924], [-16.59379, 28.31925], [-16.59389, 28.31949], [-16.59407, 28.31964], [-16.59409, 28.31965], [-16.59427, 28.31991], [-16.59432, 28.32011], [-16.59453, 28.32041], [-16.59468, 28.32057], [-16.59484, 28.32062], [-16.59485, 28.32062], [-16.59501, 28.32079], [-16.59504, 28.32081], [-16.59519, 28.32108], [-16.59523, 28.32114], [-16.59526, 28.32118], [-16.59529, 28.32122], [-16.59531, 28.32129], [-16.59535, 28.32139], [-16.59537, 28.32143], [-16.59537, 28.32145], [-16.5954, 28.32152], [-16.59542, 28.32158], [-16.59543, 28.3216], [-16.59544, 28.32162], [-16.59545, 28.32164], [-16.59551, 28.32171], [-16.59564, 28.32185], [-16.59581, 28.32206], [-16.59591, 28.32217], [-16.59593, 28.32219], [-16.59594, 28.3222], [-16.59595, 28.32223], [-16.59596, 28.32227], [-16.59596, 28.32229], [-16.59597, 28.32237], [-16.59597, 28.32238], [-16.59597, 28.32269], [-16.59597, 28.32276], [-16.59597, 28.32278], [-16.59598, 28.32287], [-16.59598, 28.32289], [-16.596, 28.32292], [-16.59603, 28.32296], [-16.59604, 28.32297], [-16.59632, 28.32323], [-16.59633, 28.32326], [-16.59635, 28.32331], [-16.59635, 28.32333], [-16.59634, 28.32335], [-16.59633, 28.32336], [-16.5963, 28.32343], [-16.5963, 28.32347], [-16.5963, 28.32349], [-16.59632, 28.32352], [-16.59634, 28.32354], [-16.59643, 28.32361], [-16.59656, 28.32371], [-16.59657, 28.32372], [-16.59663, 28.32374], [-16.59666, 28.32375], [-16.59667, 28.32375], [-16.59671, 28.32379], [-16.59674, 28.32383], [-16.59697, 28.32421], [-16.5971, 28.32433], [-16.59711, 28.32436], [-16.59713, 28.32438], [-16.59713, 28.3244], [-16.59714, 28.32441], [-16.59714, 28.32444], [-16.59715, 28.32448], [-16.59712, 28.32455], [-16.59704, 28.32482], [-16.59701, 28.32489], [-16.597, 28.32492], [-16.59701, 28.325], [-16.59703, 28.32507], [-16.59705, 28.32512], [-16.59708, 28.32515], [-16.5971, 28.32517], [-16.59712, 28.32519], [-16.59715, 28.32522], [-16.59717, 28.32524], [-16.59727, 28.32538], [-16.59734, 28.32544], [-16.59739, 28.32548], [-16.59745, 28.32552], [-16.59747, 28.32554], [-16.59754, 28.32557], [-16.5976, 28.32559], [-16.59768, 28.32562], [-16.59804, 28.32573], [-16.59815, 28.3258], [-16.59818, 28.32582], [-16.59822, 28.32585], [-16.59828, 28.3259], [-16.59847, 28.32609], [-16.59871, 28.32641], [-16.59876, 28.32645], [-16.59883, 28.32648], [-16.59893, 28.32654], [-16.59906, 28.32662], [-16.59941, 28.32676], [-16.59947, 28.32679], [-16.59949, 28.3268], [-16.59953, 28.32683], [-16.59956, 28.32686], [-16.59962, 28.32692], [-16.59964, 28.327], [-16.59966, 28.32707], [-16.59968, 28.32719], [-16.59969, 28.32721], [-16.59969, 28.32724], [-16.59971, 28.32731], [-16.5997, 28.32735], [-16.59972, 28.3274], [-16.59974, 28.32743], [-16.59974, 28.32745], [-16.5998, 28.32745], [-16.59985, 28.32744], [-16.59989, 28.32744], [-16.5999, 28.32744], [-16.6, 28.32747], [-16.60015, 28.32752], [-16.60032, 28.32756], [-16.60052, 28.32767], [-16.60057, 28.32771], [-16.60062, 28.32775], [-16.60068, 28.3278], [-16.6007, 28.32781], [-16.60071, 28.32782], [-16.60082, 28.32793], [-16.60084, 28.32805], [-16.60085, 28.32809], [-16.60085, 28.32812], [-16.60086, 28.32814], [-16.60086, 28.32816], [-16.60085, 28.32822], [-16.60084, 28.32825], [-16.60084, 28.32826], [-16.60083, 28.32828], [-16.60082, 28.32829], [-16.60074, 28.32843], [-16.60071, 28.32848], [-16.6007, 28.32855], [-16.6007, 28.32857], [-16.60072, 28.32875], [-16.60072, 28.32878], [-16.60073, 28.32881], [-16.60076, 28.32892], [-16.60079, 28.32902], [-16.60082, 28.32909], [-16.60083, 28.3291], [-16.60086, 28.32915], [-16.60089, 28.32917], [-16.60098, 28.32923], [-16.60099, 28.32924], [-16.60116, 28.32931], [-16.60122, 28.32936], [-16.60126, 28.32943], [-16.60131, 28.32951], [-16.60133, 28.32954], [-16.60138, 28.32963], [-16.6014, 28.32965], [-16.60145, 28.32973], [-16.60148, 28.32979], [-16.6015, 28.32982], [-16.60154, 28.32988], [-16.60159, 28.32993], [-16.60166, 28.32997], [-16.60173, 28.33001], [-16.60174, 28.33001], [-16.60188, 28.33008], [-16.60196, 28.33012], [-16.60204, 28.33016], [-16.60209, 28.33021], [-16.6021, 28.33022], [-16.60211, 28.33023], [-16.60211, 28.33025], [-16.60212, 28.33027], [-16.60208, 28.33032], [-16.60204, 28.33037], [-16.60202, 28.33039], [-16.60201, 28.33052], [-16.602, 28.33054], [-16.60199, 28.33062], [-16.60199, 28.33065], [-16.60199, 28.33067], [-16.60198, 28.33068], [-16.60199, 28.33071], [-16.60199, 28.33074], [-16.60207, 28.33081], [-16.60209, 28.33083], [-16.60216, 28.33092], [-16.60219, 28.33094], [-16.6024, 28.33115], [-16.60247, 28.33123], [-16.6025, 28.33125], [-16.60267, 28.33139], [-16.60274, 28.33144], [-16.60275, 28.33145], [-16.60282, 28.33154], [-16.60285, 28.33159], [-16.60286, 28.3316], [-16.6029, 28.33167], [-16.60292, 28.33174], [-16.60292, 28.33178], [-16.60291, 28.33212], [-16.60293, 28.33214], [-16.60309, 28.33229], [-16.60311, 28.33232], [-16.60317, 28.3324], [-16.6033, 28.33258], [-16.60342, 28.33282], [-16.60345, 28.33289], [-16.60346, 28.33291], [-16.60355, 28.33324], [-16.60357, 28.33329], [-16.60357, 28.33331], [-16.60357, 28.33332], [-16.60357, 28.33337], [-16.60356, 28.33341], [-16.60356, 28.33345], [-16.60359, 28.33348], [-16.60368, 28.33357], [-16.60372, 28.33362], [-16.60373, 28.33363], [-16.6038, 28.33376], [-16.60385, 28.33383], [-16.60389, 28.33386], [-16.60414, 28.33402], [-16.60418, 28.33407], [-16.60423, 28.33412], [-16.60428, 28.33417], [-16.6044, 28.3343], [-16.60443, 28.33435], [-16.60445, 28.33437], [-16.60446, 28.3344], [-16.60446, 28.33441], [-16.60446, 28.33443], [-16.60447, 28.33445], [-16.60447, 28.33448], [-16.60449, 28.33473], [-16.6045, 28.3349], [-16.6045, 28.33492], [-16.60452, 28.33497], [-16.60453, 28.33501], [-16.60453, 28.33502], [-16.60455, 28.33504], [-16.60464, 28.33512], [-16.60466, 28.33513], [-16.60467, 28.33513], [-16.60484, 28.33519], [-16.60487, 28.3352], [-16.60496, 28.33521], [-16.60522, 28.33526], [-16.60526, 28.33527], [-16.60526, 28.33529], [-16.60526, 28.33533], [-16.60526, 28.33541], [-16.60526, 28.33548], [-16.60527, 28.33555], [-16.60529, 28.33561], [-16.60536, 28.33579], [-16.60537, 28.33581], [-16.6054, 28.33588], [-16.60544, 28.33592], [-16.60549, 28.33597], [-16.6055, 28.33599], [-16.60554, 28.33602], [-16.60564, 28.3361], [-16.60569, 28.33614], [-16.60586, 28.33631], [-16.60594, 28.33639], [-16.60596, 28.33669], [-16.60587, 28.33686], [-16.60586, 28.3369], [-16.60585, 28.33691], [-16.60582, 28.33695], [-16.6058, 28.33696], [-16.6058, 28.33697], [-16.60577, 28.33702], [-16.60574, 28.33705], [-16.60574, 28.33708], [-16.60574, 28.33711], [-16.60575, 28.33715], [-16.60579, 28.33719], [-16.60591, 28.33729], [-16.60608, 28.33747], [-16.60612, 28.3375], [-16.60616, 28.33753], [-16.60633, 28.33765], [-16.60634, 28.33767], [-16.60635, 28.33768], [-16.60637, 28.3377], [-16.60641, 28.33774], [-16.60642, 28.33777], [-16.60651, 28.33788], [-16.60661, 28.338], [-16.60661, 28.33801], [-16.60676, 28.33814], [-16.60686, 28.33823], [-16.60702, 28.33839], [-16.60704, 28.3384], [-16.60706, 28.33844], [-16.60707, 28.33847], [-16.60708, 28.33849], [-16.60706, 28.33851], [-16.60704, 28.33853], [-16.607, 28.33856], [-16.60699, 28.33856], [-16.60696, 28.33858], [-16.6069, 28.33861], [-16.60689, 28.33863], [-16.60688, 28.33865], [-16.60687, 28.33869], [-16.60687, 28.33871], [-16.60688, 28.33877], [-16.60689, 28.33881], [-16.60689, 28.33884], [-16.60689, 28.33885], [-16.60688, 28.33894], [-16.60689, 28.339], [-16.60694, 28.33904], [-16.60697, 28.33914], [-16.60701, 28.33921], [-16.60703, 28.33923], [-16.60707, 28.33925], [-16.60717, 28.33933], [-16.60722, 28.33936], [-16.60723, 28.33939], [-16.60724, 28.33942], [-16.60725, 28.33944], [-16.60725, 28.33946], [-16.60724, 28.33957], [-16.60723, 28.33963], [-16.60723, 28.33966], [-16.60722, 28.33968], [-16.60721, 28.33974], [-16.6072, 28.33979], [-16.60719, 28.3398], [-16.60718, 28.33984], [-16.60719, 28.33985], [-16.6072, 28.33987], [-16.60723, 28.3399], [-16.60724, 28.33991], [-16.60731, 28.33999], [-16.60735, 28.34006], [-16.60739, 28.34012], [-16.6074, 28.34026], [-16.6074, 28.34028], [-16.60741, 28.3403], [-16.6074, 28.34033], [-16.60736, 28.3404], [-16.60734, 28.3405], [-16.60732, 28.34055], [-16.60731, 28.34061], [-16.60731, 28.34071], [-16.60734, 28.34078], [-16.60737, 28.34082], [-16.60741, 28.34089], [-16.60743, 28.34092], [-16.60744, 28.34094], [-16.60746, 28.34097], [-16.60756, 28.34108], [-16.60757, 28.34115], [-16.60758, 28.34117], [-16.60758, 28.3412], [-16.60773, 28.34158], [-16.60791, 28.34189], [-16.60804, 28.34209], [-16.60812, 28.34234], [-16.60813, 28.34236], [-16.60817, 28.34257], [-16.60835, 28.34278], [-16.60844, 28.34288], [-16.60856, 28.3431], [-16.60862, 28.34318], [-16.60867, 28.34326], [-16.60871, 28.34331], [-16.60875, 28.34336], [-16.60879, 28.34338], [-16.60881, 28.34339], [-16.60883, 28.3434], [-16.60887, 28.34348], [-16.6089, 28.34351], [-16.60892, 28.34355], [-16.60893, 28.34356], [-16.60893, 28.34359], [-16.60893, 28.34366], [-16.60892, 28.34369], [-16.6089, 28.34372], [-16.60889, 28.34374], [-16.60888, 28.34376], [-16.60887, 28.34378], [-16.60887, 28.34379], [-16.60887, 28.34382], [-16.60887, 28.34386], [-16.6089, 28.34393], [-16.60894, 28.34403], [-16.60894, 28.34404], [-16.609, 28.34418], [-16.60906, 28.3443], [-16.60906, 28.34431], [-16.60913, 28.34453], [-16.60918, 28.34459], [-16.60922, 28.34461], [-16.60928, 28.34464], [-16.60929, 28.34464], [-16.60937, 28.34468], [-16.60951, 28.34472], [-16.6096, 28.34479], [-16.60964, 28.34485], [-16.60964, 28.34486], [-16.60966, 28.34488], [-16.60967, 28.34493], [-16.60969, 28.34504], [-16.60972, 28.3452], [-16.60977, 28.34537], [-16.60979, 28.34544], [-16.60985, 28.34552], [-16.61001, 28.34585], [-16.61003, 28.34588], [-16.61004, 28.34589], [-16.61006, 28.34592], [-16.61007, 28.34594], [-16.61008, 28.34596], [-16.6101, 28.34599], [-16.61023, 28.34619], [-16.61025, 28.34622], [-16.61026, 28.34623], [-16.61027, 28.34626], [-16.61028, 28.34628], [-16.61061, 28.34662], [-16.61074, 28.34678], [-16.61077, 28.34681], [-16.6108, 28.34683], [-16.61084, 28.34687], [-16.61094, 28.34695], [-16.611, 28.34699], [-16.61107, 28.34708], [-16.61114, 28.34717], [-16.61116, 28.34719], [-16.61119, 28.34724], [-16.61123, 28.3473], [-16.61123, 28.34731], [-16.61126, 28.34736], [-16.61128, 28.34739], [-16.61132, 28.34744], [-16.61136, 28.34749], [-16.61137, 28.3475], [-16.61139, 28.34751], [-16.6115, 28.34755], [-16.61158, 28.34759], [-16.61171, 28.34765], [-16.61173, 28.34765], [-16.61177, 28.34764], [-16.61181, 28.34764], [-16.61187, 28.34763], [-16.61188, 28.34763], [-16.61191, 28.34764], [-16.61193, 28.34768], [-16.61191, 28.34777], [-16.6119, 28.34785], [-16.61192, 28.34792], [-16.61194, 28.34795], [-16.61198, 28.34802], [-16.61203, 28.34806], [-16.61204, 28.34807], [-16.61206, 28.34807], [-16.6121, 28.34808], [-16.61215, 28.34809], [-16.61217, 28.34809], [-16.61228, 28.34813], [-16.61237, 28.34818], [-16.61238, 28.34821], [-16.61239, 28.34826], [-16.6124, 28.34828], [-16.6124, 28.34834], [-16.6124, 28.34838], [-16.6124, 28.34847], [-16.6124, 28.3485], [-16.6124, 28.34853], [-16.6124, 28.34855], [-16.61239, 28.34855], [-16.61236, 28.34856], [-16.61234, 28.34858], [-16.61239, 28.34861], [-16.61243, 28.34867], [-16.61244, 28.34868], [-16.61244, 28.34869], [-16.61244, 28.34872], [-16.61244, 28.34873], [-16.61243, 28.34879], [-16.61243, 28.34882], [-16.61243, 28.34884], [-16.61245, 28.34886], [-16.61249, 28.34892], [-16.61253, 28.34897], [-16.61254, 28.349], [-16.61255, 28.34903], [-16.61257, 28.34905], [-16.61263, 28.34916], [-16.61266, 28.34921], [-16.61271, 28.34929], [-16.61275, 28.34936], [-16.61279, 28.34941], [-16.61281, 28.34945], [-16.61282, 28.34946], [-16.61283, 28.34947], [-16.61284, 28.34948], [-16.61287, 28.34952], [-16.61289, 28.34955], [-16.61294, 28.34963], [-16.61302, 28.34977], [-16.61305, 28.3498], [-16.61311, 28.34984], [-16.61315, 28.34988], [-16.61323, 28.34992], [-16.61329, 28.34995], [-16.61343, 28.34996], [-16.61345, 28.34996], [-16.61347, 28.34996], [-16.61355, 28.34996], [-16.61363, 28.34997], [-16.61364, 28.34998], [-16.61368, 28.35001], [-16.61369, 28.35002], [-16.6137, 28.35003], [-16.61371, 28.3501], [-16.61372, 28.35012], [-16.61373, 28.35015], [-16.61374, 28.35022], [-16.61374, 28.35025], [-16.61374, 28.35026], [-16.61373, 28.35033], [-16.61369, 28.35053], [-16.61369, 28.35058], [-16.61369, 28.35061], [-16.61369, 28.35062], [-16.61372, 28.35068], [-16.61372, 28.35071], [-16.61374, 28.35074], [-16.61376, 28.35077], [-16.61378, 28.35078], [-16.61381, 28.3508], [-16.61384, 28.3508], [-16.61387, 28.35079], [-16.61395, 28.35076], [-16.6141, 28.35072], [-16.61412, 28.35069], [-16.61415, 28.35068], [-16.6142, 28.35068], [-16.61421, 28.35069], [-16.61429, 28.35071], [-16.6144, 28.35075], [-16.61462, 28.35084], [-16.61466, 28.35085], [-16.61471, 28.35087], [-16.61477, 28.35091], [-16.61488, 28.35097], [-16.6149, 28.35101], [-16.61491, 28.35103], [-16.61493, 28.35108], [-16.61496, 28.35113], [-16.61496, 28.35115], [-16.61497, 28.35132], [-16.61497, 28.3514], [-16.61497, 28.35153], [-16.61497, 28.35169], [-16.61498, 28.35182], [-16.61498, 28.35186], [-16.61499, 28.35188], [-16.615, 28.35191], [-16.61503, 28.352], [-16.61508, 28.35206], [-16.61509, 28.35208], [-16.6151, 28.35209], [-16.61513, 28.35211], [-16.61519, 28.35213], [-16.6152, 28.35213], [-16.61524, 28.35212], [-16.61528, 28.35213], [-16.6153, 28.35211], [-16.61534, 28.3521], [-16.61541, 28.35206], [-16.61548, 28.35203], [-16.6155, 28.35202], [-16.61554, 28.352], [-16.61557, 28.352], [-16.6156, 28.35201], [-16.61563, 28.35202], [-16.61566, 28.35203], [-16.61569, 28.35204], [-16.61569, 28.35208], [-16.61569, 28.3521], [-16.61569, 28.35213], [-16.61569, 28.35216], [-16.61567, 28.35218], [-16.61563, 28.35225], [-16.61562, 28.35227], [-16.61561, 28.35229], [-16.61563, 28.35231], [-16.61566, 28.35234], [-16.6157, 28.35242], [-16.61574, 28.35251], [-16.61576, 28.35254], [-16.61577, 28.35257], [-16.61578, 28.35257], [-16.61585, 28.3526], [-16.61587, 28.35261], [-16.61587, 28.35262], [-16.61588, 28.35264], [-16.61588, 28.35266], [-16.61588, 28.35267], [-16.6159, 28.3527], [-16.61591, 28.35271], [-16.61595, 28.35274], [-16.61605, 28.35279], [-16.61617, 28.35283], [-16.61623, 28.35286], [-16.61635, 28.35289], [-16.61642, 28.35291], [-16.61649, 28.35293], [-16.61662, 28.35297], [-16.61671, 28.353], [-16.61674, 28.35301], [-16.61678, 28.35301], [-16.6168, 28.35303], [-16.61683, 28.35308], [-16.61686, 28.35311], [-16.61687, 28.35312], [-16.61691, 28.35318], [-16.61698, 28.35328], [-16.61699, 28.3533], [-16.617, 28.35334], [-16.61704, 28.35342], [-16.6171, 28.35355], [-16.6171, 28.35358], [-16.61711, 28.35362], [-16.61714, 28.35382], [-16.61714, 28.35383], [-16.61717, 28.35392], [-16.61718, 28.35395], [-16.61718, 28.35396], [-16.61722, 28.35402], [-16.61726, 28.35407], [-16.61731, 28.35414], [-16.61734, 28.35417], [-16.61733, 28.35418], [-16.61733, 28.3542], [-16.61733, 28.35423], [-16.61734, 28.35428], [-16.61734, 28.35437], [-16.61734, 28.35447], [-16.61734, 28.35459], [-16.61734, 28.35461], [-16.61736, 28.35463], [-16.61739, 28.35469], [-16.61742, 28.35473], [-16.61746, 28.35482], [-16.61752, 28.35494], [-16.61753, 28.35498], [-16.61756, 28.35502], [-16.61759, 28.35507], [-16.61761, 28.3551], [-16.61761, 28.35511], [-16.61767, 28.35517], [-16.61786, 28.35539], [-16.61795, 28.35549], [-16.61822, 28.35577], [-16.61823, 28.35579], [-16.61823, 28.35584], [-16.61821, 28.35587], [-16.61819, 28.35589], [-16.61818, 28.35593], [-16.6182, 28.35596], [-16.61829, 28.35602], [-16.61835, 28.35607], [-16.61852, 28.35618], [-16.61853, 28.35619], [-16.61864, 28.35627], [-16.61866, 28.35628], [-16.61876, 28.35636], [-16.61886, 28.35642], [-16.61886, 28.35643], [-16.6189, 28.35647], [-16.61897, 28.35655], [-16.61898, 28.35656], [-16.61905, 28.35663], [-16.61911, 28.35674], [-16.61913, 28.35681], [-16.61915, 28.35685], [-16.61915, 28.35687], [-16.61915, 28.35688], [-16.61916, 28.35693], [-16.61916, 28.35694], [-16.61917, 28.35698], [-16.6192, 28.35704], [-16.61922, 28.35708], [-16.61928, 28.35712], [-16.61939, 28.35719], [-16.61962, 28.35735], [-16.61962, 28.35736], [-16.61962, 28.35739], [-16.61964, 28.35747], [-16.61959, 28.35778], [-16.61959, 28.35817], [-16.61959, 28.3582], [-16.61959, 28.35823], [-16.61957, 28.35831], [-16.61956, 28.35834], [-16.61954, 28.35841], [-16.61949, 28.35851], [-16.61947, 28.35855], [-16.6193, 28.35883], [-16.61928, 28.35889], [-16.61927, 28.35893], [-16.61926, 28.35896], [-16.61927, 28.35899], [-16.61928, 28.35901], [-16.61929, 28.35903], [-16.6193, 28.35907], [-16.61933, 28.35912], [-16.61933, 28.35913], [-16.6194, 28.35924], [-16.61944, 28.35931], [-16.61944, 28.35932], [-16.61945, 28.35937], [-16.61946, 28.35944], [-16.61948, 28.35952], [-16.61948, 28.35956], [-16.61948, 28.35966], [-16.61948, 28.35971], [-16.61943, 28.35987], [-16.61941, 28.35999], [-16.61941, 28.36], [-16.61933, 28.36012], [-16.61933, 28.36022], [-16.61934, 28.36031], [-16.61935, 28.36034], [-16.61938, 28.36037], [-16.61941, 28.36039], [-16.61945, 28.36044], [-16.61949, 28.36048], [-16.61952, 28.36051], [-16.61955, 28.36057], [-16.61969, 28.36086], [-16.6197, 28.36088], [-16.61974, 28.36095], [-16.61974, 28.36099], [-16.61975, 28.36133], [-16.61975, 28.36134], [-16.6198, 28.36153], [-16.61984, 28.36168], [-16.61986, 28.36175], [-16.61987, 28.3618], [-16.61987, 28.36181], [-16.61988, 28.36184], [-16.61989, 28.36188], [-16.61995, 28.36193], [-16.62001, 28.36199], [-16.62004, 28.36202], [-16.62015, 28.36233], [-16.62016, 28.36236], [-16.62021, 28.36261], [-16.62014, 28.36272], [-16.62002, 28.36286], [-16.62003, 28.36308], [-16.62004, 28.36315], [-16.62006, 28.36321], [-16.62011, 28.36332], [-16.62011, 28.36334], [-16.62012, 28.36338], [-16.62013, 28.36343], [-16.62015, 28.3635], [-16.62015, 28.36353], [-16.62018, 28.36364], [-16.62018, 28.36365], [-16.62024, 28.36378], [-16.62037, 28.36409], [-16.62038, 28.36411], [-16.62039, 28.36419], [-16.62041, 28.36422], [-16.62042, 28.36423], [-16.62057, 28.36438], [-16.62081, 28.3645], [-16.62083, 28.36453], [-16.62088, 28.3646], [-16.62092, 28.36465], [-16.62095, 28.36469], [-16.62096, 28.36471], [-16.62097, 28.36474], [-16.62099, 28.36484], [-16.62102, 28.36493], [-16.62102, 28.36494], [-16.62103, 28.36497], [-16.62103, 28.365], [-16.62103, 28.36501], [-16.62103, 28.36504], [-16.62103, 28.36508], [-16.62103, 28.36511], [-16.62103, 28.36517], [-16.62104, 28.36518], [-16.62104, 28.3652], [-16.6211, 28.36527], [-16.62117, 28.36532], [-16.62122, 28.36535], [-16.62125, 28.36536], [-16.62128, 28.36542], [-16.62131, 28.36549], [-16.62133, 28.36551], [-16.62136, 28.36555], [-16.62138, 28.36556], [-16.62144, 28.36559], [-16.62147, 28.3656], [-16.62149, 28.36561], [-16.62152, 28.3656], [-16.62155, 28.36559], [-16.62162, 28.36557], [-16.6217, 28.36554], [-16.62173, 28.36554], [-16.62179, 28.36554], [-16.62182, 28.36554], [-16.6219, 28.36553], [-16.62196, 28.36553], [-16.62221, 28.36558], [-16.62238, 28.36577], [-16.62247, 28.36588], [-16.62248, 28.36596], [-16.62251, 28.36609], [-16.62253, 28.36613], [-16.62254, 28.36616], [-16.62255, 28.36616], [-16.62257, 28.36617], [-16.62263, 28.36619], [-16.62269, 28.3662], [-16.6227, 28.3662], [-16.62278, 28.3662], [-16.62286, 28.3662], [-16.62294, 28.36621], [-16.62302, 28.36621], [-16.62303, 28.36621], [-16.62309, 28.36623], [-16.62322, 28.36629], [-16.62325, 28.36631], [-16.62328, 28.36632], [-16.62331, 28.36637], [-16.62338, 28.36646], [-16.62342, 28.36651], [-16.62344, 28.36655], [-16.62351, 28.36668], [-16.62353, 28.36673], [-16.62354, 28.36674], [-16.62354, 28.36676], [-16.62355, 28.3668], [-16.62355, 28.36685], [-16.62354, 28.36713], [-16.62354, 28.36714], [-16.62354, 28.3673], [-16.62354, 28.36732], [-16.62354, 28.36734], [-16.62354, 28.36737], [-16.62352, 28.3674], [-16.6235, 28.36743], [-16.62348, 28.36745], [-16.62344, 28.36748], [-16.6234, 28.36749], [-16.62334, 28.36751], [-16.62332, 28.36753], [-16.6233, 28.36754], [-16.62326, 28.36757], [-16.62326, 28.36758], [-16.62321, 28.36771], [-16.6232, 28.36774], [-16.62319, 28.36778], [-16.62321, 28.36783], [-16.62325, 28.36792], [-16.62342, 28.36824], [-16.6235, 28.36843], [-16.62352, 28.36847], [-16.62352, 28.36849], [-16.62352, 28.36856], [-16.62351, 28.36859], [-16.62349, 28.36865], [-16.62347, 28.36868], [-16.62345, 28.36871], [-16.62342, 28.36874], [-16.62334, 28.3688], [-16.6232, 28.36892], [-16.62311, 28.369], [-16.62306, 28.36905], [-16.62305, 28.36906], [-16.62304, 28.36911], [-16.62303, 28.36922], [-16.623, 28.36935], [-16.62298, 28.36945], [-16.62299, 28.36949], [-16.623, 28.36953], [-16.62301, 28.36956], [-16.62302, 28.36958], [-16.62304, 28.36961], [-16.62311, 28.36966], [-16.62317, 28.36974], [-16.62324, 28.3698], [-16.62326, 28.36982], [-16.62371, 28.37003], [-16.62406, 28.37033], [-16.62413, 28.37042], [-16.62423, 28.37052], [-16.6243, 28.37061], [-16.6244, 28.37072], [-16.62445, 28.3708], [-16.62447, 28.37086], [-16.62447, 28.3709], [-16.62444, 28.371], [-16.62442, 28.37105], [-16.62438, 28.37122], [-16.62435, 28.3714], [-16.62429, 28.37176], [-16.62429, 28.37179], [-16.62426, 28.37188], [-16.62424, 28.37194], [-16.62421, 28.37199], [-16.62411, 28.37212], [-16.62408, 28.37208], [-16.62397, 28.37201], [-16.62381, 28.37199], [-16.6237, 28.37202], [-16.62357, 28.37209], [-16.62351, 28.37219], [-16.62349, 28.37231], [-16.62356, 28.37257], [-16.62362, 28.37278], [-16.62363, 28.373], [-16.6236, 28.37347], [-16.62356, 28.37367], [-16.62351, 28.37377], [-16.62339, 28.37389], [-16.62317, 28.37401], [-16.62288, 28.37413], [-16.62272, 28.37421], [-16.62265, 28.37427], [-16.62243, 28.37466], [-16.62226, 28.37498], [-16.622, 28.37547], [-16.62181, 28.37576], [-16.62166, 28.37583], [-16.6215, 28.37582], [-16.6214, 28.37574], [-16.62129, 28.37559], [-16.62113, 28.37525], [-16.62098, 28.375], [-16.62085, 28.37481], [-16.62073, 28.37474], [-16.62063, 28.37473], [-16.62054, 28.37478], [-16.62046, 28.37489], [-16.62044, 28.37503], [-16.62045, 28.37529], [-16.62045, 28.37573], [-16.62037, 28.3764], [-16.6203, 28.37671], [-16.62022, 28.37695], [-16.6201, 28.37712], [-16.61997, 28.37727], [-16.61974, 28.37754], [-16.61959, 28.37777], [-16.61952, 28.37807], [-16.6194, 28.37856], [-16.61935, 28.37872], [-16.61925, 28.37899], [-16.61903, 28.37934], [-16.61835, 28.38033], [-16.61823, 28.38044], [-16.61808, 28.38053], [-16.61789, 28.38061], [-16.61729, 28.38083], [-16.61661, 28.38107], [-16.61593, 28.38134], [-16.6158, 28.38141], [-16.61563, 28.38154], [-16.61548, 28.38168], [-16.61534, 28.3818], [-16.61517, 28.38193], [-16.61468, 28.38233], [-16.61432, 28.38264], [-16.61407, 28.38278], [-16.61335, 28.38314], [-16.6125, 28.38355], [-16.61216, 28.38372], [-16.61137, 28.38406], [-16.61136, 28.38406]]]}, "properties": {"cusec": "3803105002", "mun": "031", "nmun": "Realejos, Los", "area_m2": 9335548.554165618, "perimeter_m": 18772.843393207582, "coords_system": "wgs84"}}, {"type": "Feature", "geometry": {"type": "Polygon", "coordinates": [[[-492.56513224003555, -3532.3391799680303], [-491.5854672608802, -3527.8863799678034], [-486.68714236475563, -3521.2071799676605], [-474.931162614544, -3494.4903799678814], [-480.8091524894758, -3476.6791799677644], [-477.87015755200986, -3442.1699799678845], [-473.95149763538865, -3427.698379968037], [-471.99216767673005, -3411.000379967878], [-473.95149763538865, -3394.3023799677194], [-463.1751828639843, -3368.6987799678977], [-452.39886809292784, -3362.019579967755], [-444.5615482593374, -3344.2083799680336], [-433.785233488281, -3325.283979967959], [-430.84623855081514, -3310.812379967716], [-431.82590352997045, -3267.397579967778], [-434.76489846743635, -3249.586379967661], [-434.76489846743635, -3195.0395799677485], [-432.80556850912575, -3148.2851799679365], [-424.9682486755353, -3118.228779967888], [-424.9682486755353, -3104.8703799679984], [-405.3749490917332, -3073.700779967992], [-398.51729423729796, -3050.3235799676904], [-409.2936090087024, -3025.8331799678267], [-413.2122689253236, -3014.7011799678526], [-412.2326039461683, -3009.1351799676677], [-400.4766241959566, -2989.097579968031], [-392.6393043623662, -2982.418379967888], [-387.74097946624164, -2964.6071799677716], [-388.7206444453969, -2945.682779967697], [-386.7613144870863, -2935.663979967681], [-394.59863432067675, -2907.8339799679434], [-385.781649507931, -2875.551179967979], [-369.12734486159474, -2833.2495799679987], [-363.2493549866629, -2821.004379967671], [-368.14767988243943, -2809.8723799676973], [-380.88332461215447, -2783.1555799679177], [-385.781649507931, -2762.0047799679273], [-385.781649507931, -2744.1935799678104], [-378.92399465349587, -2734.174779967794], [-376.9646646951852, -2721.9295799678625], [-381.86298959130977, -2701.89197996783], [-383.82231954962043, -2690.759979967856], [-369.12734486159474, -2678.514779967924], [-363.2493549866629, -2676.2883799680085], [-357.3713651113831, -2662.9299799677233], [-365.2086849449735, -2638.439579967859], [-363.2493549866629, -2595.024779967921], [-355.41203515307245, -2566.0815799678303], [-352.47304021525855, -2533.798779967866], [-340.71706046504687, -2507.081979967691], [-344.63572038201613, -2478.1387799679956], [-328.96108071483513, -2432.497579967746], [-331.9000756523011, -2418.0259799678984], [-326.0220857773693, -2405.7807799679667], [-305.4491212140638, -2383.5167799680185], [-295.6524714221627, -2372.3847799680443], [-293.6931414638521, -2352.347179968012], [-294.6728064430074, -2321.1775799680054], [-288.79481656772754, -2300.026779968015], [-274.09984188005, -2261.064779967908], [-261.364197150683, -2241.027179967876], [-251.56754735843387, -2226.5555799680283], [-232.95391275378702, -2175.3483799679893], [-207.48262329505306, -2143.0655799680253], [-197.68597350315198, -2118.575179967766], [-177.1130089398465, -2108.5563799677498], [-177.1130089398465, -2075.1603799678273], [-157.51970935604436, -2048.4435799676526], [-144.78406462667738, -1998.349579967967], [-124.21110006371994, -1969.406379967876], [-130.08908993865174, -1936.010379967954], [-114.41445027181886, -1909.293579967779], [-109.5161253756943, -1869.218379967714], [-95.80081566682398, -1839.1619799676655], [-75.22785110386653, -1823.57717996786], [-54.65488654090909, -1801.313179967912], [-55.63455152006439, -1776.8227799676527], [-72.28885616640062, -1741.2003799678148], [-74.24818612471122, -1711.1439799677662], [-73.26852114555592, -1655.483979967896], [-65.43120131196547, -1600.9371799679834], [-32.12259201964104, -1558.635579968003], [5.10467718965264, -1476.2587799679577], [24.69797677380283, -1448.4287799678248], [28.616636690424038, -1431.730779967666], [58.006586066127255, -1407.240379967802], [65.84390589971771, -1389.4291799676855], [77.59988564992939, -1325.9767799677147], [86.41687046267516, -1300.373179967893], [109.92882996344656, -1261.411179967786], [127.5627995889381, -1223.5623799680325], [171.64772365266694, -1182.3739799680097], [211.81398779942654, -1156.7703799677927], [224.5496325287935, -1143.4119799679029], [252.95991692534142, -1126.713979967744], [285.2888612388586, -1087.7519799680326], [317.6178055520277, -1066.6011799680423], [341.1297650527991, -1048.7899799679255], [349.94674986554486, -1020.9599799677927], [360.72306463660124, -1009.8279799678187], [391.09267899145976, -974.2055799679808], [422.44195832582164, -955.2811799679063], [440.0759279513132, -907.413579967741], [468.4862123478611, -863.9987799678026], [476.3235321814515, -843.9611799677702], [493.95750180694307, -781.6219799677573], [506.69314653631005, -722.6223799680134], [512.5711364115899, -684.7735799678644], [531.1847710162368, -658.0567799676894], [540.0017558289826, -629.1135799679942], [554.6967305166601, -576.7931799679974], [556.6560604749708, -560.0951799678386], [581.1476849548974, -499.9823799677414], [594.8629946637677, -445.43557996782897], [593.8833296846125, -410.92637996794895], [574.2900301004623, -329.66277996786147], [573.310365121307, -268.4367799678064], [616.4156242058805, -158.2299799680237], [685.9718377286913, -85.8719799679946], [762.3857061055893, 23.22162003222573], [868.1895238581905, 94.46642003229698], [930.8880825265661, 170.16402003219966], [970.0746816941704, 275.91802003215093], [998.4849660910664, 347.16282003222216], [1064.122519696908, 426.2000200319984], [1085.6751492390208, 436.2188200320146], [1113.1057686564134, 480.74682003230635], [1146.4143779490857, 505.23722003217017], [1179.7229872414102, 541.972820031966], [1183.6416471583796, 569.8028200320988], [1205.1942767004923, 599.8592200321474], [1221.8485813468285, 619.8968200321798], [1260.0555155352774, 694.4812200321246], [1301.2014446611925, 781.3108200320014], [1309.0387644947828, 792.4428200319754], [1314.9167543700626, 826.9520200322509], [1356.0626834959776, 892.6308200321374], [1365.8593332878786, 904.8760200320693], [1364.8796683087232, 916.0080200320433], [1341.3677088083, 950.5172200323188], [1338.428713870834, 958.3096200320239], [1337.4490488913307, 991.7056200323416], [1340.3880438291449, 1028.4412200321372], [1352.1440235793561, 1078.5352200322181], [1355.0830185168222, 1103.025620032082], [1349.2050286418905, 1124.1764200320724], [1348.2253636627352, 1146.4404200320205], [1348.2253636627352, 1177.610020032027], [1335.4897189330202, 1219.9116200320075], [1331.571059016399, 1265.552820032257], [1337.4490488913307, 1293.3828200319945], [1352.1440235793561, 1332.3448200321013], [1354.103353537667, 1367.9672200323348], [1369.7779932048477, 1411.382020032273], [1378.5949780175936, 1438.0988200320526], [1383.4933029133701, 1497.0984200321918], [1395.24928266393, 1543.8528200320038], [1407.0052624141417, 1608.418420032328], [1415.8222472268874, 1618.4372200323442], [1430.517221914913, 1620.6636200322598], [1440.3138717068139, 1628.456020031965], [1437.3748767690001, 1641.8144200322502], [1436.3952117898448, 1666.304820032114], [1436.3952117898448, 1701.9272200323473], [1448.1511915400565, 1726.4176200322113], [1456.9681763528024, 1733.0968200319583], [1463.8258312072373, 1746.4552200322437], [1462.8461662280822, 1757.5872200322176], [1453.049516436181, 1773.172020032023], [1444.2325316234353, 1801.002020032156], [1446.1918615817458, 1814.3604200320458], [1455.0088463944917, 1827.718820032331], [1468.724156103362, 1844.4168200320944], [1477.5411409161077, 1865.5676200320845], [1484.3987957701947, 1890.0580200323438], [1485.37846074935, 1910.0956200319808], [1489.2971206663194, 1963.5292200323308], [1499.0937704582204, 2016.9628200322854], [1518.6870700420227, 2053.6984200320812], [1550.0363493763846, 2099.339620032331], [1578.4466337729323, 2177.263620032149], [1583.3449586687088, 2201.754020032013], [1580.405963731243, 2220.6784200320876], [1578.4466337729323, 2251.848020032094], [1577.4669687937771, 2270.7724200321686], [1564.7313240640622, 2284.130820032058], [1547.0973544385706, 2298.6024200323013], [1543.1786945219492, 2303.0552200321326], [1523.5853949381471, 2345.3568200321133], [1515.7480751045568, 2365.3944200321457], [1504.9717603335002, 2392.111220032321], [1499.0937704582204, 2416.6016200321847], [1490.2767856454745, 2437.752420032175], [1483.4191307910396, 2449.9976200321066], [1478.520805895263, 2464.4692200319546], [1475.581810957449, 2478.9408200321977], [1472.642816019983, 2485.62002003234], [1464.8054961863927, 2485.62002003234], [1451.0901864778705, 2482.280420032071], [1446.1918615817458, 2483.393620032029], [1442.2732016651246, 2486.733220032298], [1437.3748767690001, 2492.2992200320873], [1435.4155468106894, 2500.0916200321876], [1430.517221914913, 2533.48762003211], [1430.517221914913, 2553.5252200321424], [1430.517221914913, 2575.7892200320903], [1427.5782269770991, 2602.5060200322655], [1424.6392320396333, 2624.770020032214], [1419.7409071435086, 2659.2792200320937], [1418.7612421643532, 2701.580820032074], [1416.8019122060425, 2722.7316200320643], [1417.7815771851979, 2739.4296200322233], [1430.517221914913, 2762.806820032129], [1444.2325316234353, 2787.2972200319928], [1452.0698514570256, 2814.014020032168], [1462.8461662280822, 2845.1836200321745], [1476.5614759369523, 2873.0136200323072], [1486.3581257288536, 2890.8248200320286], [1489.2971206663194, 2903.0700200319607], [1489.2971206663194, 2915.315220032288], [1490.2767856454745, 2935.3528200323203], [1497.13444049991, 2956.5036200323107], [1516.727740083712, 2991.0128200321906], [1523.5853949381471, 3012.163620032181], [1543.1786945219492, 3055.578420032119], [1553.9550092930058, 3082.2952200322943], [1562.7719941057514, 3121.2572200320055], [1563.7516590849068, 3151.313620032054], [1565.7109890432173, 3164.6720200323393], [1573.5483088768078, 3191.388820032119], [1585.3042886270196, 3212.5396200321093], [1596.0806033984238, 3245.9356200320317], [1609.795913106946, 3286.0108200320965], [1610.7755780861014, 3308.2748200320443], [1613.7145730235675, 3340.557620032009], [1617.6332329405368, 3368.3876200321415], [1618.612897919692, 3393.991220031963], [1621.5518928571578, 3418.4816200322225], [1610.7755780861014, 3454.1040200320604], [1612.7349080444121, 3470.8020200322194], [1603.9179232316662, 3477.4812200319666], [1600.9789282942004, 3483.047220032151], [1600.9789282942004, 3494.179220032125], [1605.877253190325, 3499.74522003231], [1611.755243065257, 3501.971620032226], [1609.795913106946, 3528.688420032005], [1599.01959833589, 3562.084420032323], [1598.0399333567345, 3587.688020032145], [1600.9789282942004, 3604.3860200323033], [1599.01959833589, 3613.2916200319664], [1590.202613523144, 3613.2916200319664], [1581.3856287103984, 3611.0652200320505], [1571.5889789184973, 3613.2916200319664], [1565.7109890432173, 3626.6500200322516], [1566.6906540223727, 3642.234820032057], [1577.4669687937771, 3650.0272200321574], [1586.2839536061747, 3660.0460200321736], [1587.2636185856782, 3672.2912200321057], [1581.3856287103984, 3692.328820032138], [1566.6906540223727, 3716.819220032002], [1547.0973544385706, 3747.9888200320083], [1532.402379750893, 3781.384820032326], [1526.524389875613, 3812.5544200323325], [1528.4837198339237, 3843.724020032339], [1533.3820447300484, 3867.101220032245], [1528.4837198339237, 3873.780420031992], [1511.8294151875875, 3878.233220032219], [1505.9514253126556, 3882.6860200320502], [1496.1547755207546, 3897.1576200322934], [1491.2564506246301, 3917.195220032326], [1478.520805895263, 3961.723220032222], [1467.7444911242067, 3986.213620032086], [1457.9478413323054, 4015.1568200321767], [1455.988511373647, 4028.5152200320663], [1455.988511373647, 4039.6472200320404], [1460.8868362697715, 4070.816820032047], [1457.9478413323054, 4074.156420032316], [1447.1715265609012, 4065.2508200322577], [1445.2121966025907, 4065.2508200322577], [1439.3342067273109, 4065.2508200322577], [1437.3748767690001, 4065.2508200322577], [1435.4155468106894, 4064.1376200322998], [1434.435881831534, 4064.1376200322998], [1426.5985619979438, 4059.684820032073], [1413.8629172685767, 4051.8924200319725], [1403.0866024975203, 4045.2132200322253], [1390.3509577678053, 4032.968020032293], [1389.3712927886502, 4030.741620031982], [1383.4933029133701, 4024.062420032235], [1375.6559830801277, 4016.2700200321347], [1367.8186632465372, 4004.0248200322026], [1355.0830185168222, 3988.4400200320015], [1348.2253636627352, 3978.4212200319853], [1339.4083788499893, 3970.6288200322806], [1336.4693839121755, 3967.289220032011], [1329.6117290580883, 3961.723220032222], [1326.6727341202743, 3959.4968200323065], [1323.7337391828084, 3956.1572200320375], [1319.8150792658391, 3947.2516200319787], [1315.896419349218, 3935.006420032047], [1304.1404395990064, 3914.9688200320147], [1299.2421147028817, 3904.9500200319985], [1295.3234547862605, 3893.8180200320244], [1291.4047948692912, 3876.006820032303], [1290.4251298901358, 3872.667220032034], [1290.4251298901358, 3871.554020032076], [1289.4454649109807, 3869.3276200321607], [1285.5268049943593, 3864.874820032329], [1278.6691501399243, 3855.9692200322706], [1252.2181957016871, 3813.6676200322904], [1248.2995357850657, 3803.648820032274], [1246.340205826407, 3799.1960200320473], [1245.360540847252, 3794.7432200322155], [1242.421545909786, 3788.064020032073], [1238.502885993165, 3778.045220032057], [1233.6045610970402, 3763.5736200322094], [1232.6248961178849, 3761.3472200322935], [1226.7469062426048, 3750.2152200323194], [1224.7875762842943, 3746.8756200320504], [1224.7875762842943, 3743.536020032177], [1222.8282463259839, 3739.0832200323453], [1222.8282463259839, 3736.856820032034], [1222.8282463259839, 3729.064420032329], [1223.807911305139, 3717.9324200319597], [1223.807911305139, 3711.2532200322125], [1224.7875762842943, 3704.5740200320697], [1225.7672412634497, 3696.7816200319694], [1228.7062362012637, 3683.42322003208], [1228.7062362012637, 3682.310020032122], [1218.9095864093624, 3655.5932200323423], [1201.2756167838709, 3638.8952200321833], [1199.3162868252125, 3637.782020032226], [1181.682317199721, 3608.8388200321347], [1176.7839923039444, 3586.574820032187], [1156.211027740987, 3553.1788200322644], [1141.5160530529613, 3535.367620032148], [1125.8414133857805, 3529.801620031963], [1124.861748406625, 3529.801620031963], [1109.1871087397922, 3510.877220032284], [1106.2481138019782, 3508.6508200319727], [1091.5531391143006, 3478.5944200323197], [1087.6344791973313, 3471.9152200321773], [1084.6954842598655, 3467.4624200323456], [1081.7564893223996, 3463.0096200321186], [1079.797159363741, 3455.2172200320183], [1075.8784994471196, 3444.085220032044], [1073.919169488809, 3439.632420032213], [1073.919169488809, 3437.406020032297], [1070.9801745509951, 3429.6136200321966], [1069.0208445926844, 3422.934420032054], [1068.0411796135293, 3420.7080200321384], [1067.061514634374, 3418.4816200322225], [1066.0818496552185, 3416.255220032307], [1060.2038597799387, 3408.4628200322063], [1047.4682150505719, 3392.878020032005], [1030.8139104042355, 3369.5008200320995], [1021.0172606123346, 3357.2556200321674], [1019.0579306540237, 3355.029220032252], [1018.0782656748686, 3353.916020032294], [1017.0986006957132, 3350.576420032025], [1016.1189357162099, 3346.1236200321937], [1016.1189357162099, 3343.897220032278], [1015.1392707370546, 3334.9916200322195], [1015.1392707370546, 3333.8784200322616], [1015.1392707370546, 3299.369220031986], [1015.1392707370546, 3291.576820032281], [1015.1392707370546, 3289.35042003197], [1014.1596057578993, 3279.3316200319537], [1014.1596057578993, 3277.105220032038], [1012.2002757995888, 3273.7656200321644], [1009.2612808621228, 3269.312820032333], [1008.2816158829675, 3268.1996200319795], [980.8509964655749, 3239.2564200322845], [979.8713314864195, 3235.9168200320155], [977.9120015277608, 3230.350820032226], [977.9120015277608, 3228.1244200323104], [978.8916665069162, 3225.8980200319993], [979.8713314864195, 3224.7848200320414], [982.8103264238855, 3216.992420032336], [982.8103264238855, 3212.5396200321093], [982.8103264238855, 3210.3132200321934], [980.8509964655749, 3206.97362003232], [978.8916665069162, 3204.747220032009], [970.0746816941704, 3196.954820032304], [957.3390369648033, 3185.8228200323297], [956.3593719856482, 3184.7096200319766], [950.4813821103684, 3182.4832200320607], [947.5423871729024, 3181.3700200321027], [946.562722193747, 3181.3700200321027], [942.6440622767777, 3176.9172200322714], [939.7050673393119, 3172.4644200320445], [917.1727728180438, 3130.162820032064], [904.4371280883288, 3116.804420032174], [903.4574631091735, 3113.464820032301], [901.498133150863, 3111.2384200319893], [901.498133150863, 3109.012020032074], [900.5184681717077, 3107.898820032116], [900.5184681717077, 3104.559220032242], [899.5388031925523, 3100.106420032015], [902.4777981300182, 3092.3140200323105], [910.3151179636088, 3062.257620032262], [913.2541129010746, 3054.465220032161], [914.2337778802299, 3051.1256200322878], [913.2541129010746, 3042.2200200322295], [911.294782942764, 3034.4276200321287], [909.3354529844535, 3028.8616200323395], [906.3964580469875, 3025.5220200320705], [904.4371280883288, 3023.295620032155], [902.4777981300182, 3021.069220032239], [899.5388031925523, 3017.72962003197], [897.5794732342417, 3015.5032200320543], [887.7828234419926, 2999.918420032249], [880.9251685879055, 2993.2392200321065], [876.0268436917809, 2988.7864200322747], [870.1488538168492, 2984.3336200320477], [868.1895238581905, 2982.1072200321323], [861.3318690041034, 2978.7676200322585], [855.4538791288235, 2976.541220032343], [847.6165592952331, 2973.201620032074], [812.34862004425, 2960.956420032142], [801.5723052731936, 2953.1640200320417], [798.6333103357277, 2950.937620032126], [794.7146504187584, 2947.598020032252], [788.8366605438266, 2942.0320200320675], [770.2230259391797, 2920.881220032077], [746.7110664384084, 2885.2588200322393], [741.8127415426319, 2880.8060200320124], [734.9550866881966, 2877.4664200321386], [725.1584368962956, 2870.787220031996], [712.4227921665806, 2861.881620032333], [678.1345178951009, 2846.2968200321325], [672.256528019821, 2842.9572200322586], [670.2971980615105, 2841.8440200323007], [666.3785381445412, 2838.5044200320317], [663.4395432070752, 2835.1648200321583], [657.5615533317954, 2828.4856200320155], [655.6022233734848, 2819.5800200319572], [653.6428934151742, 2811.787620032252], [651.6835634568636, 2798.429220031967], [650.7038984777082, 2796.2028200320515], [650.7038984777082, 2792.8632200321777], [648.7445685190496, 2785.0708200320773], [649.724233498553, 2780.618020032246], [647.7649035398942, 2775.052020032061], [645.8055735815838, 2771.7124200321873], [645.8055735815838, 2769.486020032272], [639.9275837066518, 2769.486020032272], [635.0292588105274, 2770.59922003223], [631.1105988939061, 2770.59922003223], [630.1309339144027, 2770.59922003223], [620.3342841225017, 2767.2596200319604], [605.6393094348241, 2761.693620032171], [588.9850047884879, 2757.24082003234], [569.3917052046856, 2744.9956200320125], [564.4933803085612, 2740.542820032181], [559.5950554127846, 2736.0900200319543], [553.7170655375048, 2730.524020032165], [551.7577355791941, 2729.410820032207], [550.7780706000389, 2728.297620032249], [540.0017558289826, 2716.052420032317], [538.0424258703239, 2702.694020032032], [537.0627608911685, 2698.2412200322005], [537.0627608911685, 2694.901620032327], [536.0830959120133, 2692.6752200320157], [536.0830959120133, 2690.4488200321002], [537.0627608911685, 2683.7696200319574], [538.0424258703239, 2680.430020032084], [538.0424258703239, 2679.316820032126], [539.0220908498272, 2677.09042003221], [540.0017558289826, 2675.9772200322523], [547.839075662573, 2660.3924200320516], [550.7780706000389, 2654.8264200322624], [551.7577355791941, 2647.0340200321616], [551.7577355791941, 2644.807620032246], [549.7984056208836, 2624.770020032214], [549.7984056208836, 2621.43042003234], [548.8187406417284, 2618.090820032071], [545.8797457039143, 2605.845620032139], [542.9407507664483, 2594.713620032165], [540.0017558289826, 2586.9212200320644], [539.0220908498272, 2585.8080200321065], [536.0830959120133, 2580.242020032317], [533.1441009745473, 2578.015620032006], [524.3271161618015, 2571.336420032259], [523.3474511826463, 2570.223220032301], [506.69314653631005, 2562.4308200322007], [500.8151566610302, 2556.864820032016], [496.896496744409, 2549.072420032311], [491.9981718482844, 2540.1668200322524], [490.03884188997375, 2536.8272200319834], [485.1405169941973, 2526.808420031967], [483.18118703553864, 2524.582020032052], [478.2828621397622, 2515.676420031993], [475.3438672022962, 2508.9972200322463], [473.3845372436376, 2505.657620031977], [469.4658773270164, 2498.97842003223], [464.56755243089185, 2493.4124200320452], [457.7098975768047, 2488.959620032214], [450.85224272236957, 2484.506820031987], [449.8725777432142, 2484.506820031987], [436.1572680343439, 2476.714420032282], [428.31994820110145, 2472.261620032055], [420.48262836751104, 2467.8088200322236], [415.5843034713865, 2462.2428200320387], [414.6046384922311, 2461.1296200320808], [413.6249735130759, 2460.016420032123], [413.6249735130759, 2457.7900200322074], [412.64530853392057, 2455.5636200322915], [416.5639684505418, 2449.9976200321066], [420.48262836751104, 2444.4316200323174], [422.44195832582164, 2442.2052200320063], [423.4216233049769, 2427.733620032159], [424.40128828413225, 2425.507220032243], [425.38095326328755, 2416.6016200321847], [425.38095326328755, 2413.262020032311], [425.38095326328755, 2411.0356200319998], [426.36061824244285, 2409.922420032042], [425.38095326328755, 2406.5828200321685], [425.38095326328755, 2403.2432200322946], [417.5436334296971, 2395.4508200321943], [415.5843034713865, 2393.2244200322784], [408.7266486169513, 2383.2056200322622], [405.78765367948535, 2380.979220032347], [385.21468911652795, 2357.6020200320454], [378.3570342620928, 2348.696420031987], [375.4180393246269, 2346.4700200320713], [358.76373467829063, 2330.885220032266], [351.90607982385546, 2325.319220032081], [350.9264148447002, 2324.206020032123], [344.068759990265, 2314.187220032107], [341.1297650527991, 2308.6212200323175], [340.1501000736438, 2307.5080200319644], [336.2314401566745, 2299.7156200322593], [334.2721101983639, 2291.923220032159], [334.2721101983639, 2287.470420032327], [335.2517751775192, 2249.6216200321783], [333.2924452192087, 2247.3952200322624], [317.6178055520277, 2230.697220032104], [315.6584755937171, 2227.35762003223], [309.78048571878526, 2218.4520200321717], [297.0448409890703, 2198.4144200321393], [285.2888612388586, 2171.6976200319646], [282.3498663013927, 2163.9052200322594], [281.3702013222374, 2161.6788200323435], [272.5532165094916, 2124.9432200321526], [270.59388655083296, 2119.3772200319677], [270.59388655083296, 2117.150820032052], [270.59388655083296, 2116.0376200320943], [270.59388655083296, 2110.4716200323046], [271.57355152998826, 2106.018820032078], [271.57355152998826, 2101.5660200322463], [268.63455659252236, 2098.2264200319773], [259.8175717797766, 2088.207620031961], [255.89891186315538, 2082.641620032172], [254.9192468840001, 2081.528420032214], [248.06159202956488, 2067.056820031971], [243.1632671334403, 2059.264420032266], [239.2446072168191, 2055.924820031997], [214.75298273689245, 2038.1136200322758], [210.83432282027124, 2032.547620032091], [205.93599792414668, 2026.9816200323016], [201.03767302837016, 2021.415620032117], [189.28169327815849, 2006.9440200322692], [186.34269834034453, 2001.3780200320846], [184.38336838203392, 1999.1516200321687], [183.40370340287862, 1995.812020032295], [183.40370340287862, 1994.6988200323374], [183.40370340287862, 1992.472420032026], [182.42403842372332, 1990.2460200321104], [182.42403842372332, 1986.9064200322368], [180.4647084654127, 1959.076420032104], [179.48504348590936, 1940.1520200320294], [179.48504348590936, 1937.9256200321138], [177.52571352759875, 1932.3596200323245], [176.54604854844345, 1927.9068200320976], [176.54604854844345, 1926.7936200321396], [174.58671859013285, 1924.567220032224], [165.76973377738707, 1915.6616200321655], [163.81040381907647, 1914.5484200322078], [162.83073883992117, 1914.5484200322078], [146.17643419358492, 1907.8692200320652], [143.23743925611902, 1906.7560200321072], [134.42045444337327, 1905.6428200321493], [108.94916498429126, 1900.0768200319646], [105.030505067322, 1898.9636200320067], [105.030505067322, 1896.737220032091], [105.030505067322, 1892.2844200322597], [105.030505067322, 1883.3788200322012], [105.030505067322, 1875.5864200321007], [104.0508400881667, 1867.7940200320004], [102.09151012985609, 1861.1148200322532], [95.23385527542094, 1841.0772200322208], [94.25419029626563, 1838.8508200323051], [91.31519535879973, 1831.0584200322046], [87.39653544183047, 1826.6056200319777], [82.49821054605395, 1821.0396200321884], [81.51854556689865, 1818.8132200322727], [77.59988564992939, 1815.4736200320035], [67.80323585802832, 1806.5680200323409], [62.90491096225181, 1802.115220032114], [46.250606315915576, 1783.1908200320393], [38.41328648232511, 1774.285220031981], [36.45395652401451, 1740.8892200320588], [45.27094133676027, 1721.9648200319843], [46.250606315915576, 1717.5120200321528], [47.23027129507088, 1716.398820032195], [50.169266232536785, 1711.9460200319681], [52.128596191195435, 1710.8328200320102], [52.128596191195435, 1709.7196200320523], [55.06759112866134, 1704.153620032263], [58.006586066127255, 1700.814020031994], [58.006586066127255, 1697.4744200321204], [58.006586066127255, 1694.1348200322468], [57.02692108697195, 1689.6820200320199], [53.10826117035074, 1685.2292200321886], [41.35228141979102, 1674.0972200322144], [24.69797677380283, 1654.059620032182], [20.77931685683357, 1650.7200200323084], [16.860656940212362, 1647.3804200320394], [0.20635229387612794, 1634.0220200321496], [-0.7733126852791744, 1631.795620032234], [-1.7529776644344768, 1630.682420032276], [-3.7123076227450817, 1628.456020031965], [-7.630967539714338, 1624.0032200321334], [-8.610632518869641, 1620.6636200322598], [-17.42761733161541, 1608.418420032328], [-27.22426712351648, 1595.0600200320428], [-27.22426712351648, 1593.9468200320848], [-41.91924181154211, 1579.4752200322373], [-51.71589160344318, 1569.456420032221], [-67.39053127027607, 1551.6452200321044], [-69.34986122893471, 1550.5320200321464], [-71.30919118724532, 1546.079220032315], [-72.28885616640062, 1542.739620032046], [-73.26852114555592, 1540.5132200321302], [-71.30919118724532, 1538.2868200322146], [-69.34986122893471, 1536.060420032299], [-65.43120131196547, 1532.72082003203], [-64.45153633281016, 1532.72082003203], [-61.51254139534425, 1530.494420032114], [-55.63455152006439, 1527.1548200322404], [-54.65488654090909, 1524.9284200323248], [-53.67522156175379, 1522.7020200320137], [-52.695556582598485, 1518.2492200321822], [-52.695556582598485, 1516.0228200322665], [-53.67522156175379, 1509.343620032124], [-54.65488654090909, 1504.8908200322924], [-54.65488654090909, 1501.5512200320234], [-54.65488654090909, 1500.4380200320654], [-53.67522156175379, 1490.4192200320492], [-54.65488654090909, 1483.7400200323023], [-59.553211437033646, 1479.2872200320753], [-62.49220637449955, 1468.1552200321012], [-66.41086629112077, 1460.3628200320006], [-68.37019624977941, 1458.136420032085], [-72.28885616640062, 1455.9100200321693], [-82.0855059583017, 1447.0044200321108], [-86.98383085442626, 1443.6648200322375], [-87.96349583358156, 1440.3252200319682], [-88.94316081273686, 1436.9856200320946], [-89.92282579189217, 1434.759220032179], [-89.92282579189217, 1432.5328200322633], [-88.94316081273686, 1420.2876200323315], [-87.96349583358156, 1413.6084200321889], [-87.96349583358156, 1410.2688200323153], [-86.98383085442626, 1408.042420032004], [-86.0041658749229, 1401.3632200322568], [-85.0245008957676, 1395.7972200320721], [-84.0448359166123, 1394.6840200321142], [-83.065170937457, 1390.2312200322829], [-84.0448359166123, 1389.118020032325], [-85.0245008957676, 1386.8916200320136], [-87.96349583358156, 1383.5520200321403], [-88.94316081273686, 1382.4388200321823], [-95.80081566682398, 1373.533220032124], [-99.71947558379324, 1365.7408200320235], [-103.63813550041445, 1359.0616200322763], [-104.61780047956975, 1343.4768200320755], [-104.61780047956975, 1341.2504200321596], [-105.59746545907309, 1339.024020032244], [-104.61780047956975, 1335.684420031975], [-100.69914056294854, 1327.89202003227], [-98.73981060463794, 1316.7600200322959], [-96.78048064632733, 1311.194020032111], [-95.80081566682398, 1304.5148200319684], [-95.80081566682398, 1293.3828200319945], [-98.73981060463794, 1285.5904200322893], [-101.67880554210385, 1281.1376200320624], [-105.59746545907309, 1273.345220031962], [-107.5567954173837, 1270.0056200320885], [-108.536460396539, 1267.7792200321728], [-110.4957903548496, 1264.4396200322992], [-120.29244014675068, 1252.1944200319717], [-121.27210512590598, 1244.4020200322668], [-122.25177010506128, 1242.1756200319555], [-122.25177010506128, 1238.836020032082], [-136.9467447930869, 1196.5344200321015], [-154.58071441857845, 1162.0252200322213], [-167.31635914794543, 1139.7612200322733], [-175.1536789815359, 1111.9312200321403], [-176.1333439606912, 1109.7048200322247], [-180.05200387766047, 1086.3276200323187], [-197.68597350315198, 1062.9504200320173], [-206.50295831589776, 1051.8184200320432], [-218.25893806610944, 1027.3280200321794], [-224.13692794104125, 1018.4224200321211], [-229.0352528371658, 1009.5168200320627], [-232.95391275378702, 1003.9508200322734], [-236.87257267075626, 998.3848200320887], [-240.79123258737746, 996.1584200321729], [-242.75056254568813, 995.0452200322151], [-244.70989250434675, 993.9320200322572], [-248.62855242096796, 985.0264200321989], [-251.56754735843387, 981.6868200323254], [-253.5268773170925, 977.2340200320984], [-254.5065422962478, 976.1208200321405], [-254.5065422962478, 972.781220032267], [-254.5065422962478, 964.9888200321665], [-253.5268773170925, 961.649220032293], [-251.56754735843387, 958.3096200320239], [-250.58788237927857, 956.0832200321081], [-249.60821740012324, 953.8568200321924], [-248.62855242096796, 951.6304200322768], [-248.62855242096796, 950.5172200323188], [-248.62855242096796, 947.1776200320498], [-248.62855242096796, 942.7248200322184], [-251.56754735843387, 934.9324200321179], [-255.4862072754031, 923.8004200321438], [-255.4862072754031, 922.687220032186], [-261.364197150683, 907.102420031985], [-267.2421870256148, 893.7440200320952], [-267.2421870256148, 892.6308200321374], [-274.09984188005, 868.1404200322736], [-278.99816677582646, 861.461220032131], [-282.9168266927957, 859.2348200322152], [-288.79481656772754, 855.8952200323416], [-289.77448154723083, 855.8952200323416], [-297.6118013804733, 851.4424200321148], [-311.3271110893436, 846.9896200322833], [-320.14409590208936, 839.1972200321828], [-324.06275581871057, 832.5180200320402], [-324.06275581871057, 831.4048200320824], [-326.0220857773693, 829.1784200321666], [-327.0017507565246, 823.6124200319819], [-328.96108071483513, 811.36722003205], [-331.9000756523011, 793.5560200323288], [-336.79840054842566, 774.6316200322542], [-338.75773050673627, 766.8392200321537], [-344.63572038201613, 757.9336200320954], [-360.31036004884896, 721.1980200322996], [-362.26969000715957, 717.8584200320306], [-363.2493549866629, 716.7452200320727], [-365.2086849449735, 713.4056200321992], [-366.1883499241289, 711.1792200322834], [-367.16801490328413, 708.9528200319722], [-369.12734486159474, 705.6132200320986], [-381.86298959130977, 683.3492200321506], [-383.82231954962043, 680.009620032277], [-384.8019845287757, 678.8964200323192], [-385.781649507931, 675.55682003205], [-386.7613144870863, 673.3304200321344], [-419.09025880060346, 635.4816200319852], [-431.82590352997045, 617.670420032264], [-434.76489846743635, 614.330820031995], [-437.7038934052503, 612.1044200320794], [-441.6225533218715, 607.6516200322478], [-451.41920311377254, 598.7460200321896], [-457.2971929890525, 594.2932200319626], [-464.15484784348763, 584.2744200323419], [-471.01250269757475, 574.2556200323257], [-472.9718326562334, 572.0292200320146], [-475.9108275936993, 566.4632200322252], [-479.8294875103205, 559.7840200320826], [-479.8294875103205, 558.6708200321248], [-482.7684824481344, 553.1048200323355], [-484.7278124064451, 549.7652200320664], [-488.6464723230663, 544.1992200322771], [-492.56513224003555, 538.6332200320924], [-493.54479721919085, 537.5200200321344], [-495.5041271775014, 536.4068200321766], [-506.28044194855784, 531.9540200323452], [-514.1177617821482, 527.5012200321182], [-526.8534065115153, 520.8220200319756], [-528.812736470174, 520.8220200319756], [-532.7313963867952, 521.935220032329], [-536.6500563034164, 521.935220032329], [-542.5280461786962, 523.0484200322869], [-543.5077111578514, 523.0484200322869], [-546.4467060956655, 521.935220032329], [-548.406036053976, 517.482420032102], [-546.4467060956655, 507.4636200320859], [-545.4670411161621, 498.55802003202757], [-547.4263710748207, 490.76562003232254], [-549.3857010331313, 487.4260200320535], [-553.3043609497525, 479.633620031953], [-558.2026858458771, 475.1808200321216], [-559.1823508250325, 474.06762003216375], [-561.141680783343, 474.06762003216375], [-565.0603407003123, 472.95442003220586], [-569.9586655960887, 471.841220032248], [-571.9179955543995, 471.841220032248], [-582.6943103254557, 467.3884200320211], [-591.5112951382015, 461.8224200322318], [-592.4909601177048, 458.4828200319628], [-593.4706250968601, 452.91682003217346], [-594.4502900760156, 450.69042003225775], [-594.4502900760156, 444.01122003211515], [-594.4502900760156, 439.5584200322837], [-594.4502900760156, 429.5396200322675], [-594.4502900760156, 426.2000200319984], [-594.4502900760156, 422.86042003212486], [-594.4502900760156, 420.63402003220915], [-593.4706250968601, 420.63402003220915], [-590.5316301590462, 419.5208200322513], [-588.5723002007356, 417.29442003233555], [-593.4706250968601, 413.95482003206655], [-597.3892850134814, 407.27562003231935], [-598.3689499926368, 406.162420031966], [-598.3689499926368, 405.0492200320082], [-598.3689499926368, 401.7096200321346], [-598.3689499926368, 400.59642003217675], [-597.3892850134814, 393.91722003203415], [-597.3892850134814, 390.57762003216055], [-597.3892850134814, 388.35122003224484], [-599.348614971792, 386.1248200323291], [-603.2672748887613, 379.4456200321865], [-607.1859348053825, 373.87962003200175], [-608.1655997845378, 370.54002003212815], [-609.145264763693, 367.20042003225456], [-611.1045947223516, 364.9740200323389], [-616.9825845972836, 352.72882003201147], [-619.9215795350974, 347.16282003222216], [-624.819904430874, 338.25722003216384], [-628.7385643474952, 330.46482003206336], [-632.6572242644645, 324.8988200322741], [-634.6165542227751, 320.44602003204716], [-635.5962192019304, 319.33282003208933], [-636.5758841810856, 318.21962003213144], [-637.555549160241, 317.10642003217356], [-640.4945440980549, 312.65362003234213], [-642.4538740563655, 309.31402003207313], [-647.3521989521421, 300.40842003201476], [-655.1895187857325, 284.8236200322093], [-658.1285137235465, 281.4840200323357], [-664.0065035984783, 277.03122003210876], [-667.9251635154476, 272.57842003227734], [-675.762483349038, 268.12562003205045], [-681.6404732239698, 264.7860200321769], [-695.3557829328402, 263.672820032219], [-697.3151128911508, 263.672820032219], [-699.2744428494614, 263.672820032219], [-707.1117626830518, 263.672820032219], [-714.9490825166423, 262.55962003226114], [-715.9287474957976, 261.4464200323033], [-719.8474074124189, 258.10682003203425], [-720.8270723915741, 256.99362003207636], [-721.8067373710775, 255.88042003211854], [-722.7864023502327, 248.08802003201805], [-723.7660673293881, 245.86162003210234], [-724.7457323085433, 242.52202003222877], [-725.7253972876987, 234.72962003212828], [-725.7253972876987, 231.3900200322547], [-725.7253972876987, 230.27682003229685], [-724.7457323085433, 222.48442003219637], [-720.8270723915741, 200.22042003224826], [-720.8270723915741, 194.65442003206348], [-720.8270723915741, 191.3148200321899], [-720.8270723915741, 190.20162003223206], [-723.7660673293881, 183.52242003208943], [-723.7660673293881, 180.18282003221586], [-725.7253972876987, 176.8432200323423], [-727.6847272460093, 173.50362003207323], [-729.6440572043199, 172.39042003211537], [-732.5830521421339, 170.16402003219966], [-735.5220470795997, 170.16402003219966], [-738.4610420170657, 171.27722003215752], [-746.2983618506562, 174.6168200320311], [-760.9933365386818, 179.069620032258], [-762.9526664969924, 182.40922003213157], [-765.8916614344582, 183.52242003208943], [-770.7899863305828, 183.52242003208943], [-771.769651309738, 182.40922003213157], [-779.6069711433286, 180.18282003221586], [-790.383285914385, 175.73002003198894], [-811.9359154564977, 165.71122003197274], [-815.8545753734669, 164.5980200320149], [-820.7529002692435, 162.37162003209917], [-826.6308901445234, 157.91882003226775], [-837.4072049155797, 151.23962003212512], [-839.3665348738904, 146.7868200322937], [-840.3461998530456, 144.5604200319825], [-842.3055298117042, 138.9944200321932], [-845.2445247491702, 133.42842003200843], [-845.2445247491702, 131.20202003209272], [-846.2241897283254, 112.27762003201818], [-846.2241897283254, 103.37202003195983], [-846.2241897283254, 88.90042003211221], [-846.2241897283254, 71.08922003199552], [-847.2038547074807, 56.6176200321479], [-847.2038547074807, 52.16482003231647], [-848.1835196866361, 49.93842003200527], [-849.1631846657914, 46.5988200321317], [-852.1021796036054, 36.5800200321155], [-857.0005044993819, 29.90082003197287], [-857.9801694785372, 27.674420032057157], [-858.9598344580405, 26.5612200320993], [-861.8988293955065, 24.334820032183586], [-867.7768192704382, 22.108420032267873], [-868.7564842499415, 22.108420032267873], [-872.6751441665627, 23.22162003222573], [-876.593804083184, 22.108420032267873], [-878.5531340418427, 24.334820032183586], [-882.4717939584638, 25.448020032141443], [-889.329448812899, 29.90082003197287], [-896.1871036673342, 33.24042003224193], [-898.1464336256448, 34.353620032199785], [-902.0650935422661, 36.5800200321155], [-905.00408848008, 36.5800200321155], [-907.943083417546, 35.46682003215764], [-910.8820783550119, 34.353620032199785], [-913.8210732924776, 33.24042003224193], [-916.7600682302917, 32.12722003228407], [-916.7600682302917, 27.674420032057157], [-916.7600682302917, 25.448020032141443], [-916.7600682302917, 22.108420032267873], [-916.7600682302917, 18.768820031998814], [-914.8007382719809, 16.5424200320831], [-910.8820783550119, 8.750020031982615], [-909.9024133758564, 6.523620032066901], [-908.9227483967011, 4.297220032151188], [-910.8820783550119, 2.070820032235474], [-913.8210732924776, -1.2687799680335843], [-917.7397332094469, -10.174379967696439], [-921.6583931260682, -20.193179967712638], [-923.6177230847267, -23.532779967981696], [-924.5973880638821, -26.872379967855267], [-925.5770530430375, -26.872379967855267], [-932.4347078971246, -30.211979967728837], [-934.3940378557833, -31.325179967686694], [-934.3940378557833, -32.43837996804004], [-935.3737028349384, -34.66477996795575], [-935.3737028349384, -36.891179967871466], [-935.3737028349384, -38.00437996782932], [-937.3330327932491, -41.34397996770289], [-938.3126977724044, -42.45717996766075], [-942.2313576893737, -45.79677996792981], [-952.0280074812748, -51.36277996771909], [-963.7839872314864, -55.81557996794601], [-969.6619771067664, -59.15517996781958], [-981.417956856978, -62.49477996769315], [-988.275611711413, -64.72117996800435], [-995.1332665655003, -66.94757996792006], [-1007.8689112952153, -71.40037996775149], [-1016.6858961079611, -74.73997996802055], [-1019.6248910454268, -75.8531799679784], [-1023.5435509620481, -75.8531799679784], [-1025.502880920707, -78.07957996789412], [-1028.4418758581726, -83.6455799676834], [-1031.3808707956384, -86.98517996795246], [-1032.3605357747938, -88.09837996791032], [-1036.279195691763, -94.77757996765746], [-1043.1368505461985, -105.909579968027], [-1044.1165155253536, -108.13597996794272], [-1045.096180504509, -112.58877996777414], [-1049.01484042113, -121.49437996783249], [-1054.8928302964098, -135.9659799676801], [-1054.8928302964098, -139.30557996794917], [-1055.8724952755654, -143.7583799677806], [-1058.8114902130312, -166.0223799677287], [-1058.8114902130312, -167.13557996768657], [-1061.7504851508452, -177.15437996770277], [-1062.7301501300005, -180.49397996797182], [-1062.7301501300005, -181.60717996792968], [-1066.6488100466215, -188.28637996767682], [-1070.5674699635908, -193.8523799678616], [-1075.4657948593674, -201.64477996796208], [-1078.4047897968333, -204.98437996783565], [-1077.425124817678, -206.0975799677935], [-1077.425124817678, -208.32397996770922], [-1077.425124817678, -211.66357996797828], [-1078.4047897968333, -217.22957996776756], [-1078.4047897968333, -227.24837996778376], [-1078.4047897968333, -238.38037996775782], [-1078.4047897968333, -251.73877996804308], [-1078.4047897968333, -253.9651799679588], [-1080.364119755492, -256.19157996787453], [-1083.303114692958, -262.87077996801713], [-1086.2421096304238, -267.32357996784856], [-1090.1607695473929, -277.34237996786476], [-1096.0387594223248, -290.70077996775456], [-1097.0184244014802, -295.15357996798144], [-1099.9574193392941, -299.60637996781287], [-1102.89641427676, -305.17237996799764], [-1104.8557442350707, -308.5119799678712], [-1104.8557442350707, -309.62517996782907], [-1110.7337341103505, -316.3043799679717], [-1129.3473687149974, -340.79477996783555], [-1138.164353527743, -351.9267799678096], [-1164.6153079659805, -383.096379967816], [-1165.5949729451356, -385.3227799677318], [-1165.5949729451356, -390.88877996791655], [-1163.6356429868251, -394.2283799677901], [-1161.6763130281665, -396.4547799677058], [-1160.6966480490112, -400.90757996793275], [-1162.6559780076698, -404.2471799678063], [-1171.4729628200676, -410.92637996794895], [-1177.3509526953474, -416.4923799677382], [-1194.0052573416838, -428.7375799676701], [-1194.984922320839, -429.85077996802346], [-1205.7612370918953, -438.7563799676863], [-1207.720567050206, -439.86957996803966], [-1217.5172168424551, -448.7751799677025], [-1227.313866634356, -455.45437996784517], [-1227.313866634356, -456.567579967803], [-1231.2325265509774, -461.02037996802994], [-1238.0901814054125, -469.9259799676928], [-1239.0698463845677, -471.03917996804614], [-1245.9275012390028, -478.8315799677511], [-1251.8054911139347, -491.076779967683], [-1253.7648210722452, -498.8691799677835], [-1255.724151030904, -503.3219799680104], [-1255.724151030904, -505.54837996792617], [-1255.724151030904, -506.661579967884], [-1256.7038160100592, -512.2275799676733], [-1256.7038160100592, -513.3407799680266], [-1257.6834809892146, -517.793579967858], [-1260.6224759266806, -524.4727799680006], [-1262.5818058849911, -528.9255799678322], [-1268.459795760271, -533.3783799676635], [-1279.2361105313275, -541.170779967764], [-1301.7684050529435, -558.9819799678808], [-1301.7684050529435, -560.0951799678386], [-1301.7684050529435, -563.4347799677121], [-1303.727735011254, -572.3403799677704], [-1298.8294101151296, -606.849579968046], [-1298.8294101151296, -650.2643799679844], [-1298.8294101151296, -653.6039799678579], [-1298.8294101151296, -656.9435799677315], [-1296.870080156819, -665.8491799677898], [-1295.8904151776635, -669.1887799676634], [-1293.931085219353, -676.9811799677639], [-1289.0327603232283, -688.113179967738], [-1287.0734303649178, -692.5659799679648], [-1270.4191257185817, -723.7355799679713], [-1268.459795760271, -730.4147799677185], [-1267.4801307811158, -734.8675799679454], [-1266.5004658019604, -738.207179967819], [-1267.4801307811158, -741.5467799676925], [-1268.459795760271, -743.7731799680037], [-1269.4394607394263, -745.9995799679194], [-1270.4191257185817, -750.4523799677509], [-1273.3581206563956, -756.0183799679356], [-1273.3581206563956, -757.1315799678935], [-1280.2157755104827, -769.3767799678254], [-1284.134435427452, -777.1691799679259], [-1284.134435427452, -778.2823799678838], [-1285.1141004066073, -783.848379967673], [-1286.0937653857625, -791.6407799677735], [-1288.0530953440732, -800.5463799678319], [-1288.0530953440732, -804.9991799676633], [-1288.0530953440732, -816.1311799680328], [-1288.0530953440732, -821.6971799678221], [-1283.1547704482966, -839.5083799679388], [-1281.195440489638, -852.8667799678285], [-1281.195440489638, -853.9799799677864], [-1273.3581206563956, -867.3383799676762], [-1273.3581206563956, -878.4703799680458], [-1274.3377856355507, -888.4891799676665], [-1275.317450614706, -891.8287799679355], [-1278.2564455521722, -895.1683799678091], [-1281.195440489638, -897.3947799677248], [-1285.1141004066073, -902.9607799679095], [-1289.0327603232283, -907.413579967741], [-1291.9717552610423, -910.75317996801], [-1294.9107501985081, -917.4323799677572], [-1308.6260599070306, -949.7151799677215], [-1309.6057248865338, -951.9415799680327], [-1313.524384803155, -959.7339799677377], [-1313.524384803155, -964.1867799679646], [-1314.5040497823106, -1002.0355799677181], [-1314.5040497823106, -1003.1487799676761], [-1319.402374678435, -1024.2995799676664], [-1323.3210345950563, -1040.9975799678252], [-1325.2803645533668, -1048.7899799679255], [-1326.260029532522, -1054.355979967715], [-1326.260029532522, -1055.4691799676727], [-1327.2396945116775, -1058.8087799679417], [-1328.2193594911807, -1063.2615799677733], [-1334.0973493661127, -1068.827579967958], [-1339.9753392413925, -1075.5067799677051], [-1342.9143341788583, -1078.8463799679741], [-1353.6906489499147, -1113.3555799678543], [-1354.67031392907, -1116.6951799677279], [-1359.5686388251945, -1144.5251799678608], [-1352.7109839707593, -1156.7703799677927], [-1340.9550042205478, -1172.3551799679935], [-1341.934669199703, -1196.8455799678575], [-1342.9143341788583, -1204.637979967958], [-1344.873664137169, -1211.317179967705], [-1349.7719890332935, -1223.5623799680325], [-1349.7719890332935, -1225.7887799679481], [-1350.7516540124489, -1230.2415799677797], [-1351.7313189916042, -1235.8075799679643], [-1353.6906489499147, -1243.5999799676692], [-1353.6906489499147, -1246.9395799679385], [-1356.6296438877287, -1259.1847799678703], [-1356.6296438877287, -1260.2979799678283], [-1362.5076337626604, -1274.7695799676758], [-1375.2432784923756, -1309.2787799679513], [-1376.222943471531, -1311.505179967867], [-1377.202608450686, -1320.4107799679255], [-1379.1619384089965, -1323.7503799677988], [-1380.141603388152, -1324.8635799677568], [-1394.8365780761776, -1341.5615799679156], [-1418.348537576601, -1354.9199799678054], [-1420.3078675352597, -1358.259579967679], [-1425.2061924310362, -1366.0519799677795], [-1429.1248523480056, -1371.6179799679642], [-1432.0638472854712, -1376.0707799677957], [-1433.0435122646265, -1378.2971799677114], [-1434.023177243782, -1381.6367799679804], [-1435.9825072020926, -1392.7687799679545], [-1438.9215021399064, -1402.7875799679707], [-1438.9215021399064, -1403.9007799679284], [-1439.901167119062, -1407.240379967802], [-1439.901167119062, -1410.5799799676756], [-1439.901167119062, -1411.693179968029], [-1439.901167119062, -1415.0327799679026], [-1439.901167119062, -1419.485579967734], [-1439.901167119062, -1422.825179968003], [-1439.901167119062, -1429.5043799677503], [-1440.880832098217, -1430.617579967708], [-1440.880832098217, -1432.8439799680193], [-1446.7588219731488, -1440.6363799677242], [-1453.6164768275842, -1446.202379967909], [-1458.5148017237086, -1449.5419799677827], [-1461.4537966611745, -1450.6551799677404], [-1464.3927915986403, -1457.334379967883], [-1467.3317865364543, -1465.1267799679836], [-1469.291116494765, -1467.3531799678992], [-1472.2301114322308, -1471.8059799677308], [-1474.1894413905416, -1472.9191799676887], [-1480.0674312658214, -1476.2587799679577], [-1483.0064262032872, -1477.3719799679154], [-1484.9657561619458, -1478.4851799678734], [-1487.904751099412, -1477.3719799679154], [-1490.8437460368777, -1476.2587799679577], [-1497.701400891313, -1474.0323799680418], [-1505.5387207249032, -1470.6927799677728], [-1508.4777156623693, -1470.6927799677728], [-1514.355705537649, -1470.6927799677728], [-1517.294700475115, -1470.6927799677728], [-1525.1320203087055, -1469.579579967815], [-1531.0100101839855, -1469.579579967815], [-1555.5016346635641, -1475.1455799679998], [-1572.1559393099003, -1496.29637996799], [-1580.972924122646, -1508.541579967922], [-1581.9525891018013, -1517.4471799679802], [-1584.8915840392672, -1531.918779967828], [-1586.8509139979258, -1536.3715799676593], [-1587.8305789770811, -1539.7111799679285], [-1588.8102439562365, -1539.7111799679285], [-1590.7695739145472, -1540.8243799678862], [-1596.647563789827, -1543.050779967802], [-1602.5255536647587, -1544.1639799677598], [-1603.505218643914, -1544.1639799677598], [-1611.3425384775046, -1544.1639799677598], [-1619.179858311095, -1544.1639799677598], [-1627.0171781446857, -1545.2771799677178], [-1634.854497978276, -1545.2771799677178], [-1635.8341629574313, -1545.2771799677178], [-1641.7121528327111, -1547.5035799680288], [-1654.447797562078, -1554.182779967776], [-1657.386792499544, -1556.4091799676917], [-1660.3257874373578, -1557.522379968045], [-1663.2647823748239, -1563.0883799678345], [-1670.122437229259, -1573.1071799678507], [-1674.0410971458803, -1578.6731799680354], [-1676.000427104191, -1583.125979967867], [-1682.8580819586261, -1597.5975799677144], [-1684.8174119169366, -1603.1635799678993], [-1685.7970768960918, -1604.276779967857], [-1685.7970768960918, -1606.5031799677727], [-1686.7767418755952, -1610.9559799679996], [-1686.7767418755952, -1616.5219799677889], [-1685.7970768960918, -1647.6915799677954], [-1685.7970768960918, -1648.8047799677533], [-1685.7970768960918, -1666.6159799678699], [-1685.7970768960918, -1668.8423799677857], [-1685.7970768960918, -1671.0687799677014], [-1685.7970768960918, -1674.4083799679704], [-1683.8377469377813, -1677.747979967844], [-1681.8784169794708, -1681.0875799677176], [-1679.91908702116, -1683.313979968029], [-1676.000427104191, -1686.6535799679023], [-1672.0817671875695, -1687.7667799678602], [-1666.2037773122897, -1689.9931799677759], [-1664.2444473539792, -1692.2195799676915], [-1662.2851173956687, -1693.332779968045], [-1658.3664574786994, -1696.6723799679185], [-1658.3664574786994, -1697.7855799678764], [-1653.4681325829229, -1712.257179967724], [-1652.4884676037675, -1715.5967799679931], [-1651.5088026246121, -1720.0495799678245], [-1653.4681325829229, -1725.6155799680093], [-1657.386792499544, -1735.6343799680255], [-1674.0410971458803, -1771.2567799678634], [-1681.8784169794708, -1792.4075799678535], [-1683.8377469377813, -1796.860379967685], [-1683.8377469377813, -1799.0867799679963], [-1683.8377469377813, -1806.8791799677012], [-1682.8580819586261, -1810.2187799679702], [-1680.8987520003154, -1816.8979799677174], [-1678.9394220420047, -1820.2375799679864], [-1676.980092083346, -1823.57717996786], [-1674.0410971458803, -1826.9167799677336], [-1666.2037773122897, -1833.5959799678762], [-1652.4884676037675, -1846.954379967766], [-1643.6714827910216, -1855.8599799678243], [-1638.7731578948972, -1861.4259799680092], [-1637.7934929157418, -1862.539179967967], [-1636.8138279365864, -1868.1051799677564], [-1635.8341629574313, -1880.3503799676882], [-1632.8951680199655, -1894.8219799679314], [-1630.9358380613066, -1905.9539799679053], [-1631.91550304081, -1910.4067799677368], [-1632.8951680199655, -1914.8595799679638], [-1633.8748329991206, -1918.1991799678374], [-1634.854497978276, -1920.425579967753], [-1636.8138279365864, -1923.765179968022], [-1643.6714827910216, -1929.3311799678113], [-1649.5494726659535, -1938.2367799678698], [-1656.4071275203887, -1944.9159799680124], [-1658.3664574786994, -1947.142379967928], [-1702.4513815424282, -1970.519579967834], [-1736.739655814256, -2003.9155799677562], [-1743.597310668691, -2013.9343799677724], [-1753.3939604605923, -2025.0663799677463], [-1760.2516153150273, -2035.0851799677625], [-1770.0482651069285, -2047.3303799676946], [-1774.9465900027049, -2056.235979967753], [-1776.9059199610156, -2062.9151799678957], [-1776.9059199610156, -2067.367979967727], [-1773.9669250235495, -2078.499979967701], [-1772.007595065239, -2084.0659799678856], [-1768.0889351482697, -2102.9903799679605], [-1765.1499402108038, -2123.027979967993], [-1759.271950335524, -2163.103179967662], [-1759.271950335524, -2166.442779967931], [-1756.332955398058, -2176.4615799679473], [-1754.3736254397475, -2183.1407799676945], [-1751.4346305022816, -2188.7067799678794], [-1741.6379807103806, -2203.178379967727], [-1738.6989857725664, -2198.7255799678956], [-1727.92267100151, -2190.933179967795], [-1712.2480313343292, -2188.7067799678794], [-1701.4717165632728, -2192.0463799677527], [-1688.736071833906, -2199.838779967853], [-1682.8580819586261, -2210.970779967827], [-1680.8987520003154, -2224.329179967717], [-1687.7564068547506, -2253.272379967808], [-1693.6343967296825, -2276.6495799677136], [-1694.6140617088377, -2301.139979967973], [-1691.6750667713718, -2353.46037996797], [-1687.7564068547506, -2375.724379967918], [-1682.8580819586261, -2386.856379967892], [-1671.1021022084144, -2400.214779967782], [-1649.5494726659535, -2413.5731799676714], [-1621.1391882694056, -2426.9315799679566], [-1605.4645486025727, -2435.8371799680153], [-1598.6068937481375, -2442.516379967762], [-1577.0542642060248, -2485.9311799677007], [-1560.3999595596886, -2521.553579967934], [-1534.9286701006065, -2576.1003799678465], [-1516.3150354959596, -2608.3831799678105], [-1501.6200608079341, -2616.1755799679113], [-1485.9454211411012, -2615.0623799679533], [-1476.1487713492002, -2606.156779967895], [-1465.372456577796, -2589.458779967736], [-1449.6978169109627, -2551.609979967983], [-1435.0028422229373, -2523.7799799678496], [-1422.2671974935704, -2502.6291799678593], [-1410.5112177430103, -2494.836779967759], [-1400.7145679511095, -2493.723579967801], [-1391.8975831383636, -2499.289579967986], [-1384.0602633051212, -2511.534779967918], [-1382.1009333464626, -2527.1195799677234], [-1383.0805983259659, -2556.062779967814], [-1383.0805983259659, -2605.043579967937], [-1375.2432784923756, -2679.627979967882], [-1368.3856236379404, -2714.1371799677618], [-1360.5483038043499, -2740.853979967937], [-1348.7923240541381, -2759.7783799680114], [-1336.0566793244232, -2776.476379967775], [-1313.524384803155, -2806.5327799678234], [-1298.8294101151296, -2832.1363799680407], [-1291.9717552610423, -2865.5323799679627], [-1280.2157755104827, -2920.0791799678755], [-1275.317450614706, -2937.890379967992], [-1265.520800822805, -2967.9467799680406], [-1243.9681712803444, -3006.908779967752], [-1177.3509526953474, -3117.11557996793], [-1165.5949729451356, -3129.360779967862], [-1150.89999825711, -3139.3795799678783], [-1132.2863636524633, -3148.2851799679365], [-1073.506464901057, -3172.7755799678007], [-1006.8892463160599, -3199.4923799679755], [-940.2720277307149, -3229.548779968024], [-927.536383001348, -3237.341179967729], [-910.8820783550119, -3251.8127799679723], [-896.1871036673342, -3267.397579967778], [-882.4717939584638, -3280.7559799676674], [-865.8174893121277, -3295.2275799679105], [-817.8139053317776, -3339.7555799678066], [-782.5459660807945, -3374.264779967687], [-758.0543416012158, -3389.8495799678876], [-687.5184630992496, -3429.9247799679524], [-604.2469398679166, -3475.5659799678065], [-570.9383305752441, -3494.4903799678814], [-493.54479721919085, -3532.3391799680303], [-492.56513224003555, -3532.3391799680303]]]}, "properties": {"cusec": "3803105002", "mun": "031", "nmun": "Realejos, Los", "area_m2": 9335548.554165618, "perimeter_m": 18772.843393207582, "coords_system": "local_m_enu"}}]}