{"type": "FeatureCollection", "crs": {"type": "name", "properties": {"name": "wgs84_and_EPSG:32628_local_enu_m_section_centroid", "lng0": -16.397105793326173, "lat0": 28.451621452384636}}, "features": [{"type": "Feature", "geometry": {"type": "Polygon", "coordinates": [[[-16.38171, 28.45649], [-16.38174, 28.45643], [-16.38175, 28.45641], [-16.38222, 28.45579], [-16.38269, 28.45521], [-16.38309, 28.45433], [-16.38346, 28.4535], [-16.38359, 28.45307], [-16.38361, 28.45299], [-16.38347, 28.4523], [-16.38346, 28.45195], [-16.38343, 28.45132], [-16.38347, 28.45108], [-16.38302, 28.45067], [-16.38297, 28.4506], [-16.38404, 28.45043], [-16.3842, 28.45042], [-16.38471, 28.45044], [-16.38547, 28.45059], [-16.38518, 28.44988], [-16.38478, 28.44891], [-16.3845, 28.44825], [-16.38426, 28.44766], [-16.384, 28.447], [-16.38381, 28.44657], [-16.38405, 28.44648], [-16.38446, 28.44612], [-16.38494, 28.44563], [-16.38527, 28.44515], [-16.38549, 28.44424], [-16.3861, 28.44376], [-16.38681, 28.44321], [-16.3872, 28.44283], [-16.38799, 28.44204], [-16.38872, 28.4413], [-16.38883, 28.44113], [-16.38915, 28.44061], [-16.38967, 28.43977], [-16.39031, 28.43879], [-16.39069, 28.43824], [-16.39167, 28.43676], [-16.39216, 28.43602], [-16.39281, 28.43506], [-16.39336, 28.43419], [-16.39404, 28.43312], [-16.39438, 28.43259], [-16.39439, 28.43251], [-16.3944, 28.43214], [-16.39449, 28.43183], [-16.39453, 28.43166], [-16.39468, 28.43134], [-16.39498, 28.43099], [-16.39519, 28.43074], [-16.39591, 28.43199], [-16.39653, 28.43311], [-16.39739, 28.43459], [-16.39821, 28.43599], [-16.3987, 28.43682], [-16.3994, 28.43802], [-16.39974, 28.43861], [-16.39984, 28.43876], [-16.39988, 28.43887], [-16.40022, 28.4394], [-16.40097, 28.44056], [-16.4016, 28.44157], [-16.40212, 28.44244], [-16.40256, 28.44311], [-16.4031, 28.44401], [-16.40379, 28.44499], [-16.40415, 28.44565], [-16.40477, 28.44678], [-16.40496, 28.44714], [-16.4053, 28.44778], [-16.40563, 28.44838], [-16.40591, 28.44891], [-16.40598, 28.44913], [-16.40611, 28.44956], [-16.40624, 28.44996], [-16.40636, 28.45036], [-16.40653, 28.4509], [-16.40659, 28.45103], [-16.40667, 28.45105], [-16.4067, 28.45114], [-16.40673, 28.45131], [-16.40675, 28.45138], [-16.40683, 28.45149], [-16.40688, 28.45164], [-16.40691, 28.45176], [-16.40695, 28.45187], [-16.40701, 28.45205], [-16.40704, 28.45221], [-16.4071, 28.45244], [-16.40718, 28.45279], [-16.40724, 28.453], [-16.4073, 28.4532], [-16.40754, 28.45312], [-16.4076, 28.45334], [-16.40771, 28.45372], [-16.40778, 28.45401], [-16.40789, 28.45438], [-16.40799, 28.45474], [-16.40808, 28.45504], [-16.40815, 28.45527], [-16.40826, 28.45559], [-16.40837, 28.45591], [-16.40844, 28.45615], [-16.40849, 28.45632], [-16.40853, 28.4565], [-16.40865, 28.45696], [-16.40877, 28.45722], [-16.40892, 28.45755], [-16.409, 28.45768], [-16.40923, 28.45807], [-16.40934, 28.45824], [-16.40952, 28.4585], [-16.40958, 28.4588], [-16.40968, 28.45926], [-16.40981, 28.45984], [-16.40983, 28.45995], [-16.4099, 28.46039], [-16.40997, 28.4608], [-16.41009, 28.46125], [-16.41017, 28.4616], [-16.41028, 28.46199], [-16.41045, 28.46269], [-16.41031, 28.46285], [-16.41016, 28.46292], [-16.41008, 28.46297], [-16.40998, 28.46304], [-16.4099, 28.46309], [-16.4098, 28.46315], [-16.40972, 28.4632], [-16.40964, 28.46325], [-16.40956, 28.4633], [-16.40948, 28.46335], [-16.40941, 28.4634], [-16.40933, 28.46344], [-16.40925, 28.46349], [-16.40916, 28.46354], [-16.40907, 28.46359], [-16.40895, 28.46367], [-16.40887, 28.46372], [-16.40879, 28.46378], [-16.40872, 28.46383], [-16.40865, 28.46388], [-16.40858, 28.46393], [-16.40841, 28.46406], [-16.40815, 28.46424], [-16.40797, 28.46437], [-16.40789, 28.4644], [-16.40781, 28.46443], [-16.40771, 28.46446], [-16.40762, 28.46448], [-16.40754, 28.46449], [-16.40746, 28.46451], [-16.40735, 28.46455], [-16.40725, 28.46459], [-16.40717, 28.46462], [-16.40709, 28.46465], [-16.40701, 28.46468], [-16.40692, 28.46471], [-16.4068, 28.46474], [-16.40672, 28.46475], [-16.40663, 28.46474], [-16.40654, 28.46474], [-16.40643, 28.46473], [-16.40634, 28.46476], [-16.40625, 28.46478], [-16.40617, 28.46482], [-16.40607, 28.46486], [-16.40599, 28.46487], [-16.4059, 28.4649], [-16.40581, 28.46491], [-16.40572, 28.46494], [-16.40562, 28.46497], [-16.40554, 28.46499], [-16.40545, 28.46506], [-16.40542, 28.46514], [-16.40541, 28.46521], [-16.40543, 28.46534], [-16.40544, 28.46546], [-16.40543, 28.46553], [-16.4054, 28.46564], [-16.40536, 28.46576], [-16.40532, 28.46584], [-16.40526, 28.46594], [-16.40519, 28.46602], [-16.40513, 28.46607], [-16.40506, 28.46613], [-16.40499, 28.46618], [-16.40492, 28.46623], [-16.40484, 28.46629], [-16.40477, 28.46634], [-16.40467, 28.46644], [-16.40461, 28.4665], [-16.40456, 28.46656], [-16.40451, 28.46663], [-16.40446, 28.46669], [-16.40438, 28.46678], [-16.40429, 28.46688], [-16.40422, 28.46694], [-16.40414, 28.467], [-16.40407, 28.46705], [-16.40399, 28.46711], [-16.40391, 28.46716], [-16.40383, 28.46721], [-16.40376, 28.46726], [-16.40369, 28.4673], [-16.40358, 28.46737], [-16.40346, 28.46742], [-16.40338, 28.46746], [-16.40311, 28.46758], [-16.40294, 28.46766], [-16.40283, 28.46773], [-16.40272, 28.46779], [-16.40265, 28.46785], [-16.40258, 28.46791], [-16.40251, 28.46798], [-16.4023, 28.46821], [-16.40219, 28.46831], [-16.4021, 28.46837], [-16.40173, 28.46858], [-16.40153, 28.46868], [-16.40143, 28.46872], [-16.40125, 28.46877], [-16.40115, 28.46878], [-16.40104, 28.46879], [-16.40096, 28.4688], [-16.40087, 28.4688], [-16.40077, 28.4688], [-16.40067, 28.46881], [-16.40047, 28.46882], [-16.40038, 28.46883], [-16.40029, 28.46884], [-16.40019, 28.46885], [-16.40009, 28.46886], [-16.39985, 28.46889], [-16.39976, 28.4689], [-16.39967, 28.4689], [-16.39956, 28.46891], [-16.39946, 28.46892], [-16.39936, 28.46892], [-16.39928, 28.46892], [-16.39919, 28.46892], [-16.39899, 28.46893], [-16.39886, 28.46894], [-16.39867, 28.46898], [-16.39859, 28.46901], [-16.39843, 28.4691], [-16.39835, 28.46913], [-16.3981, 28.46922], [-16.39801, 28.46923], [-16.39793, 28.46925], [-16.39784, 28.46927], [-16.39783, 28.46916], [-16.39778, 28.46897], [-16.39774, 28.46867], [-16.39765, 28.4683], [-16.3976, 28.46804], [-16.39758, 28.46793], [-16.39756, 28.46784], [-16.39748, 28.46748], [-16.39746, 28.46739], [-16.39739, 28.46715], [-16.39732, 28.46682], [-16.39727, 28.46664], [-16.39724, 28.46647], [-16.39719, 28.46628], [-16.39711, 28.46592], [-16.39706, 28.46575], [-16.39699, 28.4654], [-16.39692, 28.4651], [-16.39686, 28.46481], [-16.39683, 28.46466], [-16.39681, 28.46454], [-16.39677, 28.46436], [-16.39672, 28.46415], [-16.3967, 28.46403], [-16.39669, 28.46396], [-16.39662, 28.4639], [-16.3965, 28.46386], [-16.39642, 28.46382], [-16.39632, 28.46375], [-16.39623, 28.46372], [-16.39614, 28.4637], [-16.39604, 28.46368], [-16.39595, 28.46366], [-16.39586, 28.46364], [-16.39578, 28.46361], [-16.3957, 28.46357], [-16.39561, 28.46352], [-16.39554, 28.46347], [-16.39546, 28.46341], [-16.3954, 28.46335], [-16.39533, 28.4633], [-16.39526, 28.46324], [-16.3952, 28.46319], [-16.39511, 28.46312], [-16.39504, 28.46307], [-16.39497, 28.46302], [-16.3949, 28.46297], [-16.39483, 28.46292], [-16.39476, 28.46286], [-16.39468, 28.4628], [-16.39462, 28.46275], [-16.39455, 28.4627], [-16.39449, 28.46265], [-16.39442, 28.4626], [-16.39435, 28.46255], [-16.39429, 28.4625], [-16.39422, 28.46245], [-16.39415, 28.4624], [-16.39408, 28.46236], [-16.39398, 28.46231], [-16.39389, 28.46228], [-16.3938, 28.46226], [-16.39371, 28.46224], [-16.39362, 28.46222], [-16.39353, 28.46221], [-16.39342, 28.46218], [-16.39334, 28.46217], [-16.39325, 28.46215], [-16.39316, 28.46213], [-16.39305, 28.46209], [-16.39292, 28.46202], [-16.39285, 28.46198], [-16.39277, 28.46194], [-16.3927, 28.4619], [-16.39262, 28.46185], [-16.39254, 28.4618], [-16.39245, 28.46175], [-16.39237, 28.4617], [-16.3923, 28.46166], [-16.39221, 28.4616], [-16.39216, 28.46153], [-16.39211, 28.46145], [-16.39207, 28.46134], [-16.39203, 28.46123], [-16.39196, 28.46101], [-16.39191, 28.46085], [-16.39187, 28.46076], [-16.39184, 28.46065], [-16.39184, 28.46058], [-16.39186, 28.4605], [-16.39191, 28.46042], [-16.39199, 28.46037], [-16.3921, 28.46035], [-16.39219, 28.46037], [-16.39227, 28.46041], [-16.39236, 28.46047], [-16.39241, 28.46053], [-16.39247, 28.46058], [-16.39253, 28.46063], [-16.39259, 28.46068], [-16.39267, 28.46076], [-16.39273, 28.46081], [-16.39279, 28.46087], [-16.39286, 28.46091], [-16.39296, 28.46096], [-16.39306, 28.46099], [-16.39315, 28.461], [-16.39325, 28.461], [-16.39333, 28.46099], [-16.39345, 28.46096], [-16.39354, 28.46093], [-16.39365, 28.46089], [-16.39373, 28.46086], [-16.39381, 28.46083], [-16.39388, 28.4608], [-16.39399, 28.46075], [-16.39407, 28.46072], [-16.39415, 28.46069], [-16.39422, 28.46066], [-16.3943, 28.46063], [-16.39441, 28.46059], [-16.39449, 28.46055], [-16.39457, 28.46051], [-16.39465, 28.46046], [-16.39472, 28.46038], [-16.39475, 28.46028], [-16.39474, 28.46019], [-16.3947, 28.46012], [-16.39464, 28.46005], [-16.39456, 28.46001], [-16.39445, 28.46], [-16.39433, 28.45999], [-16.39424, 28.45999], [-16.39415, 28.45998], [-16.39407, 28.45996], [-16.39398, 28.45994], [-16.3939, 28.45991], [-16.39382, 28.45985], [-16.39371, 28.45975], [-16.39366, 28.45969], [-16.3936, 28.45963], [-16.39354, 28.45955], [-16.39348, 28.45949], [-16.39342, 28.45942], [-16.39336, 28.45935], [-16.3933, 28.45928], [-16.39325, 28.45922], [-16.3932, 28.45915], [-16.39316, 28.45909], [-16.3931, 28.45903], [-16.39304, 28.45896], [-16.39298, 28.4589], [-16.39292, 28.45883], [-16.39287, 28.45877], [-16.39282, 28.4587], [-16.39276, 28.45864], [-16.39271, 28.45857], [-16.39265, 28.45851], [-16.39259, 28.45844], [-16.39252, 28.45835], [-16.39247, 28.45829], [-16.39242, 28.45824], [-16.39237, 28.45818], [-16.39231, 28.45811], [-16.39225, 28.45804], [-16.39219, 28.45797], [-16.39214, 28.45791], [-16.39206, 28.45785], [-16.39196, 28.45779], [-16.39179, 28.45773], [-16.39172, 28.4577], [-16.39164, 28.45767], [-16.39154, 28.45762], [-16.39145, 28.45755], [-16.39134, 28.45744], [-16.39122, 28.45726], [-16.39113, 28.4571], [-16.39109, 28.45703], [-16.39105, 28.45696], [-16.39096, 28.45679], [-16.39091, 28.45671], [-16.39081, 28.45659], [-16.39075, 28.45653], [-16.39062, 28.45644], [-16.39053, 28.45641], [-16.39043, 28.4564], [-16.39033, 28.45639], [-16.39022, 28.45639], [-16.39009, 28.45639], [-16.39, 28.4564], [-16.38987, 28.4564], [-16.38979, 28.4564], [-16.38967, 28.45641], [-16.38958, 28.45641], [-16.38949, 28.45642], [-16.38941, 28.45642], [-16.38932, 28.45642], [-16.38922, 28.45643], [-16.38913, 28.45644], [-16.38902, 28.45644], [-16.38894, 28.45644], [-16.38884, 28.45645], [-16.38875, 28.45645], [-16.38867, 28.45645], [-16.38854, 28.45645], [-16.38841, 28.45646], [-16.38832, 28.45646], [-16.38824, 28.45647], [-16.38816, 28.45647], [-16.38804, 28.45647], [-16.38794, 28.45647], [-16.38785, 28.45642], [-16.38777, 28.45638], [-16.38771, 28.45633], [-16.38765, 28.45628], [-16.38759, 28.45623], [-16.38754, 28.45616], [-16.38746, 28.45605], [-16.3874, 28.45598], [-16.38734, 28.45589], [-16.3873, 28.45582], [-16.38733, 28.45566], [-16.38738, 28.45558], [-16.38747, 28.45554], [-16.38757, 28.45553], [-16.38769, 28.45551], [-16.38782, 28.4555], [-16.3879, 28.45548], [-16.38797, 28.45545], [-16.38804, 28.4554], [-16.3881, 28.45534], [-16.38814, 28.45519], [-16.38813, 28.4551], [-16.38812, 28.4549], [-16.38811, 28.45483], [-16.38807, 28.4547], [-16.38802, 28.45464], [-16.38795, 28.45459], [-16.38783, 28.45456], [-16.38775, 28.45453], [-16.38765, 28.4545], [-16.38756, 28.45447], [-16.38747, 28.45444], [-16.38738, 28.45443], [-16.38726, 28.45441], [-16.38718, 28.45439], [-16.3871, 28.45438], [-16.38701, 28.45436], [-16.38691, 28.45434], [-16.38682, 28.45432], [-16.38674, 28.45429], [-16.38666, 28.45425], [-16.38659, 28.45421], [-16.38649, 28.45416], [-16.38643, 28.4541], [-16.38637, 28.45401], [-16.38632, 28.45394], [-16.38627, 28.45383], [-16.38621, 28.45373], [-16.38616, 28.45365], [-16.38611, 28.45358], [-16.38608, 28.4535], [-16.38603, 28.45342], [-16.38598, 28.45334], [-16.3859, 28.45327], [-16.3858, 28.45321], [-16.38569, 28.45316], [-16.38554, 28.45318], [-16.38543, 28.4532], [-16.38533, 28.45327], [-16.38526, 28.45337], [-16.38523, 28.45347], [-16.38523, 28.45355], [-16.38518, 28.45398], [-16.38517, 28.45405], [-16.38513, 28.45413], [-16.38506, 28.45422], [-16.38483, 28.45436], [-16.38475, 28.45441], [-16.38467, 28.45446], [-16.38458, 28.45452], [-16.3845, 28.45457], [-16.38443, 28.45462], [-16.38435, 28.45469], [-16.38426, 28.45488], [-16.38408, 28.45534], [-16.38403, 28.45545], [-16.38397, 28.45557], [-16.38389, 28.45564], [-16.3838, 28.45573], [-16.3837, 28.45578], [-16.38362, 28.45582], [-16.38352, 28.45587], [-16.38343, 28.45591], [-16.38335, 28.45595], [-16.38326, 28.456], [-16.38318, 28.45604], [-16.38309, 28.45609], [-16.38301, 28.45613], [-16.38292, 28.45618], [-16.38282, 28.45622], [-16.38274, 28.45627], [-16.38266, 28.4563], [-16.38259, 28.45634], [-16.38249, 28.45638], [-16.38242, 28.45642], [-16.38231, 28.45646], [-16.3822, 28.45649], [-16.38171, 28.45649]]]}, "properties": {"cusec": "3804301012", "mun": "043", "nmun": "Tacoronte", "area_m2": 5800588.556177928, "perimeter_m": 12657.272082094165, "coords_system": "wgs84"}}, {"type": "Feature", "geometry": {"type": "Polygon", "coordinates": [[[1506.8592149968579, -541.9667205422012], [1503.9229729019896, -535.287520542454], [1502.9442255370336, -533.0611205425383], [1456.9430993823592, -464.04272054238277], [1410.9419732276847, -399.47712054245414], [1371.7920786280506, -301.51552054220787], [1335.5784261232845, -209.11992054214636], [1322.85471037816, -161.25232054237657], [1320.8972156482478, -152.34672054231822], [1334.5996787583285, -75.53592054245769], [1335.5784261232845, -36.57392054235075], [1338.5146682181528, 33.557679457762646], [1334.5996787583285, 60.274479457542185], [1378.6433101830908, 105.91567945779175], [1383.5370470078713, 113.70807945749675], [1278.8110789537454, 132.6324794575713], [1263.1511211137527, 133.74567945752915], [1213.2350054992537, 131.51927945761344], [1138.850205759462, 114.8212794578501], [1167.2338793445795, 193.85847945762634], [1206.3837739442135, 301.83887945749336], [1233.788700164027, 375.3100794574803], [1257.2786369236685, 440.98887945776227], [1282.7260684135697, 514.4600794577492], [1301.3222683484307, 562.327679457519], [1277.8323315887894, 572.3464794575352], [1237.7036896238515, 612.4216794576], [1190.7238161042208, 666.9684794575124], [1158.4251530596268, 720.402079457467], [1136.89271102955, 821.7032794575869], [1077.1891217651425, 875.1368794575415], [1007.6980588504788, 936.3628794575965], [969.5269116158007, 978.664479457577], [892.2058697814884, 1066.6072794578072], [820.7573121369127, 1148.9840794578524], [809.991091122048, 1167.9084794575315], [778.6711754420625, 1225.7948794577128], [727.7763124626075, 1319.3036794577322], [665.1364811029842, 1428.397279457557], [627.9440812332623, 1489.6232794576122], [532.0268394637412, 1654.3768794577027], [484.0682185791546, 1736.7536794577481], [420.44963985457514, 1843.6208794576573], [366.6185347799042, 1940.46927945755], [300.0637139604566, 2059.581679457787], [266.7863035505589, 2118.5812794575304], [265.80755618560283, 2127.4868794575887], [264.82880882064677, 2168.6752794576114], [256.02008253569426, 2203.1844794574918], [252.10509307586995, 2222.108879457566], [237.4238826008333, 2257.7312794577992], [208.06146165110763, 2296.693279457511], [187.50776698633445, 2324.5232794576436], [117.03795670671474, 2185.3732794577704], [56.35562007735128, 2060.6948794577447], [-27.816653312349032, 1895.941279457654], [-108.07393724152958, 1740.0932794576217], [-156.03255812646395, 1647.69767945756], [-224.5448736758238, 1514.1136794574759], [-257.82228408572144, 1448.4348794575894], [-267.60975773563, 1431.7368794578263], [-271.5247471954544, 1419.4916794574988], [-304.8021576053521, 1360.492079457755], [-378.20820997984003, 1231.3608794575023], [-439.8692939741596, 1118.9276794578038], [-490.76415695396224, 1022.0792794575153], [-533.8290410137683, 947.4948794575705], [-586.6813987231355, 847.306879457804], [-654.214966907887, 738.2132794575837], [-689.4498720476969, 664.7420794575967], [-750.1322086770602, 538.950479457613], [-768.7284086119213, 498.87527945754823], [-802.0058190218189, 427.630479457477], [-834.3044820664129, 360.8384794576327], [-861.7094082862263, 301.83887945749336], [-868.5606398412666, 277.34847945762954], [-881.2843555863911, 229.48087945746423], [-894.008071331168, 184.952879457568], [-905.7530397109888, 140.42487945767178], [-922.3917449159375, 80.31207945757458], [-928.2642291060217, 65.84047945772696], [-936.0942080256704, 63.61407945781124], [-939.0304501208863, 53.595279457795044], [-941.9666922157545, 34.6708794577205], [-943.9241869456666, 26.878479457620017], [-951.7541658656631, 14.633279457688104], [-956.6479026907912, -2.064720542470724], [-959.5841447856595, -15.423120542360493], [-963.4991342454839, -27.668320542292406], [-969.371618435568, -47.705920542324805], [-972.3078605304364, -65.51712054244149], [-978.1803447205206, -91.12072054226317], [-986.0103236405168, -130.0827205423701], [-991.8828078306011, -153.45992054227608], [-997.7552920203376, -175.7239205422242], [-1021.2452287803268, -166.81832054216585], [-1027.1177129700634, -191.30872054242516], [-1037.8839339852757, -233.61032054240567], [-1044.7351655399682, -265.89312054236996], [-1055.5013865548328, -307.08152054239264], [-1065.2888602050891, -347.15672054245744], [-1074.0975864900415, -380.5527205423796], [-1080.9488180447343, -406.1563205422013], [-1091.715039059599, -441.77872054243466], [-1102.481260074811, -477.40112054227257], [-1109.3324916295037, -504.11792054244756], [-1114.2262284546318, -523.0423205425221], [-1118.141217914456, -543.079920542159], [-1129.8861862946246, -594.2871205421978], [-1141.6311546744453, -623.2303205422886], [-1156.3123651491344, -659.9659205424798], [-1164.1423440691306, -674.4375205423274], [-1186.6535334641637, -717.8523205422658], [-1197.4197544790284, -736.7767205423404], [-1215.0372070489334, -765.719920542431], [-1220.90969123867, -799.1159205423533], [-1230.6971648889262, -850.3231205423922], [-1243.4208806337028, -914.8887205423207], [-1245.3783753636149, -927.1339205422527], [-1252.2296069186552, -976.1147205423758], [-1259.0808384736956, -1021.7559205422299], [-1270.8258068535163, -1071.8499205423109], [-1278.6557857735127, -1110.8119205424177], [-1289.4220067883773, -1154.2267205423561], [-1306.0607119933263, -1232.1507205421747], [-1292.3582488832456, -1249.9619205422912], [-1277.6770384085567, -1257.7543205423917], [-1269.8470594885603, -1263.320320542181], [-1260.0595858386519, -1271.1127205422815], [-1252.2296069186552, -1276.6787205424662], [-1242.4421332687468, -1283.3579205422134], [-1234.6121543487504, -1288.9239205423983], [-1226.782175428754, -1294.4899205421875], [-1218.9521965087577, -1300.0559205423722], [-1211.1222175887613, -1305.6219205421617], [-1204.2709860340688, -1311.1879205423463], [-1196.4410071140721, -1315.6407205421779], [-1188.611028194076, -1321.2067205423625], [-1179.8023019091233, -1326.7727205421518], [-1170.993575624171, -1332.3387205423367], [-1159.2486072443503, -1341.244320542395], [-1151.418628324354, -1346.8103205421842], [-1143.5886494043575, -1353.4895205423268], [-1136.7374178493174, -1359.0555205425117], [-1129.8861862946246, -1364.621520542301], [-1123.0349547395842, -1370.1875205424856], [-1106.3962495346354, -1384.6591205423333], [-1080.9488180447343, -1404.6967205423657], [-1063.3313654748292, -1419.1683205422132], [-1055.5013865548328, -1422.5079205424825], [-1047.671407635184, -1425.847520542356], [-1037.8839339852757, -1429.1871205422294], [-1029.0752077003233, -1431.4135205421453], [-1021.2452287803268, -1432.5267205424987], [-1013.4152498603304, -1434.7531205424143], [-1002.6490288454659, -1439.2059205422456], [-992.8615551955572, -1443.6587205424726], [-985.031576275561, -1446.9983205423462], [-977.2015973555644, -1450.3379205422198], [-969.371618435568, -1453.6775205424888], [-960.5628921506157, -1457.0171205423624], [-948.8179237707949, -1460.356720542236], [-940.9879448507986, -1461.469920542194], [-932.1792185658461, -1460.356720542236], [-923.3704922808937, -1460.356720542236], [-912.6042712660288, -1459.243520542278], [-903.7955449810764, -1462.5831205421516], [-894.986818696124, -1464.809520542463], [-887.1568397761276, -1469.2623205422942], [-877.3693661262191, -1473.7151205425212], [-869.5393872062227, -1474.828320542479], [-860.7306609212702, -1478.1679205423527], [-851.9219346363178, -1479.2811205423104], [-843.1132083513653, -1482.620720542184], [-833.3257347014568, -1485.9603205424532], [-825.4957557814604, -1488.186720542369], [-816.6870294965079, -1495.9791205424694], [-813.7507874016396, -1504.8847205425277], [-812.7720400366836, -1512.6771205422326], [-814.7295347665959, -1527.1487205424758], [-815.7082821315519, -1540.5071205423656], [-814.7295347665959, -1548.299520542466], [-811.7932926717275, -1560.544720542398], [-807.8783032119032, -1573.9031205422878], [-803.9633137517311, -1582.808720542346], [-798.090829561647, -1593.9407205423202], [-791.2395980069543, -1602.8463205423784], [-785.3671138168702, -1608.4123205421677], [-778.5158822618298, -1615.0915205423103], [-771.6646507071373, -1620.6575205424951], [-764.8134191520969, -1626.2235205422844], [-756.9834402321005, -1632.902720542427], [-750.1322086770602, -1638.4687205422163], [-740.3447350271516, -1649.6007205421904], [-734.4722508374152, -1656.279920542333], [-729.5785140122871, -1662.9591205424756], [-724.6847771871589, -1670.7515205421807], [-719.7910403623786, -1677.4307205423233], [-711.9610614423822, -1687.4495205423395], [-703.1523351574297, -1698.5815205423135], [-696.3011036023894, -1705.260720542456], [-688.4711246827407, -1711.9399205422033], [-681.6198931277004, -1717.5059205423881], [-673.789914207704, -1724.1851205425307], [-665.9599352877077, -1729.75112054232], [-658.1299563677113, -1735.3171205425047], [-651.2787248126709, -1740.8831205422941], [-644.4274932579783, -1745.3359205425209], [-633.6612722431138, -1753.128320542226], [-621.9163038629454, -1758.6943205424107], [-614.086324942949, -1763.1471205422422], [-587.6601460884393, -1776.5055205425274], [-571.0214408834904, -1785.4111205421902], [-560.2552198686258, -1793.2035205422908], [-549.4889988534135, -1799.8827205424334], [-542.6377672987209, -1806.5619205421806], [-535.7865357436806, -1813.2411205423232], [-528.9353041886402, -1821.0335205424237], [-508.38160952386716, -1846.6371205422454], [-497.61538850900246, -1857.7691205422193], [-488.80666222405, -1864.4483205423621], [-452.5930097192841, -1887.825520542268], [-433.01806241946696, -1898.957520542242], [-423.23058876955844, -1903.410320542469], [-405.61313619965347, -1908.9763205422582], [-395.82566254974495, -1910.0895205422162], [-385.0594415345326, -1911.202720542174], [-377.2294626148839, -1912.3159205425272], [-368.42073632993146, -1912.3159205425272], [-358.6332626800229, -1912.3159205425272], [-348.84578903011436, -1913.4291205424852], [-329.2708417299496, -1914.5423205424431], [-320.4621154449971, -1915.6555205424008], [-311.65338916004464, -1916.7687205423588], [-301.86591551013606, -1917.8819205423165], [-292.0784418602275, -1918.9951205422744], [-268.58850510058613, -1922.334720542148], [-259.7797788156337, -1923.4479205425014], [-250.9710525306812, -1923.4479205425014], [-240.20483151581652, -1924.5611205424593], [-230.417357865908, -1925.674320542417], [-220.62988421599945, -1925.674320542417], [-212.79990529600306, -1925.674320542417], [-203.9911790110506, -1925.674320542417], [-184.4162317112335, -1926.787520542375], [-171.692515966109, -1927.9007205423327], [-153.096316031248, -1932.3535205421642], [-145.2663371112516, -1935.6931205424332], [-129.60637927160656, -1945.7119205424494], [-121.77640035161018, -1949.051520542323], [-97.30771622666495, -1959.0703205423392], [-88.49898994171248, -1960.1835205422972], [-80.6690110217161, -1962.4099205422128], [-71.86028473676363, -1964.6363205425241], [-70.88153737180755, -1952.3911205421966], [-65.98780054702713, -1931.2403205422063], [-62.07281108685509, -1897.844320542284], [-53.26408480190263, -1856.6559205422616], [-48.37034797712221, -1827.7127205421707], [-46.412853247210045, -1815.4675205422388], [-44.455358516950156, -1805.4487205422226], [-36.625379597301496, -1765.3735205421578], [-34.667884867041614, -1755.354720542537], [-27.816653312349032, -1728.637920542362], [-20.965421757308732, -1691.9023205421709], [-16.0716849321806, -1671.864720542534], [-13.13544283731235, -1652.9403205424594], [-8.241706012184217, -1631.7895205424693], [-0.41172709253555545, -1591.7143205424045], [4.482009732592578, -1572.7899205423298], [11.333241287632879, -1533.827920542223], [18.184472842325455, -1500.4319205423008], [24.056957032409674, -1468.1491205423365], [26.993199127277922, -1451.4511205421777], [28.950693857537807, -1438.092720542288], [32.86568331736214, -1418.0551205422555], [37.75942014249027, -1394.6779205423495], [39.71691487240244, -1381.3195205424597], [40.69566223735852, -1373.5271205423592], [47.54689379239882, -1366.8479205422166], [59.29186217221953, -1362.3951205423853], [67.12184109221592, -1357.9423205421583], [76.90931474212447, -1350.1499205424532], [85.71804102707692, -1346.8103205421842], [94.52676731202939, -1344.5839205422685], [104.31424096193794, -1342.3575205423529], [113.12296724689041, -1340.131120542437], [121.93169353184287, -1337.9047205425213], [129.76167245183925, -1334.5651205422523], [137.5916513714879, -1330.1123205424208], [146.40037765644038, -1324.5463205422361], [153.25160921148068, -1318.9803205424469], [161.08158813147705, -1312.3011205423043], [166.95407232156128, -1305.6219205421617], [173.80530387625384, -1300.0559205423722], [180.65653543129415, -1293.3767205422296], [186.52901962137838, -1287.8107205424403], [195.33774590633084, -1280.0183205423398], [202.18897746102343, -1274.4523205421551], [209.04020901606373, -1268.8863205423659], [215.891440571104, -1263.320320542181], [222.7426721261443, -1257.7543205423917], [229.5939036808369, -1251.0751205422491], [237.4238826008333, -1244.395920542502], [243.2963667909175, -1238.8299205423173], [250.1475983459578, -1233.263920542528], [256.02008253569426, -1227.6979205423431], [262.8713140907346, -1222.1319205421585], [269.72254564577486, -1216.565920542369], [275.59502983551135, -1210.9999205421843], [282.4462613905517, -1205.433920542395], [289.29749294559196, -1199.8679205422102], [296.1487245006323, -1195.4151205423789], [305.9361981505408, -1189.849120542194], [314.74492443549326, -1186.5095205423204], [323.5536507204457, -1184.2831205424047], [332.3623770053982, -1182.056720542489], [341.1711032903507, -1179.8303205421778], [349.97982957530314, -1178.71712054222], [360.7460505901678, -1175.3775205423465], [368.5760295101642, -1174.2643205423885], [377.38475579511663, -1172.0379205424729], [386.1934820797214, -1169.8115205421616], [396.95970309493373, -1165.3587205423303], [409.6834188397105, -1157.5663205422297], [416.5346503947508, -1153.1135205423984], [424.36462931474716, -1148.6607205421715], [431.2158608694398, -1144.20792054234], [439.0458397894362, -1138.6419205421553], [446.87581870943256, -1133.075920542366], [455.68454499438496, -1127.5099205421811], [463.51452391438136, -1121.9439205423919], [470.3657554694217, -1117.491120542165], [479.1744817543742, -1110.8119205424177], [484.0682185791546, -1103.0195205423174], [488.9619554042827, -1094.113920542259], [492.87694486410703, -1081.868720542327], [496.7919343242791, -1069.6235205423952], [503.64316587897173, -1045.1331205425313], [508.53690270409976, -1027.3219205424148], [512.4518921639242, -1017.3031205423985], [515.3881342591401, -1005.0579205424665], [515.3881342591401, -997.2655205423661], [513.4306395288802, -988.3599205423077], [508.53690270409976, -979.4543205422494], [500.7069237841034, -973.8883205424601], [489.9407027692388, -971.6619205421489], [481.13197648428627, -973.8883205424601], [473.3019975642899, -978.3411205422915], [464.4932712793374, -985.0203205424341], [459.5995344542094, -991.6995205421813], [453.72705026447284, -997.2655205423661], [447.85456607438863, -1002.8315205421553], [441.98208188465213, -1008.3975205423401], [434.15210296465574, -1017.3031205423985], [428.27961877457153, -1022.8691205421877], [422.4071345844873, -1029.5483205423304], [415.5559030297947, -1034.0011205421617], [405.7684293798862, -1039.5671205423466], [395.98095572997767, -1042.9067205422202], [387.1722294450252, -1044.019920542178], [377.38475579511663, -1044.019920542178], [369.5547768751203, -1042.9067205422202], [357.80980849495177, -1039.5671205423466], [349.0010822099993, -1036.227520542473], [338.2348611951347, -1031.774720542246], [330.40488227513833, -1028.4351205423725], [322.57490335548965, -1025.095520542499], [315.7236718004494, -1021.7559205422299], [304.95745078558474, -1016.1899205424406], [297.12747186558835, -1012.8503205421715], [289.29749294559196, -1009.510720542298], [282.4462613905517, -1006.1711205424244], [274.6162824705553, -1002.8315205421553], [263.8500614556907, -998.3787205423239], [256.02008253569426, -993.9259205424925], [248.19010361569786, -989.4731205422656], [240.3601246960492, -983.9071205424763], [233.50889314100897, -975.0015205424179], [230.5726510461407, -963.8695205424439], [231.55139841109676, -953.8507205424277], [235.4663878709211, -946.0583205423272], [241.33887206100533, -938.2659205422267], [249.16885098100167, -933.8131205423953], [259.93507199586634, -932.6999205424374], [271.68004037568704, -931.5867205424796], [280.4887666606395, -931.5867205424796], [289.29749294559196, -930.4735205425218], [297.12747186558835, -928.2471205422105], [305.9361981505408, -926.0207205422948], [313.7661770705372, -922.6811205424212], [321.5961559901859, -916.0019205422786], [332.3623770053982, -904.8699205423045], [337.2561138301786, -898.1907205421619], [343.12859802026287, -891.5115205424148], [349.0010822099993, -882.6059205423564], [354.8735664000836, -875.9267205422138], [360.7460505901678, -868.1343205425088], [366.6185347799042, -860.3419205424084], [372.4910189699885, -852.5495205423078], [377.38475579511663, -845.8703205421652], [382.27849261989707, -838.0779205424602], [386.1934820797214, -831.3987205423176], [392.0659662698056, -824.7195205421749], [397.9384504598898, -816.92712054247], [403.81093464962635, -810.2479205423274], [409.6834188397105, -802.4555205422269], [414.57715566483864, -795.7763205424797], [419.470892489619, -787.9839205423792], [425.3433766797033, -781.3047205422366], [430.2371135044837, -773.5123205425316], [436.1095976945679, -766.833120542389], [441.98208188465213, -759.0407205422885], [448.8333134393447, -749.0219205422723], [453.72705026447284, -742.3427205425252], [458.6207870892532, -736.7767205423404], [463.51452391438136, -730.0975205421978], [469.3870081044657, -722.3051205424928], [475.2594922942021, -714.5127205423922], [481.13197648428627, -706.7203205422918], [486.02571330906676, -700.0411205421492], [493.8556922290631, -693.361920542402], [503.64316587897173, -686.6827205422594], [520.2818710839205, -680.0035205425122], [527.1331026389608, -676.6639205422432], [534.9630815589571, -673.3243205423696], [544.7505552088658, -667.7583205421848], [553.5592814938183, -659.9659205424798], [564.3255025086828, -647.7207205421524], [576.0704708885036, -627.6831205425156], [584.879197173456, -609.8719205423988], [588.7941866336281, -602.0795205422984], [592.7091760934525, -594.2871205421978], [601.5179023784049, -575.3627205425188], [606.4116392031852, -566.4571205424604], [616.1991128534415, -553.0987205421752], [622.071597043178, -546.419520542428], [634.7953127883026, -536.4007205424118], [643.604039073255, -533.0611205425383], [653.3915127231636, -531.947920542185], [663.1789863730721, -530.8347205422272], [673.9452073879368, -530.8347205422272], [686.6689231327135, -530.8347205422272], [695.4776494176659, -531.947920542185], [708.2013651627905, -531.947920542185], [716.0313440824392, -531.947920542185], [727.7763124626075, -533.0611205425383], [736.58503874756, -533.0611205425383], [745.3937650325125, -534.1743205424962], [753.2237439521612, -534.1743205424962], [762.0324702371137, -534.1743205424962], [771.8199438870222, -535.287520542454], [780.6286701719747, -536.4007205424118], [791.394891187187, -536.4007205424118], [799.2248701068357, -536.4007205424118], [809.0123437570919, -537.5139205423698], [817.8210700416967, -537.5139205423698], [825.651048961693, -537.5139205423698], [838.3747647068176, -537.5139205423698], [851.0984804515945, -538.6271205423276], [859.9072067365469, -538.6271205423276], [867.7371856565431, -539.7403205422854], [875.5671645765397, -539.7403205422854], [887.3121329563603, -539.7403205422854], [897.0996066062688, -539.7403205422854], [905.9083328912213, -534.1743205424962], [913.7383118112178, -529.7215205422692], [919.610796001302, -524.15552054248], [925.4832801910384, -518.5895205422952], [931.3557643811228, -513.0235205425059], [936.2495012059031, -505.2311205424054], [944.0794801258994, -492.98592054247354], [949.9519643159837, -485.193520542373], [955.8244485060678, -475.1747205423568], [959.7394379658923, -467.38232054225637], [956.803195871024, -449.57112054253514], [951.9094590458958, -440.66552054247677], [943.1007327609433, -436.2127205422499], [933.3132591110349, -435.099520542292], [921.5682907312141, -432.87312054237634], [908.8445749860896, -431.75992054241846], [901.014596066441, -429.53352054250274], [894.1633645114006, -426.1939205422337], [887.3121329563603, -420.6279205424444], [881.4396487662762, -413.94872054230177], [877.5246593064518, -397.25072054253843], [878.5034066714079, -387.23192054252223], [879.4821540363639, -364.9679205421786], [880.4609014013201, -357.17552054247363], [884.375890861492, -342.70392054223055], [889.2696276862725, -336.02472054248335], [896.1208592413128, -330.4587205422986], [907.8658276211335, -327.11912054242504], [915.69580654113, -323.779520542156], [925.4832801910384, -320.4399205422824], [934.2920064759909, -317.10032054240884], [943.1007327609433, -313.7607205425353], [951.9094590458958, -312.64752054218195], [963.6544274257164, -310.4211205422662], [971.484406345713, -308.1947205423505], [979.3143852657093, -307.08152054239264], [988.1231115506617, -304.8551205424769], [997.9105852005704, -302.62872054216575], [1006.7193114855229, -300.40232054225], [1014.5492904055192, -297.06272054237644], [1022.3792693255155, -292.60992054214955], [1029.2305008802082, -288.1571205423181], [1039.0179745304645, -282.5911205425288], [1044.8904587202007, -275.91192054238616], [1050.7629429102851, -265.89312054236996], [1055.6566797350656, -258.1007205422695], [1060.5504165601935, -245.8555205423376], [1066.422900750278, -234.72352054236353], [1071.3166375750582, -225.8179205423052], [1076.2103744001865, -218.0255205422047], [1079.1466164950548, -209.11992054214636], [1084.040353319835, -200.2143205424835], [1088.9340901449632, -191.30872054242516], [1096.7640690649596, -183.51632054232468], [1106.551542714868, -176.83712054218205], [1117.3177637297329, -171.27112054239277], [1131.9989742047694, -173.49752054230848], [1142.765195219634, -175.7239205422242], [1152.5526688695427, -183.51632054232468], [1159.4039004245828, -194.64832054229873], [1162.340142519451, -205.7803205422728], [1162.340142519451, -214.68592054233113], [1167.2338793445795, -262.5535205424964], [1168.2126267095352, -270.3459205422014], [1172.1276161693597, -279.25152054225975], [1178.9788477244, -289.27032054227595], [1201.4900371190854, -304.8551205424769], [1209.3200160390818, -310.4211205422662], [1217.1499949590782, -315.98712054245095], [1225.9587212440306, -322.66632054219815], [1233.788700164027, -328.2323205423829], [1240.6399317190674, -333.7983205421722], [1248.469910638716, -341.59072054227266], [1257.2786369236685, -362.74152054226295], [1274.8960894935733, -413.94872054230177], [1279.7898263187014, -426.1939205422337], [1285.662310508438, -439.55232054251894], [1293.4922894284343, -447.34472054222397], [1302.3010157133867, -457.36352054224017], [1312.0884893632954, -462.92952054242494], [1319.9184682832918, -467.38232054225637], [1329.7059419332004, -472.94832054244114], [1338.5146682181528, -477.40112054227257], [1346.3446471381492, -481.85392054249945], [1355.1533734231016, -487.41992054228876], [1362.983352343098, -491.87272054251565], [1371.7920786280506, -497.43872054230496], [1379.6220575480468, -501.89152054253185], [1388.4307838329994, -507.45752054232116], [1398.2182574829078, -511.9103205421526], [1406.0482364029042, -517.4763205423374], [1413.878215322553, -520.815920542211], [1420.7294468775933, -525.2687205424378], [1430.5169205275017, -529.7215205422692], [1437.368152082542, -534.1743205424962], [1448.1343730974065, -538.6271205423276], [1458.9005941122714, -541.9667205422012], [1506.8592149968579, -541.9667205422012]]]}, "properties": {"cusec": "3804301012", "mun": "043", "nmun": "Tacoronte", "area_m2": 5800588.556177928, "perimeter_m": 12657.272082094165, "coords_system": "local_m_enu"}}]}