{"type": "FeatureCollection", "crs": {"type": "name", "properties": {"name": "EPSG:32628_local_enu_m_section_centroid", "lng0": -16.322911746815155, "lat0": 28.49109059753538}}, "features": [{"type": "Feature", "geometry": {"type": "Point", "coordinates": [355.51917300001946, 231.16683763830736]}, "properties": {"osm_id": null, "category": "restauracion", "name": "Tasca Maquila", "extrude": false}}, {"type": "Feature", "geometry": {"type": "Point", "coordinates": [374.59761799415463, 214.35751763842958]}, "properties": {"osm_id": null, "category": "restauracion", "name": "The Garden - Pub and Coffee", "extrude": false}}, {"type": "Feature", "geometry": {"type": "Point", "coordinates": [397.9809428842759, 206.34247763849572]}, "properties": {"osm_id": null, "category": "restauracion", "name": "", "extrude": false}}, {"type": "Feature", "geometry": {"type": "Point", "coordinates": [409.0366571627379, 198.88403763834305]}, "properties": {"osm_id": null, "category": "restauracion", "name": "", "extrude": false}}, {"type": "Feature", "geometry": {"type": "Point", "coordinates": [404.8296154459612, 198.104797638333]}, "properties": {"osm_id": null, "category": "restauracion", "name": "Tasca El Obispado", "extrude": false}}, {"type": "Feature", "geometry": {"type": "Point", "coordinates": [262.57290251652853, 173.0577976382925]}, "properties": {"osm_id": null, "category": "restauracion", "name": "Bodegón Artillería", "extrude": false}}, {"type": "Feature", "geometry": {"type": "Point", "coordinates": [254.45233362164595, 167.26915763827435]}, "properties": {"osm_id": null, "category": "restauracion", "name": "La Machín Bar", "extrude": false}}, {"type": "Feature", "geometry": {"type": "Point", "coordinates": [335.07099349382526, 162.48239763849512]}, "properties": {"osm_id": null, "category": "restauracion", "name": "Churrería Herradores 97", "extrude": false}}, {"type": "Feature", "geometry": {"type": "Point", "coordinates": [415.88532972477077, 157.6956376383204]}, "properties": {"osm_id": null, "category": "alojamiento", "name": "Hotel Aguere", "extrude": false}}, {"type": "Feature", "geometry": {"type": "Point", "coordinates": [273.13942589790105, 152.24095763825005]}, "properties": {"osm_id": null, "category": "restauracion", "name": "La Cirila", "extrude": false}}, {"type": "Feature", "geometry": {"type": "Point", "coordinates": [-136.90038420389, 152.24095763825005]}, "properties": {"osm_id": null, "category": "finanzas", "name": "Banco Santander", "extrude": false}}, {"type": "Feature", "geometry": {"type": "Point", "coordinates": [264.92101882346157, 150.90511763845882]}, "properties": {"osm_id": null, "category": "restauracion", "name": "Arepera Punto Criollo", "extrude": false}}, {"type": "Feature", "geometry": {"type": "Point", "coordinates": [327.14610095770894, 146.67495763846077]}, "properties": {"osm_id": null, "category": "restauracion", "name": "Mesón La Hijuela", "extrude": false}}, {"type": "Feature", "geometry": {"type": "Point", "coordinates": [387.1209049645802, 141.22027763839043]}, "properties": {"osm_id": null, "category": "restauracion", "name": "El Rincón Extremeño", "extrude": false}}, {"type": "Feature", "geometry": {"type": "Point", "coordinates": [296.03355989058525, 139.8844376385992]}, "properties": {"osm_id": null, "category": "restauracion", "name": "La Reserva de Herradores", "extrude": false}}, {"type": "Feature", "geometry": {"type": "Point", "coordinates": [-424.64246998500556, 137.32407763834019]}, "properties": {"osm_id": null, "category": "restauracion", "name": "La Caseta de Madera", "extrude": false}}, {"type": "Feature", "geometry": {"type": "Point", "coordinates": [403.0685282160221, 132.0920376384987]}, "properties": {"osm_id": null, "category": "finanzas", "name": "Cajamar", "extrude": false}}, {"type": "Feature", "geometry": {"type": "Point", "coordinates": [276.9551148967976, 128.75243763822965]}, "properties": {"osm_id": null, "category": "restauracion", "name": "Café Bar Pedro", "extrude": false}}, {"type": "Feature", "geometry": {"type": "Point", "coordinates": [296.03355989058525, 127.30527763832399]}, "properties": {"osm_id": null, "category": "restauracion", "name": "Rincón Lagunero", "extrude": false}}, {"type": "Feature", "geometry": {"type": "Point", "coordinates": [363.2483891770219, 126.63735763842837]}, "properties": {"osm_id": null, "category": "restauracion", "name": "La Cencerra", "extrude": false}}, {"type": "Feature", "geometry": {"type": "Point", "coordinates": [270.302118693531, 126.52603763831394]}, "properties": {"osm_id": null, "category": "restauracion", "name": "Pizzería Da Canio", "extrude": false}}, {"type": "Feature", "geometry": {"type": "Point", "coordinates": [263.2577697727318, 124.74491763846046]}, "properties": {"osm_id": null, "category": "restauracion", "name": "Benidorm", "extrude": false}}, {"type": "Feature", "geometry": {"type": "Point", "coordinates": [155.83144872976246, 123.96567763845042]}, "properties": {"osm_id": null, "category": "restauracion", "name": "Tasca La Tertulia", "extrude": false}}, {"type": "Feature", "geometry": {"type": "Point", "coordinates": [354.6386293850499, 122.29587763831589]}, "properties": {"osm_id": null, "category": "finanzas", "name": "Caixabank", "extrude": false}}, {"type": "Feature", "geometry": {"type": "Point", "coordinates": [253.57179000667642, 122.18455763859694]}, "properties": {"osm_id": null, "category": "restauracion", "name": "Caballo Blanco", "extrude": false}}, {"type": "Feature", "geometry": {"type": "Point", "coordinates": [246.62527926508662, 121.4053176385869]}, "properties": {"osm_id": null, "category": "restauracion", "name": "Daiko", "extrude": false}}, {"type": "Feature", "geometry": {"type": "Point", "coordinates": [158.1795650366955, 120.96003763852465]}, "properties": {"osm_id": null, "category": "restauracion", "name": "Tasca El Despacho", "extrude": false}}, {"type": "Feature", "geometry": {"type": "Point", "coordinates": [233.22144867969155, 117.73175763837003]}, "properties": {"osm_id": null, "category": "restauracion", "name": "Ocean Pacific", "extrude": false}}, {"type": "Feature", "geometry": {"type": "Point", "coordinates": [208.95758017460076, 113.39027763825754]}, "properties": {"osm_id": null, "category": "restauracion", "name": "La Despensa", "extrude": false}}, {"type": "Feature", "geometry": {"type": "Point", "coordinates": [201.913231253454, 112.27707763829969]}, "properties": {"osm_id": null, "category": "salud", "name": "", "extrude": false}}, {"type": "Feature", "geometry": {"type": "Point", "coordinates": [298.8708670949554, 110.49595763844621]}, "properties": {"osm_id": null, "category": "restauracion", "name": "Venezia", "extrude": false}}, {"type": "Feature", "geometry": {"type": "Point", "coordinates": [-242.76129437533896, 110.38463763833178]}, "properties": {"osm_id": null, "category": "finanzas", "name": "Caixabank", "extrude": false}}, {"type": "Feature", "geometry": {"type": "Point", "coordinates": [-447.83011851601293, 109.71671763843617]}, "properties": {"osm_id": null, "category": "finanzas", "name": "BBVA", "extrude": false}}, {"type": "Feature", "geometry": {"type": "Point", "coordinates": [144.87357263050978, 97.36019763838982]}, "properties": {"osm_id": null, "category": "restauracion", "name": "La Cueva del Lobo", "extrude": false}}, {"type": "Feature", "geometry": {"type": "Point", "coordinates": [368.3359745087682, 95.46775763842192]}, "properties": {"osm_id": null, "category": "restauracion", "name": "Ca'Zona", "extrude": false}}, {"type": "Feature", "geometry": {"type": "Point", "coordinates": [308.45900868145384, 95.02247763835967]}, "properties": {"osm_id": null, "category": "restauracion", "name": "La Venta de la Esquina", "extrude": false}}, {"type": "Feature", "geometry": {"type": "Point", "coordinates": [-152.75016927577502, 92.01683763843391]}, "properties": {"osm_id": null, "category": "salud", "name": "Guacimara C. Hernandez", "extrude": false}}, {"type": "Feature", "geometry": {"type": "Point", "coordinates": [176.67098095383676, 90.23571763858044]}, "properties": {"osm_id": null, "category": "restauracion", "name": "La Crepería", "extrude": false}}, {"type": "Feature", "geometry": {"type": "Point", "coordinates": [347.30076592558, 88.67723763856034]}, "properties": {"osm_id": null, "category": "restauracion", "name": "Guerra", "extrude": false}}, {"type": "Feature", "geometry": {"type": "Point", "coordinates": [116.50050058819927, 88.56591763844591]}, "properties": {"osm_id": null, "category": "restauracion", "name": "La Taberna Ekade", "extrude": false}}, {"type": "Feature", "geometry": {"type": "Point", "coordinates": [334.58180259638823, 86.45083763824914]}, "properties": {"osm_id": null, "category": "restauracion", "name": "", "extrude": false}}, {"type": "Feature", "geometry": {"type": "Point", "coordinates": [355.6170111795764, 84.55839763828124]}, "properties": {"osm_id": null, "category": "restauracion", "name": "Con Limón y Sal", "extrude": false}}, {"type": "Feature", "geometry": {"type": "Point", "coordinates": [144.67789627174355, 84.00179763850005]}, "properties": {"osm_id": null, "category": "restauracion", "name": "", "extrude": false}}, {"type": "Feature", "geometry": {"type": "Point", "coordinates": [425.86482402914936, 77.8791976385341]}, "properties": {"osm_id": null, "category": "restauracion", "name": "Lagūla", "extrude": false}}, {"type": "Feature", "geometry": {"type": "Point", "coordinates": [309.14387593765707, 76.20939763839957]}, "properties": {"osm_id": null, "category": "restauracion", "name": "Starbucks", "extrude": false}}, {"type": "Feature", "geometry": {"type": "Point", "coordinates": [-379.0498783580558, 72.53583763857819]}, "properties": {"osm_id": null, "category": "salud", "name": "", "extrude": false}}, {"type": "Feature", "geometry": {"type": "Point", "coordinates": [418.33128421091317, 66.3019176384978]}, "properties": {"osm_id": null, "category": "restauracion", "name": "La Tedera", "extrude": false}}, {"type": "Feature", "geometry": {"type": "Point", "coordinates": [196.72780774249847, 63.96419763846765]}, "properties": {"osm_id": null, "category": "restauracion", "name": "Bodegón Artillería", "extrude": false}}, {"type": "Feature", "geometry": {"type": "Point", "coordinates": [17.29258661932181, 61.069877638260834]}, "properties": {"osm_id": null, "category": "restauracion", "name": "Stefano's", "extrude": false}}, {"type": "Feature", "geometry": {"type": "Point", "coordinates": [421.7556204919297, 60.84723763842746]}, "properties": {"osm_id": null, "category": "restauracion", "name": "Bulash Burger and Bar", "extrude": false}}, {"type": "Feature", "geometry": {"type": "Point", "coordinates": [154.9509051144453, 58.95479763845955]}, "properties": {"osm_id": null, "category": "restauracion", "name": "Cordera de Josue", "extrude": false}}, {"type": "Feature", "geometry": {"type": "Point", "coordinates": [288.98921096978614, 55.83783763841936]}, "properties": {"osm_id": null, "category": "restauracion", "name": "Palmelita", "extrude": false}}, {"type": "Feature", "geometry": {"type": "Point", "coordinates": [205.9245966114644, 48.26807763854774]}, "properties": {"osm_id": null, "category": "restauracion", "name": "El Grill de Molina", "extrude": false}}, {"type": "Feature", "geometry": {"type": "Point", "coordinates": [263.74696067016885, 39.6964376384372]}, "properties": {"osm_id": null, "category": "restauracion", "name": "Cafeteria Casa Museo Cayetano Gomez Felipe", "extrude": false}}, {"type": "Feature", "geometry": {"type": "Point", "coordinates": [-7.264796424092144, 37.58135763824043]}, "properties": {"osm_id": null, "category": "restauracion", "name": "Bar Quico", "extrude": false}}, {"type": "Feature", "geometry": {"type": "Point", "coordinates": [405.41664452295515, 37.58135763824043]}, "properties": {"osm_id": null, "category": "restauracion", "name": "San Agustín", "extrude": false}}, {"type": "Feature", "geometry": {"type": "Point", "coordinates": [376.84789612153077, 29.343677638473196]}, "properties": {"osm_id": null, "category": "salud", "name": "Bencomo", "extrude": false}}, {"type": "Feature", "geometry": {"type": "Point", "coordinates": [143.89519083598333, -2.048562361762123]}, "properties": {"osm_id": null, "category": "restauracion", "name": "La Almazara", "extrude": false}}, {"type": "Feature", "geometry": {"type": "Point", "coordinates": [132.74163837796442, -12.957922361507315]}, "properties": {"osm_id": null, "category": "restauracion", "name": "El Imperdible", "extrude": false}}, {"type": "Feature", "geometry": {"type": "Point", "coordinates": [251.61502641727589, -19.97108236159775]}, "properties": {"osm_id": null, "category": "salud", "name": "Centro Phisioterapiya Canaris", "extrude": false}}, {"type": "Feature", "geometry": {"type": "Point", "coordinates": [257.1918026464591, -27.095562361407133]}, "properties": {"osm_id": null, "category": "salud", "name": "", "extrude": false}}]}