{"type": "FeatureCollection", "crs": {"type": "name", "properties": {"name": "EPSG:32628_local_enu_m_section_centroid", "lng0": -15.456398014888329, "lat0": 28.09846887875815}}, "features": [{"type": "Feature", "geometry": {"type": "Point", "coordinates": [428.54523153218395, 559.9261033573788]}, "properties": {"osm_id": null, "category": "restauracion", "name": "Los Jinetes", "extrude": false}}, {"type": "Feature", "geometry": {"type": "Point", "coordinates": [580.2638667018103, 128.7837433575254]}, "properties": {"osm_id": null, "category": "restauracion", "name": "", "extrude": false}}, {"type": "Feature", "geometry": {"type": "Point", "coordinates": [59.11771987646046, 119.43286335740481]}, "properties": {"osm_id": null, "category": "restauracion", "name": "", "extrude": false}}, {"type": "Feature", "geometry": {"type": "Point", "coordinates": [773.8156012773436, 96.94622335722784]}, "properties": {"osm_id": null, "category": "salud", "name": "Farmacia Los Tarahales", "extrude": false}}, {"type": "Feature", "geometry": {"type": "Point", "coordinates": [762.9154274884179, -54.89425664263976]}, "properties": {"osm_id": null, "category": "finanzas", "name": "BBVA", "extrude": false}}, {"type": "Feature", "geometry": {"type": "Point", "coordinates": [750.3458577138354, -169.33121664242051]}, "properties": {"osm_id": null, "category": "salud", "name": "Centro de Salud de Cuevas Torres", "extrude": false}}, {"type": "Feature", "geometry": {"type": "Point", "coordinates": [332.01486365406754, -367.4808166424333]}, "properties": {"osm_id": null, "category": "finanzas", "name": "Banco Santander", "extrude": false}}, {"type": "Feature", "geometry": {"type": "Point", "coordinates": [217.121139933378, -376.8316966425539]}, "properties": {"osm_id": null, "category": "salud", "name": "María Fernanda García Morales", "extrude": false}}, {"type": "Feature", "geometry": {"type": "Point", "coordinates": [315.71370285266136, -515.7590566425939]}, "properties": {"osm_id": null, "category": "finanzas", "name": "BBVA", "extrude": false}}, {"type": "Feature", "geometry": {"type": "Point", "coordinates": [321.3110893928969, -534.4608166424396]}, "properties": {"osm_id": null, "category": "restauracion", "name": "La Cuchara Sana", "extrude": false}}, {"type": "Feature", "geometry": {"type": "Point", "coordinates": [633.3899389521532, -548.375816642506]}, "properties": {"osm_id": null, "category": "restauracion", "name": "", "extrude": false}}]}