{"type": "FeatureCollection", "crs": {"type": "name", "properties": {"name": "EPSG:32628_local_enu_m_section_centroid", "lng0": -13.55348190198932, "lat0": 28.970744687045112}}, "features": [{"type": "Feature", "geometry": {"type": "LineString", "coordinates": [[-65.91451675830821, 383.46256186210564], [-90.48505015088188, 350.6231618619647]]}, "properties": {"osm_id": null, "type": "footway", "width_m": 2, "extrude": false}}, {"type": "Feature", "geometry": {"type": "LineString", "coordinates": [[-353.63339693158946, 275.816121861791], [-358.0159563709507, 279.04440186194563], [-376.90965706510104, 294.51788186203214], [-381.97394797281504, 302.4216018618516], [-385.8695563633775, 306.0951618620685], [-394.4589401328015, 312.1556120929016]]}, "properties": {"osm_id": null, "type": "residential", "width_m": 5, "extrude": false}}, {"type": "Feature", "geometry": {"type": "LineString", "coordinates": [[-244.3615815771499, 344.27792186176987], [-234.33038997141244, 357.8589618618885], [-215.35765420668187, 383.46256186210564]]}, "properties": {"osm_id": null, "type": "tertiary", "width_m": 7, "extrude": false}}, {"type": "Feature", "geometry": {"type": "LineString", "coordinates": [[-336.5558190980114, 376.78263870210924], [-328.50672281274666, 370.88340186183046], [-268.0274025495966, 326.68936186188205], [-261.404868285623, 321.67996186187395]]}, "properties": {"osm_id": null, "type": "tertiary", "width_m": 7, "extrude": false}}, {"type": "Feature", "geometry": {"type": "LineString", "coordinates": [[-353.43861651220845, 337.7100418617417], [-328.50672281274666, 370.88340186183046]]}, "properties": {"osm_id": null, "type": "residential", "width_m": 5, "extrude": false}}, {"type": "Feature", "geometry": {"type": "LineString", "coordinates": [[133.74751212180902, 383.46256186210564], [131.56462810979772, 378.4531618617021]]}, "properties": {"osm_id": null, "type": "service", "width_m": 3.5, "extrude": false}}, {"type": "Feature", "geometry": {"type": "LineString", "coordinates": [[291.7669518672109, 377.72642619171063], [285.24637911633863, 359.4174418619086]]}, "properties": {"osm_id": null, "type": "residential", "width_m": 5, "extrude": false}}, {"type": "Feature", "geometry": {"type": "LineString", "coordinates": [[-131.97327951001807, 264.46148186198354], [-81.62254106246893, 333.4798818617436], [-55.22979421643813, 369.2136018616959], [-44.1143249419016, 383.46256186210564]]}, "properties": {"osm_id": null, "type": "pedestrian", "width_m": 4, "extrude": false}}, {"type": "Feature", "geometry": {"type": "LineString", "coordinates": [[62.80714001672389, 351.06844186202693], [14.743097372275198, 383.46256186210564]]}, "properties": {"osm_id": null, "type": "residential", "width_m": 5, "extrude": false}}, {"type": "Feature", "geometry": {"type": "LineString", "coordinates": [[131.56462810979772, 378.4531618617021], [121.24126587481568, 355.07596186179615], [123.87080153836321, 349.176001862059], [129.03248265594073, 343.94396186182206], [139.35584489074975, 343.94396186182206], [146.75750083276662, 353.0722018617138], [168.30396788282872, 383.46256186210564]]}, "properties": {"osm_id": null, "type": "service", "width_m": 3.5, "extrude": false}}, {"type": "Feature", "geometry": {"type": "LineString", "coordinates": [[-8.67727394958798, 339.1572018620428], [-55.22979421643813, 369.2136018616959]]}, "properties": {"osm_id": null, "type": "pedestrian", "width_m": 4, "extrude": false}}, {"type": "Feature", "geometry": {"type": "LineString", "coordinates": [[-71.98091029583966, 326.5780418617676], [-81.62254106246893, 333.4798818617436]]}, "properties": {"osm_id": null, "type": "pedestrian", "width_m": 4, "extrude": false}}, {"type": "Feature", "geometry": {"type": "LineString", "coordinates": [[-353.43861651220845, 337.7100418617417], [-376.22792559674826, 307.31968186174527], [-381.97394797281504, 302.4216018618516]]}, "properties": {"osm_id": null, "type": "residential", "width_m": 5, "extrude": false}}, {"type": "Feature", "geometry": {"type": "LineString", "coordinates": [[-285.5576403070414, 287.61604186205614], [-282.14898296527764, 292.62544186206424], [-261.404868285623, 321.67996186187395], [-244.3615815771499, 344.27792186176987]]}, "properties": {"osm_id": null, "type": "tertiary", "width_m": 7, "extrude": false}}, {"type": "Feature", "geometry": {"type": "LineString", "coordinates": [[-285.5576403070414, 287.61604186205614], [-291.20627247324467, 291.8462018620542], [-323.05287106592453, 315.00076186173135], [-353.43861651220845, 337.7100418617417]]}, "properties": {"osm_id": null, "type": "residential", "width_m": 5, "extrude": false}}, {"type": "Feature", "geometry": {"type": "LineString", "coordinates": [[285.24637911633863, 359.4174418619086], [337.28946731824954, 341.50742319066285]]}, "properties": {"osm_id": null, "type": "residential", "width_m": 5, "extrude": false}}, {"type": "Feature", "geometry": {"type": "LineString", "coordinates": [[-71.98091029583966, 326.5780418617676], [4.178233739251033, 274.03500186193753]]}, "properties": {"osm_id": null, "type": "residential", "width_m": 5, "extrude": false}}, {"type": "Feature", "geometry": {"type": "LineString", "coordinates": [[86.92469146920384, 383.46256186210564], [67.38447987563917, 357.07972186187845], [62.80714001672389, 351.06844186202693], [32.031833731504896, 311.43852186202434], [4.178233739251033, 274.03500186193753], [-25.136219399571896, 232.9579218620293], [-40.23170191302328, 213.58824186189253], [-51.23679561618507, 199.00532186193047], [-58.7358417680655, 189.4318018619765], [-63.215791417117245, 183.53184186184393], [-69.35137463229213, 175.2941618620767], [-82.30427253082169, 157.81692186190782], [-88.05029490671542, 150.35848186175514], [-92.23807392669556, 144.45852186201805]]}, "properties": {"osm_id": null, "type": "tertiary", "width_m": 7, "extrude": false}}, {"type": "Feature", "geometry": {"type": "LineString", "coordinates": [[-353.63339693158946, 275.816121861791], [-322.3711395975718, 251.9936418618228], [-317.01467806061316, 248.09744186177255]]}, "properties": {"osm_id": null, "type": "residential", "width_m": 5, "extrude": false}}, {"type": "Feature", "geometry": {"type": "LineString", "coordinates": [[-136.06366832013467, 263.90488186180687], [-131.97327951001807, 264.46148186198354], [-84.54424735526106, 247.87480186193918]]}, "properties": {"osm_id": null, "type": "residential", "width_m": 5, "extrude": false}}, {"type": "Feature", "geometry": {"type": "LineString", "coordinates": [[-401.06242908634647, 211.54021425974236], [-384.2139227974274, 234.62772186176835], [-377.98094937256195, 242.9767218620455], [-353.63339693158946, 275.816121861791], [-323.05287106592453, 315.00076186173135]]}, "properties": {"osm_id": null, "type": "residential", "width_m": 5, "extrude": false}}, {"type": "Feature", "geometry": {"type": "LineString", "coordinates": [[-347.3030332970335, 206.79772186203095], [-321.49462770966494, 241.19560186179655], [-317.01467806061316, 248.09744186177255], [-288.96629764880527, 283.16324186182925], [-285.5576403070414, 287.61604186205614]]}, "properties": {"osm_id": null, "type": "tertiary", "width_m": 7, "extrude": false}}, {"type": "Feature", "geometry": {"type": "LineString", "coordinates": [[-167.32592565415234, 221.9372418617742], [-164.6963899906048, 225.83344186182444], [-158.26863614618532, 235.18432186194502], [-136.06366832013467, 263.90488186180687]]}, "properties": {"osm_id": null, "type": "residential", "width_m": 5, "extrude": false}}, {"type": "Feature", "geometry": {"type": "LineString", "coordinates": [[-221.18271165332882, 240.4163618617865], [-219.04012703858, 244.2012418617223], [-210.5671787891022, 254.99928186174856], [-171.12414383502434, 224.94288186169996], [-167.32592565415234, 221.9372418617742]]}, "properties": {"osm_id": null, "type": "residential", "width_m": 5, "extrude": false}}, {"type": "Feature", "geometry": {"type": "LineString", "coordinates": [[-84.54424735526106, 247.87480186193918], [-40.23170191302328, 213.58824186189253]]}, "properties": {"osm_id": null, "type": "residential", "width_m": 5, "extrude": false}}, {"type": "Feature", "geometry": {"type": "LineString", "coordinates": [[206.26291899831932, 263.90488186180687], [174.3189301959489, 218.04104186172395], [145.3940378960611, 176.74132186198236]]}, "properties": {"osm_id": null, "type": "residential", "width_m": 5, "extrude": false}}, {"type": "Feature", "geometry": {"type": "LineString", "coordinates": [[358.58120706815475, 188.61201553228085], [309.0095902986489, 211.5844818618102], [236.4538840248761, 245.64840186202346], [206.26291899831932, 263.90488186180687], [128.44814139727848, 309.8800418620043], [62.80714001672389, 351.06844186202693]]}, "properties": {"osm_id": null, "type": "tertiary", "width_m": 7, "extrude": false}}, {"type": "Feature", "geometry": {"type": "LineString", "coordinates": [[-347.3030332970335, 206.79772186203095], [-350.22473958999865, 208.8014818617178], [-384.2139227974274, 234.62772186176835]]}, "properties": {"osm_id": null, "type": "residential", "width_m": 5, "extrude": false}}, {"type": "Feature", "geometry": {"type": "LineString", "coordinates": [[-116.1960655283869, 204.01472186193857], [-158.26863614618532, 235.18432186194502]]}, "properties": {"osm_id": null, "type": "pedestrian", "width_m": 4, "extrude": false}}, {"type": "Feature", "geometry": {"type": "LineString", "coordinates": [[-126.61681797305945, 189.54312186169545], [-116.1960655283869, 204.01472186193857], [-113.3717494452853, 207.46564186192657], [-106.94399560086579, 215.48068186186043], [-84.54424735526106, 247.87480186193918]]}, "properties": {"osm_id": null, "type": "pedestrian", "width_m": 4, "extrude": false}}, {"type": "Feature", "geometry": {"type": "LineString", "coordinates": [[-92.23807392669556, 144.45852186201805], [-95.54934105859586, 146.4622818617049], [-130.12286552451383, 172.39984186186987], [-134.8949858029832, 176.18472186180568], [-176.4806053719829, 207.02036186186433], [-213.5862752919309, 234.73904186188278], [-221.18271165332882, 240.4163618617865], [-280.0063983505288, 283.49720186177706], [-285.5576403070414, 287.61604186205614]]}, "properties": {"osm_id": null, "type": "residential", "width_m": 5, "extrude": false}}, {"type": "Feature", "geometry": {"type": "LineString", "coordinates": [[-167.32592565415234, 221.9372418617742], [-167.81287670312403, 218.93160186184843], [-174.14324033768, 209.69204186184228], [-176.4806053719829, 207.02036186186433]]}, "properties": {"osm_id": null, "type": "residential", "width_m": 5, "extrude": false}}, {"type": "Feature", "geometry": {"type": "LineString", "coordinates": [[-317.01467806061316, 248.09744186177255], [-311.2686556845465, 244.5352018620656], [-242.02421654284697, 194.88648186204685], [-204.52898578379086, 168.50364186181963]]}, "properties": {"osm_id": null, "type": "residential", "width_m": 5, "extrude": false}}, {"type": "Feature", "geometry": {"type": "LineString", "coordinates": [[-360.15854098587255, 190.09972186187213], [-347.3030332970335, 206.79772186203095]]}, "properties": {"osm_id": null, "type": "tertiary", "width_m": 7, "extrude": false}}, {"type": "Feature", "geometry": {"type": "LineString", "coordinates": [[-401.06242908634647, 176.7361441873193], [-384.0191423778733, 164.0508418619882], [-381.48699692401635, 161.4904818617292]]}, "properties": {"osm_id": null, "type": "tertiary", "width_m": 7, "extrude": false}}, {"type": "Feature", "geometry": {"type": "LineString", "coordinates": [[-167.81287670312403, 218.93160186184843], [-126.61681797305945, 189.54312186169545], [-82.30427253082169, 157.81692186190782]]}, "properties": {"osm_id": null, "type": "pedestrian", "width_m": 4, "extrude": false}}, {"type": "Feature", "geometry": {"type": "LineString", "coordinates": [[-204.52898578379086, 168.50364186181963], [-180.2788235526819, 202.45624186191847], [-176.4806053719829, 207.02036186186433]]}, "properties": {"osm_id": null, "type": "residential", "width_m": 5, "extrude": false}}, {"type": "Feature", "geometry": {"type": "LineString", "coordinates": [[-381.48699692401635, 161.4904818617292], [-374.4749018211076, 170.39608186178754], [-365.0280514740324, 183.7544818620728], [-360.15854098587255, 190.09972186187213]]}, "properties": {"osm_id": null, "type": "tertiary", "width_m": 7, "extrude": false}}, {"type": "Feature", "geometry": {"type": "LineString", "coordinates": [[-218.2610053605367, 112.17572186205373], [-235.9860235373626, 125.2001618619957], [-272.79952282806596, 152.91884186201415], [-341.3622305014127, 202.67888186175185], [-347.3030332970335, 206.79772186203095]]}, "properties": {"osm_id": null, "type": "residential", "width_m": 5, "extrude": false}}, {"type": "Feature", "geometry": {"type": "LineString", "coordinates": [[-8.67727394958798, 339.1572018620428], [32.031833731504896, 311.43852186202434], [98.54934699996633, 266.91052186173266], [174.3189301959489, 218.04104186172395]]}, "properties": {"osm_id": null, "type": "residential", "width_m": 5, "extrude": false}}, {"type": "Feature", "geometry": {"type": "LineString", "coordinates": [[345.34894051919963, 327.9224811472808], [331.79889938336174, 288.17264186183735], [317.38514833826315, 238.63524186193303], [309.0095902986489, 211.5844818618102]]}, "properties": {"osm_id": null, "type": "residential", "width_m": 5, "extrude": false}}, {"type": "Feature", "geometry": {"type": "LineString", "coordinates": [[358.5057457642712, 273.89831432219324], [331.79889938336174, 288.17264186183735], [269.566555344571, 320.12148186185385]]}, "properties": {"osm_id": null, "type": "residential", "width_m": 5, "extrude": false}}, {"type": "Feature", "geometry": {"type": "LineString", "coordinates": [[4.178233739251033, 274.03500186193753], [56.671556801722005, 238.74656186204746]]}, "properties": {"osm_id": null, "type": "residential", "width_m": 5, "extrude": false}}, {"type": "Feature", "geometry": {"type": "LineString", "coordinates": [[194.77087424618583, 152.91884186201415], [213.8593553598903, 194.77516186193242], [223.30620570679247, 215.369361861746], [236.4538840248761, 245.64840186202346], [248.04331898670011, 271.25200186184514], [269.566555344571, 320.12148186185385], [285.24637911633863, 359.4174418619086]]}, "properties": {"osm_id": null, "type": "residential", "width_m": 5, "extrude": false}}, {"type": "Feature", "geometry": {"type": "LineString", "coordinates": [[31.155321843598053, 194.32988186187018], [-25.136219399571896, 232.9579218620293]]}, "properties": {"osm_id": null, "type": "residential", "width_m": 5, "extrude": false}}, {"type": "Feature", "geometry": {"type": "LineString", "coordinates": [[72.35138057348962, 227.50324186195897], [145.3940378960611, 176.74132186198236]]}, "properties": {"osm_id": null, "type": "residential", "width_m": 5, "extrude": false}}, {"type": "Feature", "geometry": {"type": "LineString", "coordinates": [[-106.94399560086579, 215.48068186186043], [-63.215791417117245, 183.53184186184393]]}, "properties": {"osm_id": null, "type": "pedestrian", "width_m": 4, "extrude": false}}, {"type": "Feature", "geometry": {"type": "LineString", "coordinates": [[-113.3717494452853, 207.46564186192657], [-69.35137463229213, 175.2941618620767]]}, "properties": {"osm_id": null, "type": "pedestrian", "width_m": 4, "extrude": false}}, {"type": "Feature", "geometry": {"type": "LineString", "coordinates": [[248.04331898670011, 271.25200186184514], [317.38514833826315, 238.63524186193303], [358.58120706815475, 219.98638641655802]]}, "properties": {"osm_id": null, "type": "residential", "width_m": 5, "extrude": false}}, {"type": "Feature", "geometry": {"type": "LineString", "coordinates": [[-111.91089629888923, -37.88363813796039], [-108.59962916681594, -33.542158138243394], [-78.89561518905786, 8.870761861851548], [-48.80204037219163, 52.06292186195654], [-21.824952267671605, 91.91548186179247], [6.3208183539998695, 132.9925618617007], [10.313816954252927, 138.44724186177103], [13.91725471557083, 143.56796186189356], [43.3290980640843, 185.9808818619885], [72.35138057348962, 227.50324186195897], [98.54934699996633, 266.91052186173266], [128.44814139727848, 309.8800418620043], [178.3298195392405, 383.46256186210564]]}, "properties": {"osm_id": null, "type": "residential", "width_m": 5, "extrude": false}}, {"type": "Feature", "geometry": {"type": "LineString", "coordinates": [[145.3940378960611, 176.74132186198236], [194.77087424618583, 152.91884186201415]]}, "properties": {"osm_id": null, "type": "residential", "width_m": 5, "extrude": false}}, {"type": "Feature", "geometry": {"type": "LineString", "coordinates": [[-58.7358417680655, 189.4318018619765], [10.313816954252927, 138.44724186177103]]}, "properties": {"osm_id": null, "type": "residential", "width_m": 5, "extrude": false}}, {"type": "Feature", "geometry": {"type": "LineString", "coordinates": [[174.6111008251935, 99.48524186205958], [118.80651063064923, 137.22272186169874], [43.3290980640843, 185.9808818619885]]}, "properties": {"osm_id": null, "type": "residential", "width_m": 5, "extrude": false}}, {"type": "Feature", "geometry": {"type": "LineString", "coordinates": [[145.3940378960611, 176.74132186198236], [118.80651063064923, 137.22272186169874], [89.88161833093446, 93.91924186187481]]}, "properties": {"osm_id": null, "type": "residential", "width_m": 5, "extrude": false}}, {"type": "Feature", "geometry": {"type": "LineString", "coordinates": [[223.30620570679247, 215.369361861746], [358.58120706815475, 153.5880484439791]]}, "properties": {"osm_id": null, "type": "residential", "width_m": 5, "extrude": false}}, {"type": "Feature", "geometry": {"type": "LineString", "coordinates": [[358.58120706815475, 46.48322093832178], [350.0108686091594, 27.79516186192609], [330.5328266563468, -11.389478138014226], [328.39024204159796, -15.953598137960086], [299.17317911263854, -75.73243813810947], [279.5003567404449, -117.25479813807993]]}, "properties": {"osm_id": null, "type": "tertiary", "width_m": 7, "extrude": false}}, {"type": "Feature", "geometry": {"type": "LineString", "coordinates": [[13.91725471557083, 143.56796186189356], [89.88161833093446, 93.91924186187481]]}, "properties": {"osm_id": null, "type": "residential", "width_m": 5, "extrude": false}}, {"type": "Feature", "geometry": {"type": "LineString", "coordinates": [[-21.824952267671605, 91.91548186179247], [-86.39466134076528, 140.22836186202], [-92.23807392669556, 144.45852186201805]]}, "properties": {"osm_id": null, "type": "residential", "width_m": 5, "extrude": false}}, {"type": "Feature", "geometry": {"type": "LineString", "coordinates": [[-130.12286552451383, 172.39984186186987], [-157.2947340485879, 133.9944418619396]]}, "properties": {"osm_id": null, "type": "residential", "width_m": 5, "extrude": false}}, {"type": "Feature", "geometry": {"type": "LineString", "coordinates": [[-204.52898578379086, 168.50364186181963], [-180.47360397223596, 150.9150818619318], [-157.2947340485879, 133.9944418619396]]}, "properties": {"osm_id": null, "type": "residential", "width_m": 5, "extrude": false}}, {"type": "Feature", "geometry": {"type": "LineString", "coordinates": [[-235.9860235373626, 125.2001618619957], [-219.3322976678246, 148.3547218620683], [-204.52898578379086, 168.50364186181963]]}, "properties": {"osm_id": null, "type": "residential", "width_m": 5, "extrude": false}}, {"type": "Feature", "geometry": {"type": "LineString", "coordinates": [[-189.43350327051246, 138.6698818619999], [-180.47360397223596, 150.9150818619318]]}, "properties": {"osm_id": null, "type": "footway", "width_m": 2, "extrude": false}}, {"type": "Feature", "geometry": {"type": "LineString", "coordinates": [[-323.9293829538314, 83.232521861963], [-393.1738220955309, 134.66236186183522], [-398.5302836326625, 138.22460186193766], [-401.06242908634647, 140.3295618618364]]}, "properties": {"osm_id": null, "type": "residential", "width_m": 5, "extrude": false}}, {"type": "Feature", "geometry": {"type": "LineString", "coordinates": [[-381.48699692401635, 161.4904818617292], [-374.2801214015536, 155.9244818619399], [-311.7556067333452, 109.39272186196135], [-307.47043750384745, 106.16444186180672]]}, "properties": {"osm_id": null, "type": "tertiary", "width_m": 7, "extrude": false}}, {"type": "Feature", "geometry": {"type": "LineString", "coordinates": [[-186.31701655816624, 135.44160186184527], [-184.9535536214607, 132.21332186208613], [-184.75877320190665, 128.76240186170264], [-185.6352850898135, 125.31148186171464], [-187.09613823620955, 123.19640186191336], [-187.58308928500824, 122.41716186190331], [-190.40740536810983, 120.30208186170654], [-193.71867250018312, 119.07756186202974], [-197.12732984177396, 118.96624186191531], [-200.73076760309186, 120.07944186187316], [-202.19162074948792, 121.19264186183102], [-203.74986410574755, 122.41716186190331], [-205.79505851080583, 125.5341218619435], [-206.57418018884914, 129.20768186176488], [-206.18461934991402, 132.88124186198175], [-204.52898578379086, 136.33216186196975], [-201.8020599105528, 138.89252186183327], [-198.39340256878893, 140.45100186185337], [-194.88735501733458, 140.78496186180118], [-191.57608788526127, 140.00572186179113], [-189.43350327051246, 138.6698818619999], [-188.55699138260562, 138.22460186193766], [-186.31701655816624, 135.44160186184527]]}, "properties": {"osm_id": null, "type": "footway", "width_m": 2, "extrude": false}}, {"type": "Feature", "geometry": {"type": "LineString", "coordinates": [[-381.48699692401635, 161.4904818617292], [-384.2139227974274, 158.3735218620845], [-398.5302836326625, 138.22460186193766], [-401.06242908634647, 134.5293379627627]]}, "properties": {"osm_id": null, "type": "tertiary", "width_m": 7, "extrude": false}}, {"type": "Feature", "geometry": {"type": "LineString", "coordinates": [[-187.09613823620955, 123.19640186191336], [-172.77977740097447, 112.95496186206378]]}, "properties": {"osm_id": null, "type": "footway", "width_m": 2, "extrude": false}}, {"type": "Feature", "geometry": {"type": "LineString", "coordinates": [[-401.06242908634647, 105.69168713865025], [-340.87527945261405, 59.63268186182816]]}, "properties": {"osm_id": null, "type": "residential", "width_m": 5, "extrude": false}}, {"type": "Feature", "geometry": {"type": "LineString", "coordinates": [[-212.22281235522536, 107.50028186199344], [-202.19162074948792, 121.19264186183102]]}, "properties": {"osm_id": null, "type": "footway", "width_m": 2, "extrude": false}}, {"type": "Feature", "geometry": {"type": "LineString", "coordinates": [[-157.2947340485879, 133.9944418619396], [-172.77977740097447, 112.95496186206378], [-187.97265012411637, 90.02304186182457]]}, "properties": {"osm_id": null, "type": "residential", "width_m": 5, "extrude": false}}, {"type": "Feature", "geometry": {"type": "LineString", "coordinates": [[-365.0280514740324, 183.7544818620728], [-358.60029762961295, 178.96772186189807], [-290.4271507952014, 129.20768186176488], [-228.58436759534573, 84.56836186175423], [-168.98155922027547, 40.151681861972435]]}, "properties": {"osm_id": null, "type": "residential", "width_m": 5, "extrude": false}}, {"type": "Feature", "geometry": {"type": "LineString", "coordinates": [[-213.5862752919309, 234.73904186188278], [-217.2871032629393, 230.28624186205136], [-242.02421654284697, 194.88648186204685], [-272.79952282806596, 152.91884186201415], [-290.4271507952014, 129.20768186176488], [-307.47043750384745, 106.16444186180672], [-323.9293829538314, 83.232521861963], [-340.87527945261405, 59.63268186182816], [-355.8733717562019, 38.481881861837905], [-358.60029762961295, 35.0309618618499], [-368.9236598645949, 19.780121861992228], [-371.06624447934377, 14.102801861693024], [-372.1375367866317, 8.53680186190374], [-383.7269717486287, -14.283798138221044]]}, "properties": {"osm_id": null, "type": "residential", "width_m": 5, "extrude": false}}, {"type": "Feature", "geometry": {"type": "LineString", "coordinates": [[-92.23807392669556, 144.45852186201805], [-94.77021938055255, 140.5623218619678], [-121.5525270653455, 105.05124186184887], [-149.30873684790882, 68.09300186182426], [-151.8408823017658, 63.974161861940644]]}, "properties": {"osm_id": null, "type": "tertiary", "width_m": 7, "extrude": false}}, {"type": "Feature", "geometry": {"type": "LineString", "coordinates": [[-401.06242908634647, 71.84524031263649], [-355.8733717562019, 38.481881861837905]]}, "properties": {"osm_id": null, "type": "residential", "width_m": 5, "extrude": false}}, {"type": "Feature", "geometry": {"type": "LineString", "coordinates": [[-151.8408823017658, 63.974161861940644], [-187.97265012411637, 90.02304186182457], [-212.22281235522536, 107.50028186199344], [-218.2610053605367, 112.17572186205373]]}, "properties": {"osm_id": null, "type": "residential", "width_m": 5, "extrude": false}}, {"type": "Feature", "geometry": {"type": "LineString", "coordinates": [[-307.47043750384745, 106.16444186180672], [-302.30875638627, 102.71352186181872], [-251.66584730930322, 65.19868186201293]]}, "properties": {"osm_id": null, "type": "tertiary", "width_m": 7, "extrude": false}}, {"type": "Feature", "geometry": {"type": "LineString", "coordinates": [[-279.6168375114206, 17.108441862014274], [-263.83962352978943, 39.261121861847954], [-246.79633682114334, 61.6364418619105], [-228.58436759534573, 84.56836186175423], [-212.22281235522536, 107.50028186199344]]}, "properties": {"osm_id": null, "type": "residential", "width_m": 5, "extrude": false}}, {"type": "Feature", "geometry": {"type": "LineString", "coordinates": [[80.92171903283096, 80.56084186198504], [6.3208183539998695, 132.9925618617007]]}, "properties": {"osm_id": null, "type": "residential", "width_m": 5, "extrude": false}}, {"type": "Feature", "geometry": {"type": "LineString", "coordinates": [[358.58120706815475, 126.95654408400202], [292.550644848665, 157.70560186179338], [213.8593553598903, 194.77516186193242]]}, "properties": {"osm_id": null, "type": "residential", "width_m": 5, "extrude": false}}, {"type": "Feature", "geometry": {"type": "LineString", "coordinates": [[-121.5525270653455, 105.05124186184887], [-116.78040678704913, 101.26636186191305], [-48.80204037219163, 52.06292186195654]]}, "properties": {"osm_id": null, "type": "residential", "width_m": 5, "extrude": false}}, {"type": "Feature", "geometry": {"type": "LineString", "coordinates": [[194.77087424618583, 152.91884186201415], [358.58120706815475, 74.21305064882233]]}, "properties": {"osm_id": null, "type": "residential", "width_m": 5, "extrude": false}}, {"type": "Feature", "geometry": {"type": "LineString", "coordinates": [[89.88161833093446, 93.91924186187481], [80.92171903283096, 80.56084186198504], [52.38638757205133, 38.481881861837905]]}, "properties": {"osm_id": null, "type": "residential", "width_m": 5, "extrude": false}}, {"type": "Feature", "geometry": {"type": "LineString", "coordinates": [[52.38638757205133, 38.481881861837905], [-21.824952267671605, 91.91548186179247]]}, "properties": {"osm_id": null, "type": "residential", "width_m": 5, "extrude": false}}, {"type": "Feature", "geometry": {"type": "LineString", "coordinates": [[-371.06624447934377, 14.102801861693024], [-401.06242908634647, 36.28822303805421]]}, "properties": {"osm_id": null, "type": "residential", "width_m": 5, "extrude": false}}, {"type": "Feature", "geometry": {"type": "LineString", "coordinates": [[-251.66584730930322, 65.19868186201293], [-249.23109206530978, 63.41756186176397], [-246.79633682114334, 61.6364418619105], [-191.67347809512484, 20.22540186205447], [-185.83006550919455, 16.217881861889794]]}, "properties": {"osm_id": null, "type": "tertiary", "width_m": 7, "extrude": false}}, {"type": "Feature", "geometry": {"type": "LineString", "coordinates": [[-202.77596200815015, -6.825358138068367], [-263.83962352978943, 39.261121861847954], [-323.9293829538314, 83.232521861963]]}, "properties": {"osm_id": null, "type": "residential", "width_m": 5, "extrude": false}}, {"type": "Feature", "geometry": {"type": "LineString", "coordinates": [[-340.87527945261405, 59.63268186182816], [-279.6168375114206, 17.108441862014274], [-259.5544543001188, 2.4142018619377836], [-257.11969905612534, -1.148038138164651], [-256.9249186365713, -6.380078138006127], [-258.87272283176605, -10.832878138233042], [-269.4882556959927, -19.51583813806252], [-283.60983611167364, -31.872358138108865], [-284.77851862899814, -36.436478138054724], [-285.4602500971779, -38.996838137918246], [-286.62893261450233, -48.01375813809102]]}, "properties": {"osm_id": null, "type": "residential", "width_m": 5, "extrude": false}}, {"type": "Feature", "geometry": {"type": "LineString", "coordinates": [[-383.7269717486287, -14.283798138221044], [-401.06242908634647, -5.362583115651063]]}, "properties": {"osm_id": null, "type": "residential", "width_m": 5, "extrude": false}}, {"type": "Feature", "geometry": {"type": "LineString", "coordinates": [[-185.83006550919455, 16.217881861889794], [-181.64228648938743, 13.212241861964031], [-118.63082077255334, -33.208198138295586], [-111.91089629888923, -37.88363813796039]]}, "properties": {"osm_id": null, "type": "tertiary", "width_m": 7, "extrude": false}}, {"type": "Feature", "geometry": {"type": "LineString", "coordinates": [[-258.87272283176605, -10.832878138233042], [-225.76005151224416, -23.078078138164955], [-218.84534661902595, -28.198798138287486]]}, "properties": {"osm_id": null, "type": "pedestrian", "width_m": 4, "extrude": false}}, {"type": "Feature", "geometry": {"type": "LineString", "coordinates": [[-392.29731020779707, -37.88363813796039], [-384.40870321698145, -28.75539813806867], [-386.0643367829316, -26.083718138090717], [-385.1878248950248, -21.63091813825929], [-383.7269717486287, -14.283798138221044]]}, "properties": {"osm_id": null, "type": "footway", "width_m": 2, "extrude": false}}, {"type": "Feature", "geometry": {"type": "LineString", "coordinates": [[-349.2508374922283, -40.33267813810497], [-385.1878248950248, -21.63091813825929]]}, "properties": {"osm_id": null, "type": "footway", "width_m": 2, "extrude": false}}, {"type": "Feature", "geometry": {"type": "LineString", "coordinates": [[-276.5003507990744, -42.67039813813511], [-279.90900814066526, -38.10627813818925], [-284.77851862899814, -36.436478138054724], [-298.8027088348156, -31.872358138108865], [-303.47743890342144, -31.983678138223297], [-346.03696057019147, -39.99871813815716], [-349.2508374922283, -40.33267813810497], [-362.20373539075786, -41.445878138062824], [-371.06624447934377, -41.33455813794839], [-382.07133818250554, -40.77795813816721], [-392.29731020779707, -37.88363813796039], [-400.18591719861263, -35.76855813815911], [-401.06242908634647, -35.54655063807246]]}, "properties": {"osm_id": null, "type": "footway", "width_m": 2, "extrude": false}}, {"type": "Feature", "geometry": {"type": "LineString", "coordinates": [[-151.8408823017658, 63.974161861940644], [-168.98155922027547, 40.151681861972435], [-182.22662774804962, 21.338601862012325], [-185.83006550919455, 16.217881861889794], [-189.43350327051246, 11.87640186177731], [-202.77596200815015, -6.825358138068367], [-218.84534661902595, -28.198798138287486], [-235.69385290811798, -51.130718138131215], [-240.17380255734275, -57.14199813798274], [-243.58245989893354, -61.48347813809522], [-266.469159193337, -91.7625181379772], [-289.64802911715805, -122.26419813808803], [-293.15407666861245, -127.05095813826276]]}, "properties": {"osm_id": null, "type": "tertiary", "width_m": 7, "extrude": false}}, {"type": "Feature", "geometry": {"type": "LineString", "coordinates": [[89.88161833093446, 93.91924186187481], [99.13368825845556, 93.585281861927], [287.0967931018429, 3.9726818619578808]]}, "properties": {"osm_id": null, "type": "residential", "width_m": 5, "extrude": false}}, {"type": "Feature", "geometry": {"type": "LineString", "coordinates": [[358.58120706815475, 23.66602775444207], [350.0108686091594, 27.79516186192609], [194.67348403649532, 102.93616186204758], [174.6111008251935, 99.48524186205958]]}, "properties": {"osm_id": null, "type": "residential", "width_m": 5, "extrude": false}}, {"type": "Feature", "geometry": {"type": "LineString", "coordinates": [[-4.586885139471384, -41.111918138115016], [-8.190322900789289, -41.445878138062824], [-11.891150871797732, -40.221358137990535], [-26.499682336277427, -29.868598138026528], [-52.30808792364599, -10.72155813811861], [-78.89561518905786, 8.870761861851548], [-147.16615223315998, 60.0779618618904], [-151.8408823017658, 63.974161861940644]]}, "properties": {"osm_id": null, "type": "residential", "width_m": 5, "extrude": false}}, {"type": "Feature", "geometry": {"type": "LineString", "coordinates": [[287.0967931018429, 3.9726818619578808], [328.39024204159796, -15.953598137960086]]}, "properties": {"osm_id": null, "type": "residential", "width_m": 5, "extrude": false}}, {"type": "Feature", "geometry": {"type": "LineString", "coordinates": [[252.23109800668024, -56.585398138201555], [178.70148963513708, -27.419558138277438], [142.2775511837149, -12.725318138200947], [105.75622252242914, 2.970801861718968], [93.8746169313605, 8.870761861851548], [82.96691343771626, 16.10656186177536], [52.38638757205133, 38.481881861837905]]}, "properties": {"osm_id": null, "type": "residential", "width_m": 5, "extrude": false}}, {"type": "Feature", "geometry": {"type": "LineString", "coordinates": [[257.87973017288346, -58.81179813811727], [287.0967931018429, 3.9726818619578808]]}, "properties": {"osm_id": null, "type": "residential", "width_m": 5, "extrude": false}}, {"type": "Feature", "geometry": {"type": "LineString", "coordinates": [[52.38638757205133, 38.481881861837905], [-4.586885139471384, -41.111918138115016], [-40.718652961821974, -89.42479813794705], [-75.00000679849533, -135.39995813814443]]}, "properties": {"osm_id": null, "type": "residential", "width_m": 5, "extrude": false}}, {"type": "Feature", "geometry": {"type": "LineString", "coordinates": [[257.87973017288346, -58.81179813811727], [252.23109800668024, -56.585398138201555]]}, "properties": {"osm_id": null, "type": "residential", "width_m": 5, "extrude": false}}, {"type": "Feature", "geometry": {"type": "LineString", "coordinates": [[330.5328266563468, -11.389478138014226], [358.58120706815475, -26.31403537955677]]}, "properties": {"osm_id": null, "type": "residential", "width_m": 5, "extrude": false}}, {"type": "Feature", "geometry": {"type": "LineString", "coordinates": [[246.7772462598581, -67.82871813829004], [252.23109800668024, -56.585398138201555]]}, "properties": {"osm_id": null, "type": "tertiary", "width_m": 7, "extrude": false}}, {"type": "Feature", "geometry": {"type": "LineString", "coordinates": [[-111.91089629888923, -37.88363813796039], [-105.77531308371434, -42.11379813795844], [-40.718652961821974, -89.42479813794705]]}, "properties": {"osm_id": null, "type": "residential", "width_m": 5, "extrude": false}}, {"type": "Feature", "geometry": {"type": "LineString", "coordinates": [[-286.62893261450233, -48.01375813809102], [-276.5003507990744, -42.67039813813511], [-273.9682053452174, -41.33455813794839], [-256.73013821701716, -31.872358138108865], [-252.1527983581019, -30.4251981382032], [-249.13370185544622, -30.313878138088768], [-246.3093857723446, -31.761038137994433], [-235.69385290811798, -51.130718138131215]]}, "properties": {"osm_id": null, "type": "residential", "width_m": 5, "extrude": false}}, {"type": "Feature", "geometry": {"type": "LineString", "coordinates": [[-218.84534661902595, -28.198798138287486], [-204.52898578379086, -39.10815813803268], [-152.1330529311834, -78.51543813820186], [-145.900079506318, -82.74559813819991]]}, "properties": {"osm_id": null, "type": "tertiary", "width_m": 7, "extrude": false}}, {"type": "Feature", "geometry": {"type": "LineString", "coordinates": [[-111.91089629888923, -37.88363813796039], [-115.90389489914227, -43.11567813819735], [-141.71230048651086, -78.07015813813962], [-145.900079506318, -82.74559813819991]]}, "properties": {"osm_id": null, "type": "residential", "width_m": 5, "extrude": false}}, {"type": "Feature", "geometry": {"type": "LineString", "coordinates": [[-286.62893261450233, -48.01375813809102], [-290.914101844, -50.4627981382356], [-312.8268990408061, -63.48723813817756], [-355.09425007815855, -88.53423813821806], [-360.93766266391583, -90.98327813796715], [-365.8071731520757, -91.42855813802939], [-370.5792934305451, -89.20215813811367], [-375.9357549675037, -85.5285981382923], [-397.94594237400025, -70.38907813815356], [-401.06242908634647, -68.49717076967622]]}, "properties": {"osm_id": null, "type": "residential", "width_m": 5, "extrude": false}}, {"type": "Feature", "geometry": {"type": "LineString", "coordinates": [[-266.469159193337, -91.7625181379772], [-277.1820822674272, -74.61923813815162], [-290.914101844, -50.4627981382356]]}, "properties": {"osm_id": null, "type": "residential", "width_m": 5, "extrude": false}}, {"type": "Feature", "geometry": {"type": "LineString", "coordinates": [[-240.17380255734275, -57.14199813798274], [-245.82243472354594, -55.58351813796264], [-277.1820822674272, -74.61923813815162], [-305.32785288892563, -90.64931813801934]]}, "properties": {"osm_id": null, "type": "residential", "width_m": 5, "extrude": false}}, {"type": "Feature", "geometry": {"type": "LineString", "coordinates": [[358.58120706815475, -99.61080672135054], [299.17317911263854, -75.73243813810947], [257.87973017288346, -58.81179813811727]]}, "properties": {"osm_id": null, "type": "residential", "width_m": 5, "extrude": false}}, {"type": "Feature", "geometry": {"type": "LineString", "coordinates": [[-87.17378301898158, -126.38303813797165], [-84.25207672601644, -128.60943813828285], [-75.00000679849533, -135.39995813814443]]}, "properties": {"osm_id": null, "type": "tertiary", "width_m": 7, "extrude": false}}, {"type": "Feature", "geometry": {"type": "LineString", "coordinates": [[237.33039591278293, -100.44547813820216], [279.5003567404449, -117.25479813807993], [297.12798470758025, -124.60191813811818], [358.58120706815475, -150.72499053084485]]}, "properties": {"osm_id": null, "type": "residential", "width_m": 5, "extrude": false}}, {"type": "Feature", "geometry": {"type": "LineString", "coordinates": [[215.32020850628635, -195.06747813817938], [220.67667004324497, -196.9599181381473], [230.8052518586729, -200.1881981383019], [261.67794835358245, -213.43527813807725], [358.58120706815475, -255.6037643251642]]}, "properties": {"osm_id": null, "type": "residential", "width_m": 5, "extrude": false}}, {"type": "Feature", "geometry": {"type": "LineString", "coordinates": [[216.58628123312837, -300.82147813813066], [215.02803787704173, -292.58379813796796], [212.8854532621199, -274.1046781379556]]}, "properties": {"osm_id": null, "type": "tertiary", "width_m": 7, "extrude": false}}, {"type": "Feature", "geometry": {"type": "LineString", "coordinates": [[358.49542072619835, -308.7174224775251], [225.35140011185078, -250.5048381382163], [216.48889102343782, -247.83315813823833]]}, "properties": {"osm_id": null, "type": "residential", "width_m": 5, "extrude": false}}, {"type": "Feature", "geometry": {"type": "LineString", "coordinates": [[192.14133858263833, -290.2460781379378], [216.58628123312837, -300.82147813813066]]}, "properties": {"osm_id": null, "type": "tertiary", "width_m": 7, "extrude": false}}, {"type": "Feature", "geometry": {"type": "LineString", "coordinates": [[216.58628123312837, -300.82147813813066], [223.1114252874114, -304.27239813811866]]}, "properties": {"osm_id": null, "type": "tertiary", "width_m": 7, "extrude": false}}, {"type": "Feature", "geometry": {"type": "LineString", "coordinates": [[-375.9357549675037, -85.5285981382923], [-389.4729941245225, -109.57371813809388]]}, "properties": {"osm_id": null, "type": "residential", "width_m": 5, "extrude": false}}, {"type": "Feature", "geometry": {"type": "LineString", "coordinates": [[-145.900079506318, -82.74559813819991], [-138.79059419354573, -88.08895813815582], [-87.17378301898158, -126.38303813797165]]}, "properties": {"osm_id": null, "type": "tertiary", "width_m": 7, "extrude": false}}, {"type": "Feature", "geometry": {"type": "LineString", "coordinates": [[-98.27626693200692, -168.2393581382854], [-170.34502215680803, -115.02839813816422], [-243.58245989893354, -61.48347813809522]]}, "properties": {"osm_id": null, "type": "residential", "width_m": 5, "extrude": false}}, {"type": "Feature", "geometry": {"type": "LineString", "coordinates": [[-389.4729941245225, -109.57371813809388], [-401.06242908634647, -132.58771305327286]]}, "properties": {"osm_id": null, "type": "residential", "width_m": 5, "extrude": false}}, {"type": "Feature", "geometry": {"type": "LineString", "coordinates": [[-401.06242908634647, -162.77314238667017], [-356.0681521757559, -192.6184381380348], [-345.939570360328, -199.07499813794857]]}, "properties": {"osm_id": null, "type": "residential", "width_m": 5, "extrude": false}}, {"type": "Feature", "geometry": {"type": "LineString", "coordinates": [[-266.469159193337, -91.7625181379772], [-192.54998998303168, -145.86403813822287], [-120.96818580685627, -199.186318138063]]}, "properties": {"osm_id": null, "type": "residential", "width_m": 5, "extrude": false}}, {"type": "Feature", "geometry": {"type": "LineString", "coordinates": [[-145.900079506318, -82.74559813819991], [-151.0617606237225, -88.53423813821806], [-170.34502215680803, -115.02839813816422], [-192.54998998303168, -145.86403813822287], [-201.50988928113517, -157.88659813792592], [-216.2158109554784, -177.2562781380627], [-238.81033962063722, -208.53719813818358]]}, "properties": {"osm_id": null, "type": "residential", "width_m": 5, "extrude": false}}, {"type": "Feature", "geometry": {"type": "LineString", "coordinates": [[-293.15407666861245, -127.05095813826276], [-307.373047293984, -146.08667813805624], [-312.53472841156145, -153.4337981380945], [-332.5971116226903, -180.7071981380507]]}, "properties": {"osm_id": null, "type": "tertiary", "width_m": 7, "extrude": false}}, {"type": "Feature", "geometry": {"type": "LineString", "coordinates": [[-401.06242908634647, -103.89042829574805], [-389.4729941245225, -109.57371813809388], [-325.19545568067343, -143.63763813830715], [-318.18336057776463, -147.08855813829516], [-312.53472841156145, -153.4337981380945], [-307.0808766647393, -158.99979813827926], [-282.53854380438577, -176.81099813800046], [-251.081506050814, -199.40895813829187], [-238.81033962063722, -208.53719813818358], [-166.4494137664185, -261.19155813812813], [-138.59581377399164, -282.11971813828495]]}, "properties": {"osm_id": null, "type": "residential", "width_m": 5, "extrude": false}}, {"type": "Feature", "geometry": {"type": "LineString", "coordinates": [[-75.00000679849533, -135.39995813814443], [-98.27626693200692, -168.2393581382854], [-120.96818580685627, -199.186318138063], [-134.1158641249399, -216.55223813811745]]}, "properties": {"osm_id": null, "type": "residential", "width_m": 5, "extrude": false}}, {"type": "Feature", "geometry": {"type": "LineString", "coordinates": [[-143.85488510125967, -230.4672381381839], [-216.2158109554784, -177.2562781380627], [-289.64802911715805, -122.26419813808803]]}, "properties": {"osm_id": null, "type": "residential", "width_m": 5, "extrude": false}}, {"type": "Feature", "geometry": {"type": "LineString", "coordinates": [[-375.448803918705, -238.59359813823218], [-387.2330193000831, -229.46535813794497], [-401.06242908634647, -219.02073852307993]]}, "properties": {"osm_id": null, "type": "residential", "width_m": 5, "extrude": false}}, {"type": "Feature", "geometry": {"type": "LineString", "coordinates": [[297.12798470758025, -124.60191813811818], [279.59774695013544, -168.01671813805655], [261.67794835358245, -213.43527813807725]]}, "properties": {"osm_id": null, "type": "residential", "width_m": 5, "extrude": false}}, {"type": "Feature", "geometry": {"type": "LineString", "coordinates": [[212.8854532621199, -274.1046781379556], [210.3533078082629, -255.62555813794333], [210.3533078082629, -250.17087813826848], [210.548088227817, -244.38223813825033], [215.32020850628635, -195.06747813817938], [222.91664486785731, -121.03967813801574], [232.266105005069, -97.99643813805758], [246.7772462598581, -67.82871813829004]]}, "properties": {"osm_id": null, "type": "tertiary", "width_m": 7, "extrude": false}}, {"type": "Feature", "geometry": {"type": "LineString", "coordinates": [[257.87973017288346, -58.81179813811727], [237.33039591278293, -100.44547813820216], [228.2731064048159, -121.37363813796355], [225.54618053140484, -143.08103813813048], [220.67667004324497, -196.9599181381473], [216.48889102343782, -247.83315813823833], [217.36540291134466, -269.98583813807204], [220.96884067248956, -296.0347181379559], [223.1114252874114, -304.27239813811866]]}, "properties": {"osm_id": null, "type": "tertiary", "width_m": 7, "extrude": false}}, {"type": "Feature", "geometry": {"type": "LineString", "coordinates": [[358.58120706815475, -202.5900536381198], [279.59774695013544, -168.01671813805655]]}, "properties": {"osm_id": null, "type": "residential", "width_m": 5, "extrude": false}}, {"type": "Feature", "geometry": {"type": "LineString", "coordinates": [[-75.00000679849533, -135.39995813814443], [-19.19541660412408, -177.5902381380105], [33.492686877900965, -215.66167813799296], [49.95163232805788, -226.01443813795697], [70.11140574905025, -236.58983813814984], [131.36984769024363, -263.75191813799165], [192.14133858263833, -290.2460781379378]]}, "properties": {"osm_id": null, "type": "tertiary", "width_m": 7, "extrude": false}}, {"type": "Feature", "geometry": {"type": "LineString", "coordinates": [[-298.2183675763264, -199.29763813817743], [-284.8759088386887, -180.15059813826952]]}, "properties": {"osm_id": null, "type": "footway", "width_m": 2, "extrude": false}}, {"type": "Feature", "geometry": {"type": "LineString", "coordinates": [[-134.1158641249399, -216.55223813811745], [-143.85488510125967, -230.4672381381839]]}, "properties": {"osm_id": null, "type": "residential", "width_m": 5, "extrude": false}}, {"type": "Feature", "geometry": {"type": "LineString", "coordinates": [[-332.5971116226903, -180.7071981380507], [-345.939570360328, -199.07499813794857], [-370.5792934305451, -231.69175813825618], [-375.448803918705, -238.59359813823218], [-377.4939983237633, -241.1539581380957], [-399.1146248911517, -269.6518781381242]]}, "properties": {"osm_id": null, "type": "tertiary", "width_m": 7, "extrude": false}}, {"type": "Feature", "geometry": {"type": "LineString", "coordinates": [[-116.4882361576315, -251.39539813794528], [-143.85488510125967, -230.4672381381839]]}, "properties": {"osm_id": null, "type": "residential", "width_m": 5, "extrude": false}}, {"type": "Feature", "geometry": {"type": "LineString", "coordinates": [[-157.87907530725016, -309.3931181382412], [-269.97520674479136, -226.34839813830027], [-301.3348542886726, -203.8617581381233], [-332.5971116226903, -180.7071981380507]]}, "properties": {"osm_id": null, "type": "residential", "width_m": 5, "extrude": false}}, {"type": "Feature", "geometry": {"type": "LineString", "coordinates": [[-143.85488510125967, -230.4672381381839], [-166.4494137664185, -261.19155813812813]]}, "properties": {"osm_id": null, "type": "residential", "width_m": 5, "extrude": false}}, {"type": "Feature", "geometry": {"type": "LineString", "coordinates": [[-368.14453818637867, -296.5913181381326], [-301.3348542886726, -203.8617581381233]]}, "properties": {"osm_id": null, "type": "residential", "width_m": 5, "extrude": false}}, {"type": "Feature", "geometry": {"type": "LineString", "coordinates": [[-251.081506050814, -199.40895813829187], [-269.97520674479136, -226.34839813830027], [-300.16617177152114, -270.43111813813425], [-320.71550603162166, -300.264878137954], [-336.88228085236096, -323.7533981379744]]}, "properties": {"osm_id": null, "type": "residential", "width_m": 5, "extrude": false}}, {"type": "Feature", "geometry": {"type": "LineString", "coordinates": [[-399.1146248911517, -269.6518781381242], [-401.06242908634647, -272.12874813780303]]}, "properties": {"osm_id": null, "type": "tertiary", "width_m": 7, "extrude": false}}, {"type": "Feature", "geometry": {"type": "LineString", "coordinates": [[-116.4882361576315, -251.39539813794528], [-138.59581377399164, -282.11971813828495], [-157.87907530725016, -309.3931181382412]]}, "properties": {"osm_id": null, "type": "residential", "width_m": 5, "extrude": false}}, {"type": "Feature", "geometry": {"type": "LineString", "coordinates": [[-300.16617177152114, -270.43111813813425], [-187.19352844590009, -352.13999813828394]]}, "properties": {"osm_id": null, "type": "residential", "width_m": 5, "extrude": false}}, {"type": "Feature", "geometry": {"type": "LineString", "coordinates": [[-292.6057436674066, -418.04143813839926], [-399.78549654421147, -323.8586860901165]]}, "properties": {"osm_id": null, "type": "primary", "width_m": 14, "extrude": false}}, {"type": "Feature", "geometry": {"type": "LineString", "coordinates": [[-211.93064172580773, -388.5416381381319], [-320.71550603162166, -300.264878137954]]}, "properties": {"osm_id": null, "type": "residential", "width_m": 5, "extrude": false}}, {"type": "Feature", "geometry": {"type": "LineString", "coordinates": [[-399.1146248911517, -269.6518781381242], [-391.51818852958075, -275.9971181379235], [-368.14453818637867, -296.5913181381326], [-336.88228085236096, -323.7533981379744], [-237.15470605468707, -417.3735181381082], [-235.8141584608377, -418.04143813839926]]}, "properties": {"osm_id": null, "type": "residential", "width_m": 5, "extrude": false}}, {"type": "Feature", "geometry": {"type": "LineString", "coordinates": [[-393.7492733974396, -349.0015590714945], [-391.22601790033616, -350.80415813809725], [-388.0121409781264, -353.5871581381896]]}, "properties": {"osm_id": null, "type": "tertiary", "width_m": 7, "extrude": false}}, {"type": "Feature", "geometry": {"type": "LineString", "coordinates": [[-388.0121409781264, -353.5871581381896], [-390.17733233113825, -357.7119584646765]]}, "properties": {"osm_id": null, "type": "tertiary", "width_m": 7, "extrude": false}}, {"type": "Feature", "geometry": {"type": "LineString", "coordinates": [[-157.87907530725016, -309.3931181382412], [-187.19352844590009, -352.13999813828394], [-211.93064172580773, -388.5416381381319], [-232.50255922319118, -418.04143813839926]]}, "properties": {"osm_id": null, "type": "residential", "width_m": 5, "extrude": false}}, {"type": "Feature", "geometry": {"type": "LineString", "coordinates": [[-401.06242908634647, -304.88286265427564], [-324.8058948417382, -371.843638137973], [-273.00943182364244, -418.04143813839926]]}, "properties": {"osm_id": null, "type": "primary", "width_m": 14, "extrude": false}}, {"type": "Feature", "geometry": {"type": "LineString", "coordinates": [[-317.5052369862993, -416.7785116871059], [-323.2476514854786, -411.4735581379756], [-358.21073679050477, -379.07943813829235], [-383.14263048996645, -357.70599813807326], [-388.0121409781264, -353.5871581381896]]}, "properties": {"osm_id": null, "type": "tertiary", "width_m": 7, "extrude": false}}, {"type": "Feature", "geometry": {"type": "LineString", "coordinates": [[223.1114252874114, -304.27239813811866], [347.2912043803058, -358.690508954494]]}, "properties": {"osm_id": null, "type": "tertiary", "width_m": 7, "extrude": false}}, {"type": "Feature", "geometry": {"type": "LineString", "coordinates": [[254.0220045219893, -418.04143813839926], [225.7409609509589, -313.06667813806257], [223.1114252874114, -304.27239813811866]]}, "properties": {"osm_id": null, "type": "tertiary", "width_m": 7, "extrude": false}}, {"type": "Feature", "geometry": {"type": "LineString", "coordinates": [[-359.33555327578546, -397.96137148780105], [-358.89246825885755, -391.32463813822426], [-358.21073679050477, -379.07943813829235]]}, "properties": {"osm_id": null, "type": "residential", "width_m": 5, "extrude": false}}, {"type": "Feature", "geometry": {"type": "LineString", "coordinates": [[-323.2476514854786, -411.4735581379756], [-323.51309851488764, -415.66166758358776]]}, "properties": {"osm_id": null, "type": "residential", "width_m": 5, "extrude": false}}]}