{"type": "FeatureCollection", "crs": {"type": "name", "properties": {"name": "EPSG:32628_local_enu_m_section_centroid", "lng0": -15.436043242365171, "lat0": 28.135704808317094}}, "features": [{"type": "Feature", "geometry": {"type": "Polygon", "coordinates": [[[-174.77238730072608, -115.80853587777361], [-174.5963794324424, -115.58141262916992], [-174.3393016825836, -115.24129836529983], [-174.33584633649733, -115.24521673237929], [-171.7490043865669, -111.90711626549792], [-169.1986344252489, -108.5700513297519], [-167.60153052475926, -106.42963919809999], [-165.95809651072346, -104.22713621746539], [-164.30783362024476, -102.01548128999781], [-163.8000797528431, -101.33499798684736], [-162.62186218605095, -99.77621430895937], [-160.4623041117187, -96.89510637688831], [-161.18988550251984, -96.18789643171941], [-158.08883812225827, -93.4828257594764], [-157.30064808471937, -94.37663431557581], [-155.35228955148085, -92.71955343017753], [-154.48108433280728, -93.59772932559629], [-153.86375080585245, -93.01434845526185], [-152.02141888915867, -95.32347182162965], [-151.8328610494327, -95.10964697958289], [-149.52732945706285, -97.83779575185426], [-149.22791211516295, -97.61143597475241], [-146.87193605566787, -100.50575597456371], [-146.58787909881633, -100.29100866223659], [-143.2282168405608, -104.1008701529283], [-137.98466172940113, -110.44348189112873], [-136.8577219597415, -110.68309774198977], [-134.9033974463252, -112.31609208619273], [-131.64616798959676, -116.12522284788108], [-131.74493050369432, -117.13319425562558], [-130.67997369383923, -118.22009045665928], [-130.4306658660492, -118.47139304325047], [-130.43224877288154, -118.4729188089442], [-127.73570349749589, -121.22501616031937], [-124.72402217419489, -124.22629703065977], [-124.70767078138485, -124.21263413496945], [-124.02248624410385, -124.98963431552771], [-123.25057322039264, -124.33312151537118], [-119.84452197291087, -127.80934151523833], [-119.8013624708143, -127.77263431542762], [-119.18037399109333, -128.4768360815245], [-118.08810685210986, -127.80121841110319], [-111.78087681058145, -135.68346318683103], [-107.29918599636339, -140.03967179193782], [-107.39850273614228, -141.05329963185685], [-107.01945010698326, -141.6264278827328], [-107.01945010698326, -142.54395574054888], [-106.92853885132911, -142.62127585457972], [-107.6092843466647, -143.2045392823343], [-112.14929362386542, -147.09442381510274], [-112.1492936238654, -147.09442381510277], [-114.51403503800053, -149.12053664642124], [-114.25573434701808, -149.46226886337203], [-120.26161944411311, -154.69189947495053], [-120.50042776242601, -154.4210905228419], [-124.9809986770102, -158.32953160314017], [-124.96706286944828, -158.4717606225622], [-126.65135245790063, -159.83603679690592], [-127.3410515320574, -159.5427419200015], [-128.39038464213994, -160.4021467499404], [-128.41716230273988, -160.37056621092148], [-130.3804756857954, -162.0403662110787], [-130.3941859744571, -162.02419682598565], [-135.11997444637245, -166.0434846573886], [-135.383921488216, -166.26797188108472], [-135.38392148826023, -166.2679718810337], [-136.5686974533004, -167.27562502664617], [-142.38953913248818, -160.2115657841364], [-143.56117086463595, -158.80701200832783], [-145.82728505568224, -156.0903911144802], [-146.0467273164227, -155.82732342227118], [-146.04607125985316, -155.82676544550125], [-148.96766427119627, -152.3066056325636], [-152.0080197542308, -148.63640185954333], [-157.43230578880448, -142.30433814125863], [-160.0506602887294, -142.30433814125863], [-160.61157952935986, -142.77627081469907], [-161.02774541785953, -142.30433814125863], [-162.2057334476728, -142.30433814125863], [-167.22617733829554, -136.61114805979875], [-167.02984600014176, -135.16398805983525], [-167.73667135763222, -134.3624471593698], [-167.14151778451657, -133.80002637010935], [-178.29960194689835, -120.48078178944552], [-174.77005297887484, -115.81118300187244], [-174.77238730072608, -115.80853587777361]]]}, "properties": {"id": 0, "height_median_m": 12.0, "building_count": 62, "area_m2": 2557.8318753028466}}, {"type": "Feature", "geometry": {"type": "Polygon", "coordinates": [[[-149.91735981632178, -86.3698457173841], [-148.1072034192083, -85.00136586925605], [-150.0549364419283, -83.34481698098453], [-146.1089848442608, -77.9378704326832], [-145.75447976389802, -76.3298334927677], [-144.57397754975236, -75.99516072035637], [-144.0831492040294, -73.88008072051493], [-142.44129616187925, -73.41461483442167], [-142.30333913226318, -73.19950508246077], [-142.246554327044, -73.24481941042987], [-139.62354565761797, -70.57803048835203], [-135.10875864719503, -65.79215432193162], [-128.62723356012563, -59.110283312184535], [-123.65087633056683, -54.054920454174656], [-122.33152407842331, -55.55106767127875], [-119.85599814614874, -57.95728171339891], [-119.73832441941981, -57.823839550029945], [-117.75728858151841, -60.070336837653], [-116.4879523053745, -61.29808513099465], [-113.70065661254233, -63.668682910738696], [-111.39036414414846, -66.28855765851996], [-111.2968823436433, -66.50057463154597], [-108.68550182214065, -69.10293708727052], [-105.65107174315207, -71.68372291008019], [-102.97185799637214, -74.72195488076099], [-100.01009264443996, -77.67100978826119], [-99.99352854928047, -77.65410445281904], [-99.79719721114812, -77.8767444530325], [-98.82421517756353, -76.88371781920014], [-90.74985519231264, -85.44548562474573], [-91.46491775001358, -86.17914067346332], [-84.10917291421488, -93.49217034902777], [-83.41593037115089, -92.81833780318816], [-79.30284963093588, -96.852274284367], [-79.97387325003892, -97.61321596518127], [-79.55093420145381, -97.97292604980606], [-79.65551359656709, -98.06893004765558], [-77.1846527079367, -100.40389634021851], [-73.30531707616858, -104.3003056405271], [-73.29241193483271, -104.28859808250806], [-73.0593208805925, -104.52509990561812], [-72.79475599649162, -104.78225727597443], [-72.83706878456111, -104.82064348255511], [-70.40365551538719, -107.18592396861857], [-70.40365551538719, -107.21962502366068], [-70.12617515751987, -107.50116568907472], [-69.80985779867655, -108.75663076569992], [-69.9218526776185, -109.7726495039125], [-70.37438833047523, -110.6707075656313], [-76.63740759940539, -116.0512168235992], [-76.63467549242097, -116.05431503657044], [-76.73406645843906, -116.13772005790283], [-76.53625030761911, -116.81069139587356], [-81.88987346166493, -121.11559351656304], [-81.88987346166492, -121.11559351656305], [-84.63767754160524, -123.32513036116421], [-84.63767754160524, -123.97043446931414], [-91.27128121058941, -129.64125379038276], [-91.3332538824436, -129.62847613715175], [-98.52050489543437, -135.52447563970244], [-101.43656632344107, -135.27952619126012], [-108.31929268910862, -128.63943378636426], [-107.96285536993138, -128.13418329127424], [-110.75874126044967, -125.28069878863725], [-111.02089275934046, -125.02177736762047], [-111.01639755262748, -125.01773446694243], [-115.9290238290881, -120.00390218048642], [-115.4790077553669, -119.61265774488984], [-112.70202848613658, -117.1983491228238], [-112.4523197330614, -116.98125207703927], [-112.45202706627978, -116.98155686894674], [-109.69568652952445, -114.59132039382314], [-109.35304581633115, -114.29419007932975], [-109.09293927832582, -114.06863154392094], [-109.09076125611652, -114.07130724735815], [-102.2481201654363, -108.25163414131838], [-107.95521254365758, -102.70433381253609], [-107.95929614912059, -102.70840892890207], [-108.20447582069424, -102.4620496217395], [-108.45722272590112, -102.21637934037115], [-108.45308204920326, -102.21224727141136], [-117.5688543793784, -93.05261612785178], [-120.73776763591323, -96.9728545300647], [-120.94660384622242, -97.25407892318026], [-120.9824662937711, -97.22625340608707], [-128.22031322891945, -106.60651408807851], [-128.20312185580175, -106.62357224815753], [-128.63379924962473, -107.20075894108311], [-129.61496278505544, -106.21174493218139], [-130.2555372828015, -106.5749511003256], [-133.4652163897008, -101.72191057126308], [-134.0635013776228, -102.40036654670884], [-135.9870591379932, -100.33385563735908], [-143.19026292802735, -93.21264915940245], [-143.11132889372308, -93.1231378590675], [-149.91735981632178, -86.3698457173841]]]}, "properties": {"id": 1, "height_median_m": 12.0, "building_count": 53, "area_m2": 2815.1679601564106}}, {"type": "Feature", "geometry": {"type": "Polygon", "coordinates": [[[-81.96286733248064, -83.41938691998368], [-82.62444335298098, -78.542904327058], [-79.60836093223986, -73.07051793378979], [-90.59999180155256, -75.20729349256119], [-100.38962968101572, -65.49351385900327], [-100.16988314069614, -65.24432098861308], [-111.31407559130099, -54.22322000149877], [-110.82164948445192, -53.776490510825994], [-112.42213743565483, -52.175059208718004], [-112.40696406323592, -52.14924927181705], [-114.77987436071238, -49.809350621109814], [-116.70036208267345, -47.95819032432506], [-119.51075313670435, -46.63027898642325], [-120.00830110500392, -43.80917868323638], [-118.64387946008449, -41.643020327143454], [-119.13610721426096, -41.308108168674515], [-117.47382157582425, -38.69806090427828], [-117.20288902901702, -38.90288615092487], [-115.85250350617612, -36.3871149572631], [-115.64430101165529, -36.50516591088145], [-114.73578487508074, -34.95977814118287], [-114.32417339887729, -34.95977814118287], [-112.00722420549438, -31.16461088979329], [-111.61950857665018, -31.38444591071111], [-110.26024331641365, -29.072332978279398], [-109.76513810982243, -29.2969129644917], [-107.76177401968503, -26.00277750943317], [-107.4719146002517, -26.22191148863913], [-104.44881514229414, -21.2569338793471], [-103.9345975310301, -21.548495608791242], [-102.1685796531064, -19.092395020204673], [-99.5294302630502, -14.303916723355178], [-99.2358863017729, -14.525836219870417], [-97.49298601464605, -11.341553642667723], [-97.29265991675487, -11.455138674130126], [-95.74675811999768, -8.715990699664843], [-95.16436394201705, -8.936135958181879], [-93.24705669533444, -5.348658141196518], [-93.02234729795283, -5.348658141196518], [-92.54030344656606, -4.665360176484179], [-91.86588581503483, -5.1023833167931], [-91.09147163031318, -3.8948765760776705], [-87.51466211759714, -5.922929960024858], [-87.21273788187342, -7.863097385496419], [-87.10125203413865, -7.9672121739984885], [-87.11543346712125, -7.992753799102081], [-76.43574016954585, -18.373427917778173], [-76.4333625770285, -18.36906642895271], [-74.85851755613349, -19.931708242446714], [-74.17512396317423, -18.713899424972087], [-64.1421950961936, -28.34982231969046], [-63.61698070012583, -31.923385281893395], [-69.7405006358272, -43.198181500860485], [-59.18700851727409, -37.75832960878046], [-57.91030915679167, -37.51703314503718], [-56.63092624145153, -37.63793497314199], [-55.45154782284312, -38.12426831965955], [-55.00745272878424, -38.50197164215906], [-46.462760574045, -46.85933127046819], [-45.70583624060393, -46.73670938381933], [-32.48703764396953, -59.114927148188244], [-23.279334279155098, -68.2305642220019], [-23.387543234469245, -71.54370992267046], [-26.889308835545545, -74.52196507607755], [-27.582018718535323, -73.84865027644013], [-33.915190632868864, -79.40440201215182], [-33.906656715112035, -79.41261320233205], [-34.205554550562205, -79.65912268948912], [-34.443295404160004, -79.86767997766825], [-34.45028270791373, -79.86095691311527], [-38.98092888401845, -83.5975087810124], [-49.33522847932219, -92.65910726026937], [-49.332290227322126, -92.66210604379476], [-49.615350446087845, -92.9042568973536], [-49.86282770089857, -93.12083741013505], [-49.86542353637451, -93.11818809732603], [-55.21156840916, -97.6916797375119], [-61.24492505835561, -102.91002808733894], [-70.35079992151194, -94.09225680594261], [-70.77028332581627, -94.4490278616439], [-75.52424959805629, -89.79316067918664], [-75.50954396217409, -89.77092573154256], [-81.96286733248064, -83.41938691998368]]]}, "properties": {"id": 2, "height_median_m": 12.0, "building_count": 71, "area_m2": 4467.772246133325}}, {"type": "Feature", "geometry": {"type": "Polygon", "coordinates": [[[-82.00819343926098, 3.1514646791221397], [-81.7588580188888, 3.528460279116721], [-82.12483714810698, 6.156925483399587], [-82.48775272244356, 6.465585543166989], [-80.01785307140638, 10.92151430132884], [-79.6259329619223, 10.699295337569044], [-78.6232105341245, 12.5186370549389], [-78.62267478239174, 12.518245091596386], [-75.60547047737036, 17.97128257344202], [-73.16443460509223, 18.726229285003015], [-69.73793588977863, 16.730893384112576], [-69.44690136127936, 17.390960472622083], [-60.78229828793963, 12.597950002370387], [-61.07815265392656, 11.926951509556469], [-57.62315581969146, 9.967965995710465], [-56.641499127251905, 9.411365995355293], [-56.054384302321836, 9.078471497311803], [-52.61858588216507, 7.186031496955537], [-48.90900064537525, 5.082694189378522], [-48.82777519863344, 5.266913719359994], [-45.92459577395376, 3.5549648587711986], [-45.63584785000344, 2.736363529524662], [-48.0300946784655, -1.9533185578017285], [-48.120971971685115, -1.901791071776544], [-51.370235915880166, -7.261310570407965], [-47.3095768165567, -14.935965316160399], [-40.36063147744281, -2.3943765413512446], [-37.23378755125649, -1.5384828745384753], [-37.070789935891824, -1.6291911543854327], [-31.214606275570983, -4.88816120193574], [-31.214606275570986, -4.8881612019357314], [-15.984548861245717, -13.36369814113038], [-15.884890832883952, -13.36369814113038], [-15.478710552276494, -13.5940026316431], [-15.540881562370934, -13.659408109438655], [-11.32115543891714, -15.983635997214162], [-9.327525806889225, -17.081728492577895], [-8.932985610545767, -17.30543304743572], [-6.206365347879394, -18.8514285575994], [-5.688261684476243, -18.028886212192486], [-3.977176207956477, -19.01737822841531], [-0.42729504488808845, -13.649951582883793], [-8.594781081024518, -9.168367673383742], [-8.60576455326909, -9.185493672662286], [-8.890579716779918, -9.006059908107101], [-9.209904753940767, -8.830842963491726], [-9.180919118736917, -8.785647058541485], [-12.714045080234913, -6.782362277905152], [-13.299557228353452, -6.450376498782989], [-17.635594351733495, -4.12123718069633], [-17.729205572037607, -4.439702927663691], [-19.187744516932632, -3.6127103713174167], [-19.384075855259006, -3.9466703716710048], [-22.152723568628414, -2.3768452680627496], [-21.80914372669942, -1.7924152681183618], [-28.955228597085405, 2.259419628380265], [-29.004311431667368, 2.175929628361273], [-33.31017687030332, 4.617358209353066], [-34.07949576420882, 8.106992821459277], [-34.13581610875502, 8.234727513422314], [-34.115625796582, 8.270878841294225], [-34.21302752657659, 8.71269360882529], [-32.62149100146236, 11.685312861494555], [-32.941272924863995, 11.86662942557944], [-32.9208567031987, 11.904028846787757], [-33.21788414670184, 12.12858185897236], [-32.79827394859309, 12.12858185897236], [-29.600070513095925, 17.987205425809268], [-29.804007399503764, 18.10283777667245], [-27.217436775991814, 22.69389358434126], [-26.686948316574252, 22.45326373531651], [-25.12026015622004, 25.414307848115477], [-20.27849261474664, 34.24228452879367], [-20.282371731360342, 34.24448399050565], [-18.741605229390657, 36.970164775473016], [-26.145698441111314, 38.76936154805749], [-40.59519774799998, 12.12858185897236], [-41.05838414550094, 11.274597474550045], [-43.39364077178567, 10.39186942946602], [-69.7983962750087, 25.083018012302038], [-70.00597129637092, 25.318408364346784], [-70.33103671631595, 27.653030960888096], [-63.40388154616909, 40.2216761130493], [-55.90492423371737, 54.06765184358059], [-55.93077160005824, 54.08363963339254], [-55.64402306686437, 54.517203926270035], [-56.013330300687834, 54.726601374803764], [-49.324473023521016, 66.68289116261475], [-49.42899552967775, 67.15700580927438], [-45.65351452361517, 74.09582731953292], [-45.7229322615064, 74.23358698270701], [-42.69204644104785, 79.9224618590556], [-41.756106271704375, 79.9224618590556], [-37.68454941076236, 87.30990333363457], [-35.99048466954793, 90.44428344387188], [-35.994552779375866, 90.44635940276311], [-35.819032332193146, 90.76150673704622], [-35.65755926282837, 91.06026626178144], [-35.6537279345971, 91.05831113268135], [-34.57768275160057, 92.99035253545024], [-31.43316925086496, 94.17898003949716], [-31.427295339176876, 94.18969559936932], [-31.418305700418873, 94.18459846818695], [-30.18141826935763, 94.65214246811743], [-27.598128314403514, 93.18741533751282], [-27.595309321687964, 93.19253012392221], [-27.28747531698102, 93.01127488039698], [-22.46149208622678, 90.27493916385365], [-22.11068293290346, 90.97112074927783], [-13.63207265002358, 86.04355861120263], [-14.02421853549174, 85.3765176741271], [-8.955256490293396, 82.45015635535519], [-6.928527717376983, 81.68405197544996], [-6.24954344238041, 79.57741323716114], [-6.2033078935348485, 79.55029366430867], [-6.2033078935348485, 79.40363361165265], [-5.330012969180817, 76.63074429991978], [-8.361400660962714, 71.25949790439873], [-2.611649006615498, 67.99938487369528], [-2.5563404192028263, 67.82376883997439], [-2.495764347276301, 67.93367819440162], [-2.495764347276265, 67.93367819440161], [0.8699157379781659, 74.04037533758405], [1.570375665942939, 73.64321409050065], [2.4904819674617165, 75.07789153176074], [3.460055453310299, 74.30824319164306], [4.19242052340938, 75.55399764360438], [5.84721323156718, 75.08486335756152], [6.082954883609437, 75.48586038048816], [22.787436688524483, 65.78339700268691], [22.64205295817374, 65.53609898582792], [31.289923749840842, 60.63275046826725], [31.479839548285938, 60.70453872472273], [33.58048557521322, 59.32540770253164], [33.76874015890192, 58.89844580280293], [33.490490312167275, 58.36701725870407], [34.180482340045884, 57.96461343381071], [34.197149938005666, 57.92681127702184], [35.90002715443142, 56.96127875737368], [35.93058013309072, 56.94395519805705], [39.119680119650965, 55.08406989401268], [39.61980461044282, 55.65121173513513], [41.347444198404844, 54.53169996267605], [41.53989119785307, 53.9861120765689], [42.15059997160035, 53.63983979378065], [42.41240742449543, 52.45227978793774], [42.121328378691395, 52.01216775189032], [42.31765971702332, 51.232927751834254], [41.16869357619714, 49.49568889995384], [38.85473424461447, 50.80770538675256], [38.85473424461447, 46.049267667930316], [38.632966260146304, 46.16284162504785], [35.54407069355524, 40.63208630868614], [35.546006467409214, 40.63098872361752], [35.373964566032676, 40.32750645195133], [34.5354448020905, 38.82611297900342], [34.5354448020905, 38.73927795800615], [32.581146985888985, 35.193395821711], [32.60867580297599, 35.17834442323055], [32.41181740598589, 34.84348789542919], [32.799228970113035, 33.67195394505761], [30.3523004281718, 29.311522144453363], [30.32924866710647, 29.323140245721085], [29.977939828141885, 28.644410768994597], [29.823492683100262, 28.369185632171533], [29.823492683100262, 28.346018533134657], [27.260550639434882, 23.3944086695619], [25.926917532261275, 23.016323237777804], [25.809119739301078, 22.749157528495726], [25.779199524748478, 22.766122310138325], [22.4153841994736, 16.726384775875097], [22.487173783278955, 16.681469198503038], [22.319157069392578, 16.39567243139886], [21.043003371310558, 13.94663243300619], [21.043003371310547, 13.946632433006172], [20.460439781155102, 12.828646773408746], [20.128587343959246, 12.191795668813578], [19.55353405682694, 11.088222875418207], [24.64941897581101, 6.960551228355511], [25.499691734097492, 8.443951911804367], [25.99532533195561, 8.219132246631752], [29.166552446148405, 13.950537405229571], [32.473397244504, 20.044232838516407], [36.2069367019576, 18.03873028011393], [36.21081602826146, 18.04570125865111], [36.514239025342675, 17.87366021649872], [36.849077476352655, 17.693798887107537], [41.153173703084164, 15.187416006622419], [41.442666212857766, 14.968559411057178], [44.64772259069479, 13.252249698110772], [47.42577999382824, 18.292762990330353], [49.38161725860236, 21.84143830580122], [49.478576039757556, 22.06134108061133], [49.780940828524784, 22.632811204777482], [50.468562016443926, 23.858153605742423], [53.34650291324582, 29.227283604855188], [50.10250993068516, 31.010892030141157], [50.16029829626875, 31.114972398541916], [41.327155592127646, 35.988008110683815], [44.6345212111036, 42.0372936461634], [44.761853430055695, 41.53191147362597], [47.10596199643906, 46.405318927379504], [47.1059619964391, 46.405318927379504], [47.71533977225018, 47.67221681657219], [48.358987197662564, 48.84947010787941], [48.298938709356506, 48.885520436926576], [48.311509365336136, 48.911654861512645], [48.45978809291549, 49.21992669950743], [54.65043356860744, 45.856080749698386], [94.57041190301835, 42.94990290228685], [98.78908436233641, 35.71559137018552], [80.92344692431038, 3.9269587104351125], [76.28178040835164, -4.4519223205054], [76.28959114681616, -4.456351014434805], [75.89692847019137, -5.1242710143034556], [76.67704969992909, -5.566600272839112], [73.67489574056998, -10.877536971875944], [73.7372837489594, -10.912911014328058], [70.3225019160168, -16.72146175740047], [70.4910125652665, -16.82762359156628], [67.08778180107458, -22.554279681404143], [66.38121907353585, -22.096426494332], [60.14903908490764, -33.077924094395634], [60.95339131145121, -33.648009407018044], [55.02656949442419, -44.19306408587538], [53.076066966764834, -44.58339452223348], [44.042356885877616, -39.69409849055799], [44.19918347839021, -39.33841535941747], [38.31659777075659, -36.21144970881422], [38.31344274090249, -36.21592196890563], [38.13991609856416, -36.11753224674988], [38.139916098564065, -36.11753224674983], [34.95290469924576, -34.310494653786094], [35.34556737564503, -33.75389465395157], [29.356662962007377, -30.358181849379083], [29.307473724330915, -30.443180952254753], [29.0859388498889, -30.31641814122697], [28.572067490106914, -30.31641814122697], [28.699898939716668, -30.09552513598073], [20.742716646544576, -25.5424054617824], [18.0373363146832, -24.05106279633769], [17.672281451815877, -23.91307189539148], [17.700362595038804, -23.865305814474247], [10.642582520401827, -19.9746999633591], [19.56889566011672, -3.58596972560824], [14.389826074087493, -0.6867972382157943], [6.347418013774899, -14.670952853429664], [-1.2193960943428959, -17.22199475675401], [0.8898662608103051, -24.663481115137003], [-1.317199280709849, -28.793126316518244], [-1.9984722717971712, -28.36392382651481], [-3.8912212092703595, -31.583493562388867], [-3.9567521695534533, -31.549195625523932], [-5.232905868371114, -33.88691562554882], [-5.2439072790815064, -33.88115764964975], [-6.836621747589017, -36.81613569501713], [-8.999382561684792, -40.58932593191903], [-8.139035976936645, -41.07714302035191], [-10.57680175777706, -45.42124676073001], [-10.385843403429494, -45.51967722849435], [-12.608368147687377, -49.36652116944403], [-12.696093708242651, -49.31678071797359], [-15.855251054264587, -54.88954084392928], [-21.495099750339225, -55.71859957928189], [-38.414487689674424, -39.466413526612556], [-38.414487689674424, -38.48477670995575], [-39.9736971374878, -37.01132204538492], [-40.56579225200987, -36.451791502900825], [-41.352865858717266, -35.67081679638463], [-42.72718522679871, -34.33497679618473], [-43.52206751923524, -33.54625391194862], [-44.008604429754236, -32.99452040541145], [-47.02298454003312, -30.21714265773241], [-47.39918892821306, -30.558435680652348], [-51.481391175944665, -26.567726366934412], [-51.918767698647514, -21.359877974448334], [-60.039778489771976, -17.0430480890704], [-60.36344018982554, -17.088927189161154], [-60.94358851980414, -16.56261600386603], [-62.06924387839309, -15.96425912224443], [-64.06890098571711, -14.121822883890141], [-64.02535803570933, -14.010722915956347], [-64.607250186256, -13.625800804740155], [-68.42461411607326, -10.108572969266973], [-68.59669760609023, -9.230429883973263], [-69.53078215375454, -8.171176758617685], [-72.8528437159967, -5.157398957151759], [-73.09068587704988, -5.427112285636707], [-79.66117703410833, 0.988979890471528], [-82.00819343926098, 3.1514646791221397]]]}, "properties": {"id": 3, "height_median_m": 9.0, "building_count": 230, "area_m2": 13217.336350370324}}, {"type": "Feature", "geometry": {"type": "Polygon", "coordinates": [[[20.11859237368205, -32.83365572302319], [19.40975190041301, -34.240351299803955], [14.87098024776915, -31.607016215147418], [11.309563930471182, -29.648882463430894], [12.177467266209343, -28.27099750422837], [14.369788478142452, -29.530619064207578], [20.11859237368205, -32.83365572302319]]]}, "properties": {"id": 4, "height_median_m": 9.0, "building_count": 1, "area_m2": 14.53007004450454}}, {"type": "Feature", "geometry": {"type": "Polygon", "coordinates": [[[-23.519964169054756, 104.92839317046194], [-24.120413692727837, 105.27285380785337], [-26.17412720774216, 111.44447556530275], [-22.675782265764862, 117.81592330699901], [-22.021087210564822, 117.37046826653562], [-7.586971664243006, 143.9689660352889], [-6.505554209071643, 144.41490379509338], [-6.46501936167671, 144.48806185898422], [-6.460509482343195, 144.48806185898422], [-4.309510379577215, 148.1999425110783], [-3.4244768755946913, 149.98417215791073], [-2.3876871128649335, 151.69431175984275], [-2.3876871128649335, 152.24316575959412], [-1.8541835557820274, 153.2111557544902], [-0.7751451322131149, 155.21346105026294], [0.30546116538660867, 157.21867575424847], [1.2874942410197043, 159.00047866648893], [4.59690228627765, 165.07655899842933], [4.450172770068695, 165.15975473223787], [6.436774410136345, 168.53896810431445], [6.003439578101557, 168.70276886347088], [6.407742537212754, 169.16124895941073], [7.232548463435867, 170.764673570196], [7.232548463435867, 171.9079795610197], [8.900152937704268, 174.21928208621148], [9.78485586125131, 174.8881182854119], [9.78485586125131, 175.74331475487864], [13.207542506199239, 178.4303902211597], [13.219723306729467, 178.47182935334948], [21.811412858493597, 179.79495110367003], [22.424810608015854, 179.33122185881206], [23.002416287040514, 179.33122185881206], [25.09262199601267, 177.93693005454048], [24.802483370609796, 177.6079124650099], [28.960815981231104, 174.46420930660176], [32.67155983645789, 171.0978185154246], [32.723873884474806, 170.60929714051483], [36.660494462682266, 167.26119739334234], [37.727950612624376, 167.32844720987507], [37.926966163107096, 165.86150185880786], [39.54189392864841, 165.86150185880786], [39.54189392864841, 164.44383819289936], [40.91621329671629, 164.5551581930138], [40.91621329671629, 163.1898218588299], [42.4868640031045, 163.1898218588299], [42.4868640031045, 161.6313418588098], [43.66485203285206, 161.6313418588098], [43.66485203285206, 159.97133629578724], [45.72633108477951, 160.09437419020466], [45.72633108477951, 158.762706110527], [47.27905874182637, 158.87275581263012], [47.378420468548256, 156.84458185903057], [48.551783285748634, 156.84458185903057], [48.69404061358541, 154.58610185901048], [48.18047281352198, 154.58610185901048], [48.18047281352198, 152.69366185904258], [47.53401324224967, 152.69366185904258], [47.73034458056999, 150.91254185879362], [47.12047173335667, 150.91254185879362], [47.218637402604024, 149.13142185894014], [46.53147771852942, 149.13142185894014], [46.636285849880295, 147.2297808809828], [46.2171594306675, 147.34860336101735], [46.2171594306675, 145.45786185872328], [45.72633108477951, 145.45786185872328], [45.72633108477951, 140.2258218588818], [45.529999746633564, 140.2258218588818], [45.529999746633564, 130.46174185880335], [46.2171594306675, 130.46174185880335], [46.2171594306675, 128.34666185900207], [46.68922885543632, 128.34666185900207], [46.78739452450929, 126.56554185875311], [47.19881612209474, 126.56554185875311], [47.19881612209474, 124.6731018587852], [47.571506992761066, 124.6731018587852], [47.669672661834035, 123.00330185904616], [48.082307144449004, 123.00330185904616], [48.082307144449004, 120.22890229238816], [48.581094743657445, 118.60272810572457], [49.129744933571224, 116.81398921614158], [47.885975806128684, 116.08499989903032], [5.134597704657808, 91.02785927692885], [1.1180359585008668, 90.79428048756374], [-22.44067908175743, 104.30923832989635], [-22.810958506113135, 104.52165699540924], [-23.519964169054752, 104.92839317046194], [-23.519964169054756, 104.92839317046194]]]}, "properties": {"id": 5, "height_median_m": 27.0, "building_count": 47, "area_m2": 4082.5712525017243}}, {"type": "Feature", "geometry": {"type": "Polygon", "coordinates": [[[47.885975806128684, 102.58265650408364], [49.1394224082099, 103.31844527302638], [53.32026845161504, 105.77265397909211], [54.77373203865231, 106.62585520970981], [57.21737314829646, 103.85476292570789], [59.56279208179044, 101.41669707097498], [61.99928679766455, 99.0957869293324], [63.33110322548053, 98.05020735398426], [63.42789708784334, 97.83067861582603], [64.5359229662242, 96.99301006447389], [65.80210767387979, 95.998956498763], [66.46725968075602, 95.56793749030699], [67.24580878650774, 95.1264996271219], [70.08175094754883, 93.46307090254089], [76.12728270871447, 90.58812463649878], [84.14197836048939, 88.3426871402686], [87.2374307558609, 87.82400615216015], [90.25874482465048, 87.60296265608798], [92.70011754390157, 87.49222185892722], [93.07823364345525, 87.49222185892722], [96.31759580535159, 87.61466989307222], [98.63162637950636, 75.40683629775198], [99.02334162980324, 73.29685961463275], [99.51379497247264, 71.07216063053026], [101.11842366754098, 62.883730750032356], [99.17091300736041, 60.67525105874751], [99.17091300729543, 60.675251058735725], [97.7184985949574, 59.02821117397551], [95.19654838071533, 56.16831626040896], [90.03658745796122, 56.51940041569908], [89.84062300960247, 56.630512388565215], [83.15862174756376, 57.06978185882644], [82.86195133932124, 57.06978185882644], [77.15315509658711, 57.516249622236685], [74.60211891154184, 57.73877873307167], [69.89457188978784, 58.07242652178009], [64.46880239578685, 58.40803542302908], [63.9808012446268, 58.51871421426922], [61.50479371055035, 58.631026048483434], [59.2975277195695, 59.4274486887307], [57.04146501489765, 60.206085508487064], [55.72890669855435, 60.66406793468166], [52.275607743637664, 62.789921276368155], [50.904571808927756, 63.456245526166065], [45.39771853283111, 66.69014892334803], [42.059909567378966, 68.58268883707208], [36.955294771752264, 71.58832883739088], [29.300861314004987, 75.92839772230363], [25.395027139274706, 78.14300830944795], [25.293203842958256, 89.45884821933679], [33.02898896306848, 93.90200712736701], [37.83767400060133, 96.68417817786047], [47.885975806128684, 102.58265650408364]]]}, "properties": {"id": 6, "height_median_m": 33.0, "building_count": 11, "area_m2": 2362.0934850420495}}, {"type": "Feature", "geometry": {"type": "Polygon", "coordinates": [[[62.3800086, -44.52469539], [62.800517277, -44.286266689], [63.095014285, -43.840986688], [63.621201023, -43.542638456], [64.428415626, -42.118710219], [64.525176746, -42.00898298], [66.77370013, -37.929257344], [66.768087938, -37.926870757], [66.962059303, -37.587498057], [67.113335202, -37.313022742], [67.117842492, -37.314939469], [70.585326791, -31.248221789], [70.129607876, -30.98982886], [73.038216943, -25.788558501], [73.267764422, -25.94474279], [76.727466389, -19.841821328], [76.847715511, -19.160008], [79.162691701, -15.051021073], [79.996281902, -14.29478715], [80.086742613, -14.346078433], [83.257441721, -8.867103917], [84.671370215, -6.261584116], [83.980076097, -5.813624999], [88.61410344, 2.42715979], [89.400431563, 2.092773362], [89.420199652, 2.127644312], [89.707279519, 1.962286114], [90.048786849, 1.817059951], [90.026785896, 1.778250225], [96.196824479, -1.775696187], [95.807285509, -2.548737185], [98.556300232, -4.057149944], [102.191039112, -6.118049318], [106.831307413, 2.190482979], [100.415028291, 5.828517528], [100.320070055, 5.613151996], [94.046836892, 9.000701896], [93.944734961, 8.88491817], [92.814552113, 9.5257326], [97.253449079, 18.035108111], [98.136803245, 17.589897087], [99.420222899, 20.052881031], [99.430787104, 20.046952872], [104.166829178, 28.425210615], [105.344551448, 30.539813443], [109.467129395, 37.886256002], [110.003338988, 38.859155834], [114.498756173, 41.52391968], [122.470656041, 40.958910611], [123.354963631, 40.847487723], [124.817670869, 40.736906925], [134.678513723, 40.052281886], [136.192175847, 40.967745818], [145.052903366, 40.312436458], [145.150299024, 40.643776876], [154.39572683, 40.048076451], [154.39572683, 39.493035194], [156.2928096, 39.379809173], [156.096107636, 37.26073642], [157.635193912, 37.151653552], [157.635193912, 35.481853552], [159.230981577, 35.368751968], [158.602856307, 26.939929039], [158.101678539, 26.620239893], [157.631605648, 17.824695665], [157.110642194, 16.524994509], [154.750196166, 12.335300499], [153.44049715, 12.229214754], [151.894568068, 9.599586285], [148.557856305, 3.734641109], [149.331883278, 3.358463557], [144.573418522, -5.003069123], [136.644566164, -18.935579188], [136.839656959, -19.093602918], [134.920943948, -22.085359706], [134.336382239, -21.753912826], [130.240521769, -29.030627112], [131.760228883, -29.866190699], [136.363117579, -32.84886609], [137.713938218, -30.244750993], [137.782721404, -30.288626119], [140.387113792, -25.681346379], [141.075632684, -24.342864076], [142.062289546, -22.664558776], [150.35936119, -8.551223278], [149.944107962, -8.296136304], [149.986746773, -8.218589893], [153.728090169, -10.44095049], [156.876893113, -12.300728334], [157.163285432, -12.469608445], [157.162778263, -12.470555718], [161.179535024, -14.856512046], [160.580163986, -26.52448178], [160.580163986, -26.639148483], [160.383832648, -29.422148483], [160.383832648, -29.757784837], [159.931109652, -35.405058141], [160.890433122, -35.405058141], [160.638657933, -41.11532617], [160.696263621, -41.121858663], [160.264406019, -48.835060432], [160.170294782, -48.824388205], [159.694679534, -59.072006404], [159.696526672, -60.594725473], [159.422119606, -64.173272241], [159.422119605, -64.173272242], [158.22033681, -66.353789516], [158.027856588, -70.828382506], [158.027856588, -71.052569751], [157.931573548, -72.908716372], [157.938201548, -72.912595681], [157.793870271, -76.267868842], [157.649529183, -76.513393322], [157.424592405, -80.785959977], [158.331911405, -81.014604634], [158.11801611, -87.199822176], [157.046199897, -87.641800728], [157.046199897, -88.421158438], [156.751702889, -88.272731771], [156.751702889, -93.339901153], [156.655246737, -93.287398078], [156.260874544, -100.219286279], [156.260874544, -100.564256265], [156.162708875, -100.675576265], [156.162708875, -101.004618141], [155.257938302, -101.004618141], [154.877283445, -100.860730435], [148.088763028, -96.955850829], [146.519084534, -96.177093168], [145.723380187, -95.725928272], [142.485299789, -93.834298349], [138.179477505, -91.444839005], [138.177906028, -91.447639381], [137.423485559, -91.019882471], [137.126495045, -91.693457752], [133.809227404, -89.742902081], [134.18927268, -89.204187267], [133.132042396, -88.659232469], [133.139743044, -88.646657604], [127.959724201, -85.709583458], [127.631730906, -85.52361104], [126.186754609, -84.704308514], [124.71091332, -83.867505517], [123.056529942, -82.929469037], [122.17303892, -82.484189037], [117.84639194, -80.030977308], [111.656423486, -76.521261059], [113.423405531, -73.292981059], [113.024162616, -73.06661006], [116.514807793, -67.005315731], [116.896430948, -67.221696315], [117.765417149, -65.579310458], [117.823685892, -65.605741191], [117.976263577, -65.333041428], [117.976263577, -65.333041427], [122.334569491, -57.543507884], [123.948482117, -54.658986517], [127.167190954, -48.90623741], [127.160861519, -48.902477721], [127.538109713, -48.260777787], [126.862451476, -47.932407497], [127.29373441, -47.137659934], [127.410537102, -47.468795957], [129.875591438, -43.042785682], [130.210121574, -43.270400255], [133.781948136, -37.194716113], [127.853781608, -33.353259675], [124.514157382, -39.033967176], [124.604934455, -39.08484622], [124.506002698, -39.234431213], [125.845241343, -43.031177249], [121.182462036, -45.146216437], [117.730841078, -51.076735799], [118.282322137, -51.451963954], [117.976263577, -52.010295267], [115.701023345, -56.160931881], [115.116629123, -55.829579967], [113.809003052, -58.300996154], [111.450200339, -62.313324296], [111.047402094, -63.019247361], [106.252261918, -71.655587064], [105.488380232, -73.099325151], [104.293268313, -72.346403754], [97.331937344, -68.45491711], [90.605441724, -64.718824854], [87.652579898, -63.115643053], [87.093304812, -63.432752401], [79.384315286, -58.8869101], [79.384315286, -58.38338402], [70.535071617, -53.479891653], [70.533357969, -53.482755432], [69.108820667, -52.67504183], [68.81432366, -53.00900183], [64.860385474, -50.767116237], [64.271391456, -50.544476236], [63.625068081, -50.17801045], [63.625068079, -50.178010449], [63.435187852, -50.005750903], [63.43518785, -50.005750902], [63.050400422, -49.656671336], [62.805393166, -49.100994225], [62.732793544, -49.059830191], [61.910826178, -46.49652194], [61.910826178, -45.588802377], [62.136905558, -45.07605374], [62.3800086, -44.52469539]]]}, "properties": {"id": 7, "height_median_m": 9.0, "building_count": 172, "area_m2": 8043.768537998659}}]}