{"type": "FeatureCollection", "crs": {"type": "name", "properties": {"name": "EPSG:32628_local_enu_m_section_centroid", "lng0": -16.5852380525353, "lat0": 28.075808253594456}}, "features": [{"type": "Feature", "geometry": {"type": "Point", "coordinates": [2391.7723740200554, 719.2667501347846]}, "properties": {"osm_id": null, "category": "restauracion", "name": "Méson de Antonio", "extrude": false}}, {"type": "Feature", "geometry": {"type": "Point", "coordinates": [2000.5601522112358, 52.34863013499819]}, "properties": {"osm_id": null, "category": "restauracion", "name": "La Tasca Nuestra", "extrude": false}}, {"type": "Feature", "geometry": {"type": "Point", "coordinates": [2383.52185264647, -109.62196986500004]}, "properties": {"osm_id": null, "category": "salud", "name": "Pharmacia", "extrude": false}}, {"type": "Feature", "geometry": {"type": "Point", "coordinates": [-2151.809390645428, 2591.0012301347965]}, "properties": {"osm_id": null, "category": "restauracion", "name": "Don Boñuelo", "extrude": false}}, {"type": "Feature", "geometry": {"type": "Point", "coordinates": [-2142.6748848387215, -966.2293698651986]}, "properties": {"osm_id": null, "category": "restauracion", "name": "el Rinconcito de Hilario", "extrude": false}}, {"type": "Feature", "geometry": {"type": "Point", "coordinates": [2502.270428134001, -132.55388986523926]}, "properties": {"osm_id": null, "category": "restauracion", "name": "MIPPA", "extrude": false}}, {"type": "Feature", "geometry": {"type": "Point", "coordinates": [2255.344109874293, -197.7874098650635]}, "properties": {"osm_id": null, "category": "restauracion", "name": "Bar Almogrote", "extrude": false}}, {"type": "Feature", "geometry": {"type": "Point", "coordinates": [2419.470552918114, -289.1811298652816]}, "properties": {"osm_id": null, "category": "restauracion", "name": "Al Pomodore", "extrude": false}}, {"type": "Feature", "geometry": {"type": "Point", "coordinates": [2472.4113984001615, -322.24316986525594]}, "properties": {"osm_id": null, "category": "restauracion", "name": "Bar Croissanteria Gomar", "extrude": false}}, {"type": "Feature", "geometry": {"type": "Point", "coordinates": [2624.751382338263, -411.52180986527725]}, "properties": {"osm_id": null, "category": "restauracion", "name": "Alma Bar Cafeteria", "extrude": false}}, {"type": "Feature", "geometry": {"type": "Point", "coordinates": [2596.562100977669, -437.57068986516117]}, "properties": {"osm_id": null, "category": "restauracion", "name": "", "extrude": false}}, {"type": "Feature", "geometry": {"type": "Point", "coordinates": [2657.851688325949, -441.8008498651592]}, "properties": {"osm_id": null, "category": "finanzas", "name": "Caixabank", "extrude": false}}, {"type": "Feature", "geometry": {"type": "Point", "coordinates": [2583.6952164542326, -451.1517298652798]}, "properties": {"osm_id": null, "category": "salud", "name": "", "extrude": false}}, {"type": "Feature", "geometry": {"type": "Point", "coordinates": [2586.6418312304886, -469.7421698650111]}, "properties": {"osm_id": null, "category": "restauracion", "name": "", "extrude": false}}, {"type": "Feature", "geometry": {"type": "Point", "coordinates": [2174.1157625390056, -847.3396098651909]}, "properties": {"osm_id": null, "category": "restauracion", "name": "El Rincon De Marisol", "extrude": false}}, {"type": "Feature", "geometry": {"type": "Point", "coordinates": [2331.857873567432, -910.9033298652762]}, "properties": {"osm_id": null, "category": "restauracion", "name": "Abona", "extrude": false}}, {"type": "Feature", "geometry": {"type": "Point", "coordinates": [2551.086012929082, -1072.2060098649833]}, "properties": {"osm_id": null, "category": "restauracion", "name": "Los Cazadores", "extrude": false}}, {"type": "Feature", "geometry": {"type": "Point", "coordinates": [2712.4622821815915, -10.547169865191393]}, "properties": {"osm_id": null, "category": "restauracion", "name": "El Nuevo Descanso", "extrude": false}}, {"type": "Feature", "geometry": {"type": "Point", "coordinates": [2701.068705046109, -61.19776986505357]}, "properties": {"osm_id": null, "category": "salud", "name": "Centro medico de salud San Isidro s.l", "extrude": false}}, {"type": "Feature", "geometry": {"type": "Point", "coordinates": [2676.1206999397104, -468.2950098651054]}, "properties": {"osm_id": null, "category": "restauracion", "name": "Cafe 42", "extrude": false}}]}