{"type": "FeatureCollection", "crs": {"type": "name", "properties": {"name": "EPSG:32628_local_enu_m_section_centroid", "lng0": -15.44016587588104, "lat0": 28.11646883273166}}, "features": [{"type": "Feature", "geometry": {"type": "LineString", "coordinates": [[-32.70722116470102, 265.47957968846686], [-41.83826690761348, 291.4171396882364], [-40.85643403189084, 303.9962996881161], [-33.001771027330605, 324.59049968832517], [-20.434310219824937, 357.76385968841396], [-12.08873077731618, 378.9146596884042], [-8.848682287867499, 386.7070596881092], [-4.528617635385531, 405.52013968846484], [-1.092202570792323, 429.6765796883808], [-1.092202570792323, 430.6784596882243]]}, "properties": {"osm_id": null, "type": "residential", "width_m": 5, "extrude": false}}, {"type": "Feature", "geometry": {"type": "LineString", "coordinates": [[133.32071809688773, 323.3659796882529], [144.70997945370067, 335.0545796884036], [202.34356925050946, 421.7728596881659], [206.1727174653917, 428.3407396881941], [206.90012177446278, 429.42591000272785]]}, "properties": {"osm_id": null, "type": "residential", "width_m": 5, "extrude": false}}, {"type": "Feature", "geometry": {"type": "LineString", "coordinates": [[126.64425454284587, 313.7924596882989], [114.5677101731143, 367.8939796881491], [101.57429407578977, 430.6784596882243]]}, "properties": {"osm_id": null, "type": "tertiary", "width_m": 7, "extrude": false}}, {"type": "Feature", "geometry": {"type": "LineString", "coordinates": [[-57.8444529744945, 430.6784596882243], [-57.842142779537944, 430.5671396881098], [-60.198541680923455, 378.13541968839417]]}, "properties": {"osm_id": null, "type": "footway", "width_m": 2, "extrude": false}}, {"type": "Feature", "geometry": {"type": "LineString", "coordinates": [[-132.58318860069855, 430.6784596882243], [-119.01033092859942, 408.6370996881095], [-111.74476764929835, 385.7051796882658], [-109.19200217276831, 352.531819688177], [-108.21016929722008, 311.12077968832097], [-101.43552245551872, 273.82857968834855], [-93.77722602610302, 251.1192996883382], [-86.70802932177207, 234.64393968840824], [-80.52248220567871, 200.80265968842383], [-78.46063316692279, 126.44089968831238], [-80.22793234287471, 52.52441968826318], [-75.41695125261863, 5.65869968833681], [-76.59515070331139, -2.801620311659292], [-80.62066549316377, -14.04494031174778], [-85.62801315873878, -24.397700311711787], [-88.96624493567252, -33.859900311551314], [-89.8498945237357, -42.43154031166185], [-89.06442822315759, -49.22206031191891], [-89.8498945237357, -55.233340311770434], [-89.35897808596158, -71.59738031158597], [-74.33693508941093, -100.5405803116767], [-87.68986219732031, -106.99714031159047]]}, "properties": {"osm_id": null, "type": "footway", "width_m": 2, "extrude": false}}, {"type": "Feature", "geometry": {"type": "LineString", "coordinates": [[170.53218408163065, 298.6529396881602], [176.4231813350944, 306.7792996882085], [236.31498674580368, 397.7277396883643], [240.73323468594512, 404.8522196881737], [242.99145029984555, 408.3031396881617], [246.09368635572687, 412.91675221459116]]}, "properties": {"osm_id": null, "type": "residential", "width_m": 5, "extrude": false}}, {"type": "Feature", "geometry": {"type": "LineString", "coordinates": [[274.70485942429696, 381.10563910966647], [271.4646036917906, 375.46373968841624], [229.54033990427672, 311.00945968820656], [211.5727982810814, 284.4039796881459], [208.03819992900313, 278.83797968835665], [205.68180102744319, 275.1644196881398]]}, "properties": {"osm_id": null, "type": "residential", "width_m": 5, "extrude": false}}, {"type": "Feature", "geometry": {"type": "LineString", "coordinates": [[-58.21033010817374, 430.6784596882243], [-57.842142779537944, 430.5671396881098]]}, "properties": {"osm_id": null, "type": "footway", "width_m": 2, "extrude": false}}, {"type": "Feature", "geometry": {"type": "LineString", "coordinates": [[-86.52114251239153, 430.6784596882243], [-86.1189295965129, 419.6577796883646], [-86.9043958969166, 400.2880996882278], [-84.94073014582014, 394.6107796883241], [-76.10423426553727, 389.1560996882538], [-60.198541680923455, 378.13541968839417]]}, "properties": {"osm_id": null, "type": "footway", "width_m": 2, "extrude": false}}, {"type": "Feature", "geometry": {"type": "LineString", "coordinates": [[-107.6210695717865, 419.99173968831246], [-107.42632586091523, 430.6784596882243]]}, "properties": {"osm_id": null, "type": "footway", "width_m": 2, "extrude": false}}, {"type": "Feature", "geometry": {"type": "LineString", "coordinates": [[-82.48614795677517, 362.1053396881309], [-76.10423426553727, 389.1560996882538], [-72.56963591345901, 398.5069796883744], [-71.25597989007046, 430.6784596882243]]}, "properties": {"osm_id": null, "type": "footway", "width_m": 2, "extrude": false}}, {"type": "Feature", "geometry": {"type": "LineString", "coordinates": [[-115.10073576202572, 430.6784596882243], [-107.6210695717865, 419.99173968831246], [-98.88275697898868, 406.076739688246], [-91.51901041220256, 394.72209968843856], [-84.35163042038657, 363.7751396882655], [-82.48614795677517, 362.1053396881309], [-62.35857400733885, 345.9639396881488], [-60.198541680923455, 378.13541968839417]]}, "properties": {"osm_id": null, "type": "footway", "width_m": 2, "extrude": false}}, {"type": "Feature", "geometry": {"type": "LineString", "coordinates": [[-62.35857400733885, 345.9639396881488], [-58.33305921731206, 328.375379688261], [-56.173026891071075, 327.4848196881365], [-52.834795114137336, 328.48669968837544], [-49.59474662468865, 331.26969968846777], [-45.47104854717681, 336.8356996882571], [-38.10730198039069, 352.30917968834365], [-18.863377618843128, 399.73149968844666], [-13.856029953442517, 414.98233968830436], [-12.87419707771988, 424.6671796883727], [-12.913763477185396, 430.6784596882243]]}, "properties": {"osm_id": null, "type": "footway", "width_m": 2, "extrude": false}}, {"type": "Feature", "geometry": {"type": "LineString", "coordinates": [[110.40938313551267, 430.6784596882243], [123.1096561907676, 370.00905968834587], [133.32071809688773, 323.3659796882529], [135.48075042312874, 316.01885968821466], [141.56811425173706, 296.53785968835894], [179.9577796871727, 165.51421968813827], [197.04167172230487, 106.51461968839442]]}, "properties": {"osm_id": null, "type": "tertiary", "width_m": 7, "extrude": false}}, {"type": "Feature", "geometry": {"type": "LineString", "coordinates": [[-12.08873077731618, 378.9146596884042], [-3.8413346224668894, 375.797699688364]]}, "properties": {"osm_id": null, "type": "service", "width_m": 3.5, "extrude": false}}, {"type": "Feature", "geometry": {"type": "LineString", "coordinates": [[114.5677101731143, 367.8939796881491], [63.80695050549194, 356.3166996881128]]}, "properties": {"osm_id": null, "type": "footway", "width_m": 2, "extrude": false}}, {"type": "Feature", "geometry": {"type": "LineString", "coordinates": [[152.76100903340543, 368.7845396882736], [139.99718165092963, 366.22417968841006], [141.1753811016224, 360.7694996883397], [144.51361287855616, 344.5167796882431], [157.8665399864655, 365.44493968840004], [152.76100903340543, 368.7845396882736]]}, "properties": {"osm_id": null, "type": "pedestrian", "width_m": 4, "extrude": false}}, {"type": "Feature", "geometry": {"type": "LineString", "coordinates": [[-20.434310219824937, 357.76385968841396], [19.919020966707162, 341.9564196883796]]}, "properties": {"osm_id": null, "type": "footway", "width_m": 2, "extrude": false}}, {"type": "Feature", "geometry": {"type": "LineString", "coordinates": [[19.919020966707162, 341.9564196883796], [24.435452194508066, 347.41109968844995], [63.80695050549194, 356.3166996881128]]}, "properties": {"osm_id": null, "type": "residential", "width_m": 5, "extrude": false}}, {"type": "Feature", "geometry": {"type": "LineString", "coordinates": [[63.80695050549194, 356.3166996881128], [68.4215650206035, 354.9808596883216], [70.87614720964848, 351.52993968833357], [83.24724144200961, 300.6566996882425]]}, "properties": {"osm_id": null, "type": "residential", "width_m": 5, "extrude": false}}, {"type": "Feature", "geometry": {"type": "LineString", "coordinates": [[70.48341405935942, 296.7604996881923], [59.192335990205976, 349.4148596881368], [60.76326859118779, 353.8676596883637], [63.80695050549194, 356.3166996881128]]}, "properties": {"osm_id": null, "type": "residential", "width_m": 5, "extrude": false}}, {"type": "Feature", "geometry": {"type": "LineString", "coordinates": [[126.64425454284587, 313.7924596882989], [135.48075042312874, 316.01885968821466]]}, "properties": {"osm_id": null, "type": "residential", "width_m": 5, "extrude": false}}, {"type": "Feature", "geometry": {"type": "LineString", "coordinates": [[267.90362754717285, 391.24162830289407], [242.99145029984555, 408.3031396881617], [211.93589128112637, 428.578979063053]]}, "properties": {"osm_id": null, "type": "residential", "width_m": 5, "extrude": false}}, {"type": "Feature", "geometry": {"type": "LineString", "coordinates": [[279.9083664217845, 226.74021968819332], [291.1994444909379, 244.42872829042585]]}, "properties": {"osm_id": null, "type": "residential", "width_m": 5, "extrude": false}}, {"type": "Feature", "geometry": {"type": "LineString", "coordinates": [[179.9577796871727, 165.51421968813827], [186.73242652869965, 169.85569968825075], [189.67792515551872, 172.5273796882287], [235.4313371577405, 243.54953968846658], [239.65321852273743, 250.1174196880993], [241.02778454857466, 252.3438196884105], [246.5260486519238, 260.5814996881777], [290.8566213427277, 327.2704701073211]]}, "properties": {"osm_id": null, "type": "residential", "width_m": 5, "extrude": false}}, {"type": "Feature", "geometry": {"type": "LineString", "coordinates": [[-6.197733523852401, 273.49461968840075], [19.919020966707162, 341.9564196883796], [32.5846650618723, 294.4227796881621], [34.94106396325781, 285.96245968816606]]}, "properties": {"osm_id": null, "type": "residential", "width_m": 5, "extrude": false}}, {"type": "Feature", "geometry": {"type": "LineString", "coordinates": [[-58.33305921731206, 328.375379688261], [-60.00217510595334, 301.4359396882526], [-59.21670880537523, 293.9774996880999], [-53.42389483939651, 271.49085968831844]]}, "properties": {"osm_id": null, "type": "footway", "width_m": 2, "extrude": false}}, {"type": "Feature", "geometry": {"type": "LineString", "coordinates": [[9.217042622812892, 290.30393968827855], [10.100692210876062, 289.30205968843507], [10.886158511454171, 288.85677968837285], [11.769808099342931, 288.7454596882584], [20.21357082951116, 290.8605396884552], [20.9008538424298, 291.7510996881842], [21.391770280203914, 292.30769968836086], [21.980870005463085, 293.7548596882665], [9.217042622812892, 290.30393968827855]]}, "properties": {"osm_id": null, "type": "pedestrian", "width_m": 4, "extrude": false}}, {"type": "Feature", "geometry": {"type": "LineString", "coordinates": [[126.64425454284587, 313.7924596882989], [118.10230852536698, 311.23209968843537], [83.24724144200961, 300.6566996882425], [70.48341405935942, 296.7604996881923], [34.94106396325781, 285.96245968816606], [30.620999310601434, 284.62661968837483], [-6.197733523852401, 273.49461968840075], [-24.754374872306908, 267.81729968810157], [-27.699873499126, 266.92673968837255], [-32.70722116470102, 265.47957968846686]]}, "properties": {"osm_id": null, "type": "residential", "width_m": 5, "extrude": false}}, {"type": "Feature", "geometry": {"type": "LineString", "coordinates": [[163.85572052758877, 275.4983796880876], [177.50319749830211, 279.50589968825227], [178.77958023647994, 275.8323396884309], [182.3141785885582, 280.95305968815796], [158.1610898492695, 293.7548596882665], [163.07025422718505, 277.9474196882322], [163.85572052758877, 275.4983796880876]]}, "properties": {"osm_id": null, "type": "pedestrian", "width_m": 4, "extrude": false}}, {"type": "Feature", "geometry": {"type": "LineString", "coordinates": [[135.48075042312874, 316.01885968821466], [145.88817890439344, 313.6811396881845], [170.53218408163065, 298.6529396881602], [198.0235045980275, 280.1738196881479], [205.68180102744319, 275.1644196881398], [232.97675496886995, 257.57585968825197], [241.02778454857466, 252.3438196884105], [272.3482532798538, 230.97037968819137], [277.7483340955435, 227.9647396882656], [279.9083664217845, 226.74021968819332]]}, "properties": {"osm_id": null, "type": "residential", "width_m": 5, "extrude": false}}, {"type": "Feature", "geometry": {"type": "LineString", "coordinates": [[139.309898638011, 272.60405968827627], [43.28664340576657, 244.2174596883622]]}, "properties": {"osm_id": null, "type": "residential", "width_m": 5, "extrude": false}}, {"type": "Feature", "geometry": {"type": "LineString", "coordinates": [[176.91409777286853, 233.64205968816933], [188.205175842022, 236.98165968843838], [187.91062597939242, 238.09485968839624], [184.08147776468454, 250.4513796884426], [183.6887446143955, 251.89853968834825], [183.0996448891363, 251.78721968823382], [172.29948325758255, 248.44761968836025], [172.79039969535668, 246.77781968822572], [166.89940244189293, 244.99669968837225], [170.3358175064861, 233.75337968828376], [176.32499804743497, 235.53449968813723], [176.91409777286853, 233.64205968816933]]}, "properties": {"osm_id": null, "type": "pedestrian", "width_m": 4, "extrude": false}}, {"type": "Feature", "geometry": {"type": "LineString", "coordinates": [[-7.965032699804331, 179.4292196882047], [-19.747027206906296, 221.84213968829965], [-25.44165788522555, 240.98917968820757], [-32.70722116470102, 265.47957968846686]]}, "properties": {"osm_id": null, "type": "residential", "width_m": 5, "extrude": false}}, {"type": "Feature", "geometry": {"type": "LineString", "coordinates": [[43.67937655588121, 201.35925968820501], [36.70836313920974, 199.1328596882893], [31.308282323520075, 200.58001968819497], [-8.652315712722972, 229.41189968817127], [-20.23794364468041, 237.3156196883862], [-25.44165788522555, 240.98917968820757]]}, "properties": {"osm_id": null, "type": "residential", "width_m": 5, "extrude": false}}, {"type": "Feature", "geometry": {"type": "LineString", "coordinates": [[43.67937655588121, 201.35925968820501], [51.141306410326806, 203.02905968833954], [147.0663783550862, 233.75337968828376], [150.6991599946495, 234.97789968835605]]}, "properties": {"osm_id": null, "type": "residential", "width_m": 5, "extrude": false}}, {"type": "Feature", "geometry": {"type": "LineString", "coordinates": [[190.46339145592242, 188.44613968837749], [199.49625391134984, 201.0252996882572], [187.71425940424785, 197.35173968843583], [190.46339145592242, 188.44613968837749]]}, "properties": {"osm_id": null, "type": "pedestrian", "width_m": 4, "extrude": false}}, {"type": "Feature", "geometry": {"type": "LineString", "coordinates": [[30.620999310601434, 284.62661968837483], [33.07558149964641, 276.61157968844094], [41.42116094215517, 251.453259688286], [42.697543680332984, 246.55517968839234], [43.28664340576657, 244.2174596883622], [33.468314649761055, 240.65521968825976], [31.79919876129419, 236.31373968814728], [41.42116094215517, 207.5931796882854], [43.67937655588121, 201.35925968820501], [46.1339587449262, 191.22913968846987], [54.38135489977548, 162.84253968816031], [63.31603406771782, 134.45593968824625], [66.8506324197961, 124.54845968834448], [75.98167816270855, 91.7090596882035], [78.92717678952765, 81.80157968830173]]}, "properties": {"osm_id": null, "type": "residential", "width_m": 5, "extrude": false}}, {"type": "Feature", "geometry": {"type": "LineString", "coordinates": [[162.28478792660695, 195.3479796883535], [62.039651329365604, 165.40289968841932], [57.22867023893511, 163.7330996882848], [54.38135489977548, 162.84253968816031]]}, "properties": {"osm_id": null, "type": "residential", "width_m": 5, "extrude": false}}, {"type": "Feature", "geometry": {"type": "LineString", "coordinates": [[-3.7431513348074215, 165.51421968813827], [-1.2885691459368505, 169.29909968846957], [1.2641963305931885, 173.08397968840538]]}, "properties": {"osm_id": null, "type": "residential", "width_m": 5, "extrude": false}}, {"type": "Feature", "geometry": {"type": "LineString", "coordinates": [[-7.965032699804331, 179.4292196882047], [1.2641963305931885, 173.08397968840538], [8.235209747264664, 168.4085396883451], [53.0067888739382, 135.68045968831854], [58.01413653951322, 134.78989968819405], [63.31603406771782, 134.45593968824625]]}, "properties": {"osm_id": null, "type": "residential", "width_m": 5, "extrude": false}}, {"type": "Feature", "geometry": {"type": "LineString", "coordinates": [[204.50360157675047, 127.99937968833248], [200.18353692426845, 154.0482596882164]]}, "properties": {"osm_id": null, "type": "footway", "width_m": 2, "extrude": false}}, {"type": "Feature", "geometry": {"type": "LineString", "coordinates": [[66.8506324197961, 124.54845968834448], [73.7234625488081, 125.99561968825014], [170.3358175064861, 155.38409968840313], [174.45951558382356, 156.60861968807993]]}, "properties": {"osm_id": null, "type": "residential", "width_m": 5, "extrude": false}}, {"type": "Feature", "geometry": {"type": "LineString", "coordinates": [[186.14332680344046, 116.53341968841062], [177.60138078578717, 113.41645968837042], [88.15640581992517, 84.69589968811306], [78.92717678952765, 81.80157968830173], [69.40339789632613, 79.57517968838602], [62.62875105479918, 79.90913968833382], [12.162541249631985, 113.75041968831823], [-3.7431513348074215, 165.51421968813827], [-7.965032699804331, 179.4292196882047]]}, "properties": {"osm_id": null, "type": "residential", "width_m": 5, "extrude": false}}, {"type": "Feature", "geometry": {"type": "LineString", "coordinates": [[197.04167172230487, 106.51461968839442], [186.14332680344046, 116.53341968841062]]}, "properties": {"osm_id": null, "type": "residential", "width_m": 5, "extrude": false}}, {"type": "Feature", "geometry": {"type": "LineString", "coordinates": [[-91.51901041220256, 394.72209968843856], [-84.94073014582014, 394.6107796883241]]}, "properties": {"osm_id": null, "type": "footway", "width_m": 2, "extrude": false}}, {"type": "Feature", "geometry": {"type": "LineString", "coordinates": [[-154.65086431236048, 274.49649968824417], [-162.0146108791466, 305.5547796881362], [-174.87662154945627, 356.53933968834167], [-195.24046771157032, 423.33102822391623]]}, "properties": {"osm_id": null, "type": "primary", "width_m": 14, "extrude": false}}, {"type": "Feature", "geometry": {"type": "LineString", "coordinates": [[-181.4714294815144, 428.0075018178536], [-160.14912841553522, 361.54873968834977], [-138.54880515277657, 280.06249968842894], [-130.98869201067149, 237.53825968821957], [-124.90132818206318, 191.34045968818882], [-121.17036325484041, 141.58041968845112]]}, "properties": {"osm_id": null, "type": "primary", "width_m": 14, "extrude": false}}, {"type": "Feature", "geometry": {"type": "LineString", "coordinates": [[-188.52409851999522, -30.186340311729936], [-182.92765112916103, -16.605300311611302], [-185.6767831808356, -1.7997403118158672], [-199.42244343903403, 32.93209968829302], [-207.27710644376867, 60.316819688363665], [-222.00459957751534, 115.64285968828614], [-227.79741354349406, 135.68045968831854], [-239.97214120071067, 152.4897796881963], [-258.62696583682464, 169.31427968832338]]}, "properties": {"osm_id": null, "type": "footway", "width_m": 2, "extrude": false}}, {"type": "Feature", "geometry": {"type": "LineString", "coordinates": [[-258.62696583682464, 179.86140321813053], [-251.5577691326681, 198.7988996883415], [-237.32119243669555, 217.2780196883538], [-235.75025983571373, 237.76089968844843], [-237.81210887446966, 258.35509968826204], [-239.97214120071067, 284.62661968837483], [-245.7649551666894, 319.9150596882649], [-255.5556171295502, 346.43869235621423]]}, "properties": {"osm_id": null, "type": "footway", "width_m": 2, "extrude": false}}, {"type": "Feature", "geometry": {"type": "LineString", "coordinates": [[-136.68332268916515, 86.81097968830983], [-137.3706057020838, 134.23329968841287], [-141.78885364222523, 189.4480196882209], [-147.1889344579149, 234.198659688346], [-154.65086431236048, 274.49649968824417]]}, "properties": {"osm_id": null, "type": "primary", "width_m": 14, "extrude": false}}, {"type": "Feature", "geometry": {"type": "LineString", "coordinates": [[-77.77335015400415, 99.39013968818955], [-70.80233673733267, 101.61653968810526], [-68.24957126080263, 90.4845396881312], [-78.36244987926332, 86.03173968829978], [-77.77335015400415, 99.39013968818955]]}, "properties": {"osm_id": null, "type": "pedestrian", "width_m": 4, "extrude": false}}, {"type": "Feature", "geometry": {"type": "LineString", "coordinates": [[-121.17036325484041, 141.58041968845112], [-120.18853037929216, 86.81097968830983], [-121.46491311746999, 41.392419688289124], [-125.88316105761143, -7.365740311605151], [-132.36325803650877, -56.56918031156167]]}, "properties": {"osm_id": null, "type": "primary", "width_m": 14, "extrude": false}}, {"type": "Feature", "geometry": {"type": "LineString", "coordinates": [[-148.07258404597806, -46.77302031177433], [-142.18158679233989, -4.137460311846013], [-138.64698844026162, 36.27169968816659], [-136.68332268916515, 86.81097968830983]]}, "properties": {"osm_id": null, "type": "primary", "width_m": 14, "extrude": false}}, {"type": "Feature", "geometry": {"type": "LineString", "coordinates": [[-258.62696583682464, 77.2784900203169], [-234.47387709736154, 30.037779688086204], [-219.05910095069623, -2.0223803116492434], [-206.00072370541645, -18.60906031169364], [-193.23689632276626, -27.180700311804173], [-188.52409851999522, -30.186340311729936], [-163.9782766304175, -45.659820311816475]]}, "properties": {"osm_id": null, "type": "residential", "width_m": 5, "extrude": false}}, {"type": "Feature", "geometry": {"type": "LineString", "coordinates": [[291.1994444909379, 199.73317942405117], [278.9265335462362, 207.81581968811878], [275.49011848164304, 210.04221968842998], [270.87550396635703, 213.15917968847018]]}, "properties": {"osm_id": null, "type": "residential", "width_m": 5, "extrude": false}}, {"type": "Feature", "geometry": {"type": "LineString", "coordinates": [[279.9083664217845, 226.74021968819332], [274.80283546872437, 219.05913968820727], [270.87550396635703, 213.15917968847018], [245.34784920123107, 175.42169968843552], [213.9291971824669, 124.32581968811562], [209.60913252981052, 117.53529968825404], [205.19088458966908, 110.41081968844466], [197.04167172230487, 106.51461968839442]]}, "properties": {"osm_id": null, "type": "residential", "width_m": 5, "extrude": false}}, {"type": "Feature", "geometry": {"type": "LineString", "coordinates": [[265.3772398631823, -118.90838031157458], [270.777320678872, -105.10470031162257], [277.7483340955435, -95.08590031160637], [291.1994444909379, -74.18900465240867]]}, "properties": {"osm_id": null, "type": "tertiary", "width_m": 7, "extrude": false}}, {"type": "Feature", "geometry": {"type": "LineString", "coordinates": [[291.1994444909379, -90.07497538032823], [278.2392505333176, -110.00278031191172], [274.80283546872437, -115.68010031181544]]}, "properties": {"osm_id": null, "type": "tertiary", "width_m": 7, "extrude": false}}, {"type": "Feature", "geometry": {"type": "LineString", "coordinates": [[245.34784920123107, 175.42169968843552], [255.16617795706216, 168.7424996882929], [291.1994444909379, 144.64297047507443]]}, "properties": {"osm_id": null, "type": "residential", "width_m": 5, "extrude": false}}, {"type": "Feature", "geometry": {"type": "LineString", "coordinates": [[245.2496659135716, 93.93545968811921], [215.2055799206447, 113.86173968843266], [209.60913252981052, 117.53529968825404]]}, "properties": {"osm_id": null, "type": "service", "width_m": 3.5, "extrude": false}}, {"type": "Feature", "geometry": {"type": "LineString", "coordinates": [[291.1994444909379, 86.63472302169268], [288.5484957269228, 88.36945968832993], [285.3084472374741, 83.5826996881552], [280.7920160098476, 86.47701968836202], [283.93388121163684, 91.37509968825569], [259.48624260954415, 107.29385968840447], [256.6389272703845, 103.06369968840642], [252.122496042758, 106.06933968833218], [254.87162809443257, 110.29949968833023], [225.51482511442433, 129.55785968835258], [215.2055799206447, 113.86173968843266], [207.74365006619914, 102.39577968811531], [222.37295991246071, 92.82225968816135], [254.47889494414355, 71.89409968839996], [256.5407439828994, 70.44693968809881], [258.89714288428496, 68.99977968819314], [285.21026394998904, 51.74517968825313], [287.3702962762301, 50.4093396884619], [289.2357787398414, 49.18481968838961], [291.1994444909379, 47.88843487812187]]}, "properties": {"osm_id": null, "type": "pedestrian", "width_m": 4, "extrude": false}}, {"type": "Feature", "geometry": {"type": "LineString", "coordinates": [[249.47154727856852, 59.20361968840581], [256.5407439828994, 70.44693968809881]]}, "properties": {"osm_id": null, "type": "footway", "width_m": 2, "extrude": false}}, {"type": "Feature", "geometry": {"type": "LineString", "coordinates": [[276.8646845074803, 71.78277968828553], [291.1994444909379, 62.50252567029108]]}, "properties": {"osm_id": null, "type": "service", "width_m": 3.5, "extrude": false}}, {"type": "Feature", "geometry": {"type": "LineString", "coordinates": [[206.86000047813593, 99.50145968830398], [208.2345665039732, 99.83541968825179], [216.7765125216265, 87.81285968815325], [228.65669031621354, 69.55637968836982], [249.47154727856852, 59.20361968840581], [280.8901992973327, 41.28109968817469], [291.1994444909379, 34.86382910025213]]}, "properties": {"osm_id": null, "type": "footway", "width_m": 2, "extrude": false}}, {"type": "Feature", "geometry": {"type": "LineString", "coordinates": [[197.04167172230487, 106.51461968839442], [189.87429173066326, 104.51085968831208]]}, "properties": {"osm_id": null, "type": "residential", "width_m": 5, "extrude": false}}, {"type": "Feature", "geometry": {"type": "LineString", "coordinates": [[213.43828074469278, 86.36569968824759], [216.7765125216265, 87.81285968815325], [219.52564457330107, 89.03737968822554], [219.42746128564164, 90.26189968829783], [219.62382786078615, 91.15245968842231], [220.21292758621973, 91.7090596882035], [221.19476046176794, 92.26565968838017], [222.37295991246071, 92.82225968816135], [207.74365006619914, 102.39577968811531], [206.86000047813593, 99.50145968830398], [210.6891486930182, 86.58833968808096], [211.37643170593688, 87.0336196881432], [212.0637147188555, 87.14493968825764], [213.43828074469278, 86.36569968824759]]}, "properties": {"osm_id": null, "type": "pedestrian", "width_m": 4, "extrude": false}}, {"type": "Feature", "geometry": {"type": "LineString", "coordinates": [[264.1008571248301, -144.957260311854], [252.90796234316173, -107.1084603117049], [222.86387635023482, -6.475180311876159], [219.82019443593066, 3.3209796883066645], [192.91797364496742, 95.1599796881915], [189.87429173066326, 104.51085968831208], [186.14332680344046, 116.53341968841062], [174.45951558382356, 156.60861968807993], [162.28478792660695, 195.3479796883535], [150.6991599946495, 234.97789968835605], [139.309898638011, 272.60405968827627], [132.53525179648406, 293.9774996880999], [126.64425454284587, 313.7924596882989]]}, "properties": {"osm_id": null, "type": "tertiary", "width_m": 7, "extrude": false}}, {"type": "Feature", "geometry": {"type": "LineString", "coordinates": [[22.4717864432372, 83.02609968837402], [22.275419868092673, 89.14869968833997], [21.391770280203914, 89.03737968822554], [21.097220417399917, 97.49769968822164], [25.81001822034535, 97.83165968816945], [51.632222848100916, 80.57705968822944], [53.98862174966084, 83.80533968838407], [65.67243296910334, 76.12425968839801], [68.32338173311844, 75.56765968822134], [70.48341405935942, 76.23557968811696], [72.54526309811534, 77.014819688127], [74.31256227424169, 76.79217968829363], [75.19621186230485, 75.7902996884502], [75.09802857464538, 74.45445968826348], [73.82164583646757, 73.11861968847225], [71.66161351005218, 72.3393796884622], [65.57424968144387, 71.22617968810886], [59.09415270254651, 72.3393796884622], [53.98862174966084, 73.00729968835782], [50.55220668506763, 71.89409968839996], [48.392174358652234, 70.44693968809881], [43.67937655588121, 65.771499688434], [42.99209354296257, 79.57517968838602], [35.137430538402334, 79.12989968832377], [22.4717864432372, 83.02609968837402]]}, "properties": {"osm_id": null, "type": "pedestrian", "width_m": 4, "extrude": false}}, {"type": "Feature", "geometry": {"type": "LineString", "coordinates": [[68.81429817089256, 67.88657968823529], [74.41074556172674, 69.11109968830758], [78.63262692672365, 72.45069968818115], [79.41809322730175, 76.79217968829363], [78.92717678952765, 81.80157968830173]]}, "properties": {"osm_id": null, "type": "residential", "width_m": 5, "extrude": false}}, {"type": "Feature", "geometry": {"type": "LineString", "coordinates": [[125.7606049547827, 65.99413968826738], [132.82980165911366, 75.45633968810691], [135.48075042312874, 78.35065968831373], [139.01534877520703, 80.57705968822944], [141.9608474020261, 81.80157968830173], [144.21906301592657, 80.68837968834387], [148.8336775310381, 64.54697968836172], [141.56811425173706, 62.09793968821714], [139.21171535035154, 61.20737968809266], [130.86613590784276, 64.21301968841391], [129.00065344423138, 64.76961968819509], [125.7606049547827, 65.99413968826738]]}, "properties": {"osm_id": null, "type": "pedestrian", "width_m": 4, "extrude": false}}, {"type": "Feature", "geometry": {"type": "LineString", "coordinates": [[11.377074949228286, 8.886979688095948], [11.08252508642429, 13.005819688375055], [5.093344545475452, 94.82601968824369]]}, "properties": {"osm_id": null, "type": "residential", "width_m": 5, "extrude": false}}, {"type": "Feature", "geometry": {"type": "LineString", "coordinates": [[68.81429817089256, 67.88657968823529], [69.40339789632613, 58.535699688114704], [72.74162967325987, 23.024619688391255], [74.01801241143768, 13.896379688104048]]}, "properties": {"osm_id": null, "type": "residential", "width_m": 5, "extrude": false}}, {"type": "Feature", "geometry": {"type": "LineString", "coordinates": [[94.63650279882252, 16.234099688134194], [130.86613590784276, 64.21301968841391]]}, "properties": {"osm_id": null, "type": "footway", "width_m": 2, "extrude": false}}, {"type": "Feature", "geometry": {"type": "LineString", "coordinates": [[147.75366136800483, 91.04113968830788], [150.30642684453488, 83.2487396882074], [179.07413009910954, -10.26006031181197], [180.54687941260627, -14.824180311757829], [181.92144543826916, -18.831700311527015]]}, "properties": {"osm_id": null, "type": "residential", "width_m": 5, "extrude": false}}, {"type": "Feature", "geometry": {"type": "LineString", "coordinates": [[224.72935881384623, 39.83393968826903], [234.15495441956267, 42.61693968836141]]}, "properties": {"osm_id": null, "type": "footway", "width_m": 2, "extrude": false}}, {"type": "Feature", "geometry": {"type": "LineString", "coordinates": [[234.15495441956267, 8.330379688314764], [243.48236673761969, 10.445459688116046], [251.6315796049839, 12.560539688312815], [258.5044097339959, 16.345419688248626], [263.0208409616224, 19.573699688403252], [265.3772398631823, 21.243499688142293], [272.1518867047093, 30.483059688148444], [280.8901992973327, 41.28109968817469], [287.3702962762301, 50.4093396884619]]}, "properties": {"osm_id": null, "type": "footway", "width_m": 2, "extrude": false}}, {"type": "Feature", "geometry": {"type": "LineString", "coordinates": [[272.1518867047093, 30.483059688148444], [277.25741765776934, 27.143459688274874]]}, "properties": {"osm_id": null, "type": "footway", "width_m": 2, "extrude": false}}, {"type": "Feature", "geometry": {"type": "LineString", "coordinates": [[277.25741765776934, 27.143459688274874], [272.7409864299685, 20.3529396884133], [282.26476532316997, 14.00769968821848], [291.1994444909379, 27.441119688022013]]}, "properties": {"osm_id": null, "type": "footway", "width_m": 2, "extrude": false}}, {"type": "Feature", "geometry": {"type": "LineString", "coordinates": [[291.1994444909379, 27.654154533948656], [281.77384888539586, 33.933979688136446], [277.25741765776934, 27.143459688274874]]}, "properties": {"osm_id": null, "type": "footway", "width_m": 2, "extrude": false}}, {"type": "Feature", "geometry": {"type": "LineString", "coordinates": [[291.1994444909379, 12.882399688325563], [284.2284310742664, 3.4322996884210966], [281.8720321728809, 4.879459688326762], [274.7046521812393, 8.99829968821038], [266.84998917650466, 13.451099688437296], [263.0208409616224, 19.573699688403252]]}, "properties": {"osm_id": null, "type": "footway", "width_m": 2, "extrude": false}}, {"type": "Feature", "geometry": {"type": "LineString", "coordinates": [[74.01801241143768, 13.896379688104048], [71.26888035993753, 13.56241968815624], [62.8251176297693, 12.783179688146191], [52.02495599838997, 11.781299688302767]]}, "properties": {"osm_id": null, "type": "residential", "width_m": 5, "extrude": false}}, {"type": "Feature", "geometry": {"type": "LineString", "coordinates": [[52.02495599838997, 11.781299688302767], [11.377074949228286, 8.886979688095948]]}, "properties": {"osm_id": null, "type": "residential", "width_m": 5, "extrude": false}}, {"type": "Feature", "geometry": {"type": "LineString", "coordinates": [[189.87429173066326, 104.51085968831208], [181.43052900049503, 102.0618196881675], [147.75366136800483, 91.04113968830788], [140.09536493841472, 88.5920996881633], [128.41155371897221, 81.24497968812506], [82.65814171675044, 18.68313968827877], [79.31990993964229, 16.790699688310866], [74.01801241143768, 13.896379688104048], [73.62527926132304, -1.0205003118058187], [74.01801241143768, -20.27886031182817], [78.43626035157912, -72.37662031159601], [79.71264308993135, -83.06334031190332], [85.99637349368417, -85.1784203117046], [93.6546699232743, -85.73502031188127]]}, "properties": {"osm_id": null, "type": "residential", "width_m": 5, "extrude": false}}, {"type": "Feature", "geometry": {"type": "LineString", "coordinates": [[155.51014108508, 7.662459688419148], [100.23295018965672, 17.34729968809205], [94.63650279882252, 16.234099688134194], [93.26193677298524, 5.547379688222378], [87.76367266963611, -7.922340311781824], [87.76367266963611, -20.167540311713736], [94.24376964853347, -25.622220311784076]]}, "properties": {"osm_id": null, "type": "footway", "width_m": 2, "extrude": false}}, {"type": "Feature", "geometry": {"type": "LineString", "coordinates": [[59.48688585283556, -102.98962031182128], [58.70141955243186, -92.30290031190947], [52.31950586101956, 3.5436196881400406], [52.02495599838997, 11.781299688302767], [51.53403956061586, 20.130299688184436], [49.275823946715406, 60.316819688363665], [50.454023397408164, 67.99789968834972], [53.98862174966084, 70.00165968843206], [59.09415270254651, 68.8884596884742], [67.24336556991074, 67.88657968823529], [68.81429817089256, 67.88657968823529]]}, "properties": {"osm_id": null, "type": "residential", "width_m": 5, "extrude": false}}, {"type": "Feature", "geometry": {"type": "LineString", "coordinates": [[97.48381813798215, -26.067500311846317], [100.72386662743084, -22.282620311910506], [104.16028169202404, -24.286380311597355], [111.32766168384005, -28.405220311876462], [118.69140825062615, -26.401460311794125], [122.42237317784897, -25.399580311555212], [134.0080011098064, -22.171300311796074]]}, "properties": {"osm_id": null, "type": "footway", "width_m": 2, "extrude": false}}, {"type": "Feature", "geometry": {"type": "LineString", "coordinates": [[104.16028169202404, -24.286380311597355], [100.42931676480124, -28.62786031170984]]}, "properties": {"osm_id": null, "type": "footway", "width_m": 2, "extrude": false}}, {"type": "Feature", "geometry": {"type": "LineString", "coordinates": [[132.04433535853553, -42.43154031166185], [126.84062111799041, -40.650420311808375], [122.42237317784897, -25.399580311555212]]}, "properties": {"osm_id": null, "type": "footway", "width_m": 2, "extrude": false}}, {"type": "Feature", "geometry": {"type": "LineString", "coordinates": [[118.69140825062615, -26.401460311794125], [123.30602276591213, -41.54098031153737], [123.99330577883077, -43.544740311619705], [130.96431919550227, -45.54850031170204]]}, "properties": {"osm_id": null, "type": "footway", "width_m": 2, "extrude": false}}, {"type": "Feature", "geometry": {"type": "LineString", "coordinates": [[222.86387635023482, -6.475180311876159], [181.92144543826916, -18.831700311527015], [175.1467985967422, -20.72414031189041], [140.97901452647787, -31.6335003116356], [131.3570523456169, -62.91442031175649], [128.90247015674632, -70.1502203116803], [127.23335426827944, -74.93698031185502]]}, "properties": {"osm_id": null, "type": "residential", "width_m": 5, "extrude": false}}, {"type": "Feature", "geometry": {"type": "LineString", "coordinates": [[256.835293845529, -4.137460311846013], [270.87550396635703, 1.0945796883909509], [274.7046521812393, 8.99829968821038]]}, "properties": {"osm_id": null, "type": "footway", "width_m": 2, "extrude": false}}, {"type": "Feature", "geometry": {"type": "LineString", "coordinates": [[284.2284310742664, 3.4322996884210966], [290.9048946283083, -0.12994031168133802], [291.1994444909379, -0.3057087328313912]]}, "properties": {"osm_id": null, "type": "footway", "width_m": 2, "extrude": false}}, {"type": "Feature", "geometry": {"type": "LineString", "coordinates": [[270.5809541037275, -80.83694031159212], [262.03900808607415, -44.769260311691994], [259.97715904731825, -38.535340311611606], [249.569730566228, -7.8110203116673915], [243.48236673761969, 10.445459688116046], [242.79508372470102, 12.449219688198383], [234.15495441956267, 42.61693968836141], [227.67485744066533, 65.21489968825733], [228.65669031621354, 69.55637968836982]]}, "properties": {"osm_id": null, "type": "footway", "width_m": 2, "extrude": false}}, {"type": "Feature", "geometry": {"type": "LineString", "coordinates": [[290.9048946283083, -0.12994031168133802], [289.1375954523564, -4.360100311679389], [291.1994444909379, -5.9886243564398]]}, "properties": {"osm_id": null, "type": "footway", "width_m": 2, "extrude": false}}, {"type": "Feature", "geometry": {"type": "LineString", "coordinates": [[260.86080863538143, -117.46122031166891], [195.96165555927158, 99.50145968830398], [195.96165555927158, 99.72409968813736], [196.15802213441611, 99.94673968836622], [196.45257199704568, 100.05805968808517], [196.84530514733473, 100.05805968808517], [197.04167172230487, 99.83541968825179], [262.2353746612187, -117.1272603117211], [262.13719137373363, -117.46122031166891], [261.84264151092964, -117.68386031189777], [261.54809164830004, -117.79518031161672], [261.155358498011, -117.68386031189777], [260.86080863538143, -117.46122031166891]]}, "properties": {"osm_id": null, "type": "pedestrian", "width_m": 4, "extrude": false}}, {"type": "Feature", "geometry": {"type": "LineString", "coordinates": [[291.1994444909379, -4.322993645106408], [290.80671134082326, -4.026140311731581], [291.1994444909379, -3.5466080040330894]]}, "properties": {"osm_id": null, "type": "pedestrian", "width_m": 4, "extrude": false}}, {"type": "Feature", "geometry": {"type": "LineString", "coordinates": [[239.94776838536697, -10.927980311707586], [249.569730566228, -7.8110203116673915]]}, "properties": {"osm_id": null, "type": "footway", "width_m": 2, "extrude": false}}, {"type": "Feature", "geometry": {"type": "LineString", "coordinates": [[197.04167172230487, 106.51461968839442], [201.26355308730177, 98.27693968823169], [228.95124017884314, 5.324739688389002], [257.4243935707882, -91.41234031178499], [261.25354178567045, -104.43678031172695], [265.3772398631823, -118.90838031157458], [270.87550396635703, -133.7139403117655]]}, "properties": {"osm_id": null, "type": "tertiary", "width_m": 7, "extrude": false}}, {"type": "Feature", "geometry": {"type": "LineString", "coordinates": [[265.9663395884415, -14.712860311643396], [268.32273848982703, -18.386420311860263], [269.79548780332374, -17.38454031162135], [271.3664204041312, -16.716620311725734], [273.33008615540206, -16.048700311830117], [274.90101875620945, -15.603420311767877], [276.37376806970616, -15.492100311653445], [277.25741765776934, -15.380780311539013], [277.3556009452544, -10.26006031181197], [276.17740149456165, -10.371380311530913], [275.5883017691281, -10.371380311530913], [274.2137357434652, -10.70534031187421], [272.3482532798538, -11.150620311540962], [270.3845875285829, -11.92986031155101], [268.9118382152606, -12.709100311561059], [266.94817246398975, -13.933620311633348], [265.9663395884415, -14.712860311643396]]}, "properties": {"osm_id": null, "type": "pedestrian", "width_m": 4, "extrude": false}}, {"type": "Feature", "geometry": {"type": "LineString", "coordinates": [[280.7920160098476, -15.603420311767877], [281.77384888539586, -10.482700311645345], [282.85386504860355, -10.816660311593154], [284.3266143619259, -11.150620311540962], [286.0939135378778, -11.818540311832066], [287.8612127140041, -12.820420311675491], [289.8248784651006, -14.04494031174778], [291.1012612034528, -15.046820311591205], [291.1994444909379, -15.145771422584318]]}, "properties": {"osm_id": null, "type": "pedestrian", "width_m": 4, "extrude": false}}, {"type": "Feature", "geometry": {"type": "LineString", "coordinates": [[291.1994444909379, -17.81745142295776], [289.0394121646969, -19.722260311651496], [287.8612127140041, -18.60906031169364], [286.5848299758264, -17.82982031168359], [285.21026394998904, -17.050580311673542], [283.8356979241518, -16.493980311892358], [282.362948610655, -16.048700311830117], [281.28293244762176, -15.71474031188231], [280.7920160098476, -15.603420311767877]]}, "properties": {"osm_id": null, "type": "pedestrian", "width_m": 4, "extrude": false}}, {"type": "Feature", "geometry": {"type": "LineString", "coordinates": [[281.8720321728809, 4.879459688326762], [278.8283502585768, -16.048700311830117]]}, "properties": {"osm_id": null, "type": "footway", "width_m": 2, "extrude": false}}, {"type": "Feature", "geometry": {"type": "LineString", "coordinates": [[278.8283502585768, -16.048700311830117], [282.06839874802546, -16.605300311611302], [284.42479764941095, -17.607180311850215], [286.5848299758264, -18.943020311641448], [288.45031243943777, -20.72414031189041], [290.0212450402451, -22.727900311577258], [291.1994444909379, -25.399580311555212]]}, "properties": {"osm_id": null, "type": "footway", "width_m": 2, "extrude": false}}, {"type": "Feature", "geometry": {"type": "LineString", "coordinates": [[291.1994444909379, -34.19386031189461], [289.9230617527601, -37.08818031170594], [287.9593960014892, -39.53722031185052], [286.0939135378778, -41.095700311870615], [284.2284310742664, -42.20890031182847], [281.57748231025136, -43.2107803116719], [279.7119998466399, -43.544740311619705], [277.06105108262483, -43.65606031173414], [274.41010231843535, -43.099460311557465], [271.5627869792757, -41.98626031159961], [268.71547164011605, -39.87118031179833], [266.65362260136015, -37.53346031176818], [266.16270616358605, -36.6429003116437], [265.769973013297, -35.974980311748084], [265.08269000037836, -34.305180311613555], [264.3954069874597, -31.410860311802224], [264.3954069874597, -29.18446031188651], [264.7881401377487, -26.290140311679693], [265.9663395884415, -23.28450031175393], [267.43908890176385, -21.16942031155716], [268.6172883524566, -19.833580311765928], [270.28640424109784, -18.497740311579207], [271.8573368419053, -17.607180311850215], [273.4282694428871, -16.827940311840166], [275.49011848164304, -16.271340311663494], [278.8283502585768, -16.048700311830117]]}, "properties": {"osm_id": null, "type": "footway", "width_m": 2, "extrude": false}}, {"type": "Feature", "geometry": {"type": "LineString", "coordinates": [[291.1994444909379, -42.53328439788575], [284.2284310742664, -52.56166031179248], [291.1994444909379, -56.984843063854385]]}, "properties": {"osm_id": null, "type": "footway", "width_m": 2, "extrude": false}}, {"type": "Feature", "geometry": {"type": "LineString", "coordinates": [[289.9230617527601, -37.08818031170594], [291.1994444909379, -37.95647631157024]]}, "properties": {"osm_id": null, "type": "footway", "width_m": 2, "extrude": false}}, {"type": "Feature", "geometry": {"type": "LineString", "coordinates": [[206.95818376579544, -44.54662031185862], [210.6891486930182, -37.86742031171599]]}, "properties": {"osm_id": null, "type": "footway", "width_m": 2, "extrude": false}}, {"type": "Feature", "geometry": {"type": "LineString", "coordinates": [[101.31296635286441, -43.544740311619705], [102.00024936578306, -38.2013803116638], [102.49116580355717, -36.086300311862516], [103.96391511687952, -35.195740311738035], [113.88042716037008, -36.6429003116437], [114.86226003591831, -38.090060311549365], [115.15680989854789, -39.64854031156946], [115.15680989854789, -43.099460311557465], [115.15680989854789, -48.44282031190886]]}, "properties": {"osm_id": null, "type": "footway", "width_m": 2, "extrude": false}}, {"type": "Feature", "geometry": {"type": "LineString", "coordinates": [[115.15680989854789, -43.099460311557465], [123.30602276591213, -41.54098031153737]]}, "properties": {"osm_id": null, "type": "footway", "width_m": 2, "extrude": false}}, {"type": "Feature", "geometry": {"type": "LineString", "coordinates": [[11.377074949228286, 8.886979688095948], [12.457091112261573, 0.42665968809984633], [16.678972477258483, -72.59926031182488], [18.053538503095766, -89.85386031176489], [36.61017985172468, -104.32546031161252]]}, "properties": {"osm_id": null, "type": "residential", "width_m": 5, "extrude": false}}, {"type": "Feature", "geometry": {"type": "LineString", "coordinates": [[107.59669675661725, -49.66734031158566], [115.15680989854789, -48.44282031190886], [116.82592578701477, -48.108860311565564], [120.55689071423757, -48.33150031179443], [129.19702001937588, -50.89186031165795]]}, "properties": {"osm_id": null, "type": "footway", "width_m": 2, "extrude": false}}, {"type": "Feature", "geometry": {"type": "LineString", "coordinates": [[84.42544089270237, -63.248380311704295], [106.32031401826502, -53.229580311688096], [107.30214689381326, -51.44846031183462], [107.59669675661725, -49.66734031158566], [107.40033018147273, -47.99754031184662], [105.43666443020186, -44.880580311806426], [101.31296635286441, -43.544740311619705], [83.14905815452455, -44.435300311744186]]}, "properties": {"osm_id": null, "type": "footway", "width_m": 2, "extrude": false}}, {"type": "Feature", "geometry": {"type": "LineString", "coordinates": [[204.3072350017803, -16.716620311725734], [210.6891486930182, -37.86742031171599], [213.14373088188879, -45.88246031164985], [228.85305689135805, -96.42174031179309], [212.26008129400003, -84.95578031187122], [206.27090075287677, -82.50674031172665], [197.82713802288296, -81.39354031176879], [174.8522487341126, -81.61618031160216]]}, "properties": {"osm_id": null, "type": "footway", "width_m": 2, "extrude": false}}, {"type": "Feature", "geometry": {"type": "LineString", "coordinates": [[4.209694957412283, -33.859900311551314], [7.351560159201495, -33.63726031171794], [9.806142348246475, -75.60490031175064], [11.180708374083757, -76.60678031159406], [11.475258236713344, -80.94826031170655], [-3.154051609548248, -71.93134031153377], [-3.8413346224668894, -55.344660311884866], [-5.117717360644704, -55.45598031160381], [-6.197733523852401, -35.974980311748084], [-2.8595017467442525, -35.75234031191471], [-2.9576850344037204, -34.19386031189461], [4.209694957412283, -33.859900311551314]]}, "properties": {"osm_id": null, "type": "pedestrian", "width_m": 4, "extrude": false}}, {"type": "Feature", "geometry": {"type": "LineString", "coordinates": [[181.92144543826916, -18.831700311527015], [183.3941947517659, -23.28450031175393], [184.1796610521696, -33.080660311541266], [167.97941860510062, -82.39542031161221], [166.01575285382975, -88.6293403116926], [163.56117066495918, -95.97646031173085]]}, "properties": {"osm_id": null, "type": "residential", "width_m": 5, "extrude": false}}, {"type": "Feature", "geometry": {"type": "LineString", "coordinates": [[-66.58045537233576, -74.60302031190722], [-45.274681972032276, -71.48606031186702], [-36.83091924203846, -72.48794031171045], [-32.314488014411964, -70.70682031185697], [-29.46717267525234, -70.26154031179473], [-26.914407198722298, -70.81814031157592], [-24.656191584821848, -69.59362031189912], [-20.827043370113994, -69.25966031155582], [-18.765194331358067, -70.26154031179473], [-16.605162004942677, -72.37662031159601], [-14.346946391216632, -73.2671803117205], [-10.812348039138366, -74.15774031184498], [-9.143232150497086, -76.49546031187512], [-7.866849412319271, -80.28034031181093], [-5.903183661048406, -83.6199403116845], [-0.5031028453587408, -88.07274031191142], [5.486077695590097, -91.96894031156617], [11.475258236713344, -93.97270031164851]]}, "properties": {"osm_id": null, "type": "footway", "width_m": 2, "extrude": false}}, {"type": "Feature", "geometry": {"type": "LineString", "coordinates": [[249.27518070342398, -41.874940311880664], [259.97715904731825, -38.535340311611606], [266.16270616358605, -36.6429003116437]]}, "properties": {"osm_id": null, "type": "footway", "width_m": 2, "extrude": false}}, {"type": "Feature", "geometry": {"type": "LineString", "coordinates": [[274.41010231843535, -43.099460311557465], [272.6428031424834, -48.554140311627805]]}, "properties": {"osm_id": null, "type": "footway", "width_m": 2, "extrude": false}}, {"type": "Feature", "geometry": {"type": "LineString", "coordinates": [[262.03900808607415, -44.769260311691994], [272.6428031424834, -48.554140311627805], [284.2284310742664, -52.56166031179248]]}, "properties": {"osm_id": null, "type": "footway", "width_m": 2, "extrude": false}}, {"type": "Feature", "geometry": {"type": "LineString", "coordinates": [[271.0718705415016, -112.56314031177524], [291.1994444909379, -81.78316031197156]]}, "properties": {"osm_id": null, "type": "pedestrian", "width_m": 4, "extrude": false}}, {"type": "Feature", "geometry": {"type": "LineString", "coordinates": [[291.1994444909379, -84.18198383242967], [272.25006999219437, -113.23106031167086], [271.9555201295647, -113.34238031178529], [271.6609702669352, -113.34238031178529], [271.3664204041312, -113.11974031155643], [271.0718705415016, -112.89710031172305], [271.0718705415016, -112.56314031177524]]}, "properties": {"osm_id": null, "type": "pedestrian", "width_m": 4, "extrude": false}}, {"type": "Feature", "geometry": {"type": "LineString", "coordinates": [[284.2284310742664, -52.56166031179248], [270.5809541037275, -80.83694031159212], [269.20638807789015, -90.85574031160832]]}, "properties": {"osm_id": null, "type": "footway", "width_m": 2, "extrude": false}}, {"type": "Feature", "geometry": {"type": "LineString", "coordinates": [[265.57360643815247, -80.28034031181093], [270.5809541037275, -80.83694031159212], [276.17740149456165, -81.50486031188322], [275.39193519415795, -83.2859803117367], [275.78466834427263, -84.06522031174674], [276.6683179323358, -84.84446031175679], [277.55196752039893, -84.95578031187122], [278.2392505333176, -84.84446031175679], [276.76650121982084, -87.18218031178694], [274.2137357434652, -89.63122031153603], [271.6609702669352, -90.63310031177494], [269.20638807789015, -90.85574031160832], [266.84998917650466, -90.41046031154607], [264.8863234252338, -89.40858031170265], [262.9226576741373, -87.51614031173474], [261.44990836081496, -82.0614603116644], [262.9226576741373, -82.84070031167445], [264.4935902751192, -82.50674031172665], [265.57360643815247, -81.28222031165436], [265.57360643815247, -80.28034031181093]]}, "properties": {"osm_id": null, "type": "pedestrian", "width_m": 4, "extrude": false}}, {"type": "Feature", "geometry": {"type": "LineString", "coordinates": [[127.23335426827944, -74.93698031185502], [120.26234085160797, -74.04642031173054], [113.68406058522554, -74.93698031185502], [102.19661594075318, -81.28222031165436], [93.6546699232743, -85.73502031188127], [87.76367266963611, -90.41046031154607], [82.65814171675044, -97.75758031158432], [80.1053762402204, -101.765100311749]]}, "properties": {"osm_id": null, "type": "residential", "width_m": 5, "extrude": false}}, {"type": "Feature", "geometry": {"type": "LineString", "coordinates": [[79.71264308993135, -83.06334031190332], [79.90900966507587, -91.07838031183718], [80.1053762402204, -101.765100311749]]}, "properties": {"osm_id": null, "type": "residential", "width_m": 5, "extrude": false}}, {"type": "Feature", "geometry": {"type": "LineString", "coordinates": [[186.5360599535551, -105.5499803116848], [190.65975803106699, -100.42926031156227], [193.80162323285617, -98.75946031182323], [199.2998873362053, -97.86890031169875], [204.1108684266358, -98.31418031176099], [211.67098156856645, -101.765100311749], [215.3037632083042, -103.6575403117169], [216.48196265899693, -103.6575403117169], [218.05289525997875, -102.87830031170685], [220.90021059913835, -99.76134031166666], [228.85305689135805, -96.42174031179309], [240.83141797343015, -92.85950031169065]]}, "properties": {"osm_id": null, "type": "footway", "width_m": 2, "extrude": false}}, {"type": "Feature", "geometry": {"type": "LineString", "coordinates": [[36.61017985172468, -104.32546031161252], [53.497705311712316, -103.32358031176909], [59.48688585283556, -102.98962031182128], [65.4760663939588, -102.54434031175904], [76.86532775077173, -101.98774031158237], [80.1053762402204, -101.765100311749]]}, "properties": {"osm_id": null, "type": "residential", "width_m": 5, "extrude": false}}, {"type": "Feature", "geometry": {"type": "LineString", "coordinates": [[-89.06442822315759, -49.22206031191891], [-76.79151727845591, -58.35030031181063], [-70.01687043692897, -68.92570031160801], [-66.58045537233576, -74.60302031190722], [-61.08219126898663, -83.50862031157007], [-52.04932881373364, -93.97270031164851], [-33.59087075258978, -104.88206031178919], [-10.125065026219723, -114.12162031179534], [7.940659884635077, -124.91966031182159], [19.8208376792221, -134.82714031172335], [27.184584246008225, -146.96102031154084], [34.94106396325781, -165.9967403117298], [42.79572696781805, -191.0437403117703]]}, "properties": {"osm_id": null, "type": "footway", "width_m": 2, "extrude": false}}, {"type": "Feature", "geometry": {"type": "LineString", "coordinates": [[87.46912280700653, -180.3570203118585], [86.29092335631377, -177.12874031170387], [83.14905815452455, -168.33446031175995], [80.1053762402204, -101.765100311749]]}, "properties": {"osm_id": null, "type": "residential", "width_m": 5, "extrude": false}}, {"type": "Feature", "geometry": {"type": "LineString", "coordinates": [[75.19621186230485, -180.57966031169187], [73.62527926132304, -180.57966031169187], [72.64344638577481, -179.80042031168182], [71.66161351005218, -178.01930031182835], [72.25071323548576, -176.34950031169382], [75.88349487504908, -172.8985803117058], [74.11619569909715, -171.11746031185234], [75.68712830007897, -168.89106031154114], [73.91982912395262, -167.77786031158328], [71.8579800851967, -117.1272603117211], [67.3415488575702, -115.2348203117532], [67.04699899494062, -108.33298031177719], [68.1270151579739, -106.21790031158042], [69.89431433410024, -105.77262031191367], [72.34889652297082, -105.5499803116848], [74.11619569909715, -106.10658031186148], [76.37441131299761, -108.55562031161057], [74.01801241143768, -108.55562031161057], [77.55261076369037, -168.66842031170776], [80.1053762402204, -168.66842031170776], [80.39992610284999, -172.00802031158133], [80.20355952770547, -174.56838031184034], [79.51627651478682, -177.12874031170387], [78.04352720146447, -178.7985403118384], [76.47259460048267, -180.3570203118585], [75.19621186230485, -180.57966031169187]]}, "properties": {"osm_id": null, "type": "pedestrian", "width_m": 4, "extrude": false}}, {"type": "Feature", "geometry": {"type": "LineString", "coordinates": [[70.48341405935942, -187.2588603118345], [65.7706162565884, -106.44054031180929], [65.4760663939588, -102.54434031175904]]}, "properties": {"osm_id": null, "type": "service", "width_m": 3.5, "extrude": false}}, {"type": "Feature", "geometry": {"type": "LineString", "coordinates": [[243.6787333125898, -170.44954031156124], [238.18046920941507, -163.21374031163742], [232.87857168121045, -156.08926031182804], [223.06024292537936, -143.7327403117817], [214.51829690772607, -125.47626031160277], [212.45644786914457, -123.58382031163487], [209.41276595466599, -122.80458031162482], [205.48543445247307, -122.80458031162482], [201.75446952525027, -120.68950031182354], [199.8889870616389, -119.57630031186568]]}, "properties": {"osm_id": null, "type": "footway", "width_m": 2, "extrude": false}}, {"type": "Feature", "geometry": {"type": "LineString", "coordinates": [[57.91595325185375, -191.71166031166592], [59.48688585283556, -188.70602031174016], [62.726934342284245, -186.36830031171002], [65.67243296910334, -185.25510031175216], [68.4215650206035, -183.1400203115554], [69.40339789632613, -180.24570031174406], [68.61793159574802, -177.9079803117139], [66.8506324197961, -176.46082031180825], [63.708767217832474, -173.90046031154924], [60.07598557826915, -119.13102031180344], [64.10150036812152, -115.34614031186763], [63.905133792977, -109.00090031167281], [62.726934342284245, -107.21978031181933], [61.35236831644696, -106.55186031152823], [60.665085303528315, -106.7745003117571], [60.861451878672845, -111.33862031170295], [25.122735207426707, -112.89710031172305], [20.606303979625803, -116.57066031154443], [50.944939835182275, -170.56086031167567], [53.20315544908273, -174.6797003115593], [56.737753801161, -187.37018031155344], [57.91595325185375, -191.71166031166592]]}, "properties": {"osm_id": null, "type": "pedestrian", "width_m": 4, "extrude": false}}, {"type": "Feature", "geometry": {"type": "LineString", "coordinates": [[267.14453903913426, -103.32358031176909], [266.84998917650466, -103.21226031165466], [264.9845067128933, -98.98210031165661], [264.9845067128933, -98.87078031154218], [265.1808732880378, -98.75946031182323], [269.79548780332374, -98.98210031165661], [270.09003766595333, -99.09342031177104], [270.09003766595333, -99.31606031160442], [267.5372721894233, -103.32358031176909], [267.14453903913426, -103.32358031176909]]}, "properties": {"osm_id": null, "type": "pedestrian", "width_m": 4, "extrude": false}}, {"type": "Feature", "geometry": {"type": "LineString", "coordinates": [[228.85305689135805, -96.42174031179309], [234.15495441956267, -104.65942031156032], [247.90061467776113, -141.72898031169936], [255.85346096998083, -150.74590031187213], [243.6787333125898, -170.44954031156124], [254.87162809443257, -178.24194031166172], [259.48624260954415, -178.7985403118384]]}, "properties": {"osm_id": null, "type": "footway", "width_m": 2, "extrude": false}}, {"type": "Feature", "geometry": {"type": "LineString", "coordinates": [[290.7085280531638, -131.37622031173535], [291.1994444909379, -133.58671745449186]]}, "properties": {"osm_id": null, "type": "footway", "width_m": 2, "extrude": false}}, {"type": "Feature", "geometry": {"type": "LineString", "coordinates": [[238.18046920941507, -163.21374031163742], [230.4239894923399, -169.78162031166562], [223.9438925134425, -179.91174031179625]]}, "properties": {"osm_id": null, "type": "footway", "width_m": 2, "extrude": false}}, {"type": "Feature", "geometry": {"type": "LineString", "coordinates": [[34.94106396325781, -165.9967403117298], [50.944939835182275, -170.56086031167567]]}, "properties": {"osm_id": null, "type": "footway", "width_m": 2, "extrude": false}}, {"type": "Feature", "geometry": {"type": "LineString", "coordinates": [[141.07719781396293, -240.91510031162244], [147.16456164257121, -244.47734031172487], [150.4046101320199, -243.36414031176702], [206.1727174653917, -222.43598031161014], [170.43400079397117, -119.01970031168901], [106.71304716855408, -140.9497403116893], [141.07719781396293, -240.91510031162244]]}, "properties": {"osm_id": null, "type": "footway", "width_m": 2, "extrude": false}}, {"type": "Feature", "geometry": {"type": "LineString", "coordinates": [[64.59241680589564, -189.7079003115836], [70.48341405935942, -187.2588603118345], [82.36359185394645, -182.47210031165977], [87.46912280700653, -180.3570203118585]]}, "properties": {"osm_id": null, "type": "residential", "width_m": 5, "extrude": false}}, {"type": "Feature", "geometry": {"type": "LineString", "coordinates": [[105.53484771786133, -188.03810031184454], [92.5746537600666, -150.85722031159108], [106.32031401826502, -145.17990031168736], [139.11353206286645, -240.35850031184125], [136.56076658633643, -241.24906031157025], [133.81163453466186, -242.13962031169473], [130.66976933287268, -243.25282031165258], [108.87307949479506, -198.72482031175636], [114.0767937353402, -197.05502031162183], [110.44401209577687, -186.36830031171002], [105.53484771786133, -188.03810031184454]]}, "properties": {"osm_id": null, "type": "pedestrian", "width_m": 4, "extrude": false}}, {"type": "Feature", "geometry": {"type": "LineString", "coordinates": [[89.53097184576245, -199.28142031153754], [101.21478306520494, -216.647340311592], [90.80735458394027, -217.76054031154985], [89.53097184576245, -199.28142031153754]]}, "properties": {"osm_id": null, "type": "pedestrian", "width_m": 4, "extrude": false}}, {"type": "Feature", "geometry": {"type": "LineString", "coordinates": [[-120.09034709163271, -73.48982031155387], [-104.6755709449674, -86.7369003117247], [-90.83172739928392, -103.21226031165466], [-87.68986219732031, -106.99714031159047], [-11.205081189253011, -206.18326031190904], [9.707959060587006, -236.1283403118432], [22.56996973089667, -264.18098031180944], [29.540983147568145, -290.2298603116934], [33.370131362276, -311.15802031185024], [38.18111245270649, -356.91054031181875]]}, "properties": {"osm_id": null, "type": "residential", "width_m": 5, "extrude": false}}, {"type": "Feature", "geometry": {"type": "LineString", "coordinates": [[80.59629267799451, -247.92826031171288], [76.17804473785309, -219.5416603117988], [87.37093951952146, -218.2058203116121], [89.33460527061791, -238.9113403115401], [104.35664826716857, -237.46418031163444], [102.58934909104222, -218.98506031162214], [117.70957537507795, -243.69810031171482], [112.80041099716239, -244.36602031161044], [108.67671291965054, -244.9226203117871], [80.59629267799451, -247.92826031171288]]}, "properties": {"osm_id": null, "type": "pedestrian", "width_m": 4, "extrude": false}}, {"type": "Feature", "geometry": {"type": "LineString", "coordinates": [[150.4046101320199, -243.36414031176702], [151.7791761578572, -247.48298031165064]]}, "properties": {"osm_id": null, "type": "footway", "width_m": 2, "extrude": false}}, {"type": "Feature", "geometry": {"type": "LineString", "coordinates": [[148.637310956068, -266.74134031167296], [151.68099287037217, -266.4073803117252], [209.02003280455133, -256.388580311709], [202.539935825654, -260.61874031170703], [188.205175842022, -272.97526031175335]]}, "properties": {"osm_id": null, "type": "footway", "width_m": 2, "extrude": false}}, {"type": "Feature", "geometry": {"type": "LineString", "coordinates": [[142.84449699008928, -279.20918031183373], [148.637310956068, -266.74134031167296], [140.3899148010443, -267.6319003117975]]}, "properties": {"osm_id": null, "type": "footway", "width_m": 2, "extrude": false}}, {"type": "Feature", "geometry": {"type": "LineString", "coordinates": [[-150.4289829473636, -60.79934031155972], [-148.07258404597806, -46.77302031177433]]}, "properties": {"osm_id": null, "type": "primary", "width_m": 14, "extrude": false}}, {"type": "Feature", "geometry": {"type": "LineString", "coordinates": [[-163.9782766304175, -45.659820311816475], [-120.09034709163271, -73.48982031155387]]}, "properties": {"osm_id": null, "type": "residential", "width_m": 5, "extrude": false}}, {"type": "Feature", "geometry": {"type": "LineString", "coordinates": [[-132.36325803650877, -56.56918031156167], [-134.91602351303882, -70.81814031157592]]}, "properties": {"osm_id": null, "type": "primary", "width_m": 14, "extrude": false}}, {"type": "Feature", "geometry": {"type": "LineString", "coordinates": [[-154.45449773721595, -83.50862031157007], [-150.4289829473636, -60.79934031155972]]}, "properties": {"osm_id": null, "type": "primary", "width_m": 14, "extrude": false}}, {"type": "Feature", "geometry": {"type": "LineString", "coordinates": [[-258.62696583682464, -174.8961558672275], [-253.226885021135, -174.01178031166367], [-253.03051844599045, -168.55710031159333], [-258.62696583682464, -149.77775364477353]]}, "properties": {"osm_id": null, "type": "residential", "width_m": 5, "extrude": false}}, {"type": "Feature", "geometry": {"type": "LineString", "coordinates": [[-134.91602351303882, -70.81814031157592], [-134.13055721263513, -103.99150031166471], [-136.7815059766502, -119.68762031158462], [-143.2616029555476, -157.98170031179595], [-153.76721472429733, -215.756780311863], [-159.56002869027606, -258.9489403115725]]}, "properties": {"osm_id": null, "type": "service", "width_m": 3.5, "extrude": false}}, {"type": "Feature", "geometry": {"type": "LineString", "coordinates": [[-229.36834614430143, -175.90422031163158], [-227.79741354349406, -184.92114031180435], [-228.87742970652732, -190.15318031164583], [-233.09931107152426, -194.38334031164388], [-243.31037297764442, -197.16634031173626], [-258.62696583682464, -193.31849797956792]]}, "properties": {"osm_id": null, "type": "residential", "width_m": 5, "extrude": false}}, {"type": "Feature", "geometry": {"type": "LineString", "coordinates": [[-245.38002045073696, -359.6373954424709], [-244.78312229114113, -358.35770031172444], [-242.62308996472575, -351.78982031169625], [-233.39386093432822, -312.7165003118704], [-232.2156614836355, -307.48446031163337], [-208.94622233223555, -231.56422031189734], [-186.65861605638383, -171.56274031191458], [-171.53838977234813, -122.1366603117292], [-167.21832511986617, -106.21790031158042], [-154.45449773721595, -83.50862031157007]]}, "properties": {"osm_id": null, "type": "service", "width_m": 3.5, "extrude": false}}, {"type": "Feature", "geometry": {"type": "LineString", "coordinates": [[-134.91602351303882, -70.81814031157592], [-141.19975391679165, -102.21038031181124], [-150.91989938513768, -145.06858031157293], [-168.20015799541437, -215.97942031169637], [-181.94581825361283, -272.6413003118056], [-201.97520891556405, -354.57282031178863], [-211.00807137099147, -389.63862031184533]]}, "properties": {"osm_id": null, "type": "primary", "width_m": 14, "extrude": false}}, {"type": "Feature", "geometry": {"type": "LineString", "coordinates": [[-147.58166760802953, -380.62170031167256], [-147.09075117025543, -376.3915403116745], [-146.99256788277037, -364.36898031157597], [-146.89438459528532, -345.3332603117825], [-142.8688698052585, -336.42766031172414], [-102.12280546843736, -278.3186203117093], [-100.4536895799705, -270.97150031167104], [-100.65005615511502, -254.6074603118555], [-103.8901046445637, -222.3246603118912], [-103.8901046445637, -204.95874031183675], [-98.39184054121458, -156.75718031172366], [-101.14097259288914, -134.82714031172335], [-102.61372190621148, -118.01782031184558], [-100.4536895799705, -111.33862031170295], [-96.7227246527477, -107.66506031188158], [-90.83172739928392, -103.21226031165466]]}, "properties": {"osm_id": null, "type": "footway", "width_m": 2, "extrude": false}}, {"type": "Feature", "geometry": {"type": "LineString", "coordinates": [[274.80283546872437, -115.68010031181544], [291.1994444909379, -126.33559640942494]]}, "properties": {"osm_id": null, "type": "residential", "width_m": 5, "extrude": false}}, {"type": "Feature", "geometry": {"type": "LineString", "coordinates": [[285.79936367524823, -202.73234031152555], [291.1994444909379, -206.38377043217062]]}, "properties": {"osm_id": null, "type": "residential", "width_m": 5, "extrude": false}}, {"type": "Feature", "geometry": {"type": "LineString", "coordinates": [[51.82858942324545, -360.1388203115779], [65.86879954407345, -320.17494031162755], [73.03617953588946, -289.3393003115689], [73.91982912395262, -269.85830031171315], [72.44707981063029, -249.70938031156635], [67.53791543271474, -205.0700603115557], [64.59241680589564, -189.7079003115836]]}, "properties": {"osm_id": null, "type": "residential", "width_m": 5, "extrude": false}}, {"type": "Feature", "geometry": {"type": "LineString", "coordinates": [[151.19007643259803, -316.39006031169174], [151.68099287037217, -272.30734031185773], [151.68099287037217, -266.4073803117252]]}, "properties": {"osm_id": null, "type": "footway", "width_m": 2, "extrude": false}}, {"type": "Feature", "geometry": {"type": "LineString", "coordinates": [[157.57199012383592, -311.15802031185024], [158.35745642423964, -274.3111003115446], [192.03432405690427, -274.9790203118357], [191.24885775632615, -311.9372603118603], [157.57199012383592, -311.15802031185024]]}, "properties": {"osm_id": null, "type": "pedestrian", "width_m": 4, "extrude": false}}, {"type": "Feature", "geometry": {"type": "LineString", "coordinates": [[201.55810295010573, -329.30318031191473], [197.63077144773843, -323.4032203117822], [194.2925396708047, -319.1730603117841], [195.27437254635294, -273.19790031158675], [188.205175842022, -272.97526031175335], [151.68099287037217, -272.30734031185773]]}, "properties": {"osm_id": null, "type": "footway", "width_m": 2, "extrude": false}}, {"type": "Feature", "geometry": {"type": "LineString", "coordinates": [[172.39766654524206, -312.82782031158933], [179.36867996191353, -313.05046031181814], [185.94696022829595, -314.3863003116094], [190.5615747435819, -316.39006031169174], [194.2925396708047, -319.1730603117841]]}, "properties": {"osm_id": null, "type": "footway", "width_m": 2, "extrude": false}}, {"type": "Feature", "geometry": {"type": "LineString", "coordinates": [[171.90675010729353, -330.0824203115293], [172.39766654524206, -312.82782031158933], [163.7575372401037, -312.49386031164147], [155.90287423536904, -314.3863003116094], [151.19007643259803, -316.39006031169174], [147.0663783550862, -319.95230031179415], [141.6662975393965, -324.1824603117922]]}, "properties": {"osm_id": null, "type": "footway", "width_m": 2, "extrude": false}}, {"type": "Feature", "geometry": {"type": "LineString", "coordinates": [[33.370131362276, -311.15802031185024], [26.988217671038107, -312.04858031157926], [-58.43124250497153, -382.62546031175486], [-66.08953893456165, -386.0763803117429], [-73.45328550134776, -387.18958031170075], [-72.47145262579954, -380.8443403119014], [-96.23180821497358, -374.61042031182103], [-100.4536895799705, -382.7367803118693], [-114.10116655068386, -382.40282031152606]]}, "properties": {"osm_id": null, "type": "footway", "width_m": 2, "extrude": false}}, {"type": "Feature", "geometry": {"type": "LineString", "coordinates": [[150.20824355687537, -350.3426603117906], [151.58280958271266, -343.99742031159576], [154.82285807216135, -338.32010031169204], [159.5356558749324, -333.8673003118606], [165.42665312857056, -331.08430031176823], [171.90675010729353, -330.0824203115293], [178.09229722356127, -331.08430031176823], [183.78692790188055, -333.75598031174616], [188.49972570482598, -337.98614031174424], [191.73977419427467, -343.4408203118146], [193.212523507597, -349.4521003116661], [192.81979035730794, -356.576580311871], [190.07065830563337, -363.14446031189914], [185.35786050286237, -368.4878203118551], [179.07413009910954, -372.050060311562], [172.10311668243804, -373.2745803116343], [165.13210326576655, -372.2727003117909], [158.84837286201375, -369.04442031163626], [153.9392084840982, -363.81238031179475], [150.89552656979404, -357.355820311881], [150.20824355687537, -350.3426603117906]]}, "properties": {"osm_id": null, "type": "footway", "width_m": 2, "extrude": false}}, {"type": "Feature", "geometry": {"type": "LineString", "coordinates": [[38.18111245270649, -356.91054031181875], [40.73387792923653, -359.35958031156787], [44.366659568799854, -362.3652203118891], [48.097624496022654, -361.2520203115358], [51.82858942324545, -360.1388203115779]]}, "properties": {"osm_id": null, "type": "residential", "width_m": 5, "extrude": false}}, {"type": "Feature", "geometry": {"type": "LineString", "coordinates": [[143.92451315312255, -371.159500311833], [146.7718284924566, -355.4633803119131], [150.20824355687537, -350.3426603117906]]}, "properties": {"osm_id": null, "type": "footway", "width_m": 2, "extrude": false}}, {"type": "Feature", "geometry": {"type": "LineString", "coordinates": [[-159.56002869027606, -258.9489403115725], [-164.86192621848065, -304.0335403116454], [-173.10932237332995, -349.2294603118327]]}, "properties": {"osm_id": null, "type": "service", "width_m": 3.5, "extrude": false}}, {"type": "Feature", "geometry": {"type": "LineString", "coordinates": [[-251.5913023963043, -345.24564747999125], [-249.79046995654176, -344.442700311658], [-244.97948886611127, -338.8767003118687], [-241.05215736391835, -332.08618031161166], [-237.4193757241806, -318.3938203117741], [-233.39386093432822, -312.7165003118704]]}, "properties": {"osm_id": null, "type": "service", "width_m": 3.5, "extrude": false}}, {"type": "Feature", "geometry": {"type": "LineString", "coordinates": [[-245.7449160997533, -358.94714882468634], [-244.78312229114113, -358.35770031172444]]}, "properties": {"osm_id": null, "type": "service", "width_m": 3.5, "extrude": false}}, {"type": "Feature", "geometry": {"type": "LineString", "coordinates": [[-241.57393493024054, -366.6534156416707], [-231.43019518305738, -364.36898031157597]]}, "properties": {"osm_id": null, "type": "tertiary", "width_m": 7, "extrude": false}}, {"type": "Feature", "geometry": {"type": "LineString", "coordinates": [[-231.43019518305738, -364.36898031157597], [-217.68453492485895, -364.7029403119193], [-204.3316078169496, -368.37650031174064], [-192.25506344721802, -375.05570031188324]]}, "properties": {"osm_id": null, "type": "tertiary", "width_m": 7, "extrude": false}}, {"type": "Feature", "geometry": {"type": "LineString", "coordinates": [[-167.9056081327848, -379.50850031171467], [-167.9056081327848, -375.1670203116022], [-165.84375909402888, -370.71422031177076], [-160.7382281409688, -365.8161403118771], [-146.99256788277037, -364.36898031157597], [-78.1660833042932, -360.91806031158796], [-73.94420193912188, -362.3652203118891], [-67.75865482302851, -365.3708603118149]]}, "properties": {"osm_id": null, "type": "footway", "width_m": 2, "extrude": false}}, {"type": "Feature", "geometry": {"type": "LineString", "coordinates": [[-173.10932237332995, -349.2294603118327], [-178.21485332639, -370.1576203115941], [-178.41121990153454, -382.0688603115782], [-176.3493708627786, -392.64426031177106]]}, "properties": {"osm_id": null, "type": "service", "width_m": 3.5, "extrude": false}}, {"type": "Feature", "geometry": {"type": "LineString", "coordinates": [[-192.25506344721802, -375.05570031188324], [-183.41856756693514, -383.07074031181713], [-176.3493708627786, -392.64426031177106]]}, "properties": {"osm_id": null, "type": "tertiary", "width_m": 7, "extrude": false}}, {"type": "Feature", "geometry": {"type": "LineString", "coordinates": [[-173.10932237332995, -349.2294603118327], [-173.79660538624856, -371.82742031172864], [-174.18933853653763, -379.1745403117669], [-172.81477251070035, -385.4084603118473], [-167.61105826998082, -398.3215803116748], [-162.70189389206524, -413.0158203117513], [-161.46753350729387, -415.29651166093333]]}, "properties": {"osm_id": null, "type": "service", "width_m": 3.5, "extrude": false}}, {"type": "Feature", "geometry": {"type": "LineString", "coordinates": [[-176.3493708627786, -392.64426031177106], [-172.9129557981854, -399.88006031169493], [-170.45837360931483, -407.3385003118476]]}, "properties": {"osm_id": null, "type": "tertiary", "width_m": 7, "extrude": false}}, {"type": "Feature", "geometry": {"type": "LineString", "coordinates": [[-170.45837360931483, -407.3385003118476], [-166.72992536631247, -415.0033968740694]]}, "properties": {"osm_id": null, "type": "residential", "width_m": 5, "extrude": false}}, {"type": "Feature", "geometry": {"type": "LineString", "coordinates": [[-170.45837360931483, -407.3385003118476], [-169.34270746136545, -414.8578651295543]]}, "properties": {"osm_id": null, "type": "tertiary", "width_m": 7, "extrude": false}}, {"type": "Feature", "geometry": {"type": "LineString", "coordinates": [[226.99743084570147, -408.33694665841534], [201.55810295010573, -329.30318031191473], [214.91103005801511, -336.87294031178635]]}, "properties": {"osm_id": null, "type": "footway", "width_m": 2, "extrude": false}}, {"type": "Feature", "geometry": {"type": "LineString", "coordinates": [[127.23335426827944, -74.93698031185502], [163.56117066495918, -95.97646031173085], [174.26314900885345, -102.32170031153018], [192.1325073443893, -118.24046031167896], [203.0308522634281, -132.1554603117454], [211.0818818433073, -148.96478031162317], [216.38377937133748, -164.88354031177195], [218.15107854746378, -183.91926031156544], [217.95471197231927, -207.9643803117625], [213.73283060732237, -282.1035003116451], [215.50012978344873, -309.82218031166354], [218.9365448478675, -331.64090031154944], [237.890790255402, -402.96439796316264]]}, "properties": {"osm_id": null, "type": "residential", "width_m": 5, "extrude": false}}, {"type": "Feature", "geometry": {"type": "LineString", "coordinates": [[43.384826693251625, -403.44230031179734], [38.18111245270649, -356.91054031181875]]}, "properties": {"osm_id": null, "type": "residential", "width_m": 5, "extrude": false}}, {"type": "Feature", "geometry": {"type": "LineString", "coordinates": [[43.384826693251625, -403.44230031179734], [45.64304230715208, -380.8443403119014], [51.82858942324545, -360.1388203115779]]}, "properties": {"osm_id": null, "type": "residential", "width_m": 5, "extrude": false}}, {"type": "Feature", "geometry": {"type": "LineString", "coordinates": [[220.57793932906938, -410.8269072844986], [213.53646403217783, -392.3103003118233], [199.10352076106076, -354.2388603118408], [193.212523507597, -349.4521003116661]]}, "properties": {"osm_id": null, "type": "footway", "width_m": 2, "extrude": false}}, {"type": "Feature", "geometry": {"type": "LineString", "coordinates": [[169.3539846309379, -409.56490031176327], [191.3470410439856, -400.99326031165276], [213.53646403217783, -392.3103003118233]]}, "properties": {"osm_id": null, "type": "footway", "width_m": 2, "extrude": false}}, {"type": "Feature", "geometry": {"type": "LineString", "coordinates": [[179.07413009910954, -372.050060311562], [182.70691173884725, -378.72926031170465], [191.3470410439856, -400.99326031165276], [196.90684008336476, -415.13682958522224]]}, "properties": {"osm_id": null, "type": "footway", "width_m": 2, "extrude": false}}, {"type": "Feature", "geometry": {"type": "LineString", "coordinates": [[170.96097142278765, -415.35354031178144], [169.3539846309379, -409.56490031176327], [167.39031887966703, -402.55174031167286]]}, "properties": {"osm_id": null, "type": "footway", "width_m": 2, "extrude": false}}, {"type": "Feature", "geometry": {"type": "LineString", "coordinates": [[167.39031887966703, -402.55174031167286], [161.99023806397736, -399.99138031180934], [141.07719781396293, -397.0970603116025], [143.92451315312255, -371.159500311833], [150.797343282309, -380.95566031162036], [156.49197396062823, -386.0763803117429], [160.8120386132846, -390.30654031174095], [166.50666929160383, -398.9895003115704], [167.39031887966703, -402.55174031167286]]}, "properties": {"osm_id": null, "type": "footway", "width_m": 2, "extrude": false}}, {"type": "Feature", "geometry": {"type": "LineString", "coordinates": [[126.88550490673937, -415.35354031178144], [128.80428686926126, -389.97258031179314], [136.85531644896602, -318.3938203117741], [137.24804959925507, -290.7864603118701], [135.38256713564368, -277.2054203117514], [134.302550972436, -269.19038031181753], [125.36787180466806, -246.81506031175502], [95.61833567437075, -197.83426031163188], [87.46912280700653, -180.3570203118585]]}, "properties": {"osm_id": null, "type": "residential", "width_m": 5, "extrude": false}}, {"type": "Feature", "geometry": {"type": "LineString", "coordinates": [[270.87550396635703, -133.7139403117655], [285.79936367524823, -202.73234031152555], [291.1994444909379, -225.37858368488884]]}, "properties": {"osm_id": null, "type": "tertiary", "width_m": 7, "extrude": false}}, {"type": "Feature", "geometry": {"type": "LineString", "coordinates": [[291.1994444909379, -245.192746465344], [285.01389737484453, -218.31714031172652], [285.11208066232956, -217.9831803117787], [285.21026394998904, -217.87186031166428], [285.5048138126187, -217.76054031154985], [285.8975469629077, -217.76054031154985], [286.0939135378778, -217.9831803117787], [291.1994444909379, -240.0889274896214]]}, "properties": {"osm_id": null, "type": "pedestrian", "width_m": 4, "extrude": false}}, {"type": "Feature", "geometry": {"type": "LineString", "coordinates": [[291.1994444909379, -261.5863845669553], [277.8465173830285, -203.40026031181665], [264.1008571248301, -144.957260311854]]}, "properties": {"osm_id": null, "type": "tertiary", "width_m": 7, "extrude": false}}, {"type": "Feature", "geometry": {"type": "LineString", "coordinates": [[-225.85660220494842, -386.8726325505668], [-177.7239368886159, -188.70602031174016], [-160.24731170319467, -110.89334031164071], [-154.45449773721595, -83.50862031157007]]}, "properties": {"osm_id": null, "type": "primary", "width_m": 14, "extrude": false}}, {"type": "Feature", "geometry": {"type": "LineString", "coordinates": [[-211.00807137099147, -389.63862031184533], [-211.96876136844318, -398.6468323271865]]}, "properties": {"osm_id": null, "type": "service", "width_m": 3.5, "extrude": false}}, {"type": "Feature", "geometry": {"type": "LineString", "coordinates": [[-89.94807781122076, -409.2309403118155], [-80.86612371213803, -415.35354031178144]]}, "properties": {"osm_id": null, "type": "footway", "width_m": 2, "extrude": false}}, {"type": "Feature", "geometry": {"type": "LineString", "coordinates": [[43.384826693251625, -403.44230031179734], [45.104771982851936, -415.35354031178144]]}, "properties": {"osm_id": null, "type": "residential", "width_m": 5, "extrude": false}}, {"type": "Feature", "geometry": {"type": "LineString", "coordinates": [[-211.00807137099147, -389.63862031184533], [-212.91443895057742, -398.0041760596032]]}, "properties": {"osm_id": null, "type": "primary", "width_m": 14, "extrude": false}}]}