{"type": "FeatureCollection", "crs": {"type": "name", "properties": {"name": "EPSG:32628_local_enu_m_section_centroid", "lng0": -15.482970748792281, "lat0": 28.095537681159417}}, "features": [{"type": "Feature", "geometry": {"type": "Polygon", "coordinates": [[[-140.15955969111388, 284.38710666628], [-135.4458422817461, 270.69474666644237], [-130.73212487255273, 265.3513866664865], [-133.97280559141677, 259.11746666640613], [-130.92852976463152, 253.99674666628357], [-129.75010041233318, 246.20434666618308], [-95.47744674938025, 259.6740666661873], [-77.11358934254213, 258.00426666644825], [-62.97243711496204, 251.32506666630562], [-52.95578762033893, 243.31002666637175], [-41.46610143521205, 292.95874666639054], [-38.01529438671264, 304.7586666662602], [-155.37226046928402, 304.7586666662602], [-140.15955969111388, 284.38710666628]]]}, "properties": {"name": "Presa de Piletas", "kind": "water", "category": "agua", "extrude": false}}]}