{"type": "FeatureCollection", "crs": {"type": "name", "properties": {"name": "EPSG:32628_local_enu_m_section_centroid", "lng0": -16.28394804570412, "lat0": 28.45169781845889}}, "features": [{"type": "Feature", "geometry": {"type": "Polygon", "coordinates": [[[-90.85126116512923, -161.59529883104508], [-93.53398029828912, -160.83248577018054], [-94.35791484624977, -158.6904951654949], [-92.76876792743211, -156.88304240507446], [-94.28110732777276, -152.99019816775512], [-96.43372966331717, -147.53708956701772], [-97.42295574400893, -145.06182774058527], [-100.19774958197425, -144.3604998448097], [-100.89675196676566, -142.24042938299937], [-99.46289642272542, -139.95726941444923], [-103.75842581480268, -129.0098637623517], [-106.54667856021516, -128.21704293042774], [-107.3568643437857, -126.24243561001057], [-105.96614353800169, -123.47434115072089], [-108.20964507534521, -117.82415267399345], [-97.317326900675, -113.4651908487152], [-92.97794037217241, -111.65951976128085], [-76.79633986208354, -152.50856555947502], [-76.77076338481926, -152.5703817968943], [-76.77076338481926, -152.57313115609037], [-71.51125241314968, -165.85031003736873], [-71.58533123944471, -165.88030558452564], [-70.1093209504835, -169.64822104716185], [-73.82753123707023, -171.09498143449252], [-73.82565165900985, -171.09973560483198], [-74.1578337676755, -171.2235025724278], [-78.49656789574783, -172.9117095816707], [-79.17595966825435, -175.61623603300603], [-81.08612446160866, -176.2951641009487], [-82.06247189166807, -175.62888139093317], [-86.20882076311045, -177.16430539608587], [-87.26536939513124, -176.8638829306917], [-88.09067452088541, -174.85242632860718], [-86.48530141272724, -172.7222003390249], [-90.85126116512923, -161.59529883104508]]]}, "properties": {"id": 0, "height_median_m": 30.0, "building_count": 18, "area_m2": 1066.883382225793}}, {"type": "Feature", "geometry": {"type": "Polygon", "coordinates": [[[-68.4714312378273, -109.745643006349], [-67.39801740845894, -109.35321990132326], [-70.13498383127957, -102.34907869447451], [-59.11233354144564, -97.97300332528056], [-35.94669168964413, -155.84846984533064], [-40.645765836766266, -157.5976116473972], [-40.97704157253865, -160.23510014204894], [-43.021150803632764, -161.05565823636883], [-43.87731423657284, -160.37401422974085], [-46.36628511757732, -161.20662841174564], [-47.93404605187444, -161.82386534590833], [-49.08949640964335, -161.63612563026183], [-49.9096547108415, -159.5039521707684], [-49.24721660644101, -158.449137292923], [-48.020258629429065, -158.00058087783745], [-53.047871824020206, -145.29331113303883], [-66.20154993472072, -150.10208764106403], [-66.27091607919765, -149.9222688867185], [-55.351953662588855, -145.48693574946853], [-56.183533465896865, -143.46018632876735], [-55.47427248342267, -142.5190430078875], [-54.378573881914306, -142.08931267000057], [-59.223259186946244, -129.78972752138571], [-62.013705615648654, -128.99628293043781], [-62.83901074141839, -126.98482632879178], [-62.07362886889344, -125.96921422743239], [-60.93623313549252, -125.50719880924132], [-65.6746214294364, -113.65070625201572], [-68.47343355930731, -112.85488293045564], [-69.29873868507704, -110.84342632880963], [-68.4714312378273, -109.745643006349]]]}, "properties": {"id": 1, "height_median_m": 33.0, "building_count": 13, "area_m2": 791.4459192900504}}, {"type": "Feature", "geometry": {"type": "Polygon", "coordinates": [[[-113.57048014751835, -15.697885912206257], [-105.89922797019365, -13.51661718102691], [-112.59447489853504, 9.459654586797624], [-107.61468235717403, 10.875624953343458], [-100.8283726208306, -12.40871371997676], [-94.42732234033063, -10.588618317532426], [-94.33257068852656, -10.570656989467668], [-93.56906033484165, -10.347109493080278], [-93.34595775825379, -10.245609156277562], [-93.22239325377946, -10.245609156277562], [-83.04646019090474, -7.266207045183036], [-81.0883899693428, -14.170081130607302], [-67.37378267233407, -10.24389692766247], [-69.33093631328788, -3.343254574909504], [-62.73431183709756, -1.4292692644763736], [-59.390030533489345, -0.4589388610760392], [-59.06571878507336, -0.3648410501866182], [-59.064868797457834, -0.3678794165834013], [-49.241839300400954, 2.386970849121831], [-50.92112917630256, 9.015721235746271], [-39.8770546231449, 12.229059641655493], [-39.88163162831198, 12.243635775231914], [-30.294943240113785, 14.879680684774096], [-28.235466788006843, 7.9757859309463175], [-39.85190514085867, 4.746131402980698], [-39.789639134000566, 4.529945031058486], [-51.73615134143162, 0.9786299913754689], [-50.033396976450234, -5.108037096526188], [-35.85763754824189, -1.1225453506696053], [-35.86080423897997, -1.1115506616530462], [-26.18071299804208, 1.521245339866373], [-24.228976855728572, -5.261635605752255], [-34.45608643658428, -8.457250459430522], [-48.01768585955911, -12.31339963513964], [-47.62069657445713, -13.732477844876678], [-55.100816620460265, -15.83026353333591], [-64.39575404048868, -18.527154002850047], [-54.94509748665911, -52.398755084595024], [-50.65367831098352, -51.126116258903664], [-43.800437633661524, -74.3955607019531], [-76.37869136297084, -84.05678205416483], [-76.94504603362587, -82.13378545096353], [-118.4517902426884, -93.84445812429487], [-122.496217049698, -82.04953054363239], [-107.69915024659839, -77.86366121058376], [-110.34290064066539, -68.68461095655606], [-101.51051842920393, -66.23158805193422], [-89.50923526893013, -62.70407672057286], [-86.79910855726777, -71.95135137709161], [-80.4711529569932, -70.16126719077609], [-83.23193204064971, -60.78733761071213], [-69.37774171331694, -56.678817844333075], [-79.3136704006484, -22.39531972585444], [-88.68921640602275, -25.45711465068821], [-89.54006201237462, -25.846713202282977], [-90.04408997185757, -25.961366758081898], [-99.2134978250605, -28.995268345343888], [-97.9239729896238, -33.31808725291573], [-107.60441317904305, -36.19033188096983], [-107.60755881053068, -36.17920108375189], [-118.85920245051457, -39.41530383373628], [-120.81451349820057, -32.61999899555075], [-109.53057827520814, -29.37460881295562], [-109.55626066353697, -29.283731843518698], [-96.47584950791313, -25.360046699151205], [-98.40199249997796, -18.688238506739765], [-111.61727447730247, -22.609291880849568], [-111.6962133030933, -22.329967342708137], [-122.66909113977823, -25.957948368492424], [-124.73189345496833, -19.04290446706992], [-113.56341812225699, -15.722874844138195], [-113.57048014751835, -15.697885912206257]]]}, "properties": {"id": 2, "height_median_m": 3.0, "building_count": 17, "area_m2": 3617.5851429042123}}, {"type": "Feature", "geometry": {"type": "Polygon", "coordinates": [[[-42.90153512853311, -18.932551427329383], [-34.56634025995917, -16.376086151148012], [-34.5205074263303, -16.36202888559769], [-33.52121964114496, -16.055540007530755], [-33.51876882333519, -16.064367071698303], [-22.268069926135027, -12.719895019749911], [-20.215006768657513, -19.848090607331333], [-29.39580550725011, -22.60861733093674], [-29.451451251725118, -22.425076429430824], [-40.9524544917178, -25.952518305462338], [-42.90153512853311, -18.932551427329383]]]}, "properties": {"id": 3, "height_median_m": 3.0, "building_count": 2, "area_m2": 158.59133250673284}}, {"type": "Feature", "geometry": {"type": "Polygon", "coordinates": [[[-115.92737152644798, -47.315169156416594], [-105.16190921442818, -44.29009545967752], [-105.25574321340468, -43.97553976148396], [-95.67150380932718, -41.220378632848295], [-93.71966851546321, -48.126935533395525], [-103.19572108475028, -50.881263763882345], [-103.2445121686446, -50.71770350185148], [-114.65237926663164, -53.99873792388595], [-116.53723696260369, -47.315169156416594], [-115.92737152644798, -47.315169156416594]]]}, "properties": {"id": 4, "height_median_m": 3.0, "building_count": 2, "area_m2": 151.09288556056114}}, {"type": "Feature", "geometry": {"type": "Polygon", "coordinates": [[[-153.00733305293082, -18.09567999256907], [-162.66118391648678, 6.723760770824849], [-156.46158683806755, 7.560350250231041], [-155.6832223731032, 7.737408392053742], [-155.3777707859255, 6.868877438752525], [-153.68089935879033, -0.3149210226134848], [-152.32264956638542, -0.20457555039376124], [-147.7113690567583, -16.725524946272763], [-146.57405076774927, -20.97577737746858], [-150.66204339832242, -22.038536771207482], [-151.94863886658408, -17.986213614448967], [-153.00733305293082, -18.09567999256907]]]}, "properties": {"id": 5, "height_median_m": 3.0, "building_count": 1, "area_m2": 184.85631746871468}}, {"type": "Feature", "geometry": {"type": "Polygon", "coordinates": [[[-141.519676587152, 23.349156437903687], [-139.76144804164306, 23.46025430659933], [-140.7369317921655, 31.448574077720775], [-135.9377688196066, 32.116954274696866], [-136.51644353939565, 37.2726113530663], [-131.67817254727277, 39.26302874800141], [-130.74369116326977, 39.6881702972131], [-130.1486258333982, 32.80725616959873], [-125.41710232058081, 33.38904070825286], [-125.07046029488357, 33.43453239354806], [-125.07009816245993, 33.43170807606716], [-121.43914275038614, 33.878167596677066], [-120.58517659370335, 25.379484834641186], [-121.75087118798064, 25.26899904068354], [-120.47850053251547, 15.138879040667456], [-123.1852190560057, 14.882333331719321], [-138.2524846951675, 13.324415080210478], [-140.36232686100695, 13.057784250499566], [-141.519676587152, 23.349156437903687]]]}, "properties": {"id": 6, "height_median_m": 6.0, "building_count": 5, "area_m2": 400.2913852579653}}, {"type": "Feature", "geometry": {"type": "Polygon", "coordinates": [[[-109.98548177314879, 114.6220956882315], [-109.98576335184187, 114.6227167985274], [-123.39825648450429, 108.60979423708663], [-129.063358562967, 121.49646226582023], [-111.59857630714889, 129.28404195533338], [-107.32347946736779, 134.7252762899748], [-90.58579623763853, 121.36598604553004], [-82.99290533525301, 130.949783025878], [-99.43146034061506, 144.30461748225045], [-94.13880656809215, 151.21614943212808], [-96.69738054054872, 153.45465165895612], [-89.00389394941529, 162.44151172168205], [-86.75626027336847, 160.5520003007579], [-81.38086117122788, 166.99931581550445], [-80.77457236926135, 166.5246722509531], [-72.01391835285719, 177.75008581030968], [-62.30465640325811, 190.27313465746425], [-38.836586244382076, 171.84860361725623], [-38.2099576352642, 172.56131406393263], [-32.16545089724369, 167.77346609540433], [-33.21154996091669, 166.69182536279374], [-29.926392362014813, 164.11937883796674], [-29.64760234092037, 163.90513002975104], [-29.64957216905626, 163.90261446002145], [1.7671887746884831, 139.3016828218937], [-8.3524353729065, 126.28050960503538], [-39.66021039106489, 150.90894806007032], [-47.40516673027757, 141.08918617264092], [-57.926135454313254, 149.26865880338414], [-91.15240875575549, 106.35576469351871], [-97.61522593708712, 111.36756034042308], [-97.61863398453214, 111.36325932800585], [-97.8911003744163, 111.58149588359338], [-98.16841777594975, 111.79655041891752], [-98.16499190267601, 111.80087392782633], [-104.67510209998902, 117.01525661392888], [-106.46902404040384, 116.20681274441564], [-109.6702184232848, 114.76417139216133], [-109.98548177314879, 114.6220956882315]]]}, "properties": {"id": 7, "height_median_m": 6.0, "building_count": 9, "area_m2": 3540.4212781612105}}, {"type": "Feature", "geometry": {"type": "Polygon", "coordinates": [[[-3.114992653858816, 120.81783857774995], [-1.5663800349441113, 107.78384750894621], [-2.8334188940413205, 107.56214046928491], [-2.440882542215055, 104.66014891634141], [-5.372131443849391, 104.21562581109713], [-4.685356572441747, 99.64049918652155], [-12.122060411737783, 98.7501511886198], [-11.568296429995145, 95.1810794539854], [-13.107334259592804, 93.05552083705527], [-17.604724989568435, 92.30955261258175], [-16.535854173416936, 85.52186757953163], [-14.386676118992918, 85.74408731037471], [-13.087639066760469, 78.11039084351489], [-14.552046924339482, 78.11039084351489], [-16.407705618092354, 57.115713272932446], [-21.649985829317547, 56.328222802369204], [-28.384001802735362, 34.53757865845616], [-23.29704597808875, 34.87137285582727], [-26.18067950614188, 25.383475898549765], [-26.42308069805196, 24.280673636763634], [-27.246714706073433, 24.124543792766882], [-75.53145611808343, 17.663630843469882], [-76.3519941211603, 17.663630843469882], [-76.93369135396998, 22.18461005117215], [-108.84492143225785, 17.95390793979404], [-110.78680715792021, 34.57689287511142], [-104.52486637931868, 35.244595583428016], [-105.1111180811908, 40.02323462489473], [-79.4727610034873, 43.36220880502631], [-80.15778901084641, 48.370916729797734], [-66.82872948098115, 50.13372046414185], [-66.63294107350659, 48.352244915201396], [-59.00246608736722, 49.35363292108175], [-56.94656347111988, 32.31724263516797], [-40.707465303205474, 34.23896752312272], [-41.99593542321509, 45.439353755162145], [-46.56042441660838, 44.69770712179192], [-51.41596274877985, 47.75273925459202], [-54.31005310860549, 74.6535482080711], [-50.01204447447439, 75.09795174215576], [-50.570654339933604, 79.33360351264967], [-46.87394671603788, 84.3556874079565], [-42.47399219359862, 84.88806925591126], [-42.9633655224649, 88.67294925581743], [-38.36691553185035, 89.2291064909193], [-39.02299355726507, 93.91954053872539], [-34.73188971194591, 99.49735260025005], [-30.922735698797254, 99.92002858457705], [-31.411686435687916, 103.92408794007244], [-26.8104473738232, 104.48082463859042], [-27.275383381361056, 108.39398645408563], [-22.494607108528786, 114.64135645329411], [-18.709201045843372, 114.9563870797061], [-19.391842595259867, 118.83847733514676], [-3.114992653858816, 120.81783857774995]]]}, "properties": {"id": 8, "height_median_m": 3.0, "building_count": 2, "area_m2": 3991.9457458229995}}, {"type": "Feature", "geometry": {"type": "Polygon", "coordinates": [[[-208.0424191126953, 121.73324420428203], [-208.04126828507356, 121.73371541556766], [-212.40927155116938, 132.68600498570015], [-197.85459820965318, 132.7784859474913], [-194.36571766563767, 132.80065443047366], [-194.02461302841522, 132.8028218226357], [-194.02461302841522, 132.80059084364612], [-184.6322050368096, 132.80059084364612], [-184.5307704445796, 122.87885990549627], [-184.5307704445796, 121.74783084368212], [-188.12700893637276, 121.74783084368212], [-188.92340649516692, 120.64074065644078], [-190.03097901359857, 119.61005815898935], [-191.24102167831822, 118.57785578834746], [-192.5668407717929, 117.88187849217236], [-193.173915946403, 117.65172152575475], [-194.0659030897163, 117.31354750162795], [-195.58218731320034, 116.85365931471866], [-197.10185333794362, 116.73843084367402], [-199.0084769769093, 116.73843084367402], [-205.1519644253833, 114.40928530811644], [-205.76117041380294, 116.07223193568197], [-206.59684026331453, 118.14598096308139], [-207.9146667181058, 121.41622139415814], [-208.0424191126953, 121.73324420428203]]]}, "properties": {"id": 9, "height_median_m": 6.0, "building_count": 3, "area_m2": 371.60739994504405}}, {"type": "Feature", "geometry": {"type": "Polygon", "coordinates": [[[1.8883884006667133, -143.02333389406814], [1.0075164081608874, -142.2440938940729], [-2.9870583528529613, -143.75853435641395], [-4.162039568599807, -143.6100463698313], [-4.985183102970276, -141.47011217081834], [-3.5481987289439654, -139.18197009854725], [-7.74985700215385, -128.56229770499675], [-10.45354462390834, -127.40913473903856], [-11.147932292212879, -125.434690316976], [-9.835297121550138, -123.34455223765882], [-14.48872309356497, -111.62504442064392], [-17.09783166997979, -110.96559340053982], [-17.803409567328774, -108.95933031701219], [-16.400660196368666, -106.72570139900778], [-20.96095366257475, -95.10352915657182], [-23.425785201357485, -95.10352915657182], [-24.373486278803952, -92.8130137654977], [-22.782117359614016, -90.64103775809515], [-25.21016510546721, -84.42744700041231], [-19.605246260109766, -82.18443252984729], [-13.69809037333266, -79.70914430273227], [8.473746701045997, -136.53144360252628], [8.473746701045977, -136.53144360252628], [8.97486437467127, -137.81571510152884], [3.514318092763954, -139.84830055661317], [4.357908066770451, -142.08707891635663], [1.8883884006667133, -143.02333389406814]]]}, "properties": {"id": 10, "height_median_m": 36.0, "building_count": 13, "area_m2": 808.2010274290401}}, {"type": "Feature", "geometry": {"type": "Polygon", "coordinates": [[[-39.47449770213814, -60.699817947054925], [-39.443349440696686, -60.688008883429234], [-42.41542314278635, -50.20890431104054], [-31.75988080573709, -47.119664373845445], [-29.61437687505576, -54.68440276989293], [-30.296688276966705, -54.90612921315538], [-27.54298568297508, -64.30208996246186], [-26.85516921870222, -64.19033226814805], [-24.717651053895068, -71.72691400185325], [-35.37025503225835, -74.81530205420613], [-37.63233273056977, -67.09682391834927], [-37.60142494177772, -67.090964971052], [-39.47449770213814, -60.699817947054925]]]}, "properties": {"id": 11, "height_median_m": 15.0, "building_count": 2, "area_m2": 277.59780281906205}}, {"type": "Feature", "geometry": {"type": "Polygon", "coordinates": [[[5.006399200763521, -48.21670496479978], [10.173908284430446, -46.72064328037983], [10.41249812816667, -46.647417631277484], [10.962969482675266, -46.438720550006025], [11.463397985704518, -46.32488577910503], [17.289592993780477, -44.536767288466706], [17.28763270094641, -44.52985557776914], [17.6205688357754, -44.435187437087656], [17.963121490245957, -44.33005454424301], [17.96755572247041, -44.3464455159333], [25.91362899326901, -42.02247862767199], [25.89936069313256, -41.97338778119864], [26.194932795998408, -41.88623111240685], [26.54076447487304, -41.68956130938511], [26.567077754785664, -41.77649506289111], [34.13804005483039, -39.54401152597342], [34.6741051248291, -39.30012915648273], [34.81940516642587, -39.30012915648273], [40.27524418083305, -37.650612687335226], [43.56522210108076, -36.64011874344582], [43.894930135208995, -36.532975598320874], [43.89733500500728, -36.54153197110028], [48.780874697836786, -35.086806569765656], [52.06745377452937, -34.083290664798845], [52.40350846938036, -33.95588415510756], [52.41074630970158, -33.98119031404054], [65.43035897331268, -30.084307258944573], [68.07010682664503, -39.55334516886662], [69.63976817418437, -44.84309449954447], [70.71357492955312, -48.4618168273852], [70.8043628461453, -48.76777156200356], [70.80341964157445, -48.76812915379909], [73.33065094037757, -57.506319092400936], [60.23511957659744, -61.590295855422305], [60.23636128030552, -61.59470216977916], [59.907864661205444, -61.692353682089966], [59.556644475032456, -61.80188532606753], [59.55544647225462, -61.79711631012299], [51.29318017341095, -64.25322316871708], [46.0906879479977, -65.81753355461323], [42.7733534742944, -66.81500564027178], [42.437802445864435, -66.9159007374729], [42.43749932493666, -66.91482814597784], [34.49621288519051, -69.27551798409623], [34.49734857088652, -69.27950705213081], [34.16258851194574, -69.3746938133077], [33.825456487096695, -69.47491235487574], [33.824305659124086, -69.4708822571252], [25.156815368445145, -71.93542456516619], [18.99252344144962, -73.71602115124124], [11.51226373489331, -75.93039183268999], [8.966464333310709, -67.2438215026055], [8.963099580200343, -67.24477824742058], [8.86832570114605, -66.90896081803362], [8.769587459734167, -66.5720541953987], [8.772972770875915, -66.57109160504628], [6.32326304628631, -57.89090218297276], [3.695843382912767, -48.69596026477978], [4.492139538281506, -48.33368597309147], [5.006399200763521, -48.21670496479978]]]}, "properties": {"id": 12, "height_median_m": 3.0, "building_count": 24, "area_m2": 1728.640020628673}}, {"type": "Feature", "geometry": {"type": "Polygon", "coordinates": [[[66.02835990645745, -66.37497637243833], [69.80815117255426, -65.0282915106526], [71.70325848367877, -70.48029652677248], [62.919855434416235, -73.48933425934443], [61.02271755939958, -68.15841421271296], [66.02835990645745, -66.37497637243833]]]}, "properties": {"id": 13, "height_median_m": 3.0, "building_count": 1, "area_m2": 53.18116269393663}}, {"type": "Feature", "geometry": {"type": "Polygon", "coordinates": [[[-22.852186619369103, -52.51279159274712], [-25.094979389634215, -44.981586966138735], [-14.441479651546613, -41.77414507246579], [-11.330940964235923, -52.21920431277462], [-11.315217976979685, -52.21324334583867], [-10.172338218617227, -56.11288500473464], [-7.100647203325522, -66.37997784605709], [-17.750338850333556, -69.58627324023658], [-20.003352587071372, -62.020747034297194], [-19.319735623504997, -61.79859633127262], [-22.165650366642332, -52.40124190997511], [-22.852186619369103, -52.51279159274712]]]}, "properties": {"id": 14, "height_median_m": 15.0, "building_count": 2, "area_m2": 278.6139868532054}}, {"type": "Feature", "geometry": {"type": "Polygon", "coordinates": [[[-27.347412809878943, -30.060560837015966], [-18.154947658368123, -27.41670161937916], [-16.10491974547356, -34.657077125060745], [-27.22401109647, -37.89224210909994], [-27.158555659628224, -38.11166556819694], [-36.735547209520426, -40.74504414508759], [-38.90318784997837, -33.84187966045177], [-27.171418103631073, -30.65106712468717], [-27.347412809878943, -30.060560837015966]]]}, "properties": {"id": 15, "height_median_m": 3.0, "building_count": 2, "area_m2": 158.52657043263306}}, {"type": "Feature", "geometry": {"type": "Polygon", "coordinates": [[[14.42223706187821, -35.52713928905097], [14.266925433994896, -35.56246873880595], [14.260173674396487, -35.53985755811958], [1.030158143917898, -39.41928139282577], [0.6460084997325605, -37.962876644951635], [-1.6011566618679147, -30.29528185829739], [-1.8009042011115721, -29.727313224843734], [-1.900777970910934, -29.27293831783811], [-4.153981467499652, -21.5847400132733], [-4.2479120111967745, -21.050569703207298], [-4.4357730982561945, -20.623233455612493], [-6.693252751754334, -12.920444396297873], [-6.987723928876679, -11.915673717268096], [3.331327459892676, -8.923988765874405], [15.269974225705441, -5.362364054889376], [23.746127867424317, -2.7915512286314015], [23.744980405365926, -2.787635951624988], [24.079889657137528, -2.690321457891245], [24.4160244304359, -2.588371962510043], [24.41718005073383, -2.5923150763999883], [37.82951884956257, 1.3049047020598157], [41.36585752252371, -11.244159754206375], [42.818180322660396, -16.286596437125297], [45.78774056575414, -26.4190891563641], [45.09093955982193, -26.4190891563641], [44.2560486179678, -26.735616621432595], [38.37061819665406, -28.409099001013185], [32.40112356334818, -30.161238840918795], [32.29543207268378, -30.28144948669613], [31.695623225537126, -30.417890761580725], [31.216507738249966, -30.526877362941473], [23.807561146970233, -32.687578809042634], [23.830256831444963, -32.76619252268637], [23.591341976757445, -32.834126347671294], [23.24077367422177, -33.23285326005111], [23.14879492037391, -32.92199978853496], [16.69507632463624, -34.879409156360204], [16.52520944053418, -34.879409156360204], [14.734962689006604, -35.34929645097199], [14.42223706187821, -35.52713928905097]]]}, "properties": {"id": 16, "height_median_m": 3.0, "building_count": 17, "area_m2": 1336.3115823819912}}, {"type": "Feature", "geometry": {"type": "Polygon", "coordinates": [[[-8.558650871460056, 30.250019127650397], [-8.454053337272176, 30.583125072352548], [-8.355367164470502, 30.91985403071225], [-8.348936486548487, 30.917884855518516], [-6.496259453052357, 36.81800227475127], [-5.934529478702567, 38.6947607231403], [-4.929593915047292, 42.05228372404428], [-4.881440345850134, 42.21316639354302], [-4.110074477745548, 44.79032530595448], [-3.8535963592285776, 45.612420734512654], [-3.7520502534726545, 45.94840850636364], [-3.749063603300319, 45.94748206949173], [-2.748794709291343, 49.153667805134845], [-1.698927726042423, 52.51883147879917], [-1.1624815567156004, 54.23831517597054], [1.4061966891941096, 63.00295084348054], [1.508684669261485, 63.00295084348054], [4.059469410312959, 71.18846145321268], [3.971926468081565, 71.21537198748075], [4.7542423749847895, 73.77350378234185], [4.748112899035221, 73.7753434838118], [4.858054292081636, 74.11296328133398], [4.958957150309224, 74.44291031110373], [4.964914863643539, 74.44112216248078], [6.815096543564267, 80.12285810237714], [9.363935005303713, 88.71242843861707], [9.358631540322758, 88.71443911120355], [9.457260157642274, 89.02693364253076], [9.563613661837229, 89.38534431409789], [9.569657499655497, 89.38305294815846], [12.198281243002546, 97.71157429457205], [13.911310908119736, 103.2782990071448], [14.942982274809497, 106.63085653090066], [15.039833337887533, 106.94558733635846], [15.042767194400147, 106.94473172376485], [16.211180959231374, 110.62482408589501], [17.568286361857357, 115.0496244526786], [17.56298912544811, 115.0508294393838], [17.67952832622707, 115.4123254512837], [17.774104538404245, 115.72068827816568], [17.778608167564645, 115.71966381694776], [18.756106006266457, 118.75179007120019], [21.20738928576972, 126.7673572323345], [30.825031348135102, 123.75359348858245], [31.577699194500244, 126.32178569223169], [37.69116358463888, 124.436147945144], [40.566214234817096, 123.55576200654644], [40.37244132860422, 122.89458580432617], [40.380810531853925, 122.89220607792085], [39.700970325879354, 120.76581841184924], [48.59793647048766, 117.98582696453809], [45.046196283287, 106.69856036482373], [44.225412324943676, 107.07197536293023], [39.74565855418897, 108.20423111400706], [37.14056195863809, 99.84443286091388], [34.69175991126609, 91.38170591364482], [34.6984784000476, 91.37958329487036], [34.595820647331266, 91.05015286097007], [34.498558214648796, 90.7140271169957], [34.491716405142995, 90.7160806183241], [31.85418196954375, 82.25218879763212], [29.11412248478096, 73.45929238982967], [26.575856624576677, 65.11920017662955], [26.97620833302025, 64.99937143601171], [26.372062207797967, 63.21280879522125], [24.020770006722802, 55.65501515950441], [23.631307494184433, 55.76575619390378], [20.98713816414742, 47.077692272992536], [20.89637128983381, 47.10501939387771], [19.390036275267445, 42.21904217443803], [18.346313763865762, 38.8336037661082], [18.24534409034974, 38.506096591487044], [18.244335152646567, 38.50640140639547], [15.60720112769506, 30.043794509050272], [13.160275777510584, 22.122758319814103], [17.971913121710664, 20.725492033532714], [17.971913121710664, 19.85263887577975], [14.719565032896057, 9.448827799889896], [5.4832569409916205, 12.334851763775983], [-2.7968884256160513, 14.689255159775797], [-2.7983594971118086, 14.68452667269752], [-3.1277899693120688, 14.78334477822155], [-3.4704020254090495, 14.880764201754653], [-3.468878893107527, 14.885660028658394], [-12.3728275930756, 17.556546350550068], [-8.534908919315425, 30.242748966746518], [-8.558650871460056, 30.250019127650397]]]}, "properties": {"id": 17, "height_median_m": 6.0, "building_count": 62, "area_m2": 2806.3797358934903}}, {"type": "Feature", "geometry": {"type": "Polygon", "coordinates": [[[48.89716608375097, -112.58164962393953], [49.1903268000628, -113.69309321262797], [57.10676333930243, -111.54442547600898], [56.81330639796113, -110.65437215743322], [64.84925172493563, -108.46080406367645], [70.608982667722, -130.0674868287943], [60.74052876579568, -132.69440684318485], [60.545016329253315, -132.02729515698576], [44.38764152291824, -136.37094059769765], [42.03811345469883, -127.57465356007799], [38.22038924986159, -128.5766942548587], [36.18035066917259, -120.88311849510153], [41.95270842224844, -119.43652174327794], [40.68167091777187, -114.76598052605159], [48.89716608375097, -112.58164962393953]]]}, "properties": {"id": 18, "height_median_m": 3.0, "building_count": 1, "area_m2": 606.1116214519193}}, {"type": "Feature", "geometry": {"type": "Polygon", "coordinates": [[[42.84302539805229, -78.21872163167468], [36.679666211270316, -80.28049756834471], [35.48416908721974, -76.60923703848945], [52.786724892067305, -70.8211607444636], [53.98222201569936, -74.49242127433789], [53.15926314075751, -74.76771868177488], [56.526424704035904, -85.17976604455527], [46.17157839336066, -88.62968875973127], [42.84302539805229, -78.21872163167468]]]}, "properties": {"id": 19, "height_median_m": 3.0, "building_count": 2, "area_m2": 189.60204656047756}}, {"type": "Feature", "geometry": {"type": "Polygon", "coordinates": [[[85.92462209841594, -94.74465088527631], [85.92852941385645, -94.74331766277857], [85.04679933593006, -90.17475160668023], [89.15343207552458, -88.8402450055676], [89.04081572840225, -88.38915674535468], [93.50632494030637, -87.0868620001328], [93.589264548817, -87.34038266169881], [101.75621620504344, -84.88156410158876], [101.56555121672291, -84.16903328415206], [104.68611309936254, -83.17080875840247], [104.68276766841443, -83.15986937547986], [105.02065619256969, -83.06379305638504], [105.35288679299202, -82.95751708878092], [105.37452735856769, -83.02828059792702], [110.76393686972365, -81.27691810132123], [110.90616632365354, -81.92398984974206], [115.39702671595487, -80.61430183615796], [115.72903051064772, -80.51411902238517], [115.72997620021555, -80.51720241409336], [119.6831987438529, -79.36430792881654], [123.04412362557915, -78.3841476371051], [123.37252758801289, -78.28837384419221], [123.37316728706743, -78.2906605129342], [130.0808588265944, -76.38337373991963], [137.66896591618598, -74.1674325097309], [139.6385146068458, -81.78381146260189], [140.42000592275494, -81.67270557481717], [141.17424079307426, -84.53219343878328], [141.04677611204792, -84.56843715967229], [142.44661144850562, -89.87555343875285], [141.67812635603352, -90.094066982855], [142.93058616168167, -94.13018980594822], [143.65088409309516, -97.16140519504602], [145.59724912194153, -104.39812214887019], [146.74493925180224, -108.69906474144047], [146.74041343931052, -108.70935981509804], [146.80621478562801, -108.95751573125558], [146.33983331455306, -109.62057783345287], [145.99324836187859, -110.40897055253464], [140.1015242622071, -112.03020146612995], [140.10262438264292, -112.03421862836862], [139.76248129629568, -112.12349621789934], [139.42660947651254, -112.21591836259351], [139.4255196457539, -112.21193877378876], [131.78856976645739, -114.21641425471775], [131.0485467055758, -111.42557317072145], [123.5351171156449, -113.48474709342398], [124.23956133980884, -116.26229528365097], [119.53232301995521, -117.55461251186993], [119.54349233081875, -117.59760955671901], [117.11894958946249, -118.2632394106384], [117.11894958946249, -120.28948628191877], [109.62075067043028, -122.36392518532654], [108.88894377507657, -122.57200953150905], [108.43700884291678, -120.89156417677161], [105.26057406670652, -121.79476194616078], [105.25911848103866, -121.7888755681913], [101.0061394113547, -122.92099169780404], [96.70247618856912, -124.14470926052083], [91.65291703475756, -125.58051729219872], [89.815499245932, -114.97061448866523], [89.311927875061, -112.0628145685401], [88.64594008398771, -108.21716456199252], [87.01083294871725, -99.99521507407243], [86.06754394626594, -95.43551153715578], [86.06754394626593, -95.43551153715578], [85.92462209841594, -94.74465088527631]]]}, "properties": {"id": 20, "height_median_m": 6.0, "building_count": 53, "area_m2": 2061.6611305994684}}, {"type": "Feature", "geometry": {"type": "Polygon", "coordinates": [[[80.61103947541493, -32.175641918257114], [80.65606780648724, -32.16258736746348], [78.16022559621076, -23.823895883680397], [83.29694609047154, -22.393112109448374], [87.79618439750611, -21.058161135498455], [92.24054767256806, -19.734259098596247], [93.2187911098316, -22.960879284031112], [94.68592698850054, -22.51589776348208], [97.94054052164132, -33.138194537587054], [98.07715257385894, -33.58406429963363], [101.15124282359498, -44.232152523217884], [99.58032226621168, -44.6788331705532], [100.4598004238564, -47.90200495046998], [94.32374272960755, -49.74938365185073], [100.36750948553167, -69.27159189076755], [100.65961457985986, -70.26828921330547], [97.58962303801988, -71.26592504697318], [96.02225005210843, -71.7115969668227], [95.68297847250642, -71.81878539077789], [95.67369574804566, -71.78593852870381], [91.42255631961983, -73.04727707799985], [83.33731254490752, -75.52310648014034], [83.33731254490752, -74.64262127513663], [83.24600892016528, -74.22723617219852], [83.14629643426193, -73.66018473846738], [82.12044699006339, -67.12625349649122], [88.73618687956643, -65.02380185428294], [86.97564914898052, -59.016637736919485], [89.32464112849247, -58.23739773689905], [87.44406370791991, -51.820643918668964], [86.48664553265664, -52.10889315513784], [83.95237559935978, -43.64181337418424], [83.93802792729986, -43.64597303120941], [83.8411285263802, -43.31189666476893], [83.73894764311197, -42.9748651162199], [83.74302878150479, -42.9736819182826], [81.68342708516369, -35.87287175332813], [80.705196362894, -32.500263025774956], [80.61103947541493, -32.175641918257114]]]}, "properties": {"id": 21, "height_median_m": 6.0, "building_count": 15, "area_m2": 725.8492750658917}}, {"type": "Feature", "geometry": {"type": "Polygon", "coordinates": [[[102.61846709959141, -50.712721486632795], [110.85235656246873, -48.13310067521744], [107.44229539398698, -36.73997337425375], [107.42888238787701, -36.74386205423313], [107.33118971336418, -36.410523030154835], [107.22886743791645, -36.073025116238014], [107.23201107410331, -36.072113717629676], [104.29689308212917, -26.05714205390709], [104.29056150823598, -26.058977694957985], [104.19782257240783, -25.7191016922307], [104.10002176835549, -25.385393717303696], [104.1937774705623, -25.358212195200366], [101.65090272489503, -17.04314576501124], [106.68443438970527, -15.492624148248941], [111.18929905308508, -14.156003800647241], [115.73110966395357, -12.834537307585586], [116.70871090465592, -16.059039284073684], [118.17995427897908, -15.612811962414218], [122.20315864053823, -29.340463723574775], [122.2939151486415, -29.316175723644886], [126.3227369280274, -43.06299478472946], [127.47246944862792, -42.64453888088336], [128.7434288006596, -46.981203345784635], [129.33067679544666, -46.758563345554315], [131.1153521092387, -52.84808776869964], [131.30282606741434, -52.79106172545903], [132.47320732589785, -57.147585413190626], [133.34663927111873, -60.376193560320786], [124.06218222105109, -62.98510769671646], [124.37231268261198, -63.80815371140406], [117.1939972335213, -66.03481425925919], [117.14174858121771, -65.79710943835443], [108.7982285909648, -68.1330341562333], [108.70309567854312, -67.80842934411108], [107.62463321938105, -68.14296045061656], [102.61846709959141, -50.712721486632795]]]}, "properties": {"id": 22, "height_median_m": 6.0, "building_count": 23, "area_m2": 1017.2243527387479}}, {"type": "Feature", "geometry": {"type": "Polygon", "coordinates": [[[44.8874202007786, 8.784517046220968], [42.63295468810906, 16.243915303160186], [54.755136434810055, 19.896998209682724], [58.867438616962396, 6.199421328846356], [62.80155649409153, 7.31806116900937], [68.07832011944686, 10.318885350331758], [66.70905779999202, 14.79630098498452], [71.84585112645995, 16.34633871780894], [76.3486852489931, 17.571021768841458], [80.78921177255897, 18.89378090159572], [81.76921207857256, 15.661365892149222], [83.3382920783311, 16.107523189755025], [87.32103809497504, 2.517920113154434], [87.35250294506734, 2.5268669307092546], [89.69990692356639, -5.604112522999586], [88.1289863658803, -6.0507931707185465], [89.00915723454504, -9.276503643751102], [75.03652440759039, -13.366381031134924], [73.47081038014583, -8.246578661766293], [73.46054307312352, -8.249614878730249], [73.36784161128996, -7.90987621322297], [73.26608959222797, -7.577152472392799], [73.34603214298676, -7.55351210318711], [69.58954767792187, 5.005118807964701], [47.92342086558027, -1.3444739537448795], [44.8874202007786, 8.784517046220968]]]}, "properties": {"id": 23, "height_median_m": 6.0, "building_count": 8, "area_m2": 745.5234397584634}}, {"type": "Feature", "geometry": {"type": "Polygon", "coordinates": [[[53.88083693910377, 73.55462384085159], [53.23276856871597, 74.73397656258528], [48.27294719383605, 84.4045482223395], [56.41911834488264, 88.45808850480665], [64.03071346008001, 92.30574299098427], [64.02834560588275, 92.31032131772582], [64.3482427063356, 92.46625373943547], [64.65684301962867, 92.62225092030327], [64.66308410713148, 92.61005046921211], [72.97500563552683, 96.73774628421819], [73.11218793020149, 96.47444998795802], [74.70632490684918, 93.41479595112955], [74.86437340931889, 93.11145078965347], [74.86173535724505, 93.11013809315477], [78.06498809653588, 86.83557774832425], [78.06879141836409, 86.83752859726154], [78.22539878817307, 86.52136383935358], [78.3842117740531, 86.21027953082427], [78.38043524498686, 86.2083704987769], [81.98790378971282, 78.92547940307053], [82.20115987358982, 78.98611732985475], [86.69927428207072, 70.41973519640645], [86.49828857869221, 70.3054373424407], [90.26303488474286, 62.812076095529136], [90.9494230342992, 61.48831548756221], [92.51821834922282, 58.46275416165451], [92.74258834527525, 58.030036664162914], [93.13921812736325, 57.26510084495626], [94.27615166826845, 55.01915994856101], [95.75321993121982, 52.12586531878431], [96.13704591869461, 51.343080080628376], [96.29420654736867, 51.03261911651498], [96.29025486971204, 51.0306215470131], [99.12723977365614, 45.244796782282975], [93.7449339743761, 42.46221079648906], [93.74856400211779, 42.45485655770426], [93.43609802149575, 42.30254640237212], [93.12300930725266, 42.14068338286855], [93.08877339096573, 42.21004348733785], [83.08068105479522, 37.010431764249304], [83.08309978257965, 37.00570349052669], [82.76969891086682, 36.84886387029639], [81.0023740172359, 35.93066658286551], [80.78611410593541, 35.818310747980966], [77.87195861109181, 34.39781858632789], [77.56335424897071, 34.24337935106999], [77.5353708363346, 34.29808299960381], [74.24262811732169, 32.569586113049596], [73.6505867779402, 33.69187248003424], [73.64585362238161, 33.68956532436459], [73.49114705435326, 33.99410986826181], [73.32380904126089, 34.311319424891884], [73.32877666682501, 34.31374087192508], [70.9453431972789, 39.00560152233577], [69.02082750788432, 42.775360204930735], [73.26645033985999, 44.81833803038518], [69.6367797148684, 51.93963704359174], [69.63317827866298, 51.937785347493566], [69.47636779987832, 52.25436014933576], [69.31925585932127, 52.56260880957183], [69.32277926676308, 52.56443036793995], [65.56170597953499, 60.157424406643486], [61.71130176202689, 67.63435610071181], [61.70531194056151, 67.63122595913904], [61.00375424122667, 69.00831171276812], [59.09512566324159, 72.71459414463627], [57.76818102479893, 72.01028635694931], [55.687646317955135, 74.37663030542437], [53.88083693910377, 73.55462384085159]]]}, "properties": {"id": 24, "height_median_m": 6.0, "building_count": 41, "area_m2": 1462.46832816376}}, {"type": "Feature", "geometry": {"type": "Polygon", "coordinates": [[[91.95920806656463, 16.23948454652106], [91.96932357220865, 16.24264281002535], [90.50085241445281, 21.475934300506644], [95.53054874778243, 23.025274487457008], [100.0354309955322, 24.250514588598616], [104.58283229434147, 25.573607725177546], [105.46427479288533, 22.343236895487912], [107.0239612049636, 22.78672318989764], [110.1315652768221, 12.183208509498492], [113.48842214383947, 1.0707205302534133], [111.8257310322674, 0.6257558386721987], [112.8022661408713, -2.5952296272842776], [98.71611950120236, -6.688237574013182], [96.31874820234106, 1.673658772298092], [96.27075784301404, 1.659467208460745], [96.17333641856321, 1.9953433355441943], [96.07170306196014, 2.3305689322387195], [96.0757560442781, 2.331767467905124], [92.22998079925642, 15.5907000098257], [92.15852051426799, 15.568388677300382], [92.06262423599611, 15.910140828439689], [91.95920806656463, 16.23948454652106]]]}, "properties": {"id": 25, "height_median_m": 6.0, "building_count": 7, "area_m2": 466.8559320141188}}, {"type": "Feature", "geometry": {"type": "Polygon", "coordinates": [[[153.42917178518883, -92.05324590554845], [154.31570283834276, -91.82917558059789], [153.43744985346578, -88.49950487408582], [153.73853580643657, -88.4138931174517], [149.1855133805983, -71.00537018506982], [149.79800092483487, -69.75144197827392], [153.85597810527855, -68.4821977423456], [157.89722047808792, -67.19520577949959], [161.20826853620156, -66.14075473541959], [161.53280456146655, -66.03740155398701], [161.53358255437152, -66.03993817589195], [168.71745277851147, -63.811554577395576], [169.4697367615665, -63.49069427492013], [171.12822386372113, -62.603015021972304], [172.8066325982629, -61.816965776664475], [176.25353347661198, -60.36081278072749], [179.78476062361116, -59.24516768869505], [183.41780023176628, -57.90502031363029], [187.17125780774802, -57.0062663732596], [190.8181893863915, -56.44573645070474], [192.06875532021496, -56.3363241511015], [192.81677671254167, -56.12362932140915], [198.85715244224738, -54.29158662182213], [200.57259812763482, -55.592320998721014], [200.63018108628702, -55.58728305249707], [201.66936787867394, -59.36950057274444], [201.76776525323822, -59.705244117171354], [201.76206105763626, -59.706866066654726], [202.64826189749624, -62.932276904755845], [205.48592564941114, -72.72999032812763], [201.35743387329535, -73.90389907313832], [203.72163030762357, -82.38450665687644], [207.92907122551898, -81.30778499684472], [208.41577388356114, -82.85775985974568], [208.43539016128955, -82.8521821036957], [208.63868768578863, -83.66146998996717], [209.21350297910934, -83.55250676002116], [210.2690040898652, -87.15400208128945], [209.77963076099311, -87.37664208112373], [211.27384373046365, -92.47507444072059], [210.54749981242577, -92.59309214715131], [210.6395014545265, -93.1162930544727], [202.31046070218457, -95.34528737704606], [202.4303354882532, -95.89065674707], [198.21678601573026, -97.08875107394793], [198.1523539168821, -96.72233443389428], [193.58832019445381, -97.87589190500893], [187.99783801124002, -99.28888376336737], [188.15158897037608, -99.90093641397401], [181.2111597843256, -101.7510590553997], [181.01166882423897, -100.95692435994111], [172.74942299100036, -103.21702369707835], [169.46267543782116, -104.15158815872962], [169.6512816524066, -104.90239280028503], [165.57769336172447, -106.09378431908169], [165.28725996112072, -105.21290138323735], [164.5836425507222, -105.4415515055011], [164.57517465723674, -105.41025025752845], [158.2094060995358, -107.09403005590124], [157.13768338458647, -102.77230371731517], [156.45782611093105, -102.99323265745491], [155.71814560885394, -100.18892394224162], [153.42917178518883, -92.05324590554845]]]}, "properties": {"id": 26, "height_median_m": 6.0, "building_count": 50, "area_m2": 2141.988402009738}}, {"type": "Feature", "geometry": {"type": "Polygon", "coordinates": [[[211.03334277285592, -54.67710805693181], [211.48684262722747, -54.6374312509398], [210.7086590192471, -51.097091224387], [214.66711686481855, -49.90532102269697], [214.85824389266747, -50.44877781476349], [217.1296693902828, -49.66250799483146], [217.1341244809556, -49.678099070950836], [219.38295798398903, -49.010856691037574], [219.38353034571188, -49.01280965730697], [223.64249793930304, -47.77603485329705], [227.80031928418302, -46.40988113526173], [227.80031928418302, -46.40415862571638], [228.04460405608063, -46.3296154091265], [228.500319284183, -46.179879044430585], [228.500319284183, -46.19055443251366], [232.76318020278848, -44.889747336435796], [236.0767232110334, -43.87862350655163], [238.8216090185033, -43.041024766068176], [242.4392737761017, -41.985990372680085], [245.9399781892604, -40.950772657045], [245.74605874993946, -40.06853773648915], [249.74736845839053, -38.97002495249398], [255.61191418541188, -40.748738506639945], [258.10974122949114, -44.41831310639229], [258.9009391308181, -43.968369550291484], [260.4295535006455, -46.35895098020855], [260.814555426579, -46.03053289040121], [263.83938270139765, -50.546001192936835], [264.4310550204792, -51.218953299729684], [264.7167984402175, -51.543950142458925], [270.23920343750785, -57.02315019842815], [270.28637911482474, -56.9880806948086], [270.3947415116059, -57.11132915659942], [271.2997600476956, -57.11132915659942], [270.74816473027295, -57.518569077634616], [276.1589595671903, -62.90339942904264], [276.16733655986246, -62.897682769986424], [276.18359616909515, -62.91617601013958], [276.36362435942965, -62.81379641113675], [278.7352140351621, -65.18749257876189], [279.0273691935987, -64.85520319654869], [281.8132447839505, -67.61048981654942], [281.42574388579254, -67.94103960396441], [283.8682250651665, -70.29166521817085], [283.68355287035985, -70.71174754527134], [282.95388317011935, -73.55714159927864], [274.8261007712579, -75.6114349458232], [262.9770607186241, -78.73105947282356], [263.23097566502247, -79.01985547124075], [260.3095856732585, -79.8505329790322], [260.3095856732585, -79.85053297903221], [250.17071960768033, -82.73345104848869], [244.72205150730542, -84.30900219817985], [244.72318582554618, -84.31347975299913], [244.39458535515658, -84.40369316907375], [244.0503933141629, -84.5032206418271], [244.04918531881643, -84.49851870950465], [238.3733717542764, -86.05674694348353], [238.27033353819223, -85.66009411026326], [234.99476509882453, -86.51983480856471], [229.3256501982101, -88.08824245168852], [229.35649217919135, -88.21101837668037], [227.32098577278325, -88.76223980079483], [227.8069519399991, -90.30986920165083], [223.11812030658498, -91.74066077026852], [222.62623410464224, -90.0622865483498], [222.62211615788544, -90.06342889990117], [222.5286086341461, -89.72917683224826], [221.1991490678941, -85.19290267723477], [220.18473845471908, -85.50756537318065], [218.71073381715138, -80.60704724915931], [219.79346712539717, -80.27119135674442], [218.3231352210635, -75.03126859592432], [218.43878812126965, -74.9983834750784], [216.08499052425574, -67.06991328241757], [215.4909239904679, -67.24428108156515], [214.3066701796373, -63.5402008067391], [213.71346390986832, -63.652650270347635], [211.03334277285592, -54.67710805693181]]]}, "properties": {"id": 27, "height_median_m": 6.0, "building_count": 53, "area_m2": 2262.772771304584}}, {"type": "Feature", "geometry": {"type": "Polygon", "coordinates": [[[133.0772757656333, -9.71573653793113], [134.54382625601244, -9.159731572613452], [133.55725083216353, -5.9056293152657835], [138.0999537181711, -4.583903209507816], [142.50303595589835, -3.1371630369667964], [144.3723881592819, -2.577649699975912], [147.68240871501763, -1.6992131823573478], [147.84273765910078, -2.6109822236353204], [149.1068344728358, -6.82153449435723], [149.11539353539868, -6.819003434276572], [149.995742548963, -10.045366786605067], [150.01341765624883, -10.04003328738025], [150.0926722193927, -10.400601280662647], [150.67702451184866, -12.542175579241935], [153.95373870454387, -23.9711705167409], [154.00439176891297, -23.95488902661594], [154.10201315754205, -24.30278907195538], [154.19736316221352, -24.628134627883913], [154.19364139708506, -24.629330920407202], [156.5505433239471, -33.02878414199009], [163.23982666919335, -30.597294312887577], [163.21925773215716, -30.53008814203565], [163.44681959428226, -30.4465969444541], [163.80185896228923, -30.04278476161355], [163.87724217797174, -30.28867726211902], [169.6033248857153, -28.187808960831937], [172.61245853667293, -27.181189167347544], [172.5738462903807, -27.05492915655082], [172.98989324411463, -27.05492915655082], [174.19690121672872, -26.651159082815443], [174.19301641914996, -26.670305759223528], [180.21762909453574, -24.38622854163234], [188.11945984651177, -21.390452286739084], [188.11945984552455, -21.390452286540935], [190.15825939643514, -20.617493781598334], [192.22668518414469, -27.204694246371623], [192.35096887953938, -27.346051162457425], [192.17396829362877, -27.40570025379717], [194.23245580331357, -34.22591592603909], [196.1007420831126, -33.639028197496344], [196.3849590669199, -34.77044070752665], [197.87967368145615, -39.75724820480449], [196.82319301541838, -43.60240839654284], [187.88574522133092, -46.321011499633244], [185.31486118975016, -37.79252059801148], [177.35117725437323, -40.308542515744904], [178.3730047375607, -43.666006195434306], [178.47656484559693, -44.00550858466329], [178.47634975758936, -44.005571490880065], [179.35722175012404, -46.899891491126574], [173.4506740652601, -48.627363762317266], [173.4660732601646, -48.691584065538585], [173.14668501328686, -48.779945472276125], [170.98435605919596, -49.46857033762355], [165.64354637795213, -51.022510306434874], [165.64503396583433, -51.02806954528121], [165.31188928575347, -51.11900788681434], [159.78150300137938, -52.728106282594155], [160.2613224937587, -53.54670686957776], [153.70111644890173, -55.57013767054125], [153.52681092871967, -54.77713611785728], [144.23232652119117, -57.447779165703075], [141.97315042115002, -49.97279488716933], [141.8789640468616, -49.43716970347928], [141.67061336931388, -48.96322484241291], [141.67061336931388, -48.83142595259225], [140.33769186902478, -44.53601075215605], [140.2024933820081, -44.57794832641118], [140.2024933820081, -44.17646484235773], [140.07522467149076, -43.88696085836765], [140.15332929375018, -43.862222251943265], [138.95447979514228, -39.54434867887043], [143.34678916495494, -37.92809474320368], [141.2048715173609, -30.863232915512217], [139.6384461419605, -31.419986006471355], [135.46222142361864, -17.583247556846583], [135.42191470676, -17.594708499482902], [133.0772757656333, -9.71573653793113]]]}, "properties": {"id": 28, "height_median_m": 6.0, "building_count": 35, "area_m2": 1602.931875468304}}, {"type": "Feature", "geometry": {"type": "Polygon", "coordinates": [[[175.76731002387078, -18.911216743686634], [172.13123249073976, -18.181409156596864], [171.43283568180587, -18.181409156596864], [173.78223250992568, -7.957567381016659], [176.19368407940703, 2.556190843435536], [176.80459186992758, 2.556190843435536], [185.50747831658484, 0.6195419138292169], [185.51214147693256, 0.6397926054488506], [185.85653706330103, 0.541866047053144], [186.30930941706123, 0.44111084363425457], [186.34989351711982, 0.44111084363425457], [196.46726569407934, -2.1025916816889296], [196.14822771480493, -3.4550891564159882], [202.50184212155497, -3.4550891564159882], [202.73465303131476, -3.587485575138433], [207.2293278760633, -4.657464537061894], [205.26745861870387, -13.582972845724324], [213.79193048626405, -10.250143364875617], [213.7919304862646, -10.250143364875392], [214.02419976524345, -10.15933258943931], [214.1959396944101, -10.089012941848178], [214.1988968057514, -10.091030944965889], [217.34143298696537, -8.86238741231014], [217.78938649593317, -9.202047556058321], [228.51777072592628, -17.104408059811778], [224.1230749190445, -19.376411810305044], [228.66927286489167, -23.685347384785256], [229.20288443149323, -24.080324058011865], [229.02197562999072, -24.137745671608865], [234.0847873478241, -28.587345170310925], [233.9721986224905, -31.78872950905297], [226.8792270911476, -33.86319200337221], [221.2617576928887, -35.539036696014634], [221.4567467162171, -36.093474811329344], [216.7737722097489, -37.52247908453421], [216.75825023628371, -37.478343401575756], [210.4354887223338, -39.407726790148565], [210.23622490562954, -38.95445222903365], [207.3527615085709, -39.74607338176798], [206.0855687106476, -35.182049041035846], [204.90646765728167, -31.158816015503103], [204.41491356945733, -31.270632082878894], [203.20634917047315, -27.041129043474072], [201.7129476785693, -24.978340841317127], [200.78590060486678, -25.128969168580095], [198.62808224998918, -17.378724055599694], [194.89428671646132, -19.50208312957546], [193.7979800248059, -19.23758715269131], [193.7979800248059, -19.237587152691308], [182.45178306131479, -16.500193070705908], [176.59442338290032, -14.834692415946735], [175.76731002387078, -18.911216743686634]]]}, "properties": {"id": 29, "height_median_m": 6.0, "building_count": 27, "area_m2": 1192.7083829575713}}]}