{"type": "FeatureCollection", "crs": {"type": "name", "properties": {"name": "EPSG:32628_local_enu_m_section_centroid", "lng0": -16.323608129668703, "lat0": 28.436233566648298}}, "features": [{"type": "Feature", "geometry": {"type": "Polygon", "coordinates": [[[-575.8681553622713, 381.5567192885726], [-563.6402241374366, 397.8691578493663], [-572.8614638573129, 395.24243746227273], [-581.9062834210777, 391.5621088475791], [-590.5903379928872, 386.8913144356739], [-598.8299953798576, 381.2750365297795], [-601.5227454654868, 379.0039442574343], [-575.8681553622713, 381.5567192885726]]]}, "properties": {"name": "", "kind": "scrub", "category": "parque", "extrude": false}}, {"type": "Feature", "geometry": {"type": "Polygon", "coordinates": [[[-627.1619790258044, 284.59699928856526], [-631.6536492535233, 339.0818791009701], [-634.8834157269231, 331.31615897952145], [-638.1197039152016, 321.03032956055006], [-640.4538611427507, 310.4332939352985], [-641.8634081995019, 299.62710735013], [-642.3347703769931, 288.7158392884488], [-642.3347703769931, 40.314561370670816], [-625.0084215439626, 35.240199288513594], [-596.131173488912, 114.94531928858095], [-610.5208530279845, 285.1535992883464], [-627.1619790258044, 284.59699928856526]]]}, "properties": {"name": "", "kind": "scrub", "category": "parque", "extrude": false}}, {"type": "Feature", "geometry": {"type": "Polygon", "coordinates": [[[-201.9322652949826, -176.60176071133677], [-232.08207004389624, -121.38704071152873], [-288.56400945978686, -97.89852071150833], [-321.3568165729845, -95.3381607116448], [-364.42796621433934, -97.56456071156052], [-426.19591035879785, -73.51944071136344], [-444.599037932923, -67.28552071167854], [-485.2229631627622, -58.15728071139134], [-497.94853010208743, -96.00608071154042], [-444.2074820270388, -139.86616071154103], [-285.4315622130607, -152.11136071147294], [-276.1321094497879, -170.4791607113708], [-249.8978637590211, -155.4509607113465], [-211.4274960113714, -236.38060071148615], [-201.9322652949826, -176.60176071133677]]]}, "properties": {"name": "", "kind": "scrub", "category": "parque", "extrude": false}}, {"type": "Feature", "geometry": {"type": "Polygon", "coordinates": [[[456.3711013808327, 372.3171592885665], [454.5112108283173, 387.12271928836185], [451.86820846368556, 399.7018792886371], [451.6834824921809, 400.0358392885849], [368.395174441842, 400.0358392885849], [370.2288020984707, 392.91135928838], [375.90636273292284, 370.5360392883175], [380.7029225793963, 349.71919928867055], [383.9332588023327, 337.3626792886242], [456.3711013808327, 372.3171592885665]]]}, "properties": {"name": "", "kind": "garden", "category": "parque", "extrude": false}}, {"type": "Feature", "geometry": {"type": "Polygon", "coordinates": [[[406.1540564583945, 396.5849192885969], [407.916058034352, 388.0132792884864], [411.6358391397306, 378.4397592885324], [419.7606241856985, 365.6379592884238], [426.51496356124534, 363.6341992883415], [428.3748541141086, 371.8718792885042], [423.77407222040335, 380.5548392883337], [421.32684780923546, 387.34535928859077], [419.173290327046, 391.5755192885888], [410.8641688967772, 400.0358392885849], [410.6110639179431, 400.0358392885849], [406.1540564583945, 396.5849192885969]]]}, "properties": {"name": "", "kind": "playground", "category": "parque", "extrude": false}}, {"type": "Feature", "geometry": {"type": "Polygon", "coordinates": [[[-115.30052113017832, 314.2081192885516], [-111.67862900135766, 312.4269992886981], [-74.97026282966537, 321.1099592885276], [-29.647666729910785, 332.01931928866827], [6.669143535549477, 340.4796392886644], [8.822701017738941, 344.0418792883713], [-4.60588675269268, 400.0358392885849], [-136.74623066092656, 400.0358392885849], [-115.30052113017832, 314.2081192885516]]]}, "properties": {"name": "", "kind": "park", "category": "parque", "extrude": false}}, {"type": "Feature", "geometry": {"type": "Polygon", "coordinates": [[[441.19831002999183, 322.77975928866215], [481.92012423638903, 331.57403928860606], [482.7032360478097, 335.6928792884896], [479.3750108483153, 342.5947192884656], [439.3384194771286, 325.11747928869227], [441.19831002999183, 322.77975928866215]]]}, "properties": {"name": "", "kind": "garden", "category": "parque", "extrude": false}}, {"type": "Feature", "geometry": {"type": "Polygon", "coordinates": [[[602.91089913758, 336.4721192884997], [597.037560550012, 329.1249992884615], [592.8283345625388, 320.7759992885798], [590.2832211744651, 310.86851928867804], [589.9895542451388, 301.9629192886197], [591.4578888921178, 293.0573192885613], [594.590336138844, 284.8196392883986], [599.778451890854, 276.6932792883503], [606.4349022901906, 269.9027592884887], [612.6019078070849, 265.9068890559205], [612.6019078070849, 288.7158392884488], [612.1305456295937, 299.62710735013], [610.7209985728425, 310.4332939352985], [608.3868413452934, 321.03032956055006], [605.150553157015, 331.31615897952145], [602.9826361757936, 336.5287452952997], [602.91089913758, 336.4721192884997]]]}, "properties": {"name": "Glorieta Cercado Corazón", "kind": "garden", "category": "parque", "extrude": false}}, {"type": "Feature", "geometry": {"type": "Polygon", "coordinates": [[[150.37016097524463, 226.2653192883215], [146.0630460108657, 217.91631928843984], [147.43349168128668, 217.4710392883776], [155.16672082137026, 215.13331928834745], [158.98439090330695, 222.59175928850013], [150.37016097524463, 226.2653192883215]]]}, "properties": {"name": "", "kind": "playground", "category": "parque", "extrude": false}}, {"type": "Feature", "geometry": {"type": "Polygon", "coordinates": [[[205.09009881483001, 134.2036792886033], [207.83099015567197, 138.32251928848692], [206.75421141457724, 142.77531928831834], [201.46820668600935, 166.70911928840098], [184.3376358057472, 239.7350392883257], [179.54107595927377, 241.73879928840805], [63.93419476320859, 213.57483928832735], [58.94185696396694, 205.22583928844568], [83.80565698396494, 105.7057592885748], [205.09009881483001, 134.2036792886033]]]}, "properties": {"name": "", "kind": "park", "category": "parque", "extrude": false}}, {"type": "Feature", "geometry": {"type": "Polygon", "coordinates": [[[132.26070033044573, 161.58839928867394], [113.75968378011035, 166.93175928862985], [103.38345227539504, 131.0867192885631], [121.88446882607819, 125.7433592886072], [132.26070033044573, 161.58839928867394]]]}, "properties": {"name": "", "kind": "pitch", "category": "parque", "extrude": false}}, {"type": "Feature", "geometry": {"type": "Polygon", "coordinates": [[[612.6019078070849, 139.0572312883721], [612.6019078070849, 144.33379928794295], [611.8187959953165, 147.6733992886075], [609.9589054424532, 147.22811928854526], [611.8187959953165, 138.8791192886636], [612.6019078070849, 139.0572312883721]]]}, "properties": {"name": "", "kind": "garden", "category": "parque", "extrude": false}}, {"type": "Feature", "geometry": {"type": "Polygon", "coordinates": [[[143.32215467002374, 143.99983928839063], [136.7635932475929, 151.01299928848107], [131.08603261314076, 132.53387928846877], [149.88071609280237, 136.98667928869568], [143.32215467002374, 143.99983928839063]]]}, "properties": {"name": "", "kind": "playground", "category": "parque", "extrude": false}}, {"type": "Feature", "geometry": {"type": "Polygon", "coordinates": [[[592.3388896800965, 127.74711928868953], [591.653666844886, 130.7527592886153], [589.7937762923706, 139.10175928849696], [591.653666844886, 139.43571928844477], [601.3446755143909, 141.6621192883605], [601.8341203964853, 139.76967928839258], [604.0855668548851, 140.21495928845482], [606.3370133136325, 140.7715592886315], [608.1969038661479, 132.3112392886354], [612.4061298539689, 133.31311928847882], [609.3715715838007, 146.78283928848302], [604.379233784559, 145.66963928852516], [587.9338857395073, 141.88475928858935], [587.2486629042968, 140.66023928851706], [587.3465518808549, 139.2130792886114], [590.0874432216968, 127.19051928851286], [592.3388896800965, 127.74711928868953]]]}, "properties": {"name": "", "kind": "garden", "category": "parque", "extrude": false}}, {"type": "Feature", "geometry": {"type": "Polygon", "coordinates": [[[612.6019078070849, 130.19887441065308], [612.6019078070849, 132.86783928643914], [612.6019078067371, 132.86783928841658], [608.4905707954742, 131.86595928857315], [609.0779046544745, 129.41691928842857], [612.6019078070849, 130.19887441065308]]]}, "properties": {"name": "", "kind": "garden", "category": "parque", "extrude": false}}, {"type": "Feature", "geometry": {"type": "Polygon", "coordinates": [[[609.8610164658952, 126.41127928850281], [612.6019078070849, 114.0473379541136], [612.6019078070849, 126.97799928858203], [609.8610164658952, 126.41127928850281]]]}, "properties": {"name": "", "kind": "garden", "category": "parque", "extrude": false}}, {"type": "Feature", "geometry": {"type": "Polygon", "coordinates": [[[592.8283345625388, 114.72267928835208], [593.7093353505176, 111.16043928864514], [596.8417825972437, 97.35675928869313], [598.8974511028752, 97.80203928835988], [592.7304455859808, 124.74147928836828], [590.6747770803493, 124.29619928830604], [592.8283345625388, 114.72267928835208]]]}, "properties": {"name": "", "kind": "garden", "category": "parque", "extrude": false}}, {"type": "Feature", "geometry": {"type": "Polygon", "coordinates": [[[609.9589054424532, 82.77383928833558], [604.2813448080011, 81.21535928831548], [603.6940109493485, 83.33043928851225], [601.9320093730433, 89.78699928842602], [600.7573416553906, 94.46243928848631], [597.8206723617805, 93.68319928847626], [599.2890070087593, 88.22851928840592], [600.0721188201801, 85.55683928842797], [600.7573416553906, 82.99647928856444], [601.2467865378329, 80.88139928836767], [601.8341203964853, 79.87951928852425], [603.0087881141382, 79.21159928862863], [610.5462393011056, 80.77007928864873], [609.9589054424532, 82.77383928833558]]]}, "properties": {"name": "", "kind": "garden", "category": "parque", "extrude": false}}, {"type": "Feature", "geometry": {"type": "Polygon", "coordinates": [[[457.64365807469574, 57.392879288347274], [461.3634391800744, 56.72495928845166], [475.75311871949464, 58.728719288533995], [477.9066762013363, 62.179639288522], [474.77422895495783, 91.0115192884983], [471.6417817082317, 94.1284792885385], [467.5304446969688, 95.35299928861079], [462.14655099184296, 95.35299928861079], [455.0006557104117, 91.90207928862279], [450.00831791117014, 86.11343928860464], [448.7357612173072, 80.9927192884821], [448.7357612173072, 76.76255928848406], [452.8470982285701, 56.83627928856609], [457.64365807469574, 57.392879288347274]]]}, "properties": {"name": "", "kind": "pitch", "category": "parque", "extrude": false}}, {"type": "Feature", "geometry": {"type": "Polygon", "coordinates": [[[611.8187959953165, 50.71367928860013], [608.1969038661479, 66.85507928858229], [611.9166849715267, 67.74563928831128], [612.6019078070849, 67.87687970933646], [612.6019078070849, 69.31506879681166], [606.1412353605165, 68.19091928837352], [604.7707896900955, 66.07583928857224], [604.9665676432115, 65.18527928844776], [605.7496794549801, 62.29095928863643], [608.5884597720323, 50.15707928842346], [611.8187959953165, 50.71367928860013]]]}, "properties": {"name": "", "kind": "garden", "category": "parque", "extrude": false}}, {"type": "Feature", "geometry": {"type": "Polygon", "coordinates": [[[560.4270833552255, 60.6211592885019], [575.3062077767402, 56.05703928855604], [579.123877858329, 54.83251928848375], [580.690101481866, 54.38723928842151], [582.4521030578235, 53.60799928841146], [584.2141046341287, 52.828759288401415], [585.4866613279917, 52.1608392885058], [586.1718841632021, 51.604239288329126], [586.6613290456445, 51.27027928838132], [587.1507739280866, 50.6023592884857], [587.5423298336232, 49.82311928847565], [588.1296636926234, 49.37783928841341], [589.010664480602, 49.155199288580036], [589.6958873158126, 49.37783928841341], [590.1853321982549, 49.82311928847565], [590.2832211744651, 50.26839928853789], [586.8571069984126, 64.62867928866658], [560.4270833552255, 60.6211592885019]]]}, "properties": {"name": "", "kind": "garden", "category": "parque", "extrude": false}}, {"type": "Feature", "geometry": {"type": "Polygon", "coordinates": [[[609.3715715838007, 46.92879928866432], [612.6019078070849, 33.73119484300133], [612.6019078070849, 47.702180341091776], [609.3715715838007, 46.92879928866432]]]}, "properties": {"name": "", "kind": "garden", "category": "parque", "extrude": false}}, {"type": "Feature", "geometry": {"type": "Polygon", "coordinates": [[[596.5481156679175, 49.37783928841341], [593.6114463739596, 62.068319288407565], [593.219890468423, 63.292839288479854], [590.2832211744651, 64.73999928838552], [595.960781809265, 41.69675928842736], [598.3101172442226, 32.45719928842121], [601.7362314199273, 18.430879288635822], [602.1277873258116, 16.093159288605676], [602.4214542551379, 15.202599288481196], [602.6172322082538, 14.423359288471147], [602.6172322082538, 13.644119288461098], [602.6172322082538, 12.976199288565482], [602.6172322082538, 12.41959928838881], [602.6172322082538, 11.862999288607625], [602.5193432316959, 11.306399288430953], [602.4214542551379, 10.861119288368712], [602.0298983496014, 9.97055928863972], [601.5404534671591, 9.191319288629671], [601.2467865378329, 8.523399288338567], [600.9531196085067, 7.966799288557382], [600.6594526791804, 7.41019928838071], [600.2678967732961, 6.7422792884850935], [599.9742298439699, 6.074359288589477], [599.778451890854, 5.2951192885794285], [599.6805629146437, 4.181919288621572], [599.5826739380857, 3.180039288382659], [599.778451890854, 2.5121192884870425], [599.876340867412, 1.732879288476994], [600.0721188201801, 1.0649592885813775], [600.3657857495064, 0.6196792885191371], [600.6594526791804, 0.06307928834246468], [600.9531196085067, -0.4935207114387197], [601.4425644906012, -0.93880071150096], [601.8341203964853, -1.2727607114487682], [602.2256763023696, -1.4954007116776324], [603.1066770903484, -2.052000711458817], [604.2813448080011, -3.0538807113022415], [604.8686786666535, -3.610480711478914], [607.5116810309376, -7.061400711466916], [608.1969038661479, -8.285920711539205], [611.0356841835479, -14.74248071145297], [611.6230180422003, -16.4122807115875], [611.9166849715267, -17.080200711483116], [612.0145739480847, -17.414160711430924], [612.4061298539689, -17.525480711545356], [612.6019078070849, -17.525480711545356], [612.6019078070849, -14.845849284372008], [596.5481156679175, 49.37783928841341]]]}, "properties": {"name": "", "kind": "garden", "category": "parque", "extrude": false}}, {"type": "Feature", "geometry": {"type": "Polygon", "coordinates": [[[591.7515558214441, 37.02131928836707], [591.5557778686758, 36.46471928858588], [591.653666844886, 35.796799288690266], [591.653666844886, 34.794919288451354], [591.5557778686758, 30.45343928833887], [591.3599999155598, 23.885559288310674], [591.3599999155598, 18.096919288688014], [591.3599999155598, 14.868639288533387], [591.3599999155598, 13.421479288627722], [591.7515558214441, 12.085639288441001], [592.4367786566545, 10.861119288368712], [593.4156684211913, 9.97055928863972], [594.492447162286, 9.52527928857748], [595.765003856149, 9.52527928857748], [597.3312274793382, 9.97055928863972], [598.3101172442226, 11.083759288597577], [598.7995621263173, 11.97431928832657], [599.1911180322014, 12.976199288565482], [599.0932290556434, 14.089399288523339], [598.5058951969909, 16.093159288605676], [596.9396715738018, 22.215759288571633], [595.3734479502648, 28.115719288308725], [594.590336138844, 31.121359288629975], [594.0030022798437, 33.45907928866012], [592.6325566094227, 37.355279288314875], [592.0452227507703, 37.355279288314875], [591.7515558214441, 37.02131928836707]]]}, "properties": {"name": "", "kind": "garden", "category": "parque", "extrude": false}}, {"type": "Feature", "geometry": {"type": "Polygon", "coordinates": [[[612.4061298539689, -30.32728071165394], [611.9166849715267, -31.551800711330742], [611.2314621363162, -32.66500071168409], [610.2525723717795, -34.00084071147532], [609.1757936306847, -35.002720711318744], [608.294792842706, -36.00460071155766], [607.6095700074956, -36.672520711453274], [606.7285692195168, -37.34044071134889], [602.3235652789276, -41.347960711513565], [600.1700077967381, -39.12156071159785], [598.4080062204329, -37.229120711629946], [597.7227833852224, -36.4498807116199], [596.9396715738018, -34.8914007115998], [594.7861140916123, -34.668760711370936], [594.492447162286, -35.78196071132879], [594.1008912564017, -36.783840711567706], [593.4156684211913, -37.78572071141113], [592.6325566094227, -39.34420071143123], [591.8494447980021, -40.568720711503516], [591.2621109390018, -41.459280711628], [590.0874432216968, -43.57436071142928], [597.6248944090122, -51.70072071147757], [612.6019078070849, -37.898960021538244], [612.6019078070849, -29.65936071096735], [612.4061298539689, -30.32728071165394]]]}, "properties": {"name": "", "kind": "garden", "category": "parque", "extrude": false}}, {"type": "Feature", "geometry": {"type": "Polygon", "coordinates": [[[278.60472013442484, -94.55892071163476], [307.2861902363595, -88.21368071143993], [309.53763669475916, -84.20616071167075], [306.503078424591, -72.62888071163445], [302.0980744840018, -71.73832071150997], [298.18251542585494, -69.40060071147983], [295.14795715568675, -66.06100071160625], [293.3859555793815, -61.94216071132715], [292.99439967349724, -57.37804071138129], [293.97328943803404, -53.03656071166429], [295.34373510845495, -50.81016071135309], [296.3226248729917, -49.14036071161405], [299.7487390490441, -46.24604071140723], [287.7083949449294, 0.508359288404705], [283.8907248629927, 2.2894792886536663], [272.2419366644144, -6.504800711685732], [258.92903586643666, -16.634920711420875], [257.1670342901315, -21.978280711376783], [274.78705005248815, -90.66272071158451], [275.3743839111406, -92.7778007113858], [278.60472013442484, -94.55892071163476]]]}, "properties": {"name": "", "kind": "park", "category": "parque", "extrude": false}}, {"type": "Feature", "geometry": {"type": "Polygon", "coordinates": [[[-141.6326557971553, 38.80243928861603], [-148.28910619649193, 29.117599288547638], [-145.74399280841823, 15.202599288481196], [-139.67487626808185, -15.855680711410827], [-107.76306994286297, -9.510440711611494], [-103.65173293194782, -13.517960711380681], [-100.81295261454787, -16.968880711368683], [-98.16995025026392, -20.19716071152331], [-95.72272583874822, -23.648080711511312], [-93.37339040379052, -27.432960711447123], [-91.8071667806013, -30.549920711487317], [-89.55572032185384, -35.33668071166204], [-87.89160772210663, -40.23476071155571], [-86.71694000480166, -44.79888071150157], [-85.34649433438068, -49.251680711332995], [-84.6612714991702, -53.3705207116121], [-84.46549354605419, -58.04596071167239], [-84.07393764016994, -62.83272071145163], [-84.36760456984396, -70.06852071137544], [-85.24860535782268, -75.3005607116124], [-86.03171716959118, -79.86468071155826], [-87.20638488689613, -84.42880071150412], [-88.77260851043312, -89.32688071139779], [-91.12194394539083, -95.00420071130151], [-94.058613239001, -100.79284071131966], [-123.42530617614617, -105.91356071144219], [-119.020302235557, -132.18508071155497], [-112.46174081312614, -167.9188007115073], [-100.51928568522163, -176.3791207115034], [-28.57088798881605, -162.9094007114992], [-50.30224076243562, -71.5156807116766], [-35.12944941159468, -67.95344071157416], [-41.4922328812573, -41.459280711628], [-56.762913208656244, -44.79888071150157], [-80.45204551134927, 53.60799928841146], [-141.6326557971553, 38.80243928861603]]]}, "properties": {"name": "", "kind": "park", "category": "parque", "extrude": false}}, {"type": "Feature", "geometry": {"type": "Polygon", "coordinates": [[[611.8187959953165, -105.13432071143214], [598.4080062204329, -89.21556071167885], [591.5557778686758, -94.89288071158256], [604.9665676432115, -110.92296071145029], [611.8187959953165, -105.13432071143214]]]}, "properties": {"name": "", "kind": "garden", "category": "parque", "extrude": false}}, {"type": "Feature", "geometry": {"type": "Polygon", "coordinates": [[[610.93779520699, -122.38892071137215], [589.7937762923706, -139.97748071165546], [583.8225487282444, -146.21140071134036], [584.8014384927811, -147.6585607116415], [586.9549959749706, -148.32648071153713], [593.122001491865, -148.43780071165156], [596.7438936206856, -148.43780071165156], [603.2045660669064, -148.77176071159937], [610.93779520699, -148.43780071165156], [612.6019078070849, -148.46270123798774], [612.6019078070849, -124.39722438509804], [610.93779520699, -122.38892071137215]]]}, "properties": {"name": "", "kind": "garden", "category": "parque", "extrude": false}}, {"type": "Feature", "geometry": {"type": "Polygon", "coordinates": [[[132.8480341890982, -130.96056071148269], [116.4026861443943, -130.62660071153488], [102.60034046397432, -142.53784071151898], [85.17610265438591, -154.00380071144085], [56.88618845833548, -168.03012071162172], [33.5886120615267, -175.93384071144115], [-86.81482898101189, -199.31104071134712], [-61.46158407857165, -202.20536071155394], [-13.593874591091117, -202.87328071144955], [12.444593146559614, -198.3091607115037], [38.483060884210346, -194.19032071162007], [62.95530499867186, -188.6243207114353], [77.54076249086032, -180.72060071161587], [84.58876879573343, -182.0564407114071], [102.20878455809007, -175.4885607113789], [114.24912866220482, -175.59988071149334], [129.51980898960377, -182.0564407114071], [136.0783704123824, -181.3885207115115], [152.91527436297056, -182.9470007115316], [166.03239720818004, -183.72624071154164], [132.8480341890982, -130.96056071148269]]]}, "properties": {"name": "", "kind": "garden", "category": "parque", "extrude": false}}, {"type": "Feature", "geometry": {"type": "Polygon", "coordinates": [[[-118.53085735346252, -337.12520071142933], [-92.00294473336955, -333.1176807116601], [-87.10849591033814, -357.60808071152394], [-61.46158407857165, -355.2703607114938], [-41.19856595193106, -357.60808071152394], [-76.83015338252861, -269.553960711575], [64.32575066909284, -260.6483607115166], [77.93231839674456, -256.4182007115186], [62.95530499867186, -188.6243207114353], [38.483060884210346, -194.19032071162007], [12.444593146559614, -198.3091607115037], [-13.593874591091117, -202.87328071144955], [-61.46158407857165, -202.20536071155394], [-86.81482898101189, -199.31104071134712], [-91.5134998509273, -198.08652071167032], [-113.93007545975735, -198.3091607115037], [-127.43875421085109, -191.51864071164212], [-129.59231169304056, -179.94136071160582], [-201.9322652949826, -176.60176071133677], [-211.4274960113714, -236.38060071148615], [-172.0761274753952, -253.63520071142617], [-140.45798807985034, -248.62580071141807], [-120.68441483530422, -326.32716071140305], [-118.53085735346252, -337.12520071142933]]]}, "properties": {"name": "", "kind": "scrub", "category": "parque", "extrude": false}}, {"type": "Feature", "geometry": {"type": "Polygon", "coordinates": [[[126.09369481355134, -378.31360071145195], [113.17234992145787, -343.4704407116242], [93.98611053556424, -350.59492071143353], [106.24693939516503, -383.6569607118034], [111.70401527378334, -383.6569607118034], [126.09369481355134, -378.31360071145195]]]}, "properties": {"name": "", "kind": "pitch", "category": "parque", "extrude": false}}, {"type": "Feature", "geometry": {"type": "Polygon", "coordinates": [[[-109.7208494722842, -378.5362407116809], [-110.69973923682093, -373.19288071132945], [-122.05486050572519, -375.3079607115262], [-120.97808176463046, -380.65132071148213], [-109.7208494722842, -378.5362407116809]]]}, "properties": {"name": "", "kind": "garden", "category": "parque", "extrude": false}}, {"type": "Feature", "geometry": {"type": "Polygon", "coordinates": [[[-127.14508728152484, -376.5324807115985], [-137.91287469177664, -378.7588807115142], [-136.88291241764065, -383.6569607118034], [-135.76910610839062, -383.6569607118034], [-126.16619751698812, -381.65320071132555], [-127.14508728152484, -376.5324807115985]]]}, "properties": {"name": "", "kind": "garden", "category": "parque", "extrude": false}}, {"type": "Feature", "geometry": {"type": "Polygon", "coordinates": [[[-137.91287469177664, -378.7588807115142], [-171.4887936167427, -377.08908071137967], [-176.9705762984266, -359.05524071142963], [-182.55024795632073, -343.80440071157193], [-250.77886454734764, -347.03268071133107], [-231.2297857635897, -383.6569607118034], [-137.21677530376982, -383.6569607118034], [-137.91287469177664, -378.7588807115142]]]}, "properties": {"name": "", "kind": "scrub", "category": "parque", "extrude": false}}]}