{"type": "FeatureCollection", "crs": {"type": "name", "properties": {"name": "EPSG:32628_local_enu_m_section_centroid", "lng0": -16.359035971767888, "lat0": 28.381502366568352}}, "features": [{"type": "Feature", "geometry": {"type": "Polygon", "coordinates": [[[-373.0545777086704, 952.6060463887763], [-371.09578635842786, 953.6079263890153], [-369.4308137106869, 954.9437663888066], [-368.54935760283416, 956.8362063887744], [-367.86378063021453, 959.7305263889813], [-367.66790149532943, 962.5135263890736], [-375.6010064639161, 959.5078863887524], [-373.0545777086704, 952.6060463887763]]]}, "properties": {"name": "", "kind": "garden", "category": "parque", "extrude": false}}, {"type": "Feature", "geometry": {"type": "Polygon", "coordinates": [[[-366.8843849550932, 949.3777663890172], [-362.4771044168735, 950.0456863889128], [-363.2606209571098, 958.506006388909], [-364.8276540372342, 953.9418863889631], [-367.27614322521134, 950.8249263889229], [-369.7246324131885, 948.932486388955], [-366.8843849550932, 949.3777663890172]]]}, "properties": {"name": "", "kind": "garden", "category": "parque", "extrude": false}}, {"type": "Feature", "geometry": {"type": "Polygon", "coordinates": [[[-319.3836947101457, 949.6004063888506], [-318.3063594674079, 948.5985263890072], [-317.13108465705363, 948.5985263890072], [-315.95580984704725, 949.2664463889028], [-315.56405157692916, 950.8249263889229], [-316.24962854954885, 956.8362063887744], [-321.93012346539143, 956.0569663887644], [-319.3836947101457, 949.6004063888506]]]}, "properties": {"name": "", "kind": "garden", "category": "parque", "extrude": false}}, {"type": "Feature", "geometry": {"type": "Polygon", "coordinates": [[[-335.54372335016865, 946.4834463888104], [-334.95608594516546, 945.3702463888526], [-333.8787507024277, 944.8136463890714], [-332.11583848707016, 945.0362863889047], [-330.9405636767159, 946.260806388977], [-330.6467449742143, 947.7079663888827], [-330.84262410944734, 951.8268063887663], [-330.25498670409627, 953.4966063889009], [-329.3735305965914, 954.9437663888066], [-337.69839383529626, 953.7192463891297], [-335.54372335016865, 946.4834463888104]]]}, "properties": {"name": "", "kind": "garden", "category": "parque", "extrude": false}}, {"type": "Feature", "geometry": {"type": "Polygon", "coordinates": [[[-366.39468711770655, 946.260806388977], [-365.4152914425853, 945.4815663889669], [-361.5956483093688, 946.0381663887482], [-359.2450986890081, 946.3721263890915], [-353.1728455030475, 947.0400463889871], [-350.3325980449522, 946.3721263890915], [-348.6676253972112, 945.3702463888526], [-347.2964714519719, 944.3683663890091], [-346.3170757768506, 944.4796863891236], [-342.59537221125055, 952.0494463889952], [-341.3221578336277, 953.162646388953], [-362.4771044168735, 950.0456863889128], [-366.8843849550932, 949.3777663890172], [-366.39468711770655, 946.260806388977]]]}, "properties": {"name": "", "kind": "garden", "category": "parque", "extrude": false}}, {"type": "Feature", "geometry": {"type": "Polygon", "coordinates": [[[-312.03822714621424, 938.8023663888243], [-312.03822714621424, 940.5834863890733], [-311.15677103870945, 942.2532863888124], [-311.7444084437126, 944.3683663890091], [-313.2135019565685, 946.260806388977], [-314.780535036693, 947.374006388935], [-318.40429903467646, 946.1494863888627], [-320.85278822265366, 947.374006388935], [-322.7136400056276, 951.7154863890473], [-325.45594789610635, 952.8286863890053], [-327.5126788139654, 952.7173663888908], [-328.78589319158823, 950.9362463890374], [-328.6879536239718, 946.7060863890392], [-329.27559102897493, 944.5910063888425], [-331.33232194683404, 943.2551663890513], [-333.8787507024277, 942.4759263890412], [-335.24990464766705, 943.1438463889368], [-335.24990464766705, 942.1419663890935], [-333.5849319999261, 936.2420063889608], [-327.3167996787324, 937.2438863888043], [-327.1209205438473, 935.5740863890652], [-310.96089190347647, 937.4665263890331], [-312.03822714621424, 938.8023663888243]]]}, "properties": {"name": "", "kind": "garden", "category": "parque", "extrude": false}}, {"type": "Feature", "geometry": {"type": "Polygon", "coordinates": [[[-306.94536963537485, 937.9118063890953], [-294.4091049933354, 939.4702863891155], [-294.89880283107004, 943.4778063888847], [-301.36281428714875, 942.6985663888746], [-302.14633082703705, 949.4890863887362], [-308.12064444572917, 948.932486388955], [-306.94536963537485, 937.9118063890953]]]}, "properties": {"name": "", "kind": "garden", "category": "parque", "extrude": false}}, {"type": "Feature", "geometry": {"type": "Polygon", "coordinates": [[[-420.2614492514643, 934.0156063890452], [-400.9673544508445, 939.2476463888866], [-401.26117315334614, 941.5853663889168], [-390.78163942916575, 944.2570463888947], [-391.565155969054, 947.374006388935], [-407.3334263393068, 943.0325263888224], [-421.6326031963557, 939.0250063890533], [-420.2614492514643, 934.0156063890452]]]}, "properties": {"name": "", "kind": "garden", "category": "parque", "extrude": false}}, {"type": "Feature", "geometry": {"type": "Polygon", "coordinates": [[[-352.68314766531284, 943.5891263889991], [-351.40993328768997, 942.1419663890935], [-349.84290020756555, 939.4702863891155], [-349.45114193744746, 937.6891663888665], [-353.466664205549, 936.798606388742], [-354.1522411781687, 935.9080463890131], [-353.85842247566717, 934.0156063890452], [-363.3585605247262, 931.7892063891294], [-363.75031879449637, 933.4590063888685], [-364.240016632231, 934.2382463888785], [-365.0235331724672, 934.3495663889929], [-368.3534784679491, 933.7929663888162], [-367.37408279282783, 928.5609263889748], [-359.4409778238932, 930.2307263891093], [-356.0130929607948, 931.6778863890149], [-349.84290020756555, 933.4590063888685], [-335.73960248505375, 935.7967263888986], [-337.4045751327947, 941.6966863890311], [-336.8169377277915, 944.2570463888947], [-338.38397080791594, 948.4872063888928], [-338.8736686456505, 950.6022863890895], [-340.0489434556569, 950.9362463890374], [-341.1262786983947, 950.490966388975], [-345.3376801017293, 941.6966863890311], [-347.19853188435536, 941.2514063889689], [-351.3119937200735, 944.4796863891236], [-355.7192742582932, 944.702326388957], [-352.68314766531284, 943.5891263889991]]]}, "properties": {"name": "", "kind": "garden", "category": "parque", "extrude": false}}, {"type": "Feature", "geometry": {"type": "Polygon", "coordinates": [[[-449.2515612360283, 925.1100063889868], [-448.85980296591015, 926.2232063889446], [-449.2515612360283, 928.1156463889125], [-432.30801605576914, 933.4590063888685], [-431.5244995155329, 931.2326063889527], [-430.5451038404117, 930.898646389005], [-423.39551541171323, 932.6797663888584], [-424.5707902220675, 938.2457663890432], [-427.01927941004465, 937.577846388752], [-453.2670835041299, 930.2307263891093], [-451.0144734513858, 924.776046389039], [-449.2515612360283, 925.1100063889868]]]}, "properties": {"name": "", "kind": "garden", "category": "parque", "extrude": false}}, {"type": "Feature", "geometry": {"type": "Polygon", "coordinates": [[[-420.2614492514643, 925.7779263888824], [-421.3387844938541, 930.0080863888804], [-422.80787800671004, 929.6741263889327], [-422.51405930420844, 928.4496063888604], [-430.5451038404117, 926.445846388778], [-429.76158730017545, 923.6628463890811], [-446.7051324804346, 918.5421263889586], [-447.3907094530543, 920.8798463889888], [-448.07628642567397, 921.325126389051], [-449.74125907341494, 920.8798463889888], [-448.37010512817557, 916.3157263890429], [-424.37491108683446, 921.7704063891132], [-384.0238092705854, 928.7835663888081], [-384.6114466755886, 931.6778863890149], [-420.2614492514643, 925.7779263888824]]]}, "properties": {"name": "", "kind": "garden", "category": "parque", "extrude": false}}, {"type": "Feature", "geometry": {"type": "Polygon", "coordinates": [[[-472.5611783047496, 867.3349263889197], [-463.5507380934252, 871.5650863889177], [-460.5146115004448, 871.7877263887511], [-462.76722155318896, 882.5857663887774], [-466.3909855511725, 922.99492638879], [-469.818870414271, 931.5665663889006], [-472.48699891366937, 937.2638193419415], [-473.51954443560015, 932.5785010358221], [-474.92981997557933, 921.7723144506538], [-475.4014257628449, 910.8610463889726], [-475.4014257628449, 866.8823637719611], [-472.5611783047496, 867.3349263889197]]]}, "properties": {"name": "", "kind": "scrub", "category": "parque", "extrude": false}}, {"type": "Feature", "geometry": {"type": "Polygon", "coordinates": [[[-353.27078507031604, 797.759926388983], [-344.7500426967261, 804.7730863890735], [-360.0286152288964, 823.2522063890858], [-368.54935760283416, 816.1277263888809], [-353.27078507031604, 797.759926388983]]]}, "properties": {"name": "", "kind": "pitch", "category": "parque", "extrude": false}}, {"type": "Feature", "geometry": {"type": "Polygon", "coordinates": [[[-449.44744037091334, 746.9980063890064], [-439.9473023218543, 728.9641663890563], [-426.82340027481166, 735.1980863887412], [-426.72546070719517, 741.3206863891027], [-439.06584621434945, 752.4526863890767], [-449.44744037091334, 746.9980063890064]]]}, "properties": {"name": "", "kind": "playground", "category": "parque", "extrude": false}}, {"type": "Feature", "geometry": {"type": "Polygon", "coordinates": [[[-465.5095294436677, 741.3206863891027], [-455.5196935568741, 723.3981663888716], [-443.66900588745426, 729.9660463888997], [-453.658841774248, 747.8885663891309], [-465.5095294436677, 741.3206863891027]]]}, "properties": {"name": "", "kind": "pitch", "category": "parque", "extrude": false}}, {"type": "Feature", "geometry": {"type": "Polygon", "coordinates": [[[-473.24675527736935, 721.9510063889659], [-472.65911787236615, 724.0660863887672], [-475.4014257628449, 726.3699263892955], [-475.4014257628449, 721.6788908334382], [-473.24675527736935, 721.9510063889659]]]}, "properties": {"name": "", "kind": "scrub", "category": "parque", "extrude": false}}, {"type": "Feature", "geometry": {"type": "Polygon", "coordinates": [[[-249.35690393601706, 519.2372863890073], [-259.2488002551943, 517.9014463888205], [-256.50649236471554, 497.9751663889026], [-246.51665647826977, 499.42232638880824], [-249.35690393601706, 519.2372863890073]]]}, "properties": {"name": "", "kind": "pitch", "category": "parque", "extrude": false}}, {"type": "Feature", "geometry": {"type": "Polygon", "coordinates": [[[-257.77970674268636, 485.062046389075], [-238.09385367194847, 488.29032638883416], [-239.75882631968943, 498.30912638885036], [-259.44467939042727, 494.9695263889768], [-257.77970674268636, 485.062046389075]]]}, "properties": {"name": "", "kind": "pitch", "category": "parque", "extrude": false}}, {"type": "Feature", "geometry": {"type": "Polygon", "coordinates": [[[-254.93945928459104, 472.48288638879984], [-251.3156952866076, 462.6867263890125], [-232.11954005325637, 469.8112063888219], [-235.7433040515878, 479.6073663890047], [-254.93945928459104, 472.48288638879984]]]}, "properties": {"name": "", "kind": "pitch", "category": "parque", "extrude": false}}, {"type": "Feature", "geometry": {"type": "Polygon", "coordinates": [[[-268.2592404668667, 471.7036463887898], [-261.0117124705517, 452.77924638911077], [-251.80539312399424, 456.34148638881766], [-259.05292112030924, 475.15456638877777], [-268.2592404668667, 471.7036463887898]]]}, "properties": {"name": "", "kind": "pitch", "category": "parque", "extrude": false}}, {"type": "Feature", "geometry": {"type": "Polygon", "coordinates": [[[-287.45539569986994, 390.77400638904567], [-289.1203683476109, 390.3287263889834], [-297.34729201904713, 388.65892638884884], [-298.424627261437, 388.4362863890155], [-307.14124877060783, 386.65516638876653], [-308.4144631482307, 386.4325263889332], [-320.65690908776855, 383.87216638906966], [-322.1260026002765, 383.5382063891218], [-329.6673492990931, 381.97972638910176], [-331.6261406493356, 381.5344463890395], [-334.3684485398143, 379.9759663890194], [-335.15196508005056, 370.9590463888466], [-285.790423052129, 380.9778463888628], [-287.45539569986994, 390.77400638904567]]]}, "properties": {"name": "", "kind": "park", "category": "parque", "extrude": false}}, {"type": "Feature", "geometry": {"type": "Polygon", "coordinates": [[[-274.821191490214, 353.7044463889066], [-275.21294976033215, 357.6006463889569], [-294.1152862908338, 354.9289663889789], [-293.4297093182141, 350.03088638908525], [-275.5067684628337, 352.5912463889488], [-274.821191490214, 353.7044463889066]]]}, "properties": {"name": "", "kind": "garden", "category": "parque", "extrude": false}}, {"type": "Feature", "geometry": {"type": "Polygon", "coordinates": [[[-287.1615769973684, 343.57432638877594], [-285.10484607950934, 343.79696638900487], [-284.81102737700775, 341.90452638903696], [-283.1460547292668, 342.0158463887559], [-282.65635689153214, 336.0045663889043], [-275.8985267329518, 337.1177663888622], [-275.21294976033215, 348.0271263890029], [-287.45539569986994, 346.0233663889205], [-287.1615769973684, 343.57432638877594]]]}, "properties": {"name": "", "kind": "garden", "category": "parque", "extrude": false}}, {"type": "Feature", "geometry": {"type": "Polygon", "coordinates": [[[-287.35745613225345, 329.2140463890428], [-287.06363742975185, 326.319726388836], [-278.0531972184274, 327.3216063890749], [-277.3676202458077, 330.2159263888862], [-285.39866478201094, 329.4366863888762], [-287.35745613225345, 329.2140463890428]]]}, "properties": {"name": "", "kind": "garden", "category": "parque", "extrude": false}}, {"type": "Feature", "geometry": {"type": "Polygon", "coordinates": [[[-475.2055466276119, -4.300673610907637], [-465.7054085785528, -12.204393611122555], [-461.2981280403331, -13.65155361102822], [-452.18974826139214, -14.208153611204892], [-447.1948303181692, -12.427033610955931], [-449.0556821007952, 3.6030463889117925], [-454.2464791792512, 20.857646388851805], [-459.3393366900905, 28.53872638883786], [-463.84455679592674, 31.98964638882586], [-469.23123300926767, 32.88020638895034], [-474.0302718176056, 31.54436638876362], [-475.4014257628449, 30.367554960168945], [-475.4014257628449, -4.025647728155661], [-475.2055466276119, -4.300673610907637]]]}, "properties": {"name": "", "kind": "garden", "category": "parque", "extrude": false}}, {"type": "Feature", "geometry": {"type": "Polygon", "coordinates": [[[-304.007182610011, -35.247633611080715], [-302.6360286647717, -36.472153611153004], [-300.7751768821456, -37.47403361099643], [-298.5225668290535, -37.80799361094424], [-296.46583591119446, -37.47403361099643], [-295.0946819659551, -36.36083361103857], [-296.17201720869286, -35.247633611080715], [-292.9400114808274, -31.017473611082664], [-294.2132258584503, -29.013713611000327], [-297.15141288381415, -30.01559361123924], [-300.0895999095259, -29.904273611124808], [-302.7339682323881, -29.458993611062567], [-304.3010013125126, -28.123153610875846], [-304.8886387175158, -28.568433610938087], [-324.5744917882536, -5.191233611032118], [-325.5538874633749, -5.970473611042166], [-326.72916227372923, -4.411993611022069], [-328.49207448908675, -5.74783361120879], [-304.007182610011, -35.247633611080715]]]}, "properties": {"name": "", "kind": "garden", "category": "parque", "extrude": false}}, {"type": "Feature", "geometry": {"type": "Polygon", "coordinates": [[[-190.49522385903646, 318.1933663887877], [-191.76843823700727, 325.5404863888259], [-191.27874039927264, 338.78756638899677], [-189.6137677515317, 348.3610863889507], [-186.77352029343643, 353.7044463889066], [-191.37667996688916, 352.9252063888965], [-195.09838353248918, 349.0290063888463], [-205.38203812143652, 333.11024638909305], [-206.16555466167273, 327.3216063890749], [-203.619125906427, 322.6461663890146], [-193.2375317495152, 316.85752638899646], [-187.55703683367264, 315.9669663888719], [-190.49522385903646, 318.1933663887877]]]}, "properties": {"name": "Playa Charco del Musgo", "kind": "beach", "category": "parque", "extrude": false}}, {"type": "Feature", "geometry": {"type": "Polygon", "coordinates": [[[-216.7430279534696, 223.1260863887482], [-230.8463256756335, 223.57136638881045], [-231.23808394575155, 212.88464638889863], [-217.1347862235877, 212.4393663888364], [-216.7430279534696, 223.1260863887482]]]}, "properties": {"name": "", "kind": "pitch", "category": "parque", "extrude": false}}, {"type": "Feature", "geometry": {"type": "Polygon", "coordinates": [[[485.6795502701607, -623.685153610872], [484.0145776224197, -619.454993610874], [492.43738042874105, -612.6644736110125], [504.77776593589533, -612.3305136110646], [529.7523556523578, -595.7438336110202], [536.5101858109381, -599.6400336110705], [545.030928184876, -598.749473610946], [555.0207640713218, -585.0571136111084], [569.026122226217, -572.700593611062], [578.7221394101612, -568.8043936110118], [596.547140698273, -570.8081536110942], [620.542334739614, -554.5554336109976], [642.5787374307125, -537.7461136111198], [658.8367056380041, -510.13875361121575], [656.1923373151419, -505.57463361087446], [613.0989276084141, -477.4106736111892], [545.618565589879, -447.2429536110262], [522.3089485211577, -457.2617536110424], [517.4119701452034, -464.4975536109662], [519.0769427929444, -476.74275361089815], [513.2005687422167, -484.86911361094644], [490.87034734861663, -508.80291361102906], [473.9268021683574, -531.1782336110916], [416.73009473911776, -563.5723536111703], [407.81759409506185, -562.0138736111503], [373.5387454644255, -541.0857136109934], [371.0902562767963, -543.6460736112524], [379.8068777856192, -563.7949936110037], [381.9615482707468, -579.9363936109859], [382.94094394621607, -581.1609136110582], [389.69877410479637, -575.37227361104], [391.4616863198059, -577.5986736109558], [394.8895711829043, -582.274113611016], [388.8173179969437, -587.0608736111908], [421.2233059059918, -625.3549536110065], [425.7449867489229, -625.3549536110065], [427.89520543591783, -623.0172336109764], [429.9519363537769, -625.3549536110065], [483.72256592292075, -625.3549536110065], [485.6795502701607, -623.685153610872]]]}, "properties": {"name": "", "kind": "orchard", "category": "parque", "extrude": false}}]}