{"type": "FeatureCollection", "crs": {"type": "name", "properties": {"name": "EPSG:32628_local_enu_m_section_centroid", "lng0": -16.619487283276715, "lat0": 28.054477270515125}}, "features": [{"type": "Feature", "geometry": {"type": "Polygon", "coordinates": [[[-369.33265576674427, -207.6195169424172], [-368.66987878078334, -206.61815509529947], [-366.9496431829104, -203.6400981126846], [-365.13416953275095, -200.49716583800333], [-364.96934398584136, -200.21182127735455], [-364.9678465204594, -200.21261979173312], [-357.2558227167583, -187.0152044393517], [-355.50755381018615, -184.02343062031687], [-355.33153604967487, -183.7222153292349], [-355.33063919558197, -183.72275335152224], [-352.3160170664219, -178.59875447386864], [-352.3160170664214, -178.5987544738685], [-352.29084237788754, -178.5559646745948], [-350.7753261334023, -178.18797240219254], [-349.0184360593452, -177.71954688682078], [-340.6361459421449, -179.9754019132488], [-346.69915225522226, -190.88698458084812], [-346.9200855706597, -190.77249834824968], [-350.4614501686411, -196.7331416265797], [-352.2290439601568, -199.70826484835095], [-352.2290439601564, -199.70826484835112], [-359.3256977820774, -211.6529886213227], [-360.1712668432181, -213.15865451578432], [-369.07458387553714, -208.93546304660475], [-369.33265576674427, -207.6195169424172]]]}, "properties": {"id": 0, "height_median_m": 6.0, "building_count": 4, "area_m2": 401.88250779712814}}, {"type": "Feature", "geometry": {"type": "Polygon", "coordinates": [[[-347.03504393908736, -202.00010226901426], [-268.06899776142734, -236.84364074757707], [-261.72894144569324, -211.13179160292796], [-275.8549879417887, -207.5655015518266], [-275.85586808006843, -207.56982328442334], [-276.2124851534779, -207.47524708822306], [-276.5344235873012, -207.39396986505034], [-276.53363099275765, -207.390077997427], [-280.828866835982, -206.25096521196392], [-291.0742974428557, -203.72215400629855], [-291.06522160351403, -203.6775890196039], [-305.2896364070015, -200.128605061562], [-313.1921961782587, -198.10312959012603], [-313.4867750972721, -199.43833025380556], [-324.2282510322859, -196.70592287785527], [-325.1868424323329, -200.54947603457526], [-342.8037566405633, -196.04926140282316], [-334.34332402669975, -181.668935989246], [-333.8273579999033, -181.80779357335973], [-333.4561295036671, -180.3270875136592], [-333.15803739473984, -180.40356625644475], [-332.75363926045617, -180.40356625644475], [-332.7780791154666, -180.50104864742232], [-322.70399484511336, -183.08566352530295], [-321.3291934975665, -183.41948790615433], [-251.92583164583525, -200.9829334836713], [-252.99382687022256, -205.21860467528154], [-255.96108138617257, -216.8746645081987], [-255.86054743856684, -216.89997992641116], [-261.2692890931905, -239.84399244419967], [-261.119376315176, -239.91014102200012], [-262.6405555565633, -243.23444709322763], [-264.212557049375, -246.908384859979], [-265.54502969614924, -249.80232655212524], [-267.2985210554152, -248.91923445967873], [-267.881529858057, -250.35060507671338], [-283.14240155041387, -243.5245170026044], [-289.00135105863603, -240.99536266861176], [-289.0027950786588, -240.99890794584059], [-289.33112913158, -240.85300615209434], [-289.6441664699891, -240.71787617017048], [-289.6427957536752, -240.71451086410954], [-304.6735143624698, -234.03531086396717], [-304.65136391269823, -233.9809283180566], [-319.9241423262676, -227.23823410621435], [-323.137125100992, -225.8197521659123], [-323.4467397012174, -225.68306213373148], [-323.44581554803193, -225.68096773751557], [-328.8255970621463, -223.26356302282727], [-350.0606919011727, -213.88713167937573], [-349.4738863394952, -212.44643947097495], [-351.35129352022324, -211.66267098412783], [-347.03504393908736, -202.00010226901426]]]}, "properties": {"id": 1, "height_median_m": 6.0, "building_count": 14, "area_m2": 2490.405823566452}}, {"type": "Feature", "geometry": {"type": "Polygon", "coordinates": [[[-333.7284887018164, -154.61990510636178], [-333.7272282112591, -154.61514405106098], [-339.7201106178196, -152.94527635182004], [-336.20185222732664, -139.695390324729], [-329.8708920094741, -141.3418559547966], [-288.4656576906236, -152.4540302215461], [-292.08990879854616, -165.7131154900221], [-298.32107142675073, -163.94791524567177], [-333.0515843645246, -154.79823414043247], [-333.0528597141959, -154.8030513207579], [-333.3920197414621, -154.70854715131426], [-333.7284887018164, -154.61990510636178]]]}, "properties": {"id": 2, "height_median_m": 9.0, "building_count": 2, "area_m2": 678.114826797823}}, {"type": "Feature", "geometry": {"type": "Polygon", "coordinates": [[[-326.85263525698326, -133.35645891750633], [-326.85162330320134, -133.35269122581118], [-332.84331125427445, -131.683156352127], [-329.32416102063263, -118.42991161165263], [-311.30213183809707, -123.3083915472982], [-276.2307192022002, -132.65920112779602], [-234.92738014163655, -143.77061146648748], [-238.4464363721995, -157.02350218761228], [-241.41562941784707, -156.25131690595566], [-244.78646493947272, -155.37467819076664], [-245.11752219177328, -155.2885815531678], [-245.11696282248198, -155.28649891750703], [-253.0809373118756, -153.16312824730772], [-256.47228006955135, -152.25892171653194], [-256.80631023163534, -152.16986193236568], [-256.80612190025244, -152.16915057747013], [-262.26523095570957, -150.7012971941634], [-270.56765569286654, -148.4876882477233], [-273.9589984508499, -147.5834817168385], [-276.3212221592999, -146.95366094759797], [-279.76152821548425, -146.02328161094522], [-280.08504401029467, -145.93629420159655], [-280.08447630641876, -145.9340426868917], [-291.44330131494274, -142.79736908066045], [-293.9653276316903, -142.13054498695868], [-297.34292766570167, -141.23750708857892], [-297.67554693364093, -141.14956250988104], [-297.6751663950542, -141.14814569411476], [-308.9288758753285, -138.12223150697324], [-311.45204601288145, -137.45510498689836], [-314.82607898790053, -136.56301021939078], [-315.1622653148423, -136.47412250981805], [-315.1620763389601, -136.47341891754488], [-326.1762621381139, -133.53679485964562], [-326.1772817309847, -133.5405909930861], [-326.51572035782795, -133.44628783599072], [-326.85263525698326, -133.35645891750633]]]}, "properties": {"id": 3, "height_median_m": 9.0, "building_count": 6, "area_m2": 1344.77957895938}}, {"type": "Feature", "geometry": {"type": "Polygon", "coordinates": [[[-286.0080623868523, -111.64240956623998], [-282.62059742000446, -112.50916394168172], [-269.85187703909673, -115.73681744716704], [-265.52537133401455, -116.7767526145689], [-264.6658203937796, -113.20543945295778], [-264.1073833178287, -113.5218341035007], [-260.18101756695745, -114.48380935642447], [-260.48504806437825, -115.74701327622084], [-260.48188726753114, -115.74820715494644], [-261.0434541634056, -117.97538258644032], [-256.6865155118213, -119.07672147491765], [-256.347475122735, -119.16076115365155], [-256.3478633588747, -119.16232533935835], [-243.91531669375587, -122.30500147507239], [-239.5501647873589, -123.38701404846407], [-239.535048275759, -123.328774850865], [-235.8580425562527, -124.30914540668601], [-229.13041081321077, -125.95110238639988], [-230.88038849317962, -132.64364539527756], [-236.38177167763516, -131.23220625619712], [-236.67549610874318, -131.23220625619712], [-246.98044887494245, -128.6497951177358], [-247.1774797673275, -128.53816298719067], [-256.7584113787609, -126.1009738744524], [-262.1190904456557, -124.77564625628335], [-262.31712927710026, -124.77564625628335], [-267.2262157129522, -123.51616723058439], [-267.2271269108879, -123.5197810434164], [-267.5684333810052, -123.42836760008927], [-267.9042616946681, -123.34220722731497], [-267.9033675091987, -123.3386608859581], [-272.9694457209708, -121.98179339574213], [-282.59547003428, -119.64443635668478], [-293.79455333650037, -116.75018759769146], [-298.7536533110351, -115.55457663136374], [-297.1854102980869, -109.39415651992695], [-296.9550498682477, -108.87209370593327], [-290.28440390473344, -110.61643185143643], [-286.00850218793175, -111.64420365396849], [-286.0080623868523, -111.64240956623998]]]}, "properties": {"id": 4, "height_median_m": 6.0, "building_count": 13, "area_m2": 497.93751455664557}}, {"type": "Feature", "geometry": {"type": "Polygon", "coordinates": [[[-290.8178240088622, -94.08311022219779], [-290.8178240088622, -93.41976847794528], [-290.31531912267957, -91.4980093599735], [-290.0697043317895, -90.55173228802477], [-288.74351879005627, -85.4868798019368], [-288.65588926952597, -85.15175312095151], [-288.6557762842769, -85.15178125460112], [-286.00246967253435, -75.01850339419308], [-285.9743652359175, -75.02578256165357], [-282.0512805378033, -59.555729170367975], [-282.05584087798695, -59.55455916595162], [-281.96490963357945, -59.21513940424897], [-281.87921189549417, -58.87720416050344], [-281.87468709814306, -58.87836504602308], [-280.29574309690867, -52.98462851868625], [-279.725157662001, -50.52771900549988], [-248.1886433697107, -58.494208089878505], [-248.1910528473351, -58.503309035658205], [-212.14838122421355, -67.50671042658392], [-212.63952620282328, -69.7328612433699], [-212.62950807760393, -69.73535578515184], [-212.71405594988994, -70.07067281537647], [-212.79039161355172, -70.41666983746067], [-212.80065248612092, -70.41411485089556], [-214.09069299563836, -75.53041808626877], [-214.2867106756588, -76.30782459702839], [-216.70855485692962, -86.37024625635308], [-230.8750285204002, -86.37024625635308], [-231.18993987221708, -89.7346366713038], [-218.1282811658161, -92.2014254583684], [-220.67187053193737, -102.5775311177161], [-222.06808328092555, -108.48407250292676], [-222.0593619626099, -108.48654312905859], [-222.14621175763799, -108.81458737711058], [-222.2292698380824, -109.16595645741482], [-222.23854143774386, -109.16332994436043], [-222.82481026820568, -111.37775218430887], [-254.3241699796847, -103.64799458958942], [-254.31531498469096, -103.59782469274255], [-290.8178240088622, -94.08311022219779]]]}, "properties": {"id": 5, "height_median_m": 12.0, "building_count": 16, "area_m2": 3096.231171383257}}, {"type": "Feature", "geometry": {"type": "Polygon", "coordinates": [[[-315.0568572923848, -52.76434523837195], [-315.0509392207197, -52.74020355192556], [-331.5439134065929, -48.427379251185236], [-332.30465957249595, -36.358896000493296], [-286.50687249720335, -48.029709374807965], [-289.32740123279285, -59.27511833228525], [-291.78161164172474, -58.71892385367272], [-291.7843508124343, -58.73009779749911], [-292.7513062852491, -58.477244127082166], [-295.0158991474364, -57.88506523849566], [-295.0099810756043, -57.86092355136792], [-301.785102978979, -56.08926550844933], [-301.8048298846889, -56.169737797239], [-302.4821384563454, -55.99262523814021], [-302.4821384563454, -55.992625238140185], [-305.03637822013974, -55.32470523823366], [-305.0304601484096, -55.30056355153893], [-311.80558205161805, -53.528905508421694], [-311.8253089573785, -53.609377797376446], [-314.37954872072834, -52.941457797494905], [-314.37954872072834, -52.94145779749492], [-315.0568572923848, -52.76434523837195]]]}, "properties": {"id": 6, "height_median_m": 3.0, "building_count": 8, "area_m2": 526.7132028730924}}, {"type": "Feature", "geometry": {"type": "Polygon", "coordinates": [[[-321.574816874203, -57.50422577816997], [-322.56224142041066, -61.14063008972046], [-291.70933523907405, -69.07102790959625], [-292.6831913569367, -72.74942344054425], [-292.8803739887852, -73.53145015258262], [-293.03812009586204, -74.09004066635515], [-293.03812009586574, -74.09004066636903], [-293.66715725141046, -76.31750728604624], [-294.5428590409665, -79.54246839911536], [-325.5313641276787, -71.66423294904487], [-331.7668396532503, -69.9267686599463], [-332.7983112078511, -54.26477881049658], [-325.0892135686106, -56.48986239218165], [-321.574816874203, -57.50422577816997]]]}, "properties": {"id": 7, "height_median_m": 6.0, "building_count": 3, "area_m2": 481.6525829967498}}, {"type": "Feature", "geometry": {"type": "Polygon", "coordinates": [[[-230.70214440699058, 102.35823679391112], [-236.58132262309545, 80.41973918507738], [-350.515711571862, 110.96167427062585], [-353.55696047675514, 135.19974509763392], [-230.70214440699058, 102.35823679391112]]]}, "properties": {"id": 8, "height_median_m": 3.0, "building_count": 1, "area_m2": 2778.497665561681}}, {"type": "Feature", "geometry": {"type": "Polygon", "coordinates": [[[-348.74317593308444, 169.26575238527028], [-351.7882930431903, 193.64224987299178], [-224.8092606119294, 159.8000320256268], [-230.60549067029078, 137.75840357076666], [-221.86024392247566, 135.4201788929175], [-228.32937264072808, 111.36713757417739], [-354.83835500583325, 145.1366790755661], [-358.17425214742775, 171.8261224537038], [-348.74317593308444, 169.26575238527028]]]}, "properties": {"id": 9, "height_median_m": 3.0, "building_count": 1, "area_m2": 6275.965500378543}}, {"type": "Feature", "geometry": {"type": "Polygon", "coordinates": [[[-209.58169261455512, 217.35382022582263], [-221.6471949785416, 171.47936114467953], [-353.4623966411158, 206.69653311934374], [-359.8450631125165, 256.7588318172663], [-209.58169261455512, 217.35382022582263]]]}, "properties": {"id": 10, "height_median_m": 3.0, "building_count": 1, "area_m2": 6871.442318795649}}, {"type": "Feature", "geometry": {"type": "Polygon", "coordinates": [[[-369.7383977621175, 398.0946986251342], [-369.63575545675394, 397.94608226760045], [-317.2989328504567, 388.3920147295499], [-315.8719190872863, 394.0809543669701], [-276.37345140164035, 384.33629892845585], [-276.86770480087546, 382.6561189565669], [-288.89385255785214, 334.89671374370295], [-288.53240931464177, 334.89671374370295], [-289.93352491064786, 329.9069096825901], [-276.8258357137791, 326.8712821488936], [-276.6230697913104, 326.81686462650606], [-273.07913030469683, 325.8657560575472], [-272.76372232657997, 325.7811081024006], [-272.76405177838524, 325.7796148378108], [-256.4298229415306, 321.3156737435843], [-253.8616369293101, 321.3156737435843], [-262.42967799671214, 288.71448011001786], [-263.31083213580337, 285.36170944942603], [-263.39972703902964, 285.02346644494935], [-263.4005164712924, 285.0236830177866], [-268.1233551464599, 267.2212434792727], [-269.28913208247053, 262.657814937101], [-288.48671997761414, 267.3031193241296], [-295.8534869768347, 269.08394150723774], [-308.18902752274045, 271.9482727967687], [-304.75640836304916, 284.8756384383789], [-302.0395349855123, 295.32090785154463], [-338.8373144407404, 305.0205150389046], [-329.5123237581818, 340.09247454514303], [-328.2339944266352, 344.7723422490002], [-326.61840818319365, 350.26441506129356], [-326.848580621878, 350.3213449628181], [-324.2547646187375, 360.6618637814015], [-373.60562174962297, 369.6492636835122], [-375.30735019540316, 386.3234079965695], [-374.5374608169405, 390.6853834408041], [-376.4025848911426, 393.46624276418976], [-375.8652110832544, 396.7544193946726], [-373.0699706216661, 398.70359376814656], [-369.7383977621175, 398.0946986251342]]]}, "properties": {"id": 11, "height_median_m": 3.0, "building_count": 9, "area_m2": 7638.015808712063}}, {"type": "Feature", "geometry": {"type": "Polygon", "coordinates": [[[-247.37526184925622, 322.38452160109216], [-243.7499768365001, 336.19185810129045], [-241.69929980912244, 344.4410328448522], [-235.996180474165, 342.8811305920824], [-228.33393817199615, 371.82252893625895], [-195.2388902936671, 362.9585531589124], [-200.5264572767327, 342.9098322240782], [-207.01111797713494, 344.6911778367647], [-211.84120910641494, 326.55454182033736], [-205.35905743848056, 324.77388544247515], [-212.21630512721248, 298.49217391123085], [-218.69861831879192, 300.2877138326373], [-221.35460346452518, 290.36714057750584], [-247.96443637412418, 297.6768999141821], [-241.77668266648058, 320.93764595831914], [-247.37526184925622, 322.38452160109216]]]}, "properties": {"id": 12, "height_median_m": 3.0, "building_count": 1, "area_m2": 2569.955520258265}}, {"type": "Feature", "geometry": {"type": "Polygon", "coordinates": [[[-250.02482799840126, -268.78904905732765], [-249.64218193872287, -267.48827045473405], [-246.77044127731105, -256.8220732729761], [-245.89752717494227, -253.3600942012828], [-245.9065489359633, -253.35766841672586], [-245.81214155869313, -253.02145467687137], [-245.72636248756004, -252.68125470960518], [-245.71729915447935, -252.68369167211952], [-244.43743113126425, -248.12568755159518], [-243.66806821580454, -244.88757872275212], [-237.8539779552657, -246.45087998221626], [-237.27641482997245, -244.2257096608292], [-237.2657241593928, -244.2284450944328], [-237.06924417772672, -243.56052509453704], [-234.02380445963425, -244.33976509454718], [-234.02161194622468, -244.3323117980644], [-233.69273493422043, -244.4244762170344], [-233.3452219109554, -244.5133947553472], [-233.34752332170152, -244.52121824073376], [-224.55916600954845, -246.9840654930818], [-218.9590059540543, -248.32002013732486], [-215.02420031477695, -249.4346949242509], [-205.5940664256709, -251.99480916808102], [-195.63624713196586, -254.75814896041803], [-195.83182227331764, -255.53380036153962], [-186.19098727686963, -258.0977016132148], [-186.29001796439414, -258.43434953084324], [-177.30188590828996, -260.9001535682742], [-167.44068079693744, -263.54969660389344], [-167.80807084218964, -265.00676625640574], [-167.79589534855515, -265.00676625640574], [-167.82711736262868, -265.1183462426806], [-165.17882791029487, -265.8963552243363], [-168.99958803718448, -280.2519637080709], [-171.553929268362, -289.93718843935727], [-172.92933218212394, -295.05806868930483], [-174.21015723119706, -299.8959303097435], [-238.80332969749844, -273.39324784349935], [-238.83565225523185, -273.45551220304765], [-238.8087025539514, -273.3910433518624], [-250.02482799840126, -268.78904905732765]]]}, "properties": {"id": 13, "height_median_m": 6.0, "building_count": 25, "area_m2": 2615.0661763950548}}, {"type": "Feature", "geometry": {"type": "Polygon", "coordinates": [[[-235.19486255313907, -236.77579578666018], [-235.16313403012032, -236.65677906726273], [-240.99009493396, -235.22139157890916], [-239.53225475099, -229.63020319935262], [-233.74591631050816, -231.34066007992826], [-230.86507362602464, -220.53434409715885], [-232.89979209128632, -218.71100059840282], [-236.37281536111718, -217.855471578848], [-234.91497517854555, -212.26428319929133], [-229.1286367378713, -213.97474007992383], [-227.54613077881646, -208.0386091233933], [-222.88376619271878, -209.35939107007053], [-160.654761059569, -226.108075348521], [-160.64635984862852, -226.0763427586583], [-122.93416024151925, -236.27793374131807], [-124.68160598024625, -242.8782892528322], [-124.12189983644751, -245.519251004065], [-122.14718814217814, -246.07865889845192], [-122.72359375901715, -248.2013971657205], [-125.872050554491, -247.30948388498527], [-128.79457405133627, -258.17165748195765], [-129.70499078932863, -261.55541287839395], [-129.79487273172293, -261.8894780322152], [-129.79565407256618, -261.88926781837307], [-130.18880813244888, -263.3371426194928], [-137.50174040256573, -261.35302685437074], [-166.0413503597886, -253.57803197795812], [-165.6473795641712, -252.23875572507706], [-172.2982472216511, -250.3546589829967], [-173.1175392591903, -253.42790164503387], [-181.9617361778248, -251.089494802987], [-181.9633643303956, -251.09541800053748], [-182.2997920669601, -251.00011278091978], [-182.63851327468197, -250.91055484852973], [-182.6368819177885, -250.90461999369558], [-186.62036389687958, -249.77615588803843], [-190.70264340813293, -248.74819851100406], [-190.70478180667928, -248.75610550889738], [-191.04017273620403, -248.6632053688638], [-191.3815564319761, -248.57724165973983], [-191.37939361429454, -248.56924436901923], [-195.46187881227164, -247.43843428087965], [-199.44199921052137, -246.41342353785248], [-199.44359325938024, -246.41964518958625], [-199.78443841206632, -246.32523428092162], [-200.1198810169192, -246.23884687570785], [-200.11831953710305, -246.23275234256258], [-204.94514907490043, -244.89576585752246], [-208.62603759366823, -243.87619428077736], [-212.6061579919182, -242.85118353775022], [-212.60775204077703, -242.85740518948393], [-212.94859719346357, -242.76299428081916], [-214.03022641480712, -242.48443949832145], [-217.3734440563927, -241.53735322434875], [-217.70909753220042, -241.44438036145863], [-217.70855867153676, -241.4424199934808], [-221.69204065027256, -240.3139558881977], [-225.7698505878162, -239.28712399259237], [-225.77191082215145, -239.29516518935702], [-226.11184948959357, -239.20100536862856], [-226.4486661156956, -239.11619169169194], [-226.4466370998883, -239.10827234238985], [-230.53355556564625, -237.9762342810441], [-235.19486255313907, -236.77579578666018]]]}, "properties": {"id": 14, "height_median_m": 9.0, "building_count": 21, "area_m2": 3161.4517891548603}}, {"type": "Feature", "geometry": {"type": "Polygon", "coordinates": [[[-213.7868271456997, -187.7907715960972], [-213.07204995050822, -185.36093635381545], [-215.1073747538345, -184.89967336945537], [-213.8810895303438, -181.00891365425764], [-212.9014907534808, -181.230918837191], [-212.01733083511107, -178.33659883737965], [-211.0304925017821, -178.56024471147717], [-210.24049799918143, -176.09850774572328], [-209.9929145646133, -176.1653047794306], [-207.69277784072494, -167.7669537209784], [-208.66799171914673, -167.54594228181398], [-207.8775304349052, -164.41097125132916], [-208.67321321342658, -164.185565573442], [-207.61014858131307, -160.43790650531224], [-206.83008799497654, -160.54839657125353], [-205.32670146320248, -154.83648502228326], [-206.10654059184864, -154.61556762623235], [-205.1549278169062, -150.70668024006628], [-204.35610754327, -150.93297472594614], [-201.90219960267328, -142.2821269112841], [-206.9976604038286, -140.92703076777173], [-206.21601711328782, -137.9377461622557], [-208.28062139331624, -137.4921284921148], [-206.41006927839277, -130.46396840964192], [-206.41902081151713, -130.4616276317366], [-206.3184882060516, -130.11987404744627], [-206.23002937756277, -129.7875107829494], [-206.2213830258175, -129.78977175756077], [-206.12314585449323, -129.45582134174325], [-206.12314585422985, -129.4558213418121], [-205.92586166027317, -128.7851674790951], [-197.28550612383532, -131.1215993406551], [-194.48400282506745, -121.0690000179008], [-198.92405422182276, -119.89263678499759], [-198.90504352430406, -119.7992887815709], [-202.76930984319202, -118.8977777266672], [-202.4708135568304, -117.65756767479539], [-203.2691209000486, -117.43141849525033], [-202.38862139796785, -114.29568864956971], [-201.84618344011807, -114.47130579451654], [-200.4242401081436, -109.63750857353074], [-200.33141735808715, -109.28439928856177], [-200.32132792870877, -109.2876657944468], [-199.83700218128712, -107.64123418265547], [-196.0322276875201, -108.58434313487449], [-196.580619800802, -110.91461908017415], [-186.94714066322342, -113.53868484164505], [-186.39556053246352, -111.1948620924031], [-178.4353877717905, -113.26702826199445], [-179.07709331735333, -115.59389040960436], [-169.4196145797289, -118.19944006595294], [-169.32789169720792, -117.67976415898437], [-169.30189501289934, -117.68397244069686], [-168.8034748896289, -115.76371538502568], [-164.58800753013017, -116.82521074772629], [-165.16523316600257, -119.049080827324], [-168.62012190248637, -136.44856733690764], [-163.6061324010896, -137.63606968056243], [-158.18655538583155, -117.98436384538257], [-148.51932864641432, -120.63647070975996], [-146.35782432063638, -121.19312853231932], [-124.14754327911912, -127.31794653713453], [-121.99087221072523, -127.98444225866436], [-119.39488394282999, -128.62392639829014], [-125.27687506555836, -150.6878367343592], [-129.448996984155, -149.4756283933552], [-135.82955480238732, -147.7404074762512], [-139.27880065608, -146.80236981182333], [-139.6016160971709, -146.71457872494616], [-139.60118362827285, -146.71286355243305], [-153.7127195398035, -142.7968486539989], [-166.61577681663672, -139.2480587154738], [-168.80828588406655, -147.57819710558704], [-156.77102821096346, -150.91562909009085], [-154.60998355652507, -151.4721685326019], [-132.39970251537807, -157.59698653701562], [-130.2430314469544, -158.26348225855466], [-127.64704317909955, -158.9029663986249], [-133.5276165994803, -180.96155879741227], [-172.42101921673205, -170.31181706707045], [-169.07576740895482, -158.18173675104592], [-169.08733722949458, -158.17865198255123], [-168.88860853986108, -157.503087655491], [-166.4220873344627, -148.55933632020955], [-170.5077823497746, -147.47336236206215], [-176.619794747551, -145.87510389839895], [-179.02918299553096, -154.369004874331], [-178.05592519612628, -154.699857077732], [-178.83765556018517, -157.80020126135193], [-178.04197278165802, -158.02560693884033], [-180.74560228404195, -167.55680693872063], [-180.6059753965756, -167.59636126113944], [-181.56311126689195, -171.39236403255765], [-182.35907845187177, -171.16687778664354], [-183.23829027477888, -174.26639409164548], [-184.20828598232026, -174.04656523968742], [-186.2381968536841, -182.38471832994549], [-186.19009253800274, -182.39706001050558], [-186.9055348169534, -184.82915615865832], [-185.88139722923083, -185.06125511415448], [-186.8756895143849, -188.10327968725608], [-185.90291168664777, -188.4339687277525], [-186.97453731432623, -192.07688533658833], [-188.9470922658958, -191.6298478012091], [-189.73649008140447, -194.08972540311217], [-194.10181132062095, -192.93936840995184], [-194.20781729317375, -193.5399682665296], [-197.42961552751999, -192.74136462733023], [-197.72758791694372, -193.4166555369527], [-202.0010681608188, -192.2355662564188], [-202.19754814285002, -192.2355662564188], [-206.6140971761743, -191.01493613193392], [-206.42033227008693, -190.35624584335415], [-209.52660079055883, -189.5862791463916], [-209.4131215803356, -188.94333804127092], [-213.7868271456997, -187.7907715960972]]]}, "properties": {"id": 15, "height_median_m": 9.0, "building_count": 48, "area_m2": 4244.360230941318}}, {"type": "Feature", "geometry": {"type": "Polygon", "coordinates": [[[-222.06945215668597, -178.62003478631613], [-223.01483904567684, -182.63725581127088], [-225.66285838574865, -181.88710938345417], [-224.59825709073726, -177.86595618388262], [-222.06945215668597, -178.62003478631613]]]}, "properties": {"id": 16, "height_median_m": 3.0, "building_count": 1, "area_m2": 11.15918133672416}}, {"type": "Feature", "geometry": {"type": "Polygon", "coordinates": [[[-249.63215038650222, -176.9956709492114], [-249.63197198496024, -176.99497351606658], [-272.677276758462, -170.85058866052015], [-279.0086060243718, -169.20402705370947], [-275.48952134142047, -155.83374601413047], [-245.77666416710088, -163.82870904410726], [-239.54615997854924, -165.4760551805242], [-242.09068109810698, -175.27930028024207], [-243.069730006872, -178.73077577071075], [-245.8853941608423, -177.986313793779], [-249.30000505324415, -177.0834902195165], [-249.63215038650222, -176.9956709492114]]]}, "properties": {"id": 17, "height_median_m": 9.0, "building_count": 2, "area_m2": 511.7827053444943}}, {"type": "Feature", "geometry": {"type": "Polygon", "coordinates": [[[-176.15934266119095, -187.0064223175239], [-174.10091786476218, -179.54245262529608], [-136.09535640460052, -190.19555974117077], [-139.33189601872914, -201.8855999378388], [-140.9943700444804, -208.0080198635502], [-144.8293017619703, -207.00520578563055], [-144.83088343533473, -207.01079342840617], [-145.1640252646732, -206.91767738474923], [-145.50666692777713, -206.828078427387], [-145.50504783862536, -206.8223586043151], [-174.63836158397345, -198.679343600854], [-179.0015489743575, -197.47346137801486], [-178.25875030894377, -194.73794474468534], [-177.33751921530916, -191.34531212818203], [-177.066747337983, -190.34813616549894], [-176.15934266119095, -187.0064223175239]]]}, "properties": {"id": 18, "height_median_m": 9.0, "building_count": 3, "area_m2": 732.1658227586023}}, {"type": "Feature", "geometry": {"type": "Polygon", "coordinates": [[[-185.70965495123244, -97.40020136512905], [-192.7157791798956, -95.26279346714614], [-196.4911154776657, -94.28496546430091], [-195.90542136992275, -92.16120409351964], [-195.41484460366075, -90.38234380998918], [-190.70796972181512, -72.33900914293292], [-154.66156669229997, -82.55044531118075], [-156.6197732224827, -89.50981309610657], [-150.08708813502412, -91.3604303889898], [-92.922088613818, -107.05416271248586], [-89.65716065412457, -107.95049623621692], [-89.32049024056505, -108.04292369000679], [-89.32137402921614, -108.04572777605121], [-87.74953417442188, -108.49100777613324], [-88.99766520671558, -112.45107990697707], [-88.84125847906981, -112.49538772082515], [-88.93354077996175, -112.82518252015237], [-89.01727142617544, -113.1730715687329], [-89.02988621280758, -113.16949797809364], [-92.07374269977794, -124.04751065873391], [-91.97385378363442, -124.07580777593881], [-92.07855167763093, -124.40799342130833], [-92.16095113528455, -124.75035156880801], [-92.18436518879093, -124.74371869859687], [-92.67556514312463, -126.30219869859819], [-94.57232826902542, -125.7648725312532], [-101.09650126904727, -124.0046763996564], [-101.08698771369737, -123.96910166470413], [-115.72923723912709, -119.89657659285439], [-115.74595716983168, -119.95973019148231], [-126.32519969908675, -117.01727040270313], [-140.17320239298493, -113.17881782301154], [-154.8920711118514, -109.17809727667337], [-156.91231761030784, -108.63945514968381], [-156.05762309789682, -105.9276790349846], [-164.84938845089937, -103.2905913836612], [-164.35636861601864, -101.39113995374947], [-164.41149301831084, -101.37329313826143], [-164.2199741901843, -100.93925653564555], [-170.22277385641183, -99.15777170606202], [-174.00937946615747, -98.03557079907134], [-174.69512417438608, -100.4777188555794], [-185.70965495123244, -97.40020136512905]]]}, "properties": {"id": 19, "height_median_m": 6.0, "building_count": 38, "area_m2": 2076.893099122699}}, {"type": "Feature", "geometry": {"type": "Polygon", "coordinates": [[[-147.178068380446, -17.681205388169257], [-147.06636493653323, -17.307806119466793], [-239.4222527271493, 9.811040982267743], [-228.42369396903217, 48.21957014840106], [-139.02008767405522, 22.518221713099578], [-137.64571598165918, 27.06515744291229], [-122.34018927724543, 22.775940123650823], [-119.03807909068777, 21.850557516712605], [-118.69835665133942, 21.75535377764922], [-118.69864994754359, 21.754389004317737], [-99.78736546845334, 16.397089576599956], [-91.76710450233487, 14.151792800280381], [-80.86403297811302, 50.00261196719769], [-77.13007488774593, 62.46723351948079], [-72.80107181938025, 61.22453690490352], [-69.41627219333562, 60.252886164564345], [-69.09384040145285, 60.160327926587385], [-69.0979013780659, 60.146062752820406], [-57.54230472405998, 56.80571877373457], [-47.81816887147166, 54.02318326144758], [-41.82750393068731, 52.3539334408233], [-38.64329536116215, 51.482997058668126], [-40.796270051323376, 43.46707280921002], [-41.11244818127448, 42.24296597878013], [-41.9780337624129, 38.89178788699678], [-42.063580004985795, 38.56058933171629], [-42.066157902871154, 38.56129655219045], [-51.79267353928088, 2.0454963230619985], [-59.44023755571424, 4.211943048131523], [-62.753678635750596, 5.150594043550511], [-65.94722572532226, 6.055280767151743], [-69.86373301738102, -7.364278542571598], [-66.5380041245264, -8.300001440663385], [-68.20751565882642, -14.09362675858863], [-75.28063253320343, -38.36396503818808], [-109.7414938466087, -28.3198399648642], [-113.05823774685305, -27.353126153875404], [-113.3854559120303, -27.257753605075376], [-113.38471964515027, -27.25531746082575], [-123.46138961902828, -24.239159481447917], [-127.97794868175812, -22.90405272952503], [-131.96521155392702, -21.774517550332863], [-132.06467591798693, -22.112639722307946], [-136.52598555445482, -20.78863161243809], [-145.36841712330062, -18.228030568962808], [-147.178068380446, -17.681205388169257]]]}, "properties": {"id": 20, "height_median_m": 6.0, "building_count": 19, "area_m2": 9335.747771966368}}, {"type": "Feature", "geometry": {"type": "Polygon", "coordinates": [[[-138.54698113636482, 32.99202443202897], [-225.4726277010519, 58.3460390863906], [-214.37463192222285, 96.97925306874492], [-127.34878322971302, 71.51270194251256], [-138.54698113636482, 32.99202443202897]]]}, "properties": {"id": 21, "height_median_m": 8.0, "building_count": 1, "area_m2": 3638.5349919851305}}, {"type": "Feature", "geometry": {"type": "Polygon", "coordinates": [[[-173.7064867775689, 239.84343381121414], [-175.70308659786923, 244.01107532249583], [-173.85688719868838, 250.60894895997927], [-178.90759733548938, 251.8012779176664], [-177.83437922423678, 255.71985474219838], [-172.8437887979085, 254.30609105734334], [-166.52490825611318, 277.20104501062036], [-171.43576361863302, 278.64786791454156], [-168.40524190410858, 289.778815558759], [-140.99542002174167, 282.458451364098], [-139.63372843751057, 286.47898462702835], [-159.5372110686799, 294.7101891983098], [-144.1429706673528, 353.231600886498], [-109.96699067343172, 344.146254938297], [-114.66287072383707, 326.2164425410783], [-119.37936565682675, 327.4412158234447], [-130.0078130181366, 287.3328620323161], [-133.50146578963566, 280.4570347013933], [-115.06102147729446, 275.53212972181933], [-107.692700395631, 302.8067207631727], [-102.20666055933357, 301.28431995087624], [-109.37701287517463, 274.015358147642], [-95.76412523804937, 270.43059274596675], [-89.52487942933024, 268.7422439983372], [-89.5238495459462, 268.74634067420186], [-87.94958358453033, 268.30037339232774], [-85.79005230343789, 276.6426188830979], [-71.94847076252641, 273.0141158116752], [-84.01152951621458, 226.58410565136032], [-98.36769560684904, 230.34667870183694], [-100.41243746875124, 222.13735831919158], [-107.09896304559508, 223.74455673029613], [-110.4860937853665, 224.55870020146094], [-110.81867813445542, 224.63864142523568], [-110.8181608190672, 224.64072240872457], [-120.39913138145813, 227.0055293796555], [-136.83489173346695, 230.97005994443114], [-140.24783323708462, 231.7933081919775], [-140.5824112473154, 231.87401299172225], [-140.58216641636795, 231.8750350970131], [-150.2636437714533, 234.24122189618734], [-170.5964567296018, 239.13861178974622], [-173.7064867775689, 239.84343381121414]]]}, "properties": {"id": 22, "height_median_m": 3.0, "building_count": 8, "area_m2": 6767.501960198165}}, {"type": "Feature", "geometry": {"type": "Polygon", "coordinates": [[[-184.6280575088917, 332.01313464815166], [-195.61507539604432, 290.5890313708183], [-204.34572351690088, 293.00197686704155], [-193.36056183919243, 334.305920231804], [-184.6280575088917, 332.01313464815166]]]}, "properties": {"id": 23, "height_median_m": 3.0, "building_count": 1, "area_m2": 387.0219146920863}}, {"type": "Feature", "geometry": {"type": "Polygon", "coordinates": [[[-181.46115275564247, 286.59203438335436], [-187.2582601969558, 287.98162084727727], [-168.50100861534634, 356.0190128518709], [-164.29832859150426, 354.82845304052375], [-181.46115275564247, 286.59203438335436]]]}, "properties": {"id": 24, "height_median_m": 3.0, "building_count": 1, "area_m2": 363.8470483318172}}, {"type": "Feature", "geometry": {"type": "Polygon", "coordinates": [[[-132.83037355101666, -210.39254849276142], [-132.82817004727116, -210.38443361395733], [-134.40000990157156, -209.93915361391632], [-133.91651709010105, -208.15858683284003], [-130.22526809241066, -194.54251712323585], [-129.2967390342539, -191.11741159777264], [-129.20853686069685, -190.79205640360365], [-129.2068240304327, -190.7925000338565], [-127.2371431437741, -183.67157747711872], [-126.94251973363603, -182.44745868078886], [-122.0286165652066, -164.51799288869776], [-121.04751542147913, -161.07163511953905], [-120.55053818720341, -159.0443077688516], [-120.45155698355767, -158.8199879681642], [-119.57473446661358, -155.39770620839403], [-119.18026471239892, -153.83323837610533], [-118.68813492813558, -152.1602774855543], [-112.9920131261503, -131.23872023512246], [-112.51176330340388, -129.33404847988248], [-110.59728531556374, -129.87639301719122], [-108.48301611154946, -130.4208862560827], [-108.38050243032355, -130.4208862560827], [-108.09322643557745, -130.50226748240115], [-100.08417408998432, -132.771118738522], [-96.74807228566031, -133.66059681691678], [-96.41228402258474, -133.74707324042805], [-96.41300511405359, -133.74993309063228], [-94.72288088840251, -134.20055736310866], [-95.32203286294965, -136.10154770534038], [-111.62800481910115, -195.9848529009587], [-115.33976464238606, -209.67658281317344], [-116.24542242091933, -213.01732205464722], [-116.33785361838221, -213.35827703324935], [-116.33799435016786, -213.35823716592486], [-116.73095431385372, -214.80539716584806], [-120.44731142115131, -213.75260575814684], [-120.4608617648248, -213.80442713783177], [-120.80047505651777, -213.70821949546578], [-121.13660501878218, -213.6216550733504], [-121.1344976208816, -213.61359562708213], [-125.03726524595753, -212.50799675596892], [-132.14590107272713, -210.54308037626257], [-132.15463288598144, -210.5752371658498], [-132.49103397422093, -210.47993949530454], [-132.83037355101666, -210.39254849276142]]]}, "properties": {"id": 25, "height_median_m": 9.0, "building_count": 25, "area_m2": 1530.374396156509}}, {"type": "Feature", "geometry": {"type": "Polygon", "coordinates": [[[-119.96610143297544, -302.55647552184337], [-113.87472135145626, -304.18795361153343], [-114.16891860046613, -305.0769340893005], [-108.65197143828354, -306.5281734001223], [-108.94669141095495, -307.3074134001266], [-103.46075959181228, -308.7504940891164], [-103.75547956448584, -309.64105408924087], [-98.23853240195383, -311.0922934000625], [-98.53325237462955, -311.8715334000782], [-93.04732055583564, -313.31461408906773], [-93.34256325217288, -314.2067536115495], [-87.9644613413756, -315.647191626279], [-88.16056369951254, -316.42493397061776], [-82.63388151937872, -317.87873408904164], [-82.92912421606567, -318.7708736115237], [-77.55102230490645, -320.21131162625704], [-77.74750228692864, -320.9905516262953], [-72.35410437121243, -322.43508643008664], [-72.55195237354775, -323.33184708433794], [-67.12621462729028, -324.89682793747187], [-67.32077726625415, -325.5582300633459], [-61.9406653347628, -326.9992064300596], [-62.1385133374511, -327.8959670843179], [-56.71277559152852, -329.46094793735523], [-56.90925557319454, -330.12886793764625], [-51.528594319457575, -331.68084708464914], [-51.72338304628308, -332.5637413455801], [-51.68828438424732, -332.57297408908954], [-51.68880710791713, -332.57455361146543], [-46.29741921193307, -334.01855006373745], [-46.49581653699931, -334.69298793765466], [-41.11515528359718, -336.244967084561], [-41.30994401007598, -337.12786134548884], [-41.28672628564457, -337.133968794665], [-41.28717967593483, -337.1355100633479], [-35.88398017606726, -338.5826700636592], [-35.90951143213942, -338.6694617886907], [49.36300367928418, -364.41288249115473], [49.264852312476975, -364.8577607951018], [49.29019382126533, -364.8653763583364], [49.191933115394576, -365.188272430125], [49.113618745368306, -365.543238084148], [49.08640225950889, -365.53505905776024], [46.13906563717074, -375.220348911503], [-38.82100533343243, -349.563522224638], [-38.92147907807762, -349.9506161800949], [-44.99523047460736, -348.1987245320289], [-44.79875049259229, -347.4194845320188], [-50.21491630180328, -345.85726457498896], [-50.01843632013725, -345.18934457509334], [-55.39909757367237, -343.6373654281487], [-55.20398561267984, -342.75300608256845], [-60.61698669665431, -341.3032208861453], [-60.42050671463925, -340.5239808861354], [-65.81390463032439, -339.07944608274715], [-65.61742464865834, -338.1888860826226], [-71.03042573249252, -336.7391008862371], [-70.83394575082649, -335.9598608862271], [-76.22734366677285, -334.5153260827688], [-76.0308636847578, -333.6247660826444], [-81.44386476847107, -332.1749808862913], [-81.24738478679927, -331.39574088625835], [-86.64078270265576, -329.95120608242945], [-86.44430272098971, -329.0606460827004], [-91.85730380493308, -327.6108608858894], [-91.6608238229238, -326.83162088590234], [-97.08912091169341, -325.3777389008453], [-96.79492366267773, -324.48875842345547], [-102.27112046430047, -323.0482385416528], [-102.074262859111, -322.267500885994], [-107.50255994797342, -320.81361890091205], [-107.20617639674367, -319.9180320391678], [-112.69602446548983, -318.36283572498814], [-112.50098787975867, -317.69982244894555], [-117.9159989839519, -316.2494989009662], [-117.61961543272405, -315.3539120392278], [-123.10279396479169, -313.80060511055945], [-121.43444784526802, -307.68436104020674], [-121.43824231123605, -307.68336290155975], [-121.3409943906844, -307.34175579135456], [-121.3226921165634, -307.27465869785783], [-120.9230711682196, -305.80962741502407], [-120.35764565292583, -303.8875027983441], [-120.26372349525046, -303.55757824380646], [-120.26082140599945, -303.55835552169157], [-119.96610143297544, -302.55647552184337]]]}, "properties": {"id": 26, "height_median_m": 3.0, "building_count": 7, "area_m2": 2075.6432472124848}}, {"type": "Feature", "geometry": {"type": "Polygon", "coordinates": [[[-40.11289955368541, -306.1950977130257], [-41.607569410685485, -311.4172632969134], [-42.570089347237925, -314.78017214459595], [-42.94600688800461, -316.0935749904334], [-42.94600688800461, -316.69611802157857], [-113.88079619206535, -296.0947032881532], [-113.283370112447, -294.19918886945624], [-110.83016926893461, -285.62805126648925], [-40.11289955368541, -306.1950977130257]]]}, "properties": {"id": 27, "height_median_m": 6.0, "building_count": 2, "area_m2": 801.9957546241401}}, {"type": "Feature", "geometry": {"type": "Polygon", "coordinates": [[[-36.06246735292332, -304.0013213997325], [-34.64322636917543, -298.86400436754394], [-107.48763802831802, -277.7291964976964], [-104.55480124984928, -267.6446249371376], [-104.55480124984928, -267.1171848324164], [-34.66039080094956, -287.3960902745173], [-35.63084006721192, -289.5954066937336], [-26.893606566825078, -292.0705413721405], [-16.481284297540824, -294.96455097717643], [-4.083484267077093, -298.3881315058053], [-2.274945508098281, -292.0937490960334], [-2.0811459590175945, -291.3251396970145], [-1.9039542572177663, -290.52200524861644], [64.88605005680586, -309.52701058878284], [64.78781006579837, -309.972290588845], [64.79742476781506, -309.9750264392922], [64.62620289221925, -310.65409274014195], [64.62620289221924, -310.65409274014195], [64.42972291055305, -311.43333274015254], [64.41955412729995, -311.43043922663935], [61.66868531217523, -321.115804077069], [-5.466732664091986, -301.8994745139218], [-7.384083895645909, -308.72775262981463], [59.896277406639264, -327.9007772798117], [56.95175991203931, -338.1487849777537], [-9.639417338537434, -318.80651220642665], [-7.625464821857233, -311.7911768078871], [-10.963745645550734, -311.0031036885947], [-15.862413370168015, -309.6467768591743], [-18.002152139446977, -316.516564473384], [-13.09235535054878, -318.00016552974665], [-14.279518771851599, -321.9013221714427], [-20.483016578719074, -319.9621627873981], [-35.6767328593342, -315.57779602116875], [-32.529608122987234, -305.0344146165061], [-36.06246735292332, -304.0013213997325]]]}, "properties": {"id": 28, "height_median_m": 3.0, "building_count": 9, "area_m2": 3004.9699131376356}}, {"type": "Feature", "geometry": {"type": "Polygon", "coordinates": [[[-12.015309494361546, -325.8098246858269], [37.849827055060295, -340.3843598559762], [54.699574660130274, -345.271304929071], [54.19842956059515, -346.8329454371024], [51.45150294435524, -356.51678227501986], [-15.240259495608244, -337.17411984928333], [-12.394059111549382, -327.3834760285226], [-12.015309494361546, -325.8098246858269]]]}, "properties": {"id": 29, "height_median_m": 6.0, "building_count": 2, "area_m2": 815.2569594099136}}, {"type": "Feature", "geometry": {"type": "Polygon", "coordinates": [[[-101.87769326186947, -242.53775914685977], [-99.54408751028507, -243.30901623588684], [-99.25313293748698, -242.10014094369066], [-92.29174094985275, -244.07220483760338], [-92.29930920340485, -244.10364986576383], [-76.6484358142988, -248.6124679110819], [-76.63087899685262, -248.5577583322763], [-65.57103244674957, -251.91464916086906], [-65.5297600245265, -251.78603833245248], [-54.577301017083514, -255.11033483307372], [-54.552755952211044, -255.00835354362542], [-46.553259235188584, -257.393768577343], [-37.278992634786995, -259.99780619826225], [-37.296157955368585, -260.06912568899486], [-26.17622706982163, -263.21924483791827], [-26.195277466255266, -263.29839655343704], [-15.641101382431641, -266.342606256197], [-14.999372765923793, -266.342606256197], [-15.43618743561409, -267.58004043581593], [-8.092986363045275, -269.87546113456756], [-7.487781640033565, -267.58951528732996], [-1.9364884845618104, -269.2511333804248], [70.49889220431919, -290.1624403630798], [70.20411434684172, -291.27585900100274], [70.21108057864176, -291.277875064148], [70.11562622262531, -291.610091455165], [70.02491453106438, -291.95272264505746], [70.01777324881908, -291.9506559214172], [67.2670535037493, -301.52417592137164], [-11.950617948566052, -278.5981762629521], [-18.150586572769665, -276.8082579790161], [-18.44039714635019, -277.4650518722825], [-24.168747439596622, -275.84229125128644], [-24.142550108678407, -275.7383925845018], [-40.39224433380593, -271.1350840325344], [-40.39355699406056, -271.140290045728], [-51.172379856389156, -267.9139630280931], [-51.20030122918106, -268.0246992481981], [-62.23855158056225, -264.67436330974255], [-62.25518613146819, -264.806308633792], [-68.68361269497154, -262.9224303645639], [-68.66183777233094, -262.8484080330617], [-79.78562751182254, -259.6971957251921], [-79.762956744681, -259.62012803280726], [-90.9387828788161, -256.45417455049426], [-96.87063688541991, -254.80324508874907], [-96.84281449553576, -254.69815589463403], [-104.73061753478589, -252.4636528528122], [-103.264625443875, -247.0054922877807], [-102.96778526613141, -245.996404798618], [-101.87769326186947, -242.53775914685977]]]}, "properties": {"id": 30, "height_median_m": 6.0, "building_count": 4, "area_m2": 2060.5158463894113}}, {"type": "Feature", "geometry": {"type": "Polygon", "coordinates": [[[-32.13025204384142, -7.113073098132955], [-32.042337200745855, -6.783296127266725], [-31.95342511112835, -6.43554560963941], [-31.949901433058507, -6.436560736583129], [-29.19317163814668, 3.9041959462729516], [-26.05804240920567, 15.937030248305486], [-13.828617637525275, 12.50123876898221], [14.310071492223365, 4.614446828317594], [12.644266506604566, -1.402265328755883], [9.303402542599452, -12.647955984780067], [4.389205803996731, -29.46943539182686], [5.3649843958474275, -29.80114452116287], [2.8236505895123076, -39.016170760259946], [2.7253249119372, -39.4618391410053], [-3.56526945713414, -62.071426166738384], [-3.761672389316344, -62.739084243471275], [-18.77325011227639, -58.54477093743206], [-9.83358876380282, -26.15129529530256], [-20.54422482272409, -23.180777534056173], [-22.225757333505378, -29.2332802207419], [-46.37766209320539, -22.47726868946543], [-44.52331284714355, -15.679127435323533], [-34.99950119528727, -18.349274547463217], [-32.12690070471827, -7.114038576412757], [-32.13025204384142, -7.113073098132955]]]}, "properties": {"id": 31, "height_median_m": 3.0, "building_count": 5, "area_m2": 2189.861723170959}}, {"type": "Feature", "geometry": {"type": "Polygon", "coordinates": [[[-50.60851064339282, -37.948486989651315], [-48.15882789247697, -28.927000787694343], [-42.67011057300399, -30.450144613655056], [-45.801626842425, -41.923489167113885], [-51.291700584110565, -40.3999689283189], [-50.60851064339282, -37.948486989651315]]]}, "properties": {"id": 32, "height_median_m": 3.0, "building_count": 1, "area_m2": 67.67304755482962}}, {"type": "Feature", "geometry": {"type": "Polygon", "coordinates": [[[-66.24960532726229, 139.9839690390788], [-66.24965573451986, 139.98377864357008], [-51.7461552751928, 136.06560868430313], [-49.19878171019526, 135.28846340403032], [-48.71337405292852, 135.17845610466742], [-38.54512296245609, 132.44954078827624], [-28.800643570284596, 169.99197622799386], [-25.07655862949523, 184.47657464578865], [-21.19826850161319, 183.3779099040509], [-15.062619130716095, 181.773470498388], [-15.055894287789538, 181.79913857943993], [-14.760551664800149, 181.7203937436486], [-14.35107237613388, 181.7203937436486], [-14.380599258026662, 181.60945342231958], [-4.55491780622763, 179.06072787107883], [-8.376748113060172, 164.47316781148373], [-18.18932008756588, 126.2865265084752], [-21.574382337499365, 127.1526660981055], [-27.83585730650068, 128.79000822295808], [-35.58158687773222, 99.90360488244036], [-39.36102174351379, 100.8824944317631], [-42.7942823573774, 101.8828770113433], [-43.773608595513174, 102.10482042918323], [-46.23724637827758, 102.77481762007955], [-59.199236765114925, 106.33549500459081], [-61.558353591116514, 106.89241536430684], [-64.31481797493059, 107.67328273912698], [-74.19249323509192, 110.36386514273742], [-75.77065312918488, 104.5782484884004], [-78.81574407822251, 93.55883059559139], [-79.79027879959261, 89.8778718809619], [-123.00854944974, 101.97962113779452], [-121.93047458668039, 105.76662281829839], [-109.46115827036076, 151.63150571839594], [-69.9805849641536, 140.98964273536325], [-66.58507905940377, 140.0743949167419], [-66.24960532726229, 139.9839690390788]]]}, "properties": {"id": 33, "height_median_m": 3.0, "building_count": 7, "area_m2": 4689.531053807793}}, {"type": "Feature", "geometry": {"type": "Polygon", "coordinates": [[[-51.000754387768175, 343.0534896508734], [-51.00094457081388, 343.05287252386887], [-30.18648775399045, 338.9634052162907], [-27.014040545196423, 338.34010674352464], [-26.64657300027601, 338.26790949500776], [-26.64686687038134, 338.26686706968434], [-14.371447095615066, 335.81874029242766], [-14.794512810856041, 334.2435881358504], [25.395139614267322, 326.4004778286674], [27.125742910255696, 323.5815090626404], [23.649254881498273, 310.4127928191248], [19.239747298724886, 293.4924729149836], [19.188738231284123, 293.50503826052415], [12.467368194650485, 267.8756641125088], [11.563924080870278, 264.4307254931954], [11.478309340227561, 264.1042664218218], [11.476943277467297, 264.1046022966886], [-2.3844070850339376, 212.11698196514277], [-4.43762199184557, 204.20658624447492], [-41.95535229508315, 214.29633100630335], [-33.21967496796806, 247.2547534670671], [-32.53202770838953, 249.59236238467494], [-26.23856175870109, 273.4002655854727], [-26.297657838423934, 273.4148759856874], [-26.140624055003872, 273.77075958480026], [-26.05964304571426, 274.07710715952027], [-26.023009507620703, 274.06805020252176], [-19.972783712533843, 297.2649827729004], [-36.76910928016458, 301.0715119570641], [-40.10652053927973, 290.1711286625569], [-71.0336816654788, 296.2365937438349], [-72.0399482450578, 296.2365937438349], [-73.10017623777779, 296.59701085822945], [-74.02951155071251, 297.065042058925], [-74.8700592774409, 297.6603302663268], [-75.62055904679296, 298.51075414720594], [-76.0445749219903, 299.4716957513612], [-76.35502707203403, 300.52705619136003], [-76.45984243467143, 301.59599374384976], [-76.35521256806746, 302.66303955342], [-65.24640838412567, 341.98620381718166], [-64.27917560438792, 345.63958204124884], [-54.470503962935254, 343.72925470053286], [-51.38018290179812, 343.12738677891423], [-51.000754387768175, 343.0534896508734]]]}, "properties": {"id": 34, "height_median_m": 3.0, "building_count": 9, "area_m2": 7397.086164272383}}, {"type": "Feature", "geometry": {"type": "Polygon", "coordinates": [[[-99.33798738015768, 312.07764734570657], [-104.23887040341761, 313.3691365057306], [-96.69150625052075, 342.21871329508144], [-91.79431326789773, 340.7991448660102], [-99.33798738015768, 312.07764734570657]]]}, "properties": {"id": 35, "height_median_m": 3.0, "building_count": 1, "area_m2": 151.24960891060238}}, {"type": "Feature", "geometry": {"type": "Polygon", "coordinates": [[[9.900221589387971, -586.1927816290759], [10.401421284661057, -584.6309709928399], [11.38168962562456, -581.2986171103522], [11.378532762326774, -581.2977020180763], [11.481314358650073, -580.959949776097], [11.677913871088691, -580.2916234401409], [13.248352344334453, -575.1754688432717], [13.83551537709442, -572.9576690717997], [14.838172274555081, -568.9811298151941], [14.936412265541984, -568.869809815103], [15.2005506722339, -567.8222363662052], [64.69897562955433, -582.0419359197463], [64.50249564753874, -582.8211759197585], [64.51221288280865, -582.8239674462798], [64.41842298736603, -583.1546082574546], [64.3312601746715, -583.5002961462073], [64.32018579325198, -583.4971147444422], [60.88256607798115, -595.632522861617], [21.877902557234677, -584.2768967491614], [18.82482225255163, -594.6556303921938], [47.16533916414203, -602.8528645955154], [47.72914791742257, -600.8870917248402], [86.22412616925581, -611.9904488576982], [85.68113400895965, -613.8836426963638], [114.38864208271616, -622.2097030288032], [117.2881946360633, -611.8052747888449], [111.6873512583078, -610.2464708579554], [111.70411244268657, -610.1871182769553], [78.18349879375438, -600.5574572253005], [81.79140948825896, -588.4440341450569], [81.72129098524617, -588.4238862191216], [81.81976091266938, -588.0891445655675], [81.91250714341858, -587.7505058242288], [81.91884179054702, -587.7523260285355], [82.11553197179326, -587.0836914694254], [130.84572919007832, -601.1987995195518], [130.53298475336848, -602.084760276178], [130.43736086818998, -602.5181825849038], [128.86275361594505, -608.2054981335694], [128.0781829011962, -610.9713728189424], [127.19267241608587, -614.3283081315557], [127.10391531971597, -614.6677471377939], [127.10201155547114, -614.6672078283084], [126.2097246610917, -618.0038016262455], [125.32171962091083, -620.8967332173148], [123.54751754366833, -620.399531231037], [117.32754834409782, -641.9667699136597], [114.22413798166116, -643.664443250515], [108.73908767819297, -642.0801386800796], [110.50727222225419, -635.9580071139329], [82.99952702986852, -628.0541297308642], [83.00451068233366, -628.0369789964602], [45.03872990246245, -617.0862617349758], [14.808406093050113, -608.4331711383516], [13.136895693459556, -614.3381849163778], [7.150788283229812, -612.5212782374886], [5.843237096373567, -609.9284029287268], [12.30883944860554, -586.9024020981158], [9.900221589387971, -586.1927816290759]]]}, "properties": {"id": 36, "height_median_m": 3.0, "building_count": 17, "area_m2": 3477.138305988619}}, {"type": "Feature", "geometry": {"type": "Polygon", "coordinates": [[[19.42372167981327, -553.360454137474], [19.538188243504365, -553.0145687127608], [19.6331022444008, -552.6919151838428], [19.817032827216384, -552.7415389293184], [20.61336600582817, -549.583279951241], [21.2997928657728, -546.8053510772132], [21.891238513718378, -544.1245800823673], [21.98083309670028, -543.8301618952299], [22.97180096555932, -540.4513711217693], [23.049292217505702, -540.1001363095486], [23.07318658129201, -540.1070283164188], [23.171426572299765, -539.7730683164702], [63.38635316712843, -551.3725213445853], [66.74665099187938, -552.3417539176392], [67.0696129511327, -552.434907937637], [67.06872466803378, -552.4379275940989], [72.66574756162717, -554.1069354109114], [71.49023331944575, -558.2241074172291], [68.83841390012007, -567.5855009326337], [66.33809618075696, -566.8128049537047], [29.833664733227533, -556.3337332904805], [28.36014908709795, -561.2315333609935], [17.963427184032934, -558.2565391460629], [18.456676727223748, -556.5797717123127], [19.456634601933228, -553.3693339139916], [19.42372167981327, -553.360454137474]]]}, "properties": {"id": 37, "height_median_m": 3.0, "building_count": 4, "area_m2": 777.5535676481198}}, {"type": "Feature", "geometry": {"type": "Polygon", "coordinates": [[[37.70535703964456, -518.7313941215381], [66.43586398322113, -527.0674775052779], [85.63120740499862, -532.6185347869808], [85.28549891933667, -533.8720941413553], [143.01060222421452, -550.7093240954747], [143.37218902243325, -551.3922069346943], [144.32188461899506, -553.0662045489066], [143.01096909718893, -558.5509626071764], [141.04500930659296, -565.4568772944556], [140.3641756246925, -568.0284846658147], [138.7979762891992, -567.564635175966], [138.7979762891992, -573.6399969321802], [138.68928228085016, -574.1326605363607], [137.79928476095972, -577.2702000392185], [137.60287284072854, -577.8266072309762], [136.16219779632215, -582.9281430348691], [136.14313361885345, -582.995650682972], [136.03307277195762, -583.3853841993719], [135.14796280429618, -586.2828142112635], [133.97099200794443, -590.1727046501838], [133.2912131398867, -592.7403278384886], [123.47375210667917, -589.8694655305857], [125.24178196556295, -583.859171288656], [88.24439965451829, -573.1576869787428], [86.14677340914858, -572.4974338143055], [88.79464269828445, -563.2653855628678], [89.97332749586886, -559.0156889634219], [91.9858547101225, -559.6864189592997], [129.66401500749214, -570.4952188822649], [131.6365726151136, -563.0445832528184], [81.1352025913339, -548.3745392753275], [81.11844756228827, -548.4327217220591], [33.19214163084603, -534.432482757595], [36.334898634696664, -523.634022189247], [37.120146938680975, -520.8534004567053], [37.70535703964456, -518.7313941215381]]]}, "properties": {"id": 38, "height_median_m": 3.0, "building_count": 10, "area_m2": 2600.7402675999324}}, {"type": "Feature", "geometry": {"type": "Polygon", "coordinates": [[[86.5417037412359, -500.47401401137637], [92.25223208966278, -480.09772774724246], [89.7799597894821, -479.45124179948135], [100.18884664758005, -441.9121443723888], [102.62923504559717, -442.6864311929327], [108.33856111856878, -422.4520835070237], [110.10302312800167, -422.89639206902785], [111.18680940953885, -418.877203809349], [119.23087070468156, -421.2006543474543], [119.85112279377157, -419.32642880540385], [125.81097560245442, -421.07730200044665], [125.32066639166057, -422.8551921108088], [126.50770858797019, -423.19146437639716], [126.50233245214984, -423.2092715650733], [133.37398256758726, -425.1940822934581], [132.2912401474358, -429.20939942603246], [134.06330625875603, -429.7671786115456], [129.25504844823558, -446.80806208110175], [128.5738097109952, -446.58750745339273], [127.49608519104322, -450.6952355332893], [122.87146075425382, -449.35727056678786], [122.8683760169627, -449.3680746843092], [122.5287744813792, -449.2581268992589], [120.48464806383143, -448.6667341124151], [116.59259847483241, -447.60827401403634], [116.60804752776605, -447.5571026504909], [110.20144884245329, -445.79125517157775], [104.49965205521492, -466.15968501842985], [100.36624084390394, -481.4090962872283], [103.90092786530703, -482.4104231290472], [103.85013093671742, -482.6022904816085], [107.49057749861255, -483.42732010105027], [112.27463158585815, -484.78257496223614], [112.27574924162438, -484.7787755693798], [112.60992831362154, -484.87755978305], [112.94816265155335, -484.97337678727746], [112.94703520375315, -484.9772094674706], [117.46362574822214, -486.31232552587375], [116.28583713315209, -490.4273527627037], [117.0717570601742, -490.64999276253957], [112.1664001582422, -507.78861763760057], [110.39567736889093, -507.3427325507929], [109.21355870296216, -511.36126254117215], [101.17888543592146, -509.0490245214406], [100.55977471796265, -511.0367247029923], [99.1951566801185, -510.59492242852343], [98.14099780331851, -514.3956462561663], [97.62204115052513, -514.3956462561663], [94.88304701664372, -513.4904082393653], [94.98373859056254, -513.170933852967], [95.88052144798357, -509.61429125111164], [94.6993561190821, -509.27968381884295], [95.18250818064628, -507.41824983601566], [94.58404288322647, -507.30522533283573], [94.61492858782948, -507.19704990304456], [87.1244844912285, -505.0452265940372], [88.3058383103648, -501.0292966481946], [86.5417037412359, -500.47401401137637]]]}, "properties": {"id": 39, "height_median_m": 6.0, "building_count": 6, "area_m2": 1802.831892972222}}, {"type": "Feature", "geometry": {"type": "Polygon", "coordinates": [[[63.73129098597245, -498.22632216648515], [58.28004245238369, -496.65754846586975], [44.29701340468622, -492.5708230829759], [56.226571118583294, -450.6187198995962], [68.45874848117819, -407.5294501931064], [68.94502067868287, -405.73864772380927], [75.22264391317644, -407.61060759388846], [74.94078888557566, -408.568754109874], [79.22075439194398, -410.185359039416], [79.54197426846294, -410.27635608735653], [79.52756067898542, -410.32793292160915], [87.32167389542509, -412.5358949623205], [87.32338977357527, -412.5300619541771], [87.65798601222924, -412.6311674284901], [87.99520496111931, -412.72669678736406], [87.99348445627479, -412.73254552363244], [89.46708431999146, -413.1778255236946], [88.18889218940947, -417.52295055825704], [86.71897925745658, -417.07878464419366], [78.95941185476678, -444.55598089896387], [78.782269446079, -445.3588919255509], [77.58862069354808, -445.00295107323126], [75.70907440854202, -449.26254210800806], [75.62409583310054, -449.58104943971847], [75.57478834575407, -449.5668728466069], [75.37675613560933, -450.01567064087186], [68.85969401975579, -448.05409214492937], [68.05067606740333, -450.80429227050416], [67.82077701405117, -450.73730434446514], [66.26093057759314, -457.80742328686125], [72.81389903326587, -459.7200400034783], [72.46715470843331, -460.5058621080997], [71.28335452995127, -464.9428514802628], [73.05711727549233, -465.50116470175374], [63.73129098597245, -498.22632216648515]]]}, "properties": {"id": 40, "height_median_m": 9.0, "building_count": 9, "area_m2": 1706.4724409597404}}, {"type": "Feature", "geometry": {"type": "Polygon", "coordinates": [[[50.358711709725426, -237.15179760061565], [50.35871170972541, -237.15179760061565], [55.081689583693596, -240.52915426861836], [58.851365092245025, -243.2248134596524], [65.76934523632421, -248.17179542573257], [70.22250099340623, -242.0287607753405], [78.661373759007, -244.1025458086358], [85.12021193849792, -248.23412082648267], [73.97922769265908, -262.943206149163], [61.02213119847479, -253.82241527152945], [54.24283985220539, -263.5083010761815], [41.587834443027305, -254.53126784339977], [48.42153987463171, -244.806786604565], [43.23387301402617, -241.02300782338125], [37.30244629581991, -249.28672569257063], [30.13324037927978, -247.19776434785553], [24.491505949716572, -243.29099561635823], [40.41919071266523, -220.67344145302164], [50.519481930339374, -227.87086202104626], [46.09834873042674, -234.1052524546912], [50.358711709725426, -237.15179760061565]]]}, "properties": {"id": 41, "height_median_m": 3.0, "building_count": 1, "area_m2": 983.2923659852542}}, {"type": "Feature", "geometry": {"type": "Polygon", "coordinates": [[[59.374527481457235, -237.9553199229756], [60.32828248655129, -228.34873134063466], [69.76847328598753, -229.31026753424027], [68.81472920830463, -238.79666506657165], [59.374527481457235, -237.9553199229756]]]}, "properties": {"id": 42, "height_median_m": 3.0, "building_count": 1, "area_m2": 90.98051671024109}}, {"type": "Feature", "geometry": {"type": "Polygon", "coordinates": [[[48.964399185522204, -174.82458230487592], [48.96870801370499, -174.8089897399351], [45.72526893778506, -175.14310625543845], [52.77890693600416, -149.89054377714348], [55.73957753944392, -152.08410898466826], [60.14542537328935, -155.2426025144422], [60.14908465259003, -155.22959392373303], [60.55466194923808, -155.535978755753], [60.750562216413186, -155.67641704361225], [60.74881053087284, -155.68264421524174], [62.42744041885686, -156.95072983173023], [63.8128624265228, -162.8679767755353], [60.01748022384152, -163.77338991202078], [58.12491136050432, -170.60418507051995], [59.70208757988394, -171.05097678731516], [58.94638115787614, -173.6199480831658], [55.37729989652859, -173.97679640426512], [49.71817140637871, -174.7249335671343], [49.71622254772278, -174.73198599620875], [49.483420841980674, -174.7559676073644], [48.964399185522204, -174.82458230487592]]]}, "properties": {"id": 43, "height_median_m": 6.0, "building_count": 3, "area_m2": 254.4629066856546}}, {"type": "Feature", "geometry": {"type": "Polygon", "coordinates": [[[23.466906042059772, 22.497403018626418], [23.56327427618954, 22.834360028932622], [23.656840797736766, 23.171143064275046], [23.65938839525243, 23.170428511458063], [27.08584824621408, 35.15124021502813], [27.862016279869625, 35.04130150208776], [28.07121062117172, 35.87096667635398], [32.84100434031516, 34.429670568647154], [37.781062399175994, 33.000446487184014], [37.58541528003954, 32.22450962300937], [49.187003491896064, 28.993648271613797], [49.09778704859346, 28.67717688480373], [70.20959183480227, 22.533094736547408], [68.84751529615275, 17.71969191894395], [147.62239157870204, -4.850025729801488], [135.34783058807898, -48.57941274949575], [136.33694286827262, -48.80357396557986], [130.3718415415726, -68.63828625624646], [130.46786275437313, -68.63828625624646], [124.34106252390708, -89.35020743461915], [116.54009126025817, -87.02399182563893], [87.99190148711826, -78.77164651847694], [86.22350755588252, -84.67185373519017], [34.86448811043735, -69.78421446752446], [36.62982846772952, -63.5477237252177], [48.09375299902946, -24.704267117932837], [46.44838340466509, -24.258422831903978], [46.44863252113143, -24.257604206313115], [37.91148104444466, -21.922544910109828], [44.87334133713761, 3.5288676078899295], [20.129318517575527, 10.474190766533834], [23.46946037514061, 22.496686576611065], [23.466906042059772, 22.497403018626418]]]}, "properties": {"id": 44, "height_median_m": 3.0, "building_count": 12, "area_m2": 9543.810777142751}}, {"type": "Feature", "geometry": {"type": "Polygon", "coordinates": [[[17.182435177900974, 191.03445463730708], [32.00649754031389, 244.69718943175528], [66.80779104264651, 235.03508771765942], [67.85189371440114, 234.86607084891764], [65.79353297376275, 226.585987145768], [65.59612713971188, 225.91491977523677], [64.90985388745956, 223.35979712129205], [53.81749162675765, 180.8263955980725], [17.182435177900974, 191.03445463730708]]]}, "properties": {"id": 45, "height_median_m": 3.0, "building_count": 1, "area_m2": 2095.6163249318397}}, {"type": "Feature", "geometry": {"type": "Polygon", "coordinates": [[[81.72415228936418, 241.39159279949254], [68.61774982523266, 244.70460495699177], [66.24061821096852, 245.2176775408057], [66.3893834167583, 246.22911143416786], [67.40167500946023, 250.05268331517493], [50.92361077319729, 254.50356946389238], [34.08160313685705, 259.0474768075282], [50.57004706187184, 320.6138816747382], [83.87010094062715, 311.8204738945621], [85.15745419381793, 316.8219226174787], [86.219874879072, 321.03548517575996], [99.81013484414713, 318.52590219362924], [102.2380642236206, 318.001865580524], [99.54306843426124, 307.985346590185], [99.58354941483651, 307.9757193942566], [99.25382988629552, 306.7494809806728], [106.39388974029812, 305.2784424543919], [113.10699309201219, 303.90497278471054], [113.94117204334285, 306.9125685908228], [114.11032012878303, 307.6792447552125], [141.2356641866154, 302.6404078150424], [144.40936667610552, 302.0508569762749], [144.77976919449594, 301.98205055345426], [144.77959107520007, 301.98139536693606], [159.61228707863006, 299.1986847734494], [158.63175189746207, 295.5320976868247], [170.36745767372258, 293.55881077779816], [189.09572920053978, 290.4097668483465], [188.78893986286042, 289.3668578823818], [187.21823674484588, 283.58240415970585], [185.34877215426715, 276.59177816608627], [185.35783173035247, 276.58984499612654], [185.25248964612825, 276.2317419249514], [185.16769373151416, 275.9146583450637], [185.14689733644605, 275.91909596618825], [174.53994974685892, 238.59025633721188], [174.12774878919254, 237.500396456518], [159.38129314644817, 241.47893200139498], [144.9319646452973, 245.274035688434], [143.40313853925375, 239.499438175258], [141.3521813709165, 232.0625465437464], [140.43446843100475, 232.2358632749629], [126.27490897543309, 235.91280058603127], [97.7127586525918, 243.35562585449804], [98.03061283799396, 244.256061807439], [98.83816360690194, 247.46419253822737], [84.34750405733024, 251.3026330740824], [82.49523240166926, 244.5121083753745], [81.72415228936418, 241.39159279949254]]]}, "properties": {"id": 46, "height_median_m": 6.0, "building_count": 16, "area_m2": 9050.737036889303}}, {"type": "Feature", "geometry": {"type": "Polygon", "coordinates": [[[120.62418240223909, -510.28943549539383], [126.44315726531238, -489.82138893490634], [126.33203976738513, -489.7854140599505], [129.66255804869445, -477.5486512012136], [130.74585794990014, -473.8660487124692], [132.23421313238583, -469.3686623328254], [132.0264230994731, -469.3013892155952], [136.9193634532709, -452.0783494798943], [142.52847882839131, -432.1375280704492], [144.29053996337092, -432.5812320690963], [145.3738511367581, -428.5638057334525], [153.5083537890653, -430.86819528775806], [154.02000213439916, -429.012928217663], [159.99520039646973, -430.6429251859705], [159.50572247038093, -432.52873074761584], [160.3984721130575, -432.7535337233222], [160.37348905223865, -432.8408210127246], [167.561960255542, -434.8772132367892], [166.48400245080379, -438.8747867686188], [168.25574127595203, -439.32092770304536], [163.44675376409205, -456.4803392664066], [163.42830493941327, -456.47511297530207], [156.88276922460258, -479.83086945514464], [156.95659408577504, -479.8517829941795], [152.08424224716222, -496.99011519847664], [146.35569986961002, -517.5852265826821], [144.58319420459176, -517.1388925505759], [143.40148295689607, -521.156037550283], [136.23978533233515, -519.1272299019363], [136.22387651766388, -519.1828130556711], [135.33154773473646, -518.8457675571973], [134.7548910253358, -520.697166044412], [133.38971910953646, -520.3656798479806], [132.31045919075126, -524.2569043858548], [130.5023386809194, -523.8471324116324], [128.98008827846814, -523.4159004015369], [130.09468995110194, -519.3742890099657], [128.79176424887447, -518.9524599539631], [129.27726900768383, -517.0819617648334], [128.38451936538868, -516.8571587895336], [128.40235724277863, -516.7948357628252], [121.21476811528628, -514.8472213460307], [122.39187991985848, -510.7345587891883], [120.62418240223909, -510.28943549539383]]]}, "properties": {"id": 47, "height_median_m": 6.0, "building_count": 6, "area_m2": 2403.1075471006707}}, {"type": "Feature", "geometry": {"type": "Polygon", "coordinates": [[[116.47752747141263, -469.6173558833147], [115.9812678162265, -469.1956058576606], [115.64278256793523, -468.6842027460881], [115.50277838085178, -468.3669130961668], [115.50277838085178, -467.538261778346], [115.85025469033458, -466.88202761761016], [116.35995980016544, -466.18894482332786], [117.14378766945224, -465.18973175057374], [117.55040462022205, -464.61378759394717], [118.957424057649, -463.24719774187], [120.55418986673898, -461.8901742303619], [121.78333922038551, -461.0777060988542], [122.46920078838318, -460.8186462563884], [123.17115613626873, -460.8186462563884], [123.7098602450114, -460.9712535110106], [123.84698655728961, -461.1266372904872], [124.33818651162922, -461.4605972904351], [124.51702068697605, -461.66324206081725], [124.63912241621169, -462.07831837618494], [124.85397452490977, -462.93042226872626], [124.54873554625271, -465.12099270472834], [124.15192670739705, -467.2567890106571], [123.85023191433459, -468.3963339168871], [123.6473619795875, -468.9710357504204], [122.949287671778, -470.7790776101471], [122.44426489071392, -471.69469880203496], [122.22829707276564, -472.0617825723976], [121.5778104135167, -472.7988772549131], [121.38133043150172, -472.9101972550275], [121.21742443609804, -473.0959262564247], [119.87114636643555, -473.0959262564247], [119.28365372705504, -472.6964982023779], [118.95384026126823, -472.44734756185045], [118.78728832798978, -472.2586203333413], [117.97469447456305, -469.9566568722075], [116.47752747141263, -469.6173558833147]]]}, "properties": {"id": 48, "height_median_m": 3.0, "building_count": 1, "area_m2": 72.38425318824139}}, {"type": "Feature", "geometry": {"type": "Polygon", "coordinates": [[[218.16548206167744, -129.56780653224985], [219.9338018977333, -130.01308653231575], [221.20300625269545, -125.21911795856688], [219.90866949899987, -123.75244877332192], [219.47129370150319, -123.13293688532531], [219.23675525970856, -122.33563980444632], [219.448088643332, -120.89881359833542], [221.8145825317404, -112.97067291556375], [227.38384156750482, -114.61147292615085], [227.1041096535142, -115.72089025616322], [224.35398434682952, -125.64683958042885], [224.32608695597776, -125.63811909902549], [221.9957443823494, -133.76308024093035], [217.3995006027304, -132.46102938368708], [218.16548206167744, -129.56780653224985]]]}, "properties": {"id": 49, "height_median_m": 3.0, "building_count": 2, "area_m2": 97.58642240763267}}, {"type": "Feature", "geometry": {"type": "Polygon", "coordinates": [[[188.12191241838764, -124.22776341067457], [189.2826538870329, -119.88731774271146], [193.6943536702937, -120.93975745037126], [192.53360581813007, -125.4117563687835], [188.12191241838764, -124.22776341067457]]]}, "properties": {"id": 50, "height_median_m": 3.0, "building_count": 1, "area_m2": 20.7368795098271}}, {"type": "Feature", "geometry": {"type": "Polygon", "coordinates": [[[201.47022566600924, -16.56886525767987], [208.03814787278947, -18.42946472791218], [207.15367930165294, -21.658871694253186], [230.0461000885639, -28.227469861263426], [222.29197444351914, -55.728188027720165], [169.7481245723379, -40.84325849514397], [177.5019484026321, -13.229504319201082], [200.5861698518534, -19.79676514837159], [201.47022566600924, -16.56886525767987]]]}, "properties": {"id": 51, "height_median_m": 3.0, "building_count": 1, "area_m2": 1587.502054215267}}, {"type": "Feature", "geometry": {"type": "Polygon", "coordinates": [[[169.04275956859772, 60.4932027641736], [158.53541810667843, 22.640075434640273], [116.11231215244818, 34.7427733494526], [126.91095228858227, 74.5952951263344], [128.30792510866934, 79.6834148132714], [128.60441107525997, 80.01937593761913], [171.1996833959093, 68.29105468018848], [169.04275956859772, 60.4932027641736]]]}, "properties": {"id": 52, "height_median_m": 3.0, "building_count": 1, "area_m2": 2087.626093661917}}, {"type": "Feature", "geometry": {"type": "Polygon", "coordinates": [[[228.68747188411245, 143.94730326551365], [239.58282411625305, 185.586983281549], [281.4207568616851, 174.04604149764543], [281.4195262276225, 174.04136808879306], [326.66577614275843, 161.5303871037682], [330.85629431042565, 177.45168785593447], [334.78622642179675, 192.48115463160116], [335.86687094006095, 196.60001223378143], [339.686870964384, 210.72494334140134], [355.3108577578817, 207.39869633368377], [363.5496398762465, 237.78945030045247], [364.4592359735636, 241.1447169898189], [364.547189768595, 241.46915597932494], [364.5781622070789, 241.46057690452386], [367.99202904679794, 254.2663173881808], [368.86532510644355, 257.35872266950696], [373.3671142175087, 256.5282991997356], [373.38220842135263, 256.58388686785685], [373.6686730076727, 256.5274337438223], [374.0922269248767, 256.5274337438223], [374.0707130751193, 256.44820434208043], [378.2206693754606, 255.6303790018851], [389.7222459112382, 253.40252671891082], [391.09649083152476, 253.06883744775078], [397.445768516838, 251.88209232963007], [400.6274564565347, 251.28740222203677], [400.9898725522449, 251.219662936778], [400.98924056319635, 251.21734603189506], [405.0153978139214, 250.43843151033093], [399.90778671538385, 231.37321192387887], [391.25467443426106, 199.5337984192815], [409.662979485979, 195.5164614055937], [412.9078066146114, 194.84794239953104], [415.61991559609515, 194.20769063588955], [408.5539230607664, 167.3680518488547], [407.2626922378932, 162.2470278287079], [407.2669922788567, 162.24584092229844], [407.17845553787265, 161.9129449083337], [407.09150593129937, 161.5681025951574], [407.08706740426845, 161.56932772678434], [400.602614142712, 137.18793962146492], [400.5083754568371, 137.21463610833266], [395.5895309376836, 119.37861582881486], [342.06630136274964, 134.37189267270784], [346.7678510058759, 152.24131647105852], [326.46885345318424, 157.8848502758863], [323.08449397149, 145.10163460217439], [316.3060135447903, 119.60965149585306], [314.84065915912134, 114.03526117629276], [272.03632176575485, 125.87103214577824], [270.9653086643138, 126.16717656818761], [227.11959692400205, 138.38053801899693], [228.68747188411245, 143.94730326551365]]]}, "properties": {"id": 53, "height_median_m": 6.0, "building_count": 12, "area_m2": 11808.353143035734}}, {"type": "Feature", "geometry": {"type": "Polygon", "coordinates": [[[184.65369478562246, 212.42133010189423], [184.65486950626516, 212.42099732015035], [185.85548421603124, 216.30805065540784], [186.33231851409545, 218.19917643462284], [190.45639851407213, 217.13102234399705], [188.82257560003617, 211.2403451280825], [188.88062306795575, 211.22390110139222], [187.47297198882072, 206.03992175533986], [188.78696580438157, 205.65279645686869], [178.37686560409313, 169.69726464334124], [172.88898319179293, 171.22017677879367], [182.4168432644976, 204.28424983368225], [182.71005974557644, 205.391770928244], [182.84109911199755, 205.91147331692883], [182.92276641791238, 206.23536601513538], [183.2362199598196, 207.47852338776352], [184.28251463324747, 210.738928701271], [184.65369478562246, 212.42133010189423]]]}, "properties": {"id": 54, "height_median_m": 3.0, "building_count": 3, "area_m2": 263.7079741191361}}]}