{"type": "FeatureCollection", "crs": {"type": "name", "properties": {"name": "wgs84_and_EPSG:32628_local_enu_m_section_centroid", "lng0": -15.422465311653117, "lat0": 28.068720614272813}}, "features": [{"type": "Feature", "geometry": {"type": "Polygon", "coordinates": [[[-15.4218, 28.0699], [-15.4212, 28.0695], [-15.4205, 28.069], [-15.4203, 28.068], [-15.4203, 28.068], [-15.4208, 28.0677], [-15.421, 28.0676], [-15.4213, 28.0676], [-15.4218, 28.0673], [-15.4222, 28.0671], [-15.4225, 28.067], [-15.4227, 28.0669], [-15.4228, 28.0667], [-15.4228, 28.0668], [-15.4228, 28.0668], [-15.4229, 28.0669], [-15.4229, 28.0669], [-15.4229, 28.067], [-15.4229, 28.067], [-15.423, 28.0671], [-15.423, 28.0672], [-15.423, 28.0672], [-15.4231, 28.0673], [-15.4231, 28.0673], [-15.4232, 28.0674], [-15.4232, 28.0674], [-15.4233, 28.0675], [-15.4234, 28.0676], [-15.4235, 28.0677], [-15.4235, 28.0677], [-15.4235, 28.0677], [-15.4236, 28.0678], [-15.4237, 28.0678], [-15.4238, 28.0678], [-15.4239, 28.0679], [-15.4239, 28.0679], [-15.424, 28.068], [-15.424, 28.068], [-15.424, 28.0681], [-15.4241, 28.0682], [-15.4241, 28.0682], [-15.4241, 28.0683], [-15.4241, 28.0683], [-15.4241, 28.0684], [-15.4241, 28.0684], [-15.4241, 28.0685], [-15.424, 28.0686], [-15.4241, 28.0686], [-15.4241, 28.0687], [-15.4241, 28.0688], [-15.4241, 28.0688], [-15.4241, 28.0689], [-15.4241, 28.069], [-15.4241, 28.0691], [-15.4241, 28.0692], [-15.4241, 28.0693], [-15.4242, 28.0694], [-15.4242, 28.0695], [-15.4242, 28.0696], [-15.4243, 28.0697], [-15.4243, 28.0697], [-15.4243, 28.0698], [-15.4242, 28.0699], [-15.4242, 28.0699], [-15.4241, 28.07], [-15.4241, 28.0701], [-15.4241, 28.0701], [-15.424, 28.0702], [-15.424, 28.0702], [-15.4239, 28.0703], [-15.4239, 28.0704], [-15.4239, 28.0704], [-15.4238, 28.0705], [-15.4237, 28.0705], [-15.4236, 28.0705], [-15.4235, 28.0705], [-15.4234, 28.0705], [-15.4233, 28.0704], [-15.4231, 28.0704], [-15.423, 28.0704], [-15.423, 28.0704], [-15.4229, 28.0704], [-15.4228, 28.0704], [-15.4228, 28.0704], [-15.4227, 28.0704], [-15.4226, 28.0704], [-15.4225, 28.0703], [-15.4224, 28.0702], [-15.4223, 28.0701], [-15.4222, 28.07], [-15.4222, 28.0699], [-15.4222, 28.0698], [-15.4222, 28.0697], [-15.4222, 28.0697], [-15.4222, 28.0697], [-15.4222, 28.0696], [-15.4221, 28.0696], [-15.4221, 28.0695], [-15.4221, 28.0695], [-15.4221, 28.0695], [-15.422, 28.0695], [-15.422, 28.0695], [-15.4219, 28.0694], [-15.4219, 28.0695], [-15.4219, 28.0695], [-15.422, 28.0695], [-15.4219, 28.0696], [-15.4219, 28.0696], [-15.4219, 28.0697], [-15.4218, 28.0698], [-15.4218, 28.0699]]]}, "properties": {"cusec": "3501601037", "mun": "016", "nmun": "Palmas de Gran Canaria, Las", "area_m2": 100871.93046625616, "perimeter_m": 1438.172886727099, "coords_system": "wgs84"}}, {"type": "Feature", "geometry": {"type": "Polygon", "coordinates": [[[65.35154963460964, -131.28921915051976], [124.28773329674277, -86.76121915062353], [193.04661423607257, -31.101219150357764], [212.69200879029142, 80.2187808493828], [212.69200879029142, 80.2187808493828], [163.578522405006, 113.61478084970045], [143.93312785096163, 124.74678084967451], [114.46503601972056, 124.74678084967451], [65.35154963460964, 158.14278084959668], [26.0607605263464, 180.4067808495448], [-3.4073313047201634, 191.53878084951884], [-23.052725858939024, 202.6707808494929], [-32.87542313596121, 224.934780849441], [-32.87542313596121, 213.80278084946696], [-32.87542313596121, 213.80278084946696], [-42.6981204129834, 202.6707808494929], [-42.6981204129834, 202.6707808494929], [-42.6981204129834, 191.53878084951884], [-42.6981204129834, 191.53878084951884], [-52.520817690005586, 180.4067808495448], [-52.520817690005586, 169.27478084957073], [-52.520817690005586, 169.27478084957073], [-62.34351496702777, 158.14278084959668], [-62.34351496702777, 158.14278084959668], [-72.16621224404996, 147.01078084962262], [-72.16621224404996, 147.01078084962262], [-81.98890952107215, 135.87878084964856], [-91.81160679826883, 124.74678084967451], [-101.63430407529101, 113.61478084970045], [-101.63430407529101, 113.61478084970045], [-101.63430407529101, 113.61478084970045], [-111.4570013523132, 102.4827808497264], [-121.27969862933539, 102.4827808497264], [-131.10239590635757, 102.4827808497264], [-140.92509318337977, 91.35078084935685], [-140.92509318337977, 91.35078084935685], [-150.74779046040194, 80.2187808493828], [-150.74779046040194, 80.2187808493828], [-150.74779046040194, 69.08678084940874], [-160.57048773742414, 57.954780849434684], [-160.57048773742414, 57.954780849434684], [-160.57048773742414, 46.82278084946063], [-160.57048773742414, 46.82278084946063], [-160.57048773742414, 35.69078084948657], [-160.57048773742414, 35.69078084948657], [-160.57048773742414, 24.558780849512516], [-150.74779046040194, 13.42678084953846], [-160.57048773742414, 13.42678084953846], [-160.57048773742414, 2.294780849564404], [-160.57048773742414, -8.837219150409652], [-160.57048773742414, -8.837219150409652], [-160.57048773742414, -19.969219150383708], [-160.57048773742414, -31.101219150357764], [-160.57048773742414, -42.23321915033182], [-160.57048773742414, -53.365219150305876], [-160.57048773742414, -64.49721915027993], [-170.3931850146208, -75.62921915064948], [-170.3931850146208, -86.76121915062353], [-170.3931850146208, -97.89321915059759], [-180.215882291643, -109.02521915057164], [-180.215882291643, -109.02521915057164], [-180.215882291643, -120.1572191505457], [-170.3931850146208, -131.28921915051976], [-170.3931850146208, -131.28921915051976], [-160.57048773742414, -142.4212191504938], [-160.57048773742414, -153.55321915046787], [-160.57048773742414, -153.55321915046787], [-150.74779046040194, -164.68521915044192], [-150.74779046040194, -164.68521915044192], [-140.92509318337977, -175.81721915041598], [-140.92509318337977, -186.94921915039004], [-140.92509318337977, -186.94921915039004], [-131.10239590635757, -198.0812191503641], [-121.27969862933539, -198.0812191503641], [-111.4570013523132, -198.0812191503641], [-101.63430407529101, -198.0812191503641], [-91.81160679826883, -198.0812191503641], [-81.98890952107215, -186.94921915039004], [-62.34351496702777, -186.94921915039004], [-52.520817690005586, -186.94921915039004], [-52.520817690005586, -186.94921915039004], [-42.6981204129834, -186.94921915039004], [-32.87542313596121, -186.94921915039004], [-32.87542313596121, -186.94921915039004], [-23.052725858939024, -186.94921915039004], [-13.230028581742351, -186.94921915039004], [-3.4073313047201634, -175.81721915041598], [6.415365972302024, -164.68521915044192], [16.23806324932421, -153.55321915046787], [26.0607605263464, -142.4212191504938], [26.0607605263464, -131.28921915051976], [26.0607605263464, -120.1572191505457], [26.0607605263464, -109.02521915057164], [26.0607605263464, -109.02521915057164], [26.0607605263464, -109.02521915057164], [26.0607605263464, -97.89321915059759], [35.883457803368586, -97.89321915059759], [35.883457803368586, -86.76121915062353], [35.883457803368586, -86.76121915062353], [35.883457803368586, -86.76121915062353], [45.70615508039077, -86.76121915062353], [45.70615508039077, -86.76121915062353], [55.52885235741296, -75.62921915064948], [55.52885235741296, -86.76121915062353], [55.52885235741296, -86.76121915062353], [45.70615508039077, -86.76121915062353], [55.52885235741296, -97.89321915059759], [55.52885235741296, -97.89321915059759], [55.52885235741296, -109.02521915057164], [65.35154963460964, -120.1572191505457], [65.35154963460964, -131.28921915051976]]]}, "properties": {"cusec": "3501601037", "mun": "016", "nmun": "Palmas de Gran Canaria, Las", "area_m2": 100871.93046625616, "perimeter_m": 1438.172886727099, "coords_system": "local_m_enu"}}]}