{"type": "FeatureCollection", "crs": {"type": "name", "properties": {"name": "EPSG:32628_local_enu_m_section_centroid", "lng0": -16.38091153028024, "lat0": 28.512291755826528}}, "features": [{"type": "Feature", "geometry": {"type": "Polygon", "coordinates": [[[-911.1276741256632, 725.3339386089823], [-908.9756666113557, 744.5922986090046], [-927.9524601486048, 746.8186986089204], [-930.1044676629126, 727.4490186091791], [-911.1276741256632, 725.3339386089823]]]}, "properties": {"name": "", "kind": "water", "category": "agua", "extrude": false}}, {"type": "Feature", "geometry": {"type": "Polygon", "coordinates": [[[-996.3276079963086, 124.98517860920686], [-984.3937481432592, 154.03969860901654], [-1021.0756944134539, 170.62637860906094], [-1025.9666205829985, 136.6737786089621], [-996.3276079963086, 124.98517860920686]]]}, "properties": {"name": "", "kind": "reservoir", "category": "agua", "extrude": false}}, {"type": "Feature", "geometry": {"type": "Polygon", "coordinates": [[[-724.8812055956178, -589.6892213910259], [-722.1422869407284, -582.0081413910398], [-735.0543320279648, -577.6666613909274], [-736.6194284023858, -584.9024613908512], [-724.8812055956178, -589.6892213910259]]]}, "properties": {"name": "", "kind": "reservoir", "category": "agua", "extrude": false}}, {"type": "Feature", "geometry": {"type": "Polygon", "coordinates": [[[767.34036868289, 252.8918586089918], [753.8414124554195, 282.39165860925925], [749.3417603794801, 288.7368986090586], [743.4726489760961, 294.30289860924336], [737.2122634794542, 298.08777860917917], [729.5824186550203, 300.53681860892823], [721.6591182608167, 301.0934186091049], [714.2249104833592, 299.6462586091992], [708.1601620333462, 297.6424986091169], [681.5535236716629, 285.397298609185], [676.3691419323487, 282.6142986090926], [670.4022120054765, 277.6048986090845], [666.4894710701188, 272.7068186091908], [663.8483709387176, 267.6974186091827], [661.7941819475507, 262.79933860889355], [661.1094522838283, 257.5672986090521], [661.4029078539453, 247.10321860897366], [663.5549153686005, 239.53345860910204], [677.2495086427, 209.58837860916788], [680.5753384378236, 204.57897860915978], [683.60771266283, 201.01673860905734], [690.5528278235416, 196.00733860904924], [698.2804911711163, 192.66773860917567], [707.5732508927645, 191.44321860910338], [713.0510882025433, 191.7771786090512], [718.5289255123221, 193.1130186092379], [752.4719531279749, 208.58649860892896], [759.1236127182219, 213.26193860898925], [764.0145388877665, 219.49585860906964], [767.34036868289, 225.6184586090356], [769.1989206270806, 232.29765860917823], [769.9814688142912, 239.0881786090398], [769.1989206270806, 245.3220986091202], [767.34036868289, 252.8918586089918]]]}, "properties": {"name": "Balsa del Boquerón", "kind": "water", "category": "agua", "extrude": false}}, {"type": "Feature", "geometry": {"type": "Polygon", "coordinates": [[[-307.1961107305468, -813.1084613909126], [-323.7274411830238, -807.3198213908944], [-330.18346372664206, -822.4593413910331], [-312.9674036104427, -828.2479813910513], [-307.1961107305468, -813.1084613909126]]]}, "properties": {"name": "", "kind": "reservoir", "category": "agua", "extrude": false}}, {"type": "Feature", "geometry": {"type": "Polygon", "coordinates": [[[632.6442619779542, -1256.4960213910933], [633.8180842587701, -1253.8243413911155], [633.9159027819107, -1250.9300213909087], [633.0355360715596, -1248.1470213908162], [631.2748026505096, -1245.809301390786], [628.8293395657373, -1244.139501391047], [625.9926023877072, -1243.471581390756], [623.1558652093297, -1243.9168613908182], [620.5147650779285, -1245.1413813908905], [618.5583946102496, -1247.3677813908062], [617.3845723294338, -1250.039461390784], [617.1889352828049, -1252.9337813909908], [618.0693019931562, -1255.7167813910833], [619.8300354142061, -1258.0545013911135], [622.2754984989784, -1259.612981390738], [625.1122356770085, -1260.2809013910291], [628.0467913788743, -1259.9469413910813], [630.6878915102754, -1258.6111013908946], [632.6442619779542, -1256.4960213910933]]]}, "properties": {"name": "", "kind": "water", "category": "agua", "extrude": false}}, {"type": "Feature", "geometry": {"type": "Polygon", "coordinates": [[[620.4169465544403, -1276.5336213907303], [612.3958276367484, -1277.4241813908548], [614.2543795812867, -1295.2353813909715], [637.535188147499, -1292.786341390827], [634.4049953990043, -1262.952581391007], [629.0249766127137, -1263.5091813907884], [628.7315210425967, -1261.2827813908725], [623.8405948730519, -1261.8393813910493], [624.0362319200284, -1264.065781390965], [619.1453057504838, -1264.622381390746], [620.4169465544403, -1276.5336213907303]]]}, "properties": {"name": "", "kind": "water", "category": "agua", "extrude": false}}, {"type": "Feature", "geometry": {"type": "Polygon", "coordinates": [[[594.7884934269439, -1320.059741390783], [601.0488789239332, -1318.6125813908775], [596.7448638946228, -1303.5843813908532], [592.4408488656599, -1255.1601813909067], [590.1910228278639, -1251.5979413908042], [585.5935522284364, -1250.7073813910752], [584.8110040415733, -1250.5960613909608], [581.9742668631957, -1250.9300213909087], [578.844074114701, -1253.713021391001], [579.7244408253997, -1283.1015013907584], [585.0066410882022, -1311.1541413907248], [587.9411967897205, -1321.5069013910843], [594.7884934269439, -1320.059741390783]]]}, "properties": {"name": "", "kind": "reservoir", "category": "agua", "extrude": false}}, {"type": "Feature", "geometry": {"type": "Polygon", "coordinates": [[[135.3348890751574, -1580.8825013907565], [135.13925202852852, -1582.8862613908389], [135.62834464527447, -1584.8900213909212], [136.80216692609028, -1586.6711413907747], [138.46508182365204, -1588.0069813909613], [140.4214522913309, -1588.674901390857], [142.47564128249795, -1588.674901390857], [144.43201175017677, -1588.0069813909613], [146.09492664773853, -1586.6711413907747], [147.26874892855434, -1584.8900213909212], [147.8556600687885, -1582.8862613908389], [147.66002302215963, -1580.7711813910375], [146.77965631146088, -1578.8787413910698], [145.31237846087552, -1577.3202613910496], [143.45382651633736, -1576.3183813908106], [141.3996375251703, -1575.984421390863], [139.34544853400328, -1576.4297013909252], [137.48689658981263, -1577.4315813907685], [136.11743726236793, -1578.9900613907887], [135.3348890751574, -1580.8825013907565]]]}, "properties": {"name": "", "kind": "water", "category": "agua", "extrude": false}}, {"type": "Feature", "geometry": {"type": "Polygon", "coordinates": [[[160.2786125389314, -1616.7275413908233], [159.1047902584631, -1618.5086613910723], [158.51787911822896, -1620.6237413908734], [158.71351616485785, -1622.7388213910704], [159.59388287520906, -1624.742581390757], [161.06116072614196, -1626.3010613907772], [162.91971267068013, -1627.4142613907352], [165.07172018498784, -1627.7482213910785], [167.22372769964306, -1627.4142613907352], [169.18009816732192, -1626.3010613907772], [170.54955749476662, -1624.742581390757], [171.42992420511783, -1622.7388213910704], [171.62556125209423, -1620.6237413908734], [171.13646863500077, -1618.5086613910723], [169.86482783104427, -1616.7275413908233], [168.2019129334825, -1615.391701391032], [166.14772394231545, -1614.723781390741], [163.99571642766023, -1614.723781390741], [161.94152743649317, -1615.391701391032], [160.2786125389314, -1616.7275413908233]]]}, "properties": {"name": "", "kind": "water", "category": "agua", "extrude": false}}]}