{"type": "FeatureCollection", "crs": {"type": "name", "properties": {"name": "EPSG:32628_local_enu_m_section_centroid", "lng0": -16.322836243605902, "lat0": 28.483957601594057}}, "features": [{"type": "Feature", "geometry": {"type": "Point", "coordinates": [282.1103639994691, 373.76820945048235]}, "properties": {"osm_id": null, "category": "publico", "name": "Sección de Biologia", "extrude": false}}, {"type": "Feature", "geometry": {"type": "Point", "coordinates": [325.2599162155089, 283.0424094505554]}, "properties": {"osm_id": null, "category": "publico", "name": "Instituto Universitario de Bio-Organica Antonio González", "extrude": false}}, {"type": "Feature", "geometry": {"type": "Point", "coordinates": [284.94786289815164, 264.67460945026204]}, "properties": {"osm_id": null, "category": "publico", "name": "Servicios Generales de Apoyo a la Investigación", "extrude": false}}, {"type": "Feature", "geometry": {"type": "Point", "coordinates": [211.5642706943547, 250.31432945052885]}, "properties": {"osm_id": null, "category": "publico", "name": "Sección de Matemáticas", "extrude": false}}, {"type": "Feature", "geometry": {"type": "Point", "coordinates": [194.73496688236548, 235.3974494502235]}, "properties": {"osm_id": null, "category": "publico", "name": "Facultad de Ciencias", "extrude": false}}, {"type": "Feature", "geometry": {"type": "Point", "coordinates": [177.90566307037628, 214.35796945034767]}, "properties": {"osm_id": null, "category": "publico", "name": "Sección de Físicas", "extrude": false}}, {"type": "Feature", "geometry": {"type": "Point", "coordinates": [-375.8958460944963, 213.13344945027538]}, "properties": {"osm_id": null, "category": "restauracion", "name": "Bar Restaurante El Cortijo", "extrude": false}}, {"type": "Feature", "geometry": {"type": "Point", "coordinates": [37.791924355813435, 135.09812945034255]}, "properties": {"osm_id": null, "category": "publico", "name": "Biblioteca de la ESIT", "extrude": false}}, {"type": "Feature", "geometry": {"type": "Point", "coordinates": [494.53140223210977, 127.4170494503565]}, "properties": {"osm_id": null, "category": "restauracion", "name": "TuHamburguesa", "extrude": false}}, {"type": "Feature", "geometry": {"type": "Point", "coordinates": [72.72251424492231, 108.60396945039639]}, "properties": {"osm_id": null, "category": "publico", "name": "Escuela Superior de Ingenieria y Tecnología", "extrude": false}}, {"type": "Feature", "geometry": {"type": "Point", "coordinates": [-444.09366444910864, -183.1657505497502]}, "properties": {"osm_id": null, "category": "restauracion", "name": "Il Capricio", "extrude": false}}, {"type": "Feature", "geometry": {"type": "Point", "coordinates": [486.1167503261151, -219.90135054954592]}, "properties": {"osm_id": null, "category": "salud", "name": "Pestano", "extrude": false}}, {"type": "Feature", "geometry": {"type": "Point", "coordinates": [474.5710651526686, -239.04839054945384]}, "properties": {"osm_id": null, "category": "restauracion", "name": "Umami Good Food", "extrude": false}}, {"type": "Feature", "geometry": {"type": "Point", "coordinates": [347.7642178245157, -341.0175105494693]}, "properties": {"osm_id": null, "category": "restauracion", "name": "Cereal house", "extrude": false}}, {"type": "Feature", "geometry": {"type": "Point", "coordinates": [257.45347701902386, -354.82119054981683]}, "properties": {"osm_id": null, "category": "restauracion", "name": "Tasca Los Molinos", "extrude": false}}, {"type": "Feature", "geometry": {"type": "Point", "coordinates": [366.25688306011034, -403.4680305495966]}, "properties": {"osm_id": null, "category": "restauracion", "name": "Bacallado", "extrude": false}}, {"type": "Feature", "geometry": {"type": "Point", "coordinates": [322.12888294805697, -413.15287054966507]}, "properties": {"osm_id": null, "category": "salud", "name": "", "extrude": false}}, {"type": "Feature", "geometry": {"type": "Point", "coordinates": [-98.01664361587265, -439.980990549559]}, "properties": {"osm_id": null, "category": "salud", "name": "Farmacia Ancheta", "extrude": false}}, {"type": "Feature", "geometry": {"type": "Point", "coordinates": [408.1344530110197, -446.9941505496495]}, "properties": {"osm_id": null, "category": "alojamiento", "name": "Pensión Padrón", "extrude": false}}, {"type": "Feature", "geometry": {"type": "Point", "coordinates": [523.1020807969568, -447.8847105497739]}, "properties": {"osm_id": null, "category": "restauracion", "name": "Taberna Ossuna", "extrude": false}}, {"type": "Feature", "geometry": {"type": "Point", "coordinates": [509.79518941054675, -466.9204305495674]}, "properties": {"osm_id": null, "category": "restauracion", "name": "Patio canario", "extrude": false}}, {"type": "Feature", "geometry": {"type": "Point", "coordinates": [198.64875846641968, -470.7053105495032]}, "properties": {"osm_id": null, "category": "restauracion", "name": "La Cocina de Ángeles", "extrude": false}}, {"type": "Feature", "geometry": {"type": "Point", "coordinates": [-13.576590186809701, -471.37323054979436]}, "properties": {"osm_id": null, "category": "restauracion", "name": "Mi Hermano", "extrude": false}}, {"type": "Feature", "geometry": {"type": "Point", "coordinates": [37.596234776749775, -502.6541505495197]}, "properties": {"osm_id": null, "category": "restauracion", "name": "J.4", "extrude": false}}, {"type": "Feature", "geometry": {"type": "Point", "coordinates": [439.93400963267663, -505.1031905496643]}, "properties": {"osm_id": null, "category": "restauracion", "name": "We the North Specialty Coffee", "extrude": false}}, {"type": "Feature", "geometry": {"type": "Point", "coordinates": [438.07495863000753, -510.4465505496202]}, "properties": {"osm_id": null, "category": "restauracion", "name": "Gulagu", "extrude": false}}, {"type": "Feature", "geometry": {"type": "Point", "coordinates": [514.1982049427816, -519.7974305497407]}, "properties": {"osm_id": null, "category": "restauracion", "name": "La Casa de Oscar", "extrude": false}}, {"type": "Feature", "geometry": {"type": "Point", "coordinates": [440.1296992117403, -554.7519105496831]}, "properties": {"osm_id": null, "category": "restauracion", "name": "Delhi Darbar", "extrude": false}}, {"type": "Feature", "geometry": {"type": "Point", "coordinates": [348.15559698299063, -562.8782705497314]}, "properties": {"osm_id": null, "category": "restauracion", "name": "Tasca Maquila", "extrude": false}}, {"type": "Feature", "geometry": {"type": "Point", "coordinates": [501.86976145273275, -579.6875905496091]}, "properties": {"osm_id": null, "category": "restauracion", "name": "Bar Restaurante Carrera", "extrude": false}}, {"type": "Feature", "geometry": {"type": "Point", "coordinates": [367.2353309561239, -579.6875905496091]}, "properties": {"osm_id": null, "category": "restauracion", "name": "The Garden - Pub and Coffee", "extrude": false}}, {"type": "Feature", "geometry": {"type": "Point", "coordinates": [390.6202356717862, -587.702630549543]}, "properties": {"osm_id": null, "category": "restauracion", "name": "", "extrude": false}}, {"type": "Feature", "geometry": {"type": "Point", "coordinates": [401.6766968970521, -595.1610705496956]}, "properties": {"osm_id": null, "category": "restauracion", "name": "", "extrude": false}}, {"type": "Feature", "geometry": {"type": "Point", "coordinates": [397.4693709438811, -595.9403105497057]}, "properties": {"osm_id": null, "category": "restauracion", "name": "Tasca El Obispado", "extrude": false}}, {"type": "Feature", "geometry": {"type": "Point", "coordinates": [497.3689011307924, -598.834630549517]}, "properties": {"osm_id": null, "category": "salud", "name": "Farmacia C. Saavedra", "extrude": false}}, {"type": "Feature", "geometry": {"type": "Point", "coordinates": [445.4133178506306, -615.6439505497904]}, "properties": {"osm_id": null, "category": "alojamiento", "name": "Hotel Aguere", "extrude": false}}, {"type": "Feature", "geometry": {"type": "Point", "coordinates": [470.0702048310758, -615.9779105497381]}, "properties": {"osm_id": null, "category": "salud", "name": "Farmacia Santos Lecuona", "extrude": false}}, {"type": "Feature", "geometry": {"type": "Point", "coordinates": [255.20304685822745, -620.9873105497462]}, "properties": {"osm_id": null, "category": "restauracion", "name": "Bodegón Artillería", "extrude": false}}, {"type": "Feature", "geometry": {"type": "Point", "coordinates": [247.08192932100218, -626.7759505497644]}, "properties": {"osm_id": null, "category": "restauracion", "name": "La Machín Bar", "extrude": false}}, {"type": "Feature", "geometry": {"type": "Point", "coordinates": [501.86976145273275, -630.1155505496379]}, "properties": {"osm_id": null, "category": "restauracion", "name": "Tasca La Carpintería", "extrude": false}}, {"type": "Feature", "geometry": {"type": "Point", "coordinates": [327.7060359557166, -631.5627105495436]}, "properties": {"osm_id": null, "category": "restauracion", "name": "Churrería Herradores 97", "extrude": false}}, {"type": "Feature", "geometry": {"type": "Point", "coordinates": [408.52583216949466, -636.3494705497183]}, "properties": {"osm_id": null, "category": "alojamiento", "name": "Hotel Aguere", "extrude": false}}]}