{"type": "FeatureCollection", "crs": {"type": "name", "properties": {"name": "EPSG:32628_local_enu_m_section_centroid", "lng0": -16.55794760822084, "lat0": 28.073425846863675}}, "features": [{"type": "Feature", "geometry": {"type": "Polygon", "coordinates": [[[252.59022807888852, 189.5609128644061], [226.75766561992887, 196.01747286431987], [217.03362119600177, 198.46651286406896], [212.71182367445027, 185.55339286424143], [252.59022807888852, 189.5609128644061]]]}, "properties": {"name": "", "kind": "park", "category": "parque", "extrude": false}}, {"type": "Feature", "geometry": {"type": "Polygon", "coordinates": [[[341.67819062715336, 39.39023286427755], [343.54442137531015, 45.419426427806826], [343.54442137531015, 69.09317614092856], [332.83815024195536, 72.45227286425191], [324.29277786955083, 44.84491286434789], [341.67819062715336, 39.39023286427755]]]}, "properties": {"name": "", "kind": "pitch", "category": "parque", "extrude": false}}, {"type": "Feature", "geometry": {"type": "Polygon", "coordinates": [[[287.459276264792, 15.679072864423773], [333.42748626789114, 1.2074728641806587], [343.54442137531015, 33.38787946795321], [343.54442137531015, 70.82368675752349], [328.51635272040386, 75.5692328642921], [327.4359033399287, 72.1183128643041], [313.39006139479903, 76.57111286413553], [314.47051077492523, 80.02203286412353], [308.3807051762643, 81.91447286409144], [287.459276264792, 15.679072864423773]]]}, "properties": {"name": "", "kind": "park", "category": "parque", "extrude": false}}, {"type": "Feature", "geometry": {"type": "Polygon", "coordinates": [[[-49.346262410761454, -373.60696713590687], [-74.39304350203933, -339.54304713569354], [-90.69800687916671, -351.5656071357921], [-65.55300311684138, -385.518207135891], [-49.346262410761454, -373.60696713590687]]]}, "properties": {"name": "", "kind": "pitch", "category": "parque", "extrude": false}}, {"type": "Feature", "geometry": {"type": "Polygon", "coordinates": [[[-50.72137980402998, -559.1774071356444], [-42.56889811546629, -540.0303671357365], [-37.854209910073905, -518.3229671355696], [-37.36309655518559, -508.30416713555337], [-41.095558051150306, -507.7475671357722], [-70.26769132223376, -541.9228071357044], [-50.72137980402998, -559.1774071356444]]]}, "properties": {"name": "", "kind": "park", "category": "parque", "extrude": false}}, {"type": "Feature", "geometry": {"type": "Polygon", "coordinates": [[[156.6266785639321, -589.6790871357553], [174.89609536026376, -603.4827671357073], [185.70058916431705, -589.3451271358074], [197.38908700675054, -573.2037271358253], [178.72677952692698, -559.8453271359356], [156.6266785639321, -589.6790871357553]]]}, "properties": {"name": "", "kind": "pitch", "category": "parque", "extrude": false}}, {"type": "Feature", "geometry": {"type": "Polygon", "coordinates": [[[153.9746664484425, -588.6772071359119], [138.75015245179023, -608.4921671357154], [133.74079623360444, -614.6147671356813], [133.9372415753504, -616.6185271357637], [138.45548443899685, -620.0694471357517], [141.99150059286663, -622.7411271357296], [197.3050084004428, -622.7411271357296], [200.3357671353825, -619.5128471355749], [193.16551215624648, -615.5053271358058], [191.8886174340254, -615.950607135868], [185.99525717711046, -612.2770471356512], [213.10471435829112, -575.2074871359076], [202.88955657982464, -568.6396071358795], [181.5752369845115, -552.3868871357829], [153.9746664484425, -588.6772071359119]]]}, "properties": {"name": "Parque La Hoyita", "kind": "park", "category": "parque", "extrude": false}}, {"type": "Feature", "geometry": {"type": "Polygon", "coordinates": [[[142.87550463159582, -607.3789671357575], [162.99447285409846, -622.7411271357296], [167.84492450443307, -622.7411271357296], [175.68187672759652, -612.4996871358801], [152.40310371342804, -594.7998071358778], [142.87550463159582, -607.3789671357575]]]}, "properties": {"name": "", "kind": "park", "category": "parque", "extrude": false}}, {"type": "Feature", "geometry": {"type": "Polygon", "coordinates": [[[157.11779191882042, -622.4071671357818], [144.54529003765774, -613.0562871356613], [138.45548443899685, -620.0694471357517], [141.99150059286663, -622.7411271357296], [156.86270617658454, -622.7411271357296], [157.11779191882042, -622.4071671357818]]]}, "properties": {"name": "Parque Infantil La Hoyita", "kind": "playground", "category": "parque", "extrude": false}}, {"type": "Feature", "geometry": {"type": "Polygon", "coordinates": [[[307.69314647963006, 42.507192864317744], [306.31802908636155, 38.83363286410088], [305.82691573182217, 36.05063286440398], [304.1571303257602, 32.71103286413492], [313.48828406549757, 28.03559286407463], [316.2385188520346, 36.161952864122924], [312.30961201432393, 45.95811286430575], [307.69314647963006, 42.507192864317744]]]}, "properties": {"name": "Parque Infantil Pablo Iglesias Posse", "kind": "playground", "category": "parque", "extrude": false}}, {"type": "Feature", "geometry": {"type": "Polygon", "coordinates": [[[339.713737208298, -478.02512713567137], [343.54442137531015, -480.29789543392826], [343.54442137531015, -473.32088196053604], [339.713737208298, -478.02512713567137]]]}, "properties": {"name": "", "kind": "park", "category": "parque", "extrude": false}}]}