{"type": "FeatureCollection", "crs": {"type": "name", "properties": {"name": "EPSG:32628_local_enu_m_section_centroid", "lng0": -16.257470885982713, "lat0": 28.4623619531755}}, "features": [{"type": "Feature", "geometry": {"type": "LineString", "coordinates": [[54.79312583010101, 204.04434749642846], [52.99011093699733, 207.27262749658308]]}, "properties": {"osm_id": null, "type": "secondary", "width_m": 9, "extrude": false}}, {"type": "Feature", "geometry": {"type": "LineString", "coordinates": [[54.79312583010101, 204.04434749642846], [54.15535526861461, 207.27262749658308]]}, "properties": {"osm_id": null, "type": "service", "width_m": 3.5, "extrude": false}}, {"type": "Feature", "geometry": {"type": "LineString", "coordinates": [[55.58514787637476, 207.27262749658308], [54.79312583010101, 204.04434749642846]]}, "properties": {"osm_id": null, "type": "secondary", "width_m": 9, "extrude": false}}, {"type": "Feature", "geometry": {"type": "LineString", "coordinates": [[54.79312583010101, 204.04434749642846], [40.328078030597794, 207.27262749658308]]}, "properties": {"osm_id": null, "type": "residential", "width_m": 5, "extrude": false}}, {"type": "Feature", "geometry": {"type": "LineString", "coordinates": [[84.99420096548162, 207.27262749658308], [84.05469895199707, 204.93490749655294], [71.3127028963945, 207.27262749658308]]}, "properties": {"osm_id": null, "type": "footway", "width_m": 2, "extrude": false}}, {"type": "Feature", "geometry": {"type": "LineString", "coordinates": [[-145.82969992324195, 86.82438749655532], [-144.36172802771557, 93.16962749635465], [-131.54144013780083, 147.8277474963815], [-118.81901704138475, 199.25758749664922], [-117.9881406361377, 204.2575332906661]]}, "properties": {"osm_id": null, "type": "residential", "width_m": 5, "extrude": false}}, {"type": "Feature", "geometry": {"type": "LineString", "coordinates": [[111.75043538521578, 195.4727074967134], [82.29313267701775, 201.26134749673156], [71.23441106243, 202.70850749663722], [67.12408975426084, 202.9311474964706], [61.15433737830905, 203.2651074964184], [54.79312583010101, 204.04434749642846]]}, "properties": {"osm_id": null, "type": "residential", "width_m": 5, "extrude": false}}, {"type": "Feature", "geometry": {"type": "LineString", "coordinates": [[136.4470371092994, 190.66135658872938], [111.75043538521578, 195.4727074967134]]}, "properties": {"osm_id": null, "type": "residential", "width_m": 5, "extrude": false}}, {"type": "Feature", "geometry": {"type": "LineString", "coordinates": [[-148.47204933553706, 153.5050674966807], [-164.4240106028065, 171.20494749668296], [-166.15263261370305, 173.24834306761417]]}, "properties": {"osm_id": null, "type": "footway", "width_m": 2, "extrude": false}}, {"type": "Feature", "geometry": {"type": "LineString", "coordinates": [[-139.9615209263418, 195.20000460064168], [-148.37418454273376, 159.51634749653223], [-148.47204933553706, 153.5050674966807]]}, "properties": {"osm_id": null, "type": "footway", "width_m": 2, "extrude": false}}, {"type": "Feature", "geometry": {"type": "LineString", "coordinates": [[-148.47204933553706, 153.5050674966807], [-145.73183513009096, 150.72206749658832], [-139.1748939959286, 149.3862274964016], [-131.54144013780083, 147.8277474963815]]}, "properties": {"osm_id": null, "type": "footway", "width_m": 2, "extrude": false}}, {"type": "Feature", "geometry": {"type": "LineString", "coordinates": [[50.29134534967559, 190.24066749647645], [52.150776417458204, 176.10302749657663], [45.789564869250164, 174.87850749650434], [40.700595630614195, 178.44074749660678], [31.892764256065316, 184.56334749657273], [24.84649915649575, 193.02366749656883], [21.519096192839093, 201.48398749656494], [20.834042641477566, 205.26886749650075], [37.17746308100325, 201.26134749673156], [38.54757018372631, 203.15378749669947], [41.97283794053395, 201.3726674964505], [44.810916938783365, 198.9236274967014], [47.45326635107849, 195.36138749659898], [50.29134534967559, 190.24066749647645]]}, "properties": {"osm_id": null, "type": "footway", "width_m": 2, "extrude": false}}, {"type": "Feature", "geometry": {"type": "LineString", "coordinates": [[69.2771152014964, 198.81230749658698], [66.83049537515556, 198.58966749635812], [64.67746992791999, 198.03306749657693], [62.91590365328837, 196.91986749661908], [61.447931757414324, 194.35950749636007], [60.469283826947525, 190.79726749665312], [59.97995986154028, 187.68030749661293], [59.68636548243501, 184.1180674965105], [60.27355424064555, 177.77282749671116], [67.12408975426084, 179.21998749661682], [71.52800544153527, 181.89166749659478], [72.99597733740931, 183.45014749661487], [75.54046195655346, 186.3444674964262], [78.47640574830154, 190.4633074967053], [79.74864805787361, 194.1368674965267], [81.02089036744569, 197.25382749656688], [77.10629864557849, 198.36702749652474], [72.50665337200208, 198.9236274967014], [69.2771152014964, 198.81230749658698]]}, "properties": {"osm_id": null, "type": "footway", "width_m": 2, "extrude": false}}, {"type": "Feature", "geometry": {"type": "LineString", "coordinates": [[-164.4240106028065, 171.20494749668296], [-169.90443901369872, 149.0522674964538]]}, "properties": {"osm_id": null, "type": "footway", "width_m": 2, "extrude": false}}, {"type": "Feature", "geometry": {"type": "LineString", "coordinates": [[160.3892375311889, 88.71682749652322], [148.35186798613435, 178.88602749666902], [148.06805247630632, 181.22659325377]]}, "properties": {"osm_id": null, "type": "residential", "width_m": 5, "extrude": false}}, {"type": "Feature", "geometry": {"type": "LineString", "coordinates": [[111.75043538521578, 195.4727074967134], [108.81449159381538, 186.23314749670726], [118.89456527793632, 87.49230749645093], [119.97107800155412, 79.92254749657931]]}, "properties": {"osm_id": null, "type": "residential", "width_m": 5, "extrude": false}}, {"type": "Feature", "geometry": {"type": "LineString", "coordinates": [[-30.718247068780183, 207.27262749658308], [-57.84925097090412, 95.72998749661366], [-79.37950544221677, 9.45698749651811], [-86.52363533493732, -19.93149250363487], [-86.91509450684589, -21.48997250325948], [-93.08057646909964, -46.3143325034666], [-94.25495398586841, -51.3237325034747]]}, "properties": {"osm_id": null, "type": "residential", "width_m": 5, "extrude": false}}, {"type": "Feature", "geometry": {"type": "LineString", "coordinates": [[-182.1606393143357, 148.35442184045533], [-174.7976786663804, 146.6032274967047], [-176.36351535505773, 140.0353474966765], [-172.54678842599384, 139.14478749655203], [-181.06102542143745, 102.18654749652742], [-182.82259169641677, 95.39602749666585]]}, "properties": {"osm_id": null, "type": "footway", "width_m": 2, "extrude": false}}, {"type": "Feature", "geometry": {"type": "LineString", "coordinates": [[164.59742363250905, 62.22266749657706], [172.7202014556964, 61.77738749651482], [176.24333400565504, 61.88870749662925], [183.0938695192703, 62.76459741906905]]}, "properties": {"osm_id": null, "type": "residential", "width_m": 5, "extrude": false}}, {"type": "Feature", "geometry": {"type": "LineString", "coordinates": [[-170.19803339280398, 92.39038749674009], [-171.66600528867804, 87.15834749650313], [-172.05746446093428, 85.59986749648303]]}, "properties": {"osm_id": null, "type": "pedestrian", "width_m": 4, "extrude": false}}, {"type": "Feature", "geometry": {"type": "LineString", "coordinates": [[-57.84925097090412, 95.72998749661366], [-29.370596193520587, 88.9394674963566], [15.06001985148007, 77.6961474966636]]}, "properties": {"osm_id": null, "type": "residential", "width_m": 5, "extrude": false}}, {"type": "Feature", "geometry": {"type": "LineString", "coordinates": [[68.59206165013488, 67.23206749658516], [100.30025459837177, 75.24710749651902], [119.97107800155412, 79.92254749657931], [160.3892375311889, 88.71682749652322], [183.0938695192703, 94.21531730300856]]}, "properties": {"osm_id": null, "type": "residential", "width_m": 5, "extrude": false}}, {"type": "Feature", "geometry": {"type": "LineString", "coordinates": [[-159.6286357432758, 77.47350749643473], [-154.24607212553457, 81.1470674966516], [-145.82969992324195, 86.82438749655532]]}, "properties": {"osm_id": null, "type": "pedestrian", "width_m": 4, "extrude": false}}, {"type": "Feature", "geometry": {"type": "LineString", "coordinates": [[164.59742363250905, 62.22266749657706], [163.81450528799655, 70.23770749651092], [162.44439818527349, 78.92066749673589], [161.95507422021393, 82.37158749672389], [160.3892375311889, 88.71682749652322]]}, "properties": {"osm_id": null, "type": "residential", "width_m": 5, "extrude": false}}, {"type": "Feature", "geometry": {"type": "LineString", "coordinates": [[-193.59256627120055, 98.10636240574112], [-182.82259169641677, 95.39602749666585], [-170.19803339280398, 92.39038749674009], [-154.93112567689607, 88.71682749652322], [-152.58237064370624, 88.27154749646098], [-145.82969992324195, 86.82438749655532]]}, "properties": {"osm_id": null, "type": "residential", "width_m": 5, "extrude": false}}, {"type": "Feature", "geometry": {"type": "LineString", "coordinates": [[15.06001985148007, 77.6961474966636], [25.43368791470629, 75.24710749651902], [51.56358765924766, 69.34714749638644], [55.184585002009584, 68.79054749660526], [60.86074299920378, 67.89998749648078], [68.59206165013488, 67.23206749658516]]}, "properties": {"osm_id": null, "type": "residential", "width_m": 5, "extrude": false}}, {"type": "Feature", "geometry": {"type": "LineString", "coordinates": [[68.59206165013488, 67.23206749658516], [86.89277795059417, 65.7849074966795], [153.24510763881602, 62.55662749652487], [164.59742363250905, 62.22266749657706]]}, "properties": {"osm_id": null, "type": "residential", "width_m": 5, "extrude": false}}, {"type": "Feature", "geometry": {"type": "LineString", "coordinates": [[54.79312583010101, 204.04434749642846], [56.16323293282407, 180.55582749640806], [56.75042169103461, 175.21246749645215], [67.02622496110985, 81.70366749643279], [68.59206165013488, 67.23206749658516], [69.76643916655595, 55.320827496601055], [75.24686757744819, -4.569332503267276], [81.21661995374765, -65.57269250348895], [84.83761729650958, -98.41209250362994]]}, "properties": {"osm_id": null, "type": "secondary", "width_m": 9, "extrude": false}}, {"type": "Feature", "geometry": {"type": "LineString", "coordinates": [[183.0938695192703, -5.065681987936443], [180.4515201066275, -5.793852503339565], [177.5155763152271, -6.684412503464046], [177.12411714297085, -2.788212503413803], [173.20952542110365, 31.943627496695086], [183.0938695192703, 32.997688746406766]]}, "properties": {"osm_id": null, "type": "pedestrian", "width_m": 4, "extrude": false}}, {"type": "Feature", "geometry": {"type": "LineString", "coordinates": [[-159.04144698506525, 31.720987496466222], [-164.91333456821374, 33.39078749660075], [-166.57703605004207, 33.947387496381936]]}, "properties": {"osm_id": null, "type": "pedestrian", "width_m": 4, "extrude": false}}, {"type": "Feature", "geometry": {"type": "LineString", "coordinates": [[-167.2620896014036, -34.4030925034825], [-169.41511504829148, -25.163532503476347], [-170.0023038068497, -20.042812503353815], [-169.51297984144247, -14.588132503283475], [-159.04144698506525, 31.720987496466222], [-145.82969992324195, 86.82438749655532]]}, "properties": {"osm_id": null, "type": "residential", "width_m": 5, "extrude": false}}, {"type": "Feature", "geometry": {"type": "LineString", "coordinates": [[-115.58947887087908, 19.364467496419877], [-79.37950544221677, 9.45698749651811]]}, "properties": {"osm_id": null, "type": "footway", "width_m": 2, "extrude": false}}, {"type": "Feature", "geometry": {"type": "LineString", "coordinates": [[75.24686757744819, -4.569332503267276], [67.71127851247138, -3.010852503642667], [62.81803886013738, -2.008972503403754], [8.405213924166759, 9.90226749658035], [3.707703857787049, 11.349427496486015], [0.5760304800846795, 12.573947496558304]]}, "properties": {"osm_id": null, "type": "residential", "width_m": 5, "extrude": false}}, {"type": "Feature", "geometry": {"type": "LineString", "coordinates": [[177.12411714297085, -2.788212503413803], [170.7629055947628, -3.5674525034238513]]}, "properties": {"osm_id": null, "type": "footway", "width_m": 2, "extrude": false}}, {"type": "Feature", "geometry": {"type": "LineString", "coordinates": [[183.0938695192703, -58.97445250375313], [181.4301680370943, -56.22181250336837], [178.98354821075347, -50.87845250341246], [176.6347931775636, -43.75397250360308], [175.16682128203723, -37.8540125034705], [173.99244376526846, -29.393692503474398], [170.7629055947628, -3.5674525034238513], [165.1846123907196, 48.41898749662505], [164.59742363250905, 62.22266749657706]]}, "properties": {"osm_id": null, "type": "residential", "width_m": 5, "extrude": false}}, {"type": "Feature", "geometry": {"type": "LineString", "coordinates": [[183.0938695192703, -36.405327571899306], [179.96219614156794, -37.18609250357488], [175.16682128203723, -37.8540125034705]]}, "properties": {"osm_id": null, "type": "residential", "width_m": 5, "extrude": false}}, {"type": "Feature", "geometry": {"type": "LineString", "coordinates": [[-169.51297984144247, -14.588132503283475], [-175.97205618280148, -14.254172503335667], [-180.37597187007592, -14.03153250350229]]}, "properties": {"osm_id": null, "type": "service", "width_m": 3.5, "extrude": false}}, {"type": "Feature", "geometry": {"type": "LineString", "coordinates": [[-123.61439190091545, -10.914572503462097], [-86.52363533493732, -19.93149250363487]]}, "properties": {"osm_id": null, "type": "footway", "width_m": 2, "extrude": false}}, {"type": "Feature", "geometry": {"type": "LineString", "coordinates": [[-31.132162468152213, -128.80245250362634], [-29.85992015858014, -121.56665250330704], [-28.97913702126433, -117.6704525032568], [-28.881272228113342, -116.89121250364224], [-21.052088784031262, -80.48957250339882], [-20.46490002582072, -77.59525250358749], [-18.703333750841406, -70.02549250332038], [-17.33322664811835, -64.01421250346885], [-11.65706865127184, -40.08041250338621], [-11.069879893061298, -37.631372503637124], [0.5760304800846795, 12.573947496558304], [13.200588783697457, 69.45846749650087], [15.06001985148007, 77.6961474966636]]}, "properties": {"osm_id": null, "type": "residential", "width_m": 5, "extrude": false}}, {"type": "Feature", "geometry": {"type": "LineString", "coordinates": [[-183.01832128237106, -36.07289250361703], [-186.4435890391787, -35.29365250360698], [-193.68558372505024, -33.727812503513945]]}, "properties": {"osm_id": null, "type": "pedestrian", "width_m": 4, "extrude": false}}, {"type": "Feature", "geometry": {"type": "LineString", "coordinates": [[-86.91509450684589, -21.48997250325948], [-69.29943175774812, -26.276732503434204], [-18.801198543992392, -38.74457250359498], [-11.65706865127184, -40.08041250338621]]}, "properties": {"osm_id": null, "type": "pedestrian", "width_m": 4, "extrude": false}}, {"type": "Feature", "geometry": {"type": "LineString", "coordinates": [[-167.2620896014036, -34.4030925034825], [-172.93824759825011, -35.071012503378114], [-174.30835470097315, -35.40497250332592]]}, "properties": {"osm_id": null, "type": "service", "width_m": 3.5, "extrude": false}}, {"type": "Feature", "geometry": {"type": "LineString", "coordinates": [[-173.42757156365735, -38.29929250353274], [-183.01832128237106, -36.07289250361703]]}, "properties": {"osm_id": null, "type": "pedestrian", "width_m": 4, "extrude": false}}, {"type": "Feature", "geometry": {"type": "LineString", "coordinates": [[-165.98984729183152, -39.52381250360503], [-171.8617348746323, -38.63325250348055], [-173.42757156365735, -38.29929250353274]]}, "properties": {"osm_id": null, "type": "pedestrian", "width_m": 4, "extrude": false}}, {"type": "Feature", "geometry": {"type": "LineString", "coordinates": [[-186.41894033524926, -136.42353524483354], [-179.6909183187144, -135.5929725034879], [-162.3688499487219, -133.3665725035722], [-150.52720998962164, -131.91941250327105], [-148.76564371499, -131.4741325036043], [-147.59126619822123, -130.02697250330314], [-146.71048306090543, -127.91189250350186], [-147.199807025965, -125.46285250335728], [-149.45069726600386, -118.3383725035479], [-152.38664105775194, -108.54221250336508], [-154.8332608840928, -99.08001250352555], [-159.6286357432758, -82.82729250342896], [-165.5005233264243, -60.89725250342866], [-167.9471431527651, -51.76901250353694], [-171.8617348746323, -38.63325250348055], [-172.54678842599384, -36.406852503564835], [-172.93824759825011, -35.071012503378114], [-176.06992097595247, -24.94089250364297], [-176.65710973416301, -23.048452503279577], [-177.14643369957025, -20.71073250364492], [-176.8528393201173, -18.706972503562582], [-175.97205618280148, -14.254172503335667], [-175.67846180369622, -12.807012503430002], [-173.42757156365735, -3.344812503590475], [-171.66600528867804, 4.224947496676634], [-169.70870942774442, 12.128667496496064], [-166.87063042914733, 24.48518749654241], [-164.91333456821374, 33.39078749660075], [-161.1944724323008, 49.866147496530715], [-158.5521230200057, 60.88682749639034], [-155.02899047004706, 74.91314749657121], [-154.24607212553457, 78.14142749672584], [-153.95247774642928, 80.25650749652712], [-154.24607212553457, 81.1470674966516], [-154.44180171183652, 82.26026749660946], [-155.8119088145596, 83.15082749673394], [-158.35639343370372, 84.15270749657736], [-159.6286357432758, 84.37534749641074], [-169.70870942774442, 86.71306749644089], [-171.66600528867804, 87.15834749650313], [-182.43113252416052, 89.71870749636665], [-193.68558372505024, 92.42424254806238]]}, "properties": {"osm_id": null, "type": "footway", "width_m": 2, "extrude": false}}, {"type": "Feature", "geometry": {"type": "LineString", "coordinates": [[-94.25495398586841, -51.3237325034747], [-100.32257115497119, -49.54261250362123], [-154.8332608840928, -35.627612503554786], [-160.11795970868303, -34.95969250326368], [-167.2620896014036, -34.4030925034825]]}, "properties": {"osm_id": null, "type": "residential", "width_m": 5, "extrude": false}}, {"type": "Feature", "geometry": {"type": "LineString", "coordinates": [[-11.069879893061298, -37.631372503637124], [39.13475894193685, -49.431292503506796]]}, "properties": {"osm_id": null, "type": "residential", "width_m": 5, "extrude": false}}, {"type": "Feature", "geometry": {"type": "LineString", "coordinates": [[-167.2620896014036, -34.4030925034825], [-165.98984729183152, -39.52381250360503], [-165.30479374047, -42.30681250330193], [-164.81546977506275, -44.64453250333207], [-161.29233722510412, -58.00293250361733]]}, "properties": {"osm_id": null, "type": "residential", "width_m": 5, "extrude": false}}, {"type": "Feature", "geometry": {"type": "LineString", "coordinates": [[-161.29233722510412, -58.00293250361733], [-165.5005233264243, -60.89725250342866], [-167.45781918735787, -61.56517250332428]]}, "properties": {"osm_id": null, "type": "service", "width_m": 3.5, "extrude": false}}, {"type": "Feature", "geometry": {"type": "LineString", "coordinates": [[-188.205155314158, -105.31393250360594], [-193.68558372505024, -83.96443228831089]]}, "properties": {"osm_id": null, "type": "pedestrian", "width_m": 4, "extrude": false}}, {"type": "Feature", "geometry": {"type": "LineString", "coordinates": [[-193.68558372505024, -37.04199808734572], [-181.74607897279898, -39.52381250360503], [-172.64465321914483, -41.416252503572935], [-188.205155314158, -105.31393250360594]]}, "properties": {"osm_id": null, "type": "pedestrian", "width_m": 4, "extrude": false}}, {"type": "Feature", "geometry": {"type": "LineString", "coordinates": [[84.83761729650958, -98.41209250362994], [77.39989302468375, -95.18381250347531], [71.03868147647572, -92.62345250361179], [64.77533472107098, -90.50837250341502], [-4.512938758551289, -73.253772503475], [-12.831446167692926, -71.47265250362153], [-18.703333750841406, -70.02549250332038], [-35.144618983170396, -65.79533250332233], [-83.68555633634023, -53.77277250361928], [-94.25495398586841, -51.3237325034747]]}, "properties": {"osm_id": null, "type": "residential", "width_m": 5, "extrude": false}}, {"type": "Feature", "geometry": {"type": "LineString", "coordinates": [[-192.13308427955505, -113.60723932217766], [-191.2389638987094, -109.8780525035518], [-193.68558372505024, -93.87580250282284]]}, "properties": {"osm_id": null, "type": "service", "width_m": 3.5, "extrude": false}}, {"type": "Feature", "geometry": {"type": "LineString", "coordinates": [[175.94973962620207, -88.05933250327044], [178.20062986658863, -87.28009250326039], [180.84297927888375, -87.05745250342702], [182.3109511747578, -86.83481250359364], [183.0938695192703, -86.35528019589515]]}, "properties": {"osm_id": null, "type": "footway", "width_m": 2, "extrude": false}}, {"type": "Feature", "geometry": {"type": "LineString", "coordinates": [[183.0938695192703, -75.98111250370792], [182.99600472611934, -75.81413250333853], [181.4301680370943, -75.59149250350515]]}, "properties": {"osm_id": null, "type": "footway", "width_m": 2, "extrude": false}}, {"type": "Feature", "geometry": {"type": "LineString", "coordinates": [[-191.14124369408742, -119.13684655014833], [-188.205155314158, -105.31393250360594], [-172.64465321914483, -41.416252503572935], [-167.45781918735787, -61.56517250332428], [-155.02899047004706, -103.86677250330479], [-166.28344167093678, -113.21765250342537], [-188.1036308384752, -131.06779429376516]]}, "properties": {"osm_id": null, "type": "pedestrian", "width_m": 4, "extrude": false}}, {"type": "Feature", "geometry": {"type": "LineString", "coordinates": [[-94.25495398586841, -51.3237325034747], [-95.91865546769674, -58.33689250356514], [-109.7175912877306, -115.22141250350771], [-110.59837442504642, -123.45909250327495], [-109.32613211547435, -125.2402125035239], [-105.21581080730517, -131.36281250348986]]}, "properties": {"osm_id": null, "type": "residential", "width_m": 5, "extrude": false}}, {"type": "Feature", "geometry": {"type": "LineString", "coordinates": [[-161.29233722510412, -58.00293250361733], [-157.57347508919122, -65.12741250342671], [-147.199807025965, -98.96869250341112], [-140.83859547775694, -122.12325250348371], [-139.76208275413916, -126.24209250336733], [-139.07702920277765, -128.80245250362634], [-137.11973334184404, -135.92693250343572]]}, "properties": {"osm_id": null, "type": "residential", "width_m": 5, "extrude": false}}, {"type": "Feature", "geometry": {"type": "LineString", "coordinates": [[147.66681443477282, -135.92693250343572], [151.777135742942, -128.91377250334529], [155.4959978788549, -125.46285250335728], [162.05293901336492, -122.56853250354595], [171.54582393892764, -122.90249250349376], [178.10276507343764, -123.347772503556], [179.58033897510205, -123.53804293695987]]}, "properties": {"osm_id": null, "type": "service", "width_m": 3.5, "extrude": false}}, {"type": "Feature", "geometry": {"type": "LineString", "coordinates": [[182.74770871208358, -102.41961250339912], [177.4177115220761, -102.41961250339912], [173.99244376526846, -100.41585250331678], [172.52447186974211, -96.18569250331873], [171.35009435297334, -92.17817250354955], [167.1419082516532, -91.06497250359169], [163.81450528799655, -90.84233250336283], [161.3678854620034, -90.06309250335278], [160.09564315208362, -88.17065250338487], [162.2486685993192, -70.91605250344486]]}, "properties": {"osm_id": null, "type": "service", "width_m": 3.5, "extrude": false}}, {"type": "Feature", "geometry": {"type": "LineString", "coordinates": [[-147.199807025965, -98.96869250341112], [-138.29411085826513, -106.98373250334498], [-134.18378955044363, -110.21201250349961], [-130.0734682422745, -113.10633250331094], [-120.67844810951505, -118.56101250338128], [-118.72115224823376, -119.45157250350576], [-110.59837442504642, -123.45909250327495]]}, "properties": {"osm_id": null, "type": "residential", "width_m": 5, "extrude": false}}, {"type": "Feature", "geometry": {"type": "LineString", "coordinates": [[84.83761729650958, -98.41209250362994], [86.20772439923263, -112.66105250364419], [87.08850753654845, -119.896852503568], [88.75220901837677, -134.36845250341563]]}, "properties": {"osm_id": null, "type": "secondary", "width_m": 9, "extrude": false}}, {"type": "Feature", "geometry": {"type": "LineString", "coordinates": [[-155.02899047004706, -103.86677250330479], [-166.28344167093678, -113.21765250342537], [-188.1036308384752, -131.06779429376516]]}, "properties": {"osm_id": null, "type": "pedestrian", "width_m": 4, "extrude": false}}, {"type": "Feature", "geometry": {"type": "LineString", "coordinates": [[-186.62250552391902, -135.77638823770968], [-162.3688499487219, -133.3665725035722], [-149.2549676800496, -131.25149250337543], [-148.17845495643178, -127.46661250343962], [-155.02899047004706, -103.86677250330479]]}, "properties": {"osm_id": null, "type": "pedestrian", "width_m": 4, "extrude": false}}, {"type": "Feature", "geometry": {"type": "LineString", "coordinates": [[-161.5859316045571, -139.37785250342372], [-162.3688499487219, -133.3665725035722], [-166.28344167093678, -113.21765250342537]]}, "properties": {"osm_id": null, "type": "service", "width_m": 3.5, "extrude": false}}, {"type": "Feature", "geometry": {"type": "LineString", "coordinates": [[-105.21581080730517, -131.36281250348986], [-87.60014805820742, -129.02509250345972], [-81.14107171684839, -128.13453250333524], [-74.19267141042981, -127.57793250355405], [-68.02718944817606, -127.35529250332519], [-61.66597789996802, -127.24397250360624], [-58.73003410856762, -127.35529250332519]]}, "properties": {"osm_id": null, "type": "tertiary", "width_m": 7, "extrude": false}}, {"type": "Feature", "geometry": {"type": "LineString", "coordinates": [[-58.73003410856762, -127.35529250332519], [-31.132162468152213, -128.80245250362634], [-2.849237276722961, -129.9156525035842], [17.50663967782091, -130.8062125033132], [42.560026698744494, -132.1420525034999], [65.75398265153778, -133.14393250334334], [71.52800544153527, -133.3665725035722], [82.39099747016874, -134.03449250346782], [88.75220901837677, -134.36845250341563]]}, "properties": {"osm_id": null, "type": "tertiary", "width_m": 7, "extrude": false}}, {"type": "Feature", "geometry": {"type": "LineString", "coordinates": [[-176.55924494101203, -141.4929325036205], [-161.5859316045571, -139.37785250342372], [-137.11973334184404, -135.92693250343572], [-118.13396349002322, -133.25525250345777], [-105.21581080730517, -131.36281250348986]]}, "properties": {"osm_id": null, "type": "tertiary", "width_m": 7, "extrude": false}}, {"type": "Feature", "geometry": {"type": "LineString", "coordinates": [[88.75220901837677, -134.36845250341563], [105.780683009264, -134.47977250353006], [117.32872858925899, -134.47977250353006], [147.66681443477282, -135.92693250343572], [175.5411163450071, -137.2531845166671]]}, "properties": {"osm_id": null, "type": "tertiary", "width_m": 7, "extrude": false}}, {"type": "Feature", "geometry": {"type": "LineString", "coordinates": [[-137.11973334184404, -135.92693250343572], [-136.14108541137725, -142.1608525035161], [-135.26030227371373, -147.50421250347202], [-136.6304093764368, -156.40981250353036], [-154.34393691868556, -163.4229725036208]]}, "properties": {"osm_id": null, "type": "service", "width_m": 3.5, "extrude": false}}, {"type": "Feature", "geometry": {"type": "LineString", "coordinates": [[88.75220901837677, -134.36845250341563], [90.31804570740181, -149.50797250355436], [90.70950487931037, -152.7362525033135], [92.47107115428969, -168.87765250329565]]}, "properties": {"osm_id": null, "type": "secondary", "width_m": 9, "extrude": false}}, {"type": "Feature", "geometry": {"type": "LineString", "coordinates": [[83.85896936604279, -168.87765250329565], [83.36964540063553, -156.63245250336374], [69.96216875285793, -155.8532125033537], [58.218393586908654, -154.51737250356246], [59.29490631017875, -139.71181250337153], [5.860729304674933, -137.48541250345582], [5.860729304674933, -139.6004925032571], [83.85896936604279, -168.87765250329565]]}, "properties": {"osm_id": null, "type": "pedestrian", "width_m": 4, "extrude": false}}, {"type": "Feature", "geometry": {"type": "LineString", "coordinates": [[88.55647943242249, -186.68885250341233], [4.588486995102863, -154.6286925032814]]}, "properties": {"osm_id": null, "type": "footway", "width_m": 2, "extrude": false}}, {"type": "Feature", "geometry": {"type": "LineString", "coordinates": [[-183.9498229162474, -142.50335217489365], [-176.55924494101203, -141.4929325036205]]}, "properties": {"osm_id": null, "type": "tertiary", "width_m": 7, "extrude": false}}, {"type": "Feature", "geometry": {"type": "LineString", "coordinates": [[92.47107115428969, -168.87765250329565], [94.52623180837428, -188.69261250349467]]}, "properties": {"osm_id": null, "type": "secondary", "width_m": 9, "extrude": false}}, {"type": "Feature", "geometry": {"type": "LineString", "coordinates": [[92.47107115428969, -168.87765250329565], [139.7052249488775, -186.8748670452203]]}, "properties": {"osm_id": null, "type": "residential", "width_m": 5, "extrude": false}}, {"type": "Feature", "geometry": {"type": "LineString", "coordinates": [[94.52623180837428, -188.69261250349467], [96.37236365239387, -204.92685909963356]]}, "properties": {"osm_id": null, "type": "secondary", "width_m": 9, "extrude": false}}, {"type": "Feature", "geometry": {"type": "LineString", "coordinates": [[135.5477202144261, -189.72644137564316], [99.61520104701025, -175.55685250343828], [98.63655311654344, -175.8908125033861], [98.24509394428718, -177.00401250334394], [99.32160666790497, -189.3605325033903]]}, "properties": {"osm_id": null, "type": "footway", "width_m": 2, "extrude": false}}, {"type": "Feature", "geometry": {"type": "LineString", "coordinates": [[88.85007381152776, -188.91525250332805], [88.75220901837677, -187.91337250348462], [88.55647943242249, -186.68885250341233], [88.26288505331722, -184.3511325033822], [84.44615812425332, -146.72497250346197], [84.05469895199707, -144.9438525036085], [83.27178060748456, -143.60801250342178], [81.99953829791248, -142.04953250340168], [80.82516078149139, -140.93633250344382], [79.35718888561735, -139.9344525036004], [77.49775781783474, -139.37785250342372], [75.83405633565873, -139.37785250342372], [42.16856752648824, -137.93069250351806], [-6.07877544722863, -135.92693250343572], [-41.79942491083139, -133.92317250335338], [-62.74249062358581, -132.80997250339553], [-65.97202879409147, -132.80997250339553], [-69.10370217179384, -132.92129250350996], [-74.68199537583706, -133.25525250345777], [-80.65174775178883, -134.03449250346782], [-85.05566343906328, -134.47977250353006], [-96.60370901905827, -136.59485250333134], [-106.68378270317922, -137.81937250340363], [-136.14108541137725, -142.1608525035161], [-174.60194908007844, -147.94949250353426], [-179.6909183187144, -150.95513250346002], [-179.9619362751004, -150.9946555286821]]}, "properties": {"osm_id": null, "type": "footway", "width_m": 2, "extrude": false}}, {"type": "Feature", "geometry": {"type": "LineString", "coordinates": [[99.32160666790497, -189.3605325033903], [100.97486962945253, -204.15027659170946]]}, "properties": {"osm_id": null, "type": "footway", "width_m": 2, "extrude": false}}, {"type": "Feature", "geometry": {"type": "LineString", "coordinates": [[88.85007381152776, -188.91525250332805], [89.92658653514555, -199.93593250358316], [90.49618708796656, -205.43024010383547]]}, "properties": {"osm_id": null, "type": "footway", "width_m": 2, "extrude": false}}]}