{"type": "FeatureCollection", "crs": {"type": "name", "properties": {"name": "EPSG:32628_local_enu_m_section_centroid", "lng0": -15.434964454064458, "lat0": 28.118476507936514}}, "features": [{"type": "Feature", "geometry": {"type": "Point", "coordinates": [188.06205597624188, 260.7679834928156]}, "properties": {"osm_id": null, "category": "publico", "name": "", "extrude": false}}, {"type": "Feature", "geometry": {"type": "Point", "coordinates": [372.7413619723764, -123.39733650739248]}, "properties": {"osm_id": null, "category": "publico", "name": "Iglesia Coreana de Altavista", "extrude": false}}, {"type": "Feature", "geometry": {"type": "Point", "coordinates": [369.40319269853956, -323.43937650737314]}, "properties": {"osm_id": null, "category": "salud", "name": "Farmacia Militar", "extrude": false}}, {"type": "Feature", "geometry": {"type": "Point", "coordinates": [149.37856498079117, 382.2181034926868]}, "properties": {"osm_id": null, "category": "finanzas", "name": "BBVA", "extrude": false}}, {"type": "Feature", "geometry": {"type": "Point", "coordinates": [-7.1226650869964745, 301.17714349282824]}, "properties": {"osm_id": null, "category": "salud", "name": "", "extrude": false}}, {"type": "Feature", "geometry": {"type": "Point", "coordinates": [16.833608524259525, 297.1696234926635]}, "properties": {"osm_id": null, "category": "salud", "name": "Centro de Salud de Schamann", "extrude": false}}, {"type": "Feature", "geometry": {"type": "Point", "coordinates": [-235.9836232351919, -176.60829650711818]}, "properties": {"osm_id": null, "category": "restauracion", "name": "Margariita", "extrude": false}}]}