{"type": "FeatureCollection", "crs": {"type": "name", "properties": {"name": "EPSG:32628_local_enu_m_section_centroid", "lng0": -15.434964454064458, "lat0": 28.118476507936514}}, "features": [{"type": "Feature", "geometry": {"type": "Polygon", "coordinates": [[[-234.41272004768868, 185.18170349263187], [-231.2709136723333, 184.9590634927985], [-228.32547019563393, 185.84962349252748], [-225.87093396487666, 187.7420634924954], [-224.20184932804543, 190.3024234927544], [-223.51457918344732, 193.30806349268016], [-223.8091235310824, 196.31370349260592], [-225.18366382027855, 199.0967034926983], [-227.4418371525543, 201.2117834924996], [-230.28909918010018, 202.43630349257188], [-233.33272410612756, 202.65894349280074], [-236.2781675830014, 201.76838349267626], [-238.7327038135842, 199.87594349270836], [-240.40178845041544, 197.31558349284484], [-241.18724004434148, 194.3099434925236], [-240.7945142473785, 191.30430349259782], [-239.4199739581823, 188.52130349250544], [-237.16180062590658, 186.40622349270416], [-234.41272004768868, 185.18170349263187]]]}, "properties": {"name": "", "kind": "water", "category": "agua", "extrude": false}}, {"type": "Feature", "geometry": {"type": "Polygon", "coordinates": [[[447.6538077325206, -169.37249650719437], [450.01016251394987, -170.48569650715223], [452.7592430923422, -170.15173650720442], [455.21377932309946, -168.92721650713213], [456.88286395993066, -167.36873650750752], [458.25740424912686, -164.91969650736294], [458.7483114952434, -162.248016507385], [458.45376714760835, -160.13293650718822], [457.6683155536823, -158.01785650738694], [454.03560193238485, -155.6801365073568], [445.69017874805434, -167.9253365072887], [447.6538077325206, -169.37249650719437]]]}, "properties": {"name": "", "kind": "water", "category": "agua", "extrude": false}}, {"type": "Feature", "geometry": {"type": "Polygon", "coordinates": [[[472.1009885900676, -192.08177650720472], [473.77007322689883, -193.41761650739144], [475.43915786373003, -192.6383765073814], [477.59914974667777, -190.83625273401097], [477.59914974667777, -185.62116850717175], [472.1009885900676, -192.08177650720472]]]}, "properties": {"name": "", "kind": "water", "category": "agua", "extrude": false}}]}