{"type": "FeatureCollection", "crs": {"type": "name", "properties": {"name": "wgs84_and_EPSG:32628_local_enu_m_section_centroid", "lng0": -16.27351916513642, "lat0": 28.467624178755248}}, "features": [{"type": "Feature", "geometry": {"type": "Polygon", "coordinates": [[[-16.27373, 28.46922], [-16.27124, 28.46802], [-16.27109, 28.46803], [-16.27103, 28.46788], [-16.27091, 28.4676], [-16.27072, 28.46715], [-16.27222, 28.46666], [-16.27272, 28.4665], [-16.27261, 28.46623], [-16.27273, 28.46596], [-16.27437, 28.46645], [-16.2744, 28.46631], [-16.27593, 28.46658], [-16.27583, 28.46698], [-16.27578, 28.46709], [-16.27569, 28.46723], [-16.27525, 28.46799], [-16.27521, 28.4681], [-16.27501, 28.46895], [-16.27487, 28.4695], [-16.2738, 28.46926], [-16.27373, 28.46922]]]}, "properties": {"cusec": "3803806022", "mun": "038", "nmun": "Santa Cruz de Tenerife", "area_m2": 115386.22799511622, "perimeter_m": 1468.0539793759617, "coords_system": "wgs84"}}, {"type": "Feature", "geometry": {"type": "Polygon", "coordinates": [[[-20.63228289981336, -177.64682096581666], [223.0389180970464, -44.0628209657325], [237.7179061086876, -45.176020965690356], [243.58950131355266, -28.478020965927016], [255.33269172293518, 2.6915790340794388], [273.9260765379356, 52.785579034160435], [127.1361964194376, 107.33237903407286], [78.20623638005414, 125.14357903418954], [88.97082758868373, 155.19997903423814], [77.22763717930124, 185.25637903428674], [-83.2626317504328, 130.70957903437431], [-86.1984293526915, 146.2943790341798], [-235.92410707344825, 116.2379790341312], [-226.13811506557158, 71.70997903423498], [-221.24511906180706, 59.464779034303064], [-212.43772625468327, 43.87997903410209], [-169.37936141981723, -40.72322096585893], [-165.46496461680562, -52.96842096579084], [-145.89298060105224, -147.59042096576806], [-132.19259178981625, -208.8164209658231], [-27.48247730543135, -182.09962096564809], [-20.63228289981336, -177.64682096581666]]]}, "properties": {"cusec": "3803806022", "mun": "038", "nmun": "Santa Cruz de Tenerife", "area_m2": 115386.22799511622, "perimeter_m": 1468.0539793759617, "coords_system": "local_m_enu"}}]}