{"type": "FeatureCollection", "crs": {"type": "name", "properties": {"name": "wgs84_and_EPSG:32628_local_enu_m_section_centroid", "lng0": -16.25410916656469, "lat0": 28.462488711336572}}, "features": [{"type": "Feature", "geometry": {"type": "Polygon", "coordinates": [[[-16.25215, 28.46373], [-16.25253, 28.46339], [-16.25253, 28.46339], [-16.25327, 28.46271], [-16.2535, 28.46247], [-16.25419, 28.46085], [-16.25519, 28.4608], [-16.25483, 28.46363], [-16.25406, 28.46367], [-16.2539, 28.46367], [-16.25245, 28.46372], [-16.25215, 28.46373]]]}, "properties": {"cusec": "3803803010", "mun": "038", "nmun": "Santa Cruz de Tenerife", "area_m2": 48963.86729314969, "perimeter_m": 1062.8843577629657, "coords_system": "wgs84"}}, {"type": "Feature", "geometry": {"type": "Polygon", "coordinates": [[[191.7332004532183, -138.1802540129641], [154.54462369544146, -100.33145401281502], [154.54462369544146, -100.33145401281502], [82.12476369338177, -24.633854012912337], [59.615888287505335, 2.08294598726269], [-7.9107379308193355, 182.4213459871588], [-105.77541360899646, 187.98734598734356], [-70.54413036471362, -127.04825401259455], [4.811669907587071, -131.50105401282147], [20.4700180158868, -131.50105401282147], [162.37379774976517, -137.06705401261075], [191.7332004532183, -138.1802540129641]]]}, "properties": {"cusec": "3803803010", "mun": "038", "nmun": "Santa Cruz de Tenerife", "area_m2": 48963.86729314969, "perimeter_m": 1062.8843577629657, "coords_system": "local_m_enu"}}]}