{"type": "FeatureCollection", "crs": {"type": "name", "properties": {"name": "wgs84_and_EPSG:32628_local_enu_m_section_centroid", "lng0": -16.27046212448952, "lat0": 28.462665032375252}}, "features": [{"type": "Feature", "geometry": {"type": "Polygon", "coordinates": [[[-16.26826, 28.46326], [-16.26909, 28.46264], [-16.2693, 28.46247], [-16.27044, 28.46156], [-16.27144, 28.46076], [-16.27201, 28.46105], [-16.27255, 28.46144], [-16.2718, 28.46204], [-16.27227, 28.46249], [-16.27163, 28.46298], [-16.2696, 28.46452], [-16.26953, 28.46459], [-16.26826, 28.46326]]]}, "properties": {"cusec": "3803806023", "mun": "038", "nmun": "Santa Cruz de Tenerife", "area_m2": 79273.8445289357, "perimeter_m": 1266.7782170827586, "coords_system": "wgs84"}}, {"type": "Feature", "geometry": {"type": "Polygon", "coordinates": [[[215.5098394389072, -66.23179598673474], [134.28229413659287, 2.786604013025311], [113.73074652964391, 21.711004013099853], [2.1652023791253456, 123.0122040132197], [-95.69931003342724, 212.06820401301215], [-151.4820821090342, 179.78540401304784], [-204.32891881167353, 136.37060401310947], [-130.93053450208524, 69.57860401326514], [-176.92685533608926, 19.48460401318414], [-114.293567391847, -35.06219598712377], [84.37139280587813, -206.49499598696153], [91.22190867486111, -214.287395987062], [215.5098394389072, -66.23179598673474]]]}, "properties": {"cusec": "3803806023", "mun": "038", "nmun": "Santa Cruz de Tenerife", "area_m2": 79273.8445289357, "perimeter_m": 1266.7782170827586, "coords_system": "local_m_enu"}}]}