{"type": "FeatureCollection", "crs": {"type": "name", "properties": {"name": "EPSG:32628_local_enu_m_section_centroid", "lng0": -16.509205892275002, "lat0": 28.385175949094652}}, "features": [{"type": "Feature", "geometry": {"type": "Polygon", "coordinates": [[[-329.46784159204935, 269.277413216489], [-319.674224130187, 263.8227332168141], [-312.23107485915773, 275.7339732167982], [-304.8858617628479, 276.73585321664166], [-296.56128692003875, 285.8640932165333], [-281.47911602888905, 279.63017321684845], [-284.22132891825225, 264.82461321665755], [-248.57256135687848, 259.2586132164728], [-195.29528236408294, 348.53725321649404], [-282.8502224735707, 391.95205321682795], [-274.13390293223136, 410.54249321655914], [-243.67575262577333, 398.9652132165229], [-201.26938901605905, 387.0539732165388], [-194.31592061793148, 397.9633332166794], [-173.94519629714648, 389.1690532167355], [-150.83225908734622, 435.7008132167141], [-189.02736718864412, 454.62521321678867], [-185.20785637840996, 464.8666532166382], [-144.56434391155946, 445.60829321661583], [-128.0917670354842, 478.22505321692347], [-305.4455818393915, 478.22505321692347], [-324.17928816276196, 437.3706132168486], [-322.7102455433609, 432.1385732166117], [-297.14890396766003, 425.3480532167501], [-300.18492538083393, 419.1141332166697], [-318.8907347331267, 426.1272932167601], [-333.3852885766551, 428.3536932166759], [-369.62167318565014, 382.9351332166551], [-306.8445852551508, 348.53725321649404], [-318.20518151078585, 327.1638132166704], [-345.72524657878955, 278.2943332166617], [-329.46784159204935, 269.277413216489]]]}, "properties": {"name": "", "kind": "vineyard", "category": "parque", "extrude": false}}, {"type": "Feature", "geometry": {"type": "Polygon", "coordinates": [[[-522.79385028972, 369.1314532167031], [-500.36646630191257, 355.9956932166467], [-505.26327503301763, 345.8655732165161], [-479.1143164096956, 337.9618532166967], [-465.7949966614097, 364.7899732165906], [-488.2223806492172, 376.367253216627], [-485.1863592360433, 383.7143732166652], [-455.60963450101724, 368.6861732166409], [-452.3777407387522, 376.5898932168558], [-478.4287631873548, 395.0690132164726], [-469.7124436463634, 411.4330532166837], [-478.8205078858849, 416.99905321647293], [-492.3356999832619, 425.3480532167501], [-522.79385028972, 369.1314532167031]]]}, "properties": {"name": "", "kind": "orchard", "category": "parque", "extrude": false}}, {"type": "Feature", "geometry": {"type": "Polygon", "coordinates": [[[-469.7124436463634, 411.4330532166837], [-478.4287631873548, 395.0690132164726], [-452.3777407387522, 376.5898932168558], [-455.60963450101724, 368.6861732166409], [-485.1863592360433, 383.7143732166652], [-488.2223806492172, 376.367253216627], [-465.7949966614097, 364.7899732165906], [-479.1143164096956, 337.9618532166967], [-477.0576567426732, 332.1732132166785], [-452.3777407387522, 317.47897321660207], [-437.7852507205043, 312.3582532164795], [-429.4606758780431, 317.25633321676867], [-429.75448440185374, 326.4958932167748], [-415.6516752565075, 322.48837321661017], [-410.0693133034095, 330.1694532165962], [-427.2081438615816, 342.4146532165281], [-435.5327187043908, 344.19577321677707], [-433.8678037358985, 358.11077321684354], [-430.1462291003839, 370.1333332165466], [-420.9402286861428, 376.1446132167936], [-419.37324989202216, 395.73693321676376], [-416.1413561297572, 407.5368532166334], [-436.6100166249138, 422.3424132168243], [-444.93459146772295, 409.4292932166013], [-451.00663429407064, 416.7764132166395], [-462.07342202589507, 425.79333321681236], [-467.36197545553034, 425.57069321658344], [-480.5833590287488, 436.1460932167763], [-480.093678155847, 427.68577321678026], [-475.49067794890044, 423.0103332167199], [-478.8205078858849, 416.99905321647293], [-469.7124436463634, 411.4330532166837]]]}, "properties": {"name": "", "kind": "vineyard", "category": "parque", "extrude": false}}, {"type": "Feature", "geometry": {"type": "Polygon", "coordinates": [[[-198.33130377725678, 232.43049321657878], [-168.46077051876802, 225.6399732167172], [-126.73996013104654, 223.52489321652044], [-102.843533523838, 220.18529321664687], [-78.35948986935611, 272.617013216758], [-54.46306326214757, 317.47897321660207], [-39.6747008948085, 336.0694132167288], [-22.144125638106225, 366.2371332164963], [-15.484465764137255, 387.2766132167676], [-9.118614413630986, 394.401093216577], [-58.96812729472254, 420.6726132166898], [-77.86980899610643, 433.1404532168506], [-90.30770317296039, 403.7519732166976], [-140.45102457751466, 432.3612132168405], [-154.74970607195198, 403.974613216531], [-144.1725992130293, 394.9576932167537], [-157.19811043750454, 372.69369321680557], [-168.85251521695022, 377.146493216637], [-178.45026032972146, 359.891893216697], [-149.75496116647523, 347.4240532165362], [-117.14221501827531, 333.954333216532], [-128.01313040100862, 305.7903732168468], [-166.99172789936688, 320.15065321658], [-164.64125970853382, 337.6278932167489], [-166.20823850230656, 348.53725321649404], [-180.01723912349416, 352.4334532165443], [-187.46038839452348, 343.75049321671486], [-209.20221915999008, 306.79225321669026], [-235.05736925950154, 258.9246532165249], [-198.33130377725678, 232.43049321657878]]]}, "properties": {"name": "", "kind": "orchard", "category": "parque", "extrude": false}}, {"type": "Feature", "geometry": {"type": "Polygon", "coordinates": [[[-567.0610012173655, 301.89417321679656], [-570.3908311546979, 309.29937321739317], [-570.3908311546979, 298.49979670857863], [-567.0610012173655, 301.89417321679656]]]}, "properties": {"name": "", "kind": "vineyard", "category": "parque", "extrude": false}}, {"type": "Feature", "geometry": {"type": "Polygon", "coordinates": [[[-489.98523179242886, 311.4676932167505], [-496.7428278411174, 303.78661321676447], [-487.04714655362665, 299.445133216652], [-488.90793387155793, 292.543293216676], [-498.99535985723094, 295.54893321660177], [-508.00548792203296, 279.0735732166718], [-482.4441463466801, 267.4962932166355], [-463.24865612148557, 256.92089321683807], [-458.645655914191, 255.362413216818], [-434.06367608498965, 281.4112932167019], [-440.8212721336781, 296.4394932167262], [-459.03740061272117, 306.79225321669026], [-480.97510372727896, 318.5921732165599], [-489.98523179242886, 311.4676932167505]]]}, "properties": {"name": "", "kind": "vineyard", "category": "parque", "extrude": false}}, {"type": "Feature", "geometry": {"type": "Polygon", "coordinates": [[[-434.06367608498965, 281.4112932167019], [-458.645655914191, 255.362413216818], [-469.32069894783325, 244.00777321661508], [-475.0989332503703, 237.88517321664912], [-459.42914531125143, 227.42109321657068], [-447.7747405314577, 219.74001321658463], [-392.8325465705179, 194.80433321665856], [-390.67795072877595, 198.58921321659437], [-345.72524657878955, 278.2943332166617], [-318.20518151078585, 327.1638132166704], [-362.6682047878705, 356.9975732164902], [-434.06367608498965, 281.4112932167019]]]}, "properties": {"name": "", "kind": "orchard", "category": "parque", "extrude": false}}, {"type": "Feature", "geometry": {"type": "Polygon", "coordinates": [[[-509.67040289087305, 238.66441321665917], [-504.3818494612378, 217.40229321655448], [-499.6809130795717, 215.2872132167532], [-495.37172139643576, 220.40793321648025], [-471.96497566247695, 226.1965732164984], [-459.42914531125143, 227.42109321657068], [-475.0989332503703, 237.88517321664912], [-469.32069894783325, 244.00777321661508], [-477.5473376155749, 246.45681321675966], [-509.18072201762345, 260.3718132168261], [-509.67040289087305, 238.66441321665917]]]}, "properties": {"name": "", "kind": "vineyard", "category": "parque", "extrude": false}}, {"type": "Feature", "geometry": {"type": "Polygon", "coordinates": [[[-345.72524657878955, 278.2943332166617], [-390.67795072877595, 198.58921321659437], [-378.53386507608053, 182.3364932164978], [-361.1991621684694, 171.20449321652373], [-320.3597773525278, 151.83481321678244], [-300.96841477789417, 146.7140932166599], [-281.7729245526997, 195.47225321655418], [-250.6292210239009, 251.13225321681995], [-286.18005241055516, 256.252973216547], [-302.33952122257585, 230.09277321654864], [-333.77703327518526, 233.87765321648445], [-344.15826778501685, 210.72309321680734], [-352.482842627478, 215.39853321647215], [-351.79728940513724, 221.8550932167814], [-335.53988441839704, 258.36805321674376], [-329.46784159204935, 269.277413216489], [-345.72524657878955, 278.2943332166617]]]}, "properties": {"name": "", "kind": "vineyard", "category": "parque", "extrude": false}}, {"type": "Feature", "geometry": {"type": "Polygon", "coordinates": [[[-456.9807409456988, 210.94573321664072], [-414.4764411612649, 190.7968132164939], [-412.6156538433337, 197.25337321680314], [-453.06329396109305, 217.84757321661672], [-456.9807409456988, 210.94573321664072]]]}, "properties": {"name": "", "kind": "vineyard", "category": "parque", "extrude": false}}, {"type": "Feature", "geometry": {"type": "Polygon", "coordinates": [[[-468.3413372016819, 188.57041321657817], [-485.57810393457345, 198.47789321647994], [-492.3356999832619, 188.013813216797], [-461.3878688035542, 162.63285321680868], [-435.5327187043908, 139.36697321662166], [-429.4606758780431, 136.58397321652927], [-425.54322889308935, 143.48581321650528], [-416.3372284788483, 166.7516932166923], [-424.3679947978468, 174.21013321684498], [-465.7949966614097, 195.2496132167208], [-468.3413372016819, 188.57041321657817]]]}, "properties": {"name": "", "kind": "vineyard", "category": "parque", "extrude": false}}, {"type": "Feature", "geometry": {"type": "Polygon", "coordinates": [[[-345.62731040407, 127.67837321647093], [-357.8693322314849, 132.79909321659346], [-353.2663320245383, 146.60277321654547], [-381.1781417907243, 149.16313321680448], [-387.446056966511, 171.98373321653378], [-394.5953977137296, 175.43465321652178], [-408.2085259854782, 155.174413216656], [-424.85767567074856, 123.67085321670174], [-374.2246733929446, 92.05597321663305], [-364.5289921054539, 92.72389321652867], [-345.62731040407, 127.67837321647093]]]}, "properties": {"name": "", "kind": "farmland", "category": "parque", "extrude": false}}, {"type": "Feature", "geometry": {"type": "Polygon", "coordinates": [[[-69.93697885217537, 162.29889321686088], [-73.46268113825097, 137.36321321653932], [-51.0352971507915, 140.59149321669395], [-24.102849130409105, 133.91229321655132], [14.484003669418984, 111.20301321654097], [10.958301382995447, 106.97285321654292], [-27.92235994064328, 127.56705321675199], [-33.504721893741284, 127.23309321680418], [-33.896466592271445, 115.65581321676788], [-18.5204871773111, 91.16541321650857], [-7.257827096047631, 68.79009321684151], [34.3650471169543, 63.89201321655236], [46.99881364289938, 72.57497321677732], [78.14251717169817, 80.70133321682562], [82.35377268011457, 85.93337321666709], [80.29711301309216, 127.9010132166998], [34.3650471169543, 131.79721321675004], [12.721152526207215, 144.821653216692], [-5.201167429025225, 167.86489321665016], [-15.680338113228368, 170.98185321669035], [-67.88031918515297, 177.66105321683298], [-69.93697885217537, 162.29889321686088]]]}, "properties": {"name": "", "kind": "orchard", "category": "parque", "extrude": false}}, {"type": "Feature", "geometry": {"type": "Polygon", "coordinates": [[[-357.8693322314849, 132.79909321659346], [-345.62731040407, 127.67837321647093], [-364.5289921054539, 92.72389321652867], [-329.66371394114043, 79.81077321670114], [-314.1897983514605, 73.79949321684961], [-304.4941170643178, 98.06725321648457], [-304.2982447148787, 118.2161732166314], [-319.47835178074797, 119.10673321675588], [-318.4010538602249, 142.14997321671405], [-341.7098634194642, 149.60841321647123], [-345.1376295311683, 145.48957321658762], [-353.2663320245383, 146.60277321654547], [-357.8693322314849, 132.79909321659346]]]}, "properties": {"name": "", "kind": "orchard", "category": "parque", "extrude": false}}, {"type": "Feature", "geometry": {"type": "Polygon", "coordinates": [[[-308.2156916998324, 59.55053321683536], [-327.607054274118, 28.380933216828907], [-308.50950022364304, 1.5528132165394481], [-265.5155195659595, -29.394146783238142], [-254.8404765323173, 1.330173216706072], [-293.91701020539506, 17.58289321680266], [-288.138775902858, 39.958213216469716], [-261.7939449304448, 37.17521321677282], [-246.12415699132595, 27.490373216704427], [-246.80971021366673, 19.58665321648951], [-222.71741125736708, 9.456533216754366], [-231.72753932251706, -19.931946783398615], [-204.69715512776304, -34.626186783475106], [-196.76432498348407, -14.922546783390516], [-188.14594161686426, 6.450893216828604], [-176.58947301213811, 43.409133216853206], [-231.53166697307796, 55.876973216618495], [-230.1605605283964, 69.56933321685156], [-224.1864538767682, 95.61821321673548], [-203.32604868308144, 154.28385321653153], [-227.6142199884722, 183.0044132167889], [-231.33579462398686, 179.21953321685308], [-249.55192310302994, 182.00253321654998], [-257.87649794549117, 169.08941321672245], [-273.35041353551895, 171.87241321681483], [-275.2112008531023, 150.1650132166479], [-277.07198817103364, 125.89725321661746], [-281.87086072741926, 119.66333321653707], [-292.5459037607135, 121.3331332166716], [-291.17479731603186, 102.29741321648262], [-308.2156916998324, 59.55053321683536]]]}, "properties": {"name": "", "kind": "orchard", "category": "parque", "extrude": false}}, {"type": "Feature", "geometry": {"type": "Polygon", "coordinates": [[[-204.69715512776304, -34.626186783475106], [-167.48140877261656, -54.44114678327864], [-166.4041108517456, -51.43550678335288], [-155.5331954690123, -56.667546783194354], [-152.59511023055796, -53.32794678332078], [-134.0851732273563, -48.20722678319825], [-196.76432498348407, -14.922546783390516], [-204.69715512776304, -34.626186783475106]]]}, "properties": {"name": "", "kind": "vineyard", "category": "parque", "extrude": false}}, {"type": "Feature", "geometry": {"type": "Polygon", "coordinates": [[[-562.5559371847907, -145.50090678315343], [-532.4895315768628, -61.67694678320245], [-570.3908311546979, -47.574635885166145], [-570.3908311546979, -142.35775384204942], [-562.5559371847907, -145.50090678315343]]]}, "properties": {"name": "", "kind": "vineyard", "category": "parque", "extrude": false}}, {"type": "Feature", "geometry": {"type": "Polygon", "coordinates": [[[474.97989672708394, -131.3632667832536], [487.22191855449887, -140.49150678314533], [530.3138353869019, -152.73670678347273], [522.9686222905922, -166.7630267832581], [500.2474297789741, -157.9687467833142], [500.54123830278473, -147.83862678318357], [487.22191855449887, -145.38958678343448], [473.2170455842201, -174.44410678324417], [515.2316644954043, -189.13834678332066], [506.12360025588276, -213.29478678323667], [539.4218996264234, -231.10598678335336], [543.6331551351877, -225.87394678351188], [534.9168355938484, -218.19286678352583], [546.4733041989226, -198.93450678350348], [560.4781771695493, -204.83446678324057], [579.6736673947438, -180.67802678332455], [589.8590295551363, -160.7517467834066], [591.1321998254463, -157.87870854727032], [591.1321998254463, -89.62542102530875], [576.2459012830399, -77.70702678346566], [556.5607301845955, -87.94846678331524], [514.2523027492529, -72.4749867832287], [499.85568508044395, -85.16546678322285], [482.71685452227183, -100.86158678314277], [474.97989672708394, -131.3632667832536]]]}, "properties": {"name": "", "kind": "vineyard", "category": "parque", "extrude": false}}, {"type": "Feature", "geometry": {"type": "Polygon", "coordinates": [[[-491.4542744114821, -155.51970678316962], [-436.4141442758227, -161.0857067833544], [-419.0794413682115, -176.33654678321207], [-410.5589941763113, -157.3008267834186], [-432.5946334655885, -143.05186678340434], [-483.42350809283147, -127.68970678343223], [-491.4542744114821, -155.51970678316962]]]}, "properties": {"name": "", "kind": "vineyard", "category": "parque", "extrude": false}}, {"type": "Feature", "geometry": {"type": "Polygon", "coordinates": [[[271.860270567551, -195.81754678346329], [266.277908614453, -201.38354678325257], [265.5923553921122, -211.1797067834354], [288.0197393799196, -230.43806678345774], [313.58108095527245, -237.4512267831527], [339.14242253097325, -245.80022678342985], [350.3071464375172, -230.10410678350993], [390.5589142058375, -254.92846678332157], [403.5844254299648, -219.52870678331706], [366.07487055100773, -199.6024267833991], [399.66697844535906, -161.0857067833544], [424.9345114969013, -175.11202678313978], [436.49098010197537, -170.88186678314173], [459.8977258359342, -133.81230678339818], [437.1765333243162, -131.0293067833058], [422.4861071313487, -123.23690678320531], [436.49098010197537, -100.86158678314277], [375.5746794890594, -71.80706678333308], [364.70376410632605, -84.052266783265], [387.1311480941335, -100.52762678319496], [376.94578593374104, -122.5689867833097], [355.5956998668046, -114.88790678332364], [344.7247844840713, -129.58214678340013], [334.53942232367876, -126.13122678341213], [271.860270567551, -195.81754678346329]]]}, "properties": {"name": "", "kind": "vineyard", "category": "parque", "extrude": false}}, {"type": "Feature", "geometry": {"type": "Polygon", "coordinates": [[[-76.10695785289465, -240.12290678352613], [-74.83378758293257, -238.56442678350604], [-79.04504309169691, -216.96834678345354], [-80.31821336165899, -216.5230667833913], [-88.93659672827879, -217.63626678334916], [-95.98800130077791, -231.10598678335336], [-76.10695785289465, -240.12290678352613]]]}, "properties": {"name": "", "kind": "playground", "category": "parque", "extrude": false}}, {"type": "Feature", "geometry": {"type": "Polygon", "coordinates": [[[-84.13772417189317, -280.7547067833721], [-72.38538321738001, -251.36622678321913], [-111.75572541426843, -235.5587867831848], [-123.50806636843365, -265.0585867834522], [-84.13772417189317, -280.7547067833721]]]}, "properties": {"name": "", "kind": "pitch", "category": "parque", "extrude": false}}, {"type": "Feature", "geometry": {"type": "Polygon", "coordinates": [[[-517.0156159871829, -322.388386783457], [-474.511316202401, -329.5128667832664], [-470.4959330430758, -313.0375067833364], [-463.15071994676606, -279.86414678324763], [-455.4137621519261, -267.6189467833157], [-452.1818683893132, -256.48694678334164], [-494.88204052318616, -244.13042678329532], [-500.66027482572315, -267.7302667834301], [-542.5769575625358, -254.3718667831449], [-527.2009781475754, -202.60806678332486], [-549.9221706591935, -201.8288267833148], [-549.6283621353828, -194.03642678321432], [-570.3908311546979, -193.2820939976395], [-570.3908311546979, -270.55258623283396], [-549.9221706591935, -276.6358667834885], [-563.1435542327598, -314.3733467835232], [-517.0156159871829, -322.388386783457]]]}, "properties": {"name": "", "kind": "orchard", "category": "parque", "extrude": false}}, {"type": "Feature", "geometry": {"type": "Polygon", "coordinates": [[[-373.8329286944145, -426.91786678333597], [-368.93611996330935, -425.02542678336806], [-350.3282467857361, -392.0747067835082], [-331.9162459576019, -340.7561867833549], [-324.27722433713353, -318.158226783459], [-337.20479938688925, -314.15070678329425], [-366.48771559810467, -376.2672667834738], [-385.8790781723903, -419.57074678329775], [-373.8329286944145, -426.91786678333597]]]}, "properties": {"name": "", "kind": "orchard", "category": "parque", "extrude": false}}, {"type": "Feature", "geometry": {"type": "Polygon", "coordinates": [[[-556.875639056973, -390.73886678332144], [-561.5765754386391, -403.09538678336776], [-532.5874677515823, -424.91410678325366], [-522.5000417659093, -411.5557067833639], [-524.1649567344015, -407.32554678336584], [-514.7630839710694, -396.41618678322516], [-517.7011692095236, -390.627546783207], [-509.96421141468375, -386.73134678315677], [-516.8197436377438, -369.5880667833312], [-522.1082970673791, -369.6993867834456], [-524.4587652582122, -372.0371067834758], [-540.0306170226116, -371.14654678335125], [-542.4790213881641, -369.3654267834978], [-557.757064628405, -370.36730678334123], [-570.3908311546979, -370.77630209966543], [-570.3908311546979, -378.9389467834518], [-569.9192417051587, -389.850214845133], [-569.7249416949943, -391.3390833991241], [-556.875639056973, -390.73886678332144]]]}, "properties": {"name": "", "kind": "orchard", "category": "parque", "extrude": false}}, {"type": "Feature", "geometry": {"type": "Polygon", "coordinates": [[[-414.99769958599285, -490.2589467835878], [-398.72407144788167, -490.2589467835878], [-397.14173825365384, -486.80802678320435], [-410.3631218272202, -481.13070678330064], [-414.99769958599285, -490.2589467835878]]]}, "properties": {"name": "", "kind": "orchard", "category": "parque", "extrude": false}}]}