{"type": "FeatureCollection", "crs": {"type": "name", "properties": {"name": "EPSG:32628_local_enu_m_section_centroid", "lng0": -16.259553847678433, "lat0": 28.464168159647546}}, "features": [{"type": "Feature", "geometry": {"type": "Polygon", "coordinates": [[[-223.9254404228181, -56.12191902125243], [-221.47575826558693, -54.338539190291414], [-223.1283078411455, -52.01644940491349], [-220.68087286665795, -50.01198754963757], [-229.10467734378182, -38.09002530395345], [-217.44907841792178, -29.2882786789974], [-219.6906084482873, -25.85165041800095], [-217.07231902922211, -23.64548526796073], [-219.0367487543707, -21.18747711016795], [-215.96057142348204, -18.764972220742944], [-213.69055035527379, -21.23486937899715], [-210.9191378094191, -19.433439890495215], [-208.68207552009972, -22.531304333553862], [-191.66034441207682, -9.7343548512463], [-185.65923414425845, -17.656240684890314], [-169.94012710885423, -5.842274974805675], [-166.5106802167603, -10.189126259226452], [-160.91132496986808, -6.155232036991399], [-157.3509560440831, -3.567767090703906], [-156.66002661899952, -3.305788035116245], [-155.95992228144297, -3.305788035116245], [-154.25469547575793, -3.7907149598089624], [-151.88174684061966, -2.223410798749675], [-149.80992973761823, -3.8358943862558594], [-147.90913601488862, -5.656666144663928], [-146.40711799307104, -7.934741143951335], [-145.4055671161372, -9.98542946633433], [-144.8398090522322, -11.91609100589669], [-151.72540970793838, -17.100932430523052], [-149.57366624768656, -20.54985657350766], [-155.54557396774962, -25.11570245237529], [-153.97588232301743, -27.682409704593116], [-165.10847657024252, -35.79143260759196], [-165.106054997875, -35.79471184080452], [-165.39486456715767, -36.000038685794046], [-169.77830755793894, -39.19295480371465], [-164.63139427834577, -46.70458210500708], [-181.4514525514118, -59.274476539825564], [-178.51123044149176, -63.17642084739447], [-181.14510133373415, -65.06282080372996], [-179.18140178406446, -67.51991532370674], [-182.90083095848067, -70.03199872363604], [-184.84679632465267, -67.48641676327654], [-187.49315291645968, -69.4932498043862], [-190.14294602308698, -65.92091365921824], [-202.17866379850386, -74.38021730204309], [-210.70001442654555, -63.0158963008333], [-213.4268632526626, -64.78835918965595], [-215.09628879357066, -62.77767077732852], [-217.85347303188573, -64.45784049321777], [-223.9254404228181, -56.12191902125243]]]}, "properties": {"id": 0, "height_median_m": 6.0, "building_count": 7, "area_m2": 2730.63847031048}}, {"type": "Feature", "geometry": {"type": "Polygon", "coordinates": [[[-141.0496885221834, -40.21595922404501], [-137.42742466945577, -37.54984971697697], [-130.7792941314646, -32.58709292424046], [-125.989552789296, -46.68177643823653], [-133.92256282659199, -47.970898680053324], [-134.61315818016755, -48.12801011158517], [-141.0496885221834, -40.21595922404501]]]}, "properties": {"id": 1, "height_median_m": 3.0, "building_count": 1, "area_m2": 129.11475558819032}}, {"type": "Feature", "geometry": {"type": "Polygon", "coordinates": [[[-118.47976894780153, -51.6989004964048], [-120.2419861616334, -41.78759007269655], [-121.31846891656961, -35.54260519956605], [-102.9480535995969, -41.36037489208419], [-117.97227088746122, -54.296672538443886], [-118.47976894780153, -51.6989004964048]]]}, "properties": {"id": 2, "height_median_m": 3.0, "building_count": 1, "area_m2": 163.10662731159258}}, {"type": "Feature", "geometry": {"type": "Polygon", "coordinates": [[[-59.196706488209024, 30.8491975564353], [-59.09707144975417, 30.854864334900505], [-58.8029891114205, 31.858426628473335], [-45.10076923077355, 32.54606073953478], [-52.85699911029574, 35.486983070557756], [-48.640158811322074, 36.53625813717471], [-47.74533615598246, 36.76245084287782], [-43.60597979076119, 37.43510048415274], [-39.365123755130966, 37.77165890905653], [-32.287106422461136, 37.584419481613196], [-32.57177314322923, 46.8669852048921], [-29.90211856360797, 47.120047804348744], [-25.92581488535176, 47.63403347363207], [-25.926026454151497, 47.63761664887654], [-25.600155649480758, 47.67612889537331], [-25.22990710741213, 47.72398802789806], [-25.22966657058399, 47.719914243819154], [-18.063987933717424, 48.56677250182871], [-11.753363168494994, 49.356394393608106], [-8.271062544978845, 49.79212000056209], [-7.931730053008171, 49.834579245758974], [-7.931534639404963, 49.8330232551535], [12.958323715068094, 52.3516147655011], [56.49334479727474, 57.61746454853617], [58.54382894777003, 51.78636355821514], [58.73402499273759, 51.24549015276563], [60.48463933626961, 47.46195109851749], [63.91768868063952, 48.66898763263177], [67.25723057235962, 38.22241742709365], [61.27877277305662, 35.76015347544261], [9.934490574927064, 16.10479678310106], [9.338728447474923, 28.416050372262266], [7.971148450262842, 29.13403438799907], [1.3628058131577288, 38.15447884278254], [2.9939188494724003, 14.034243063483563], [-0.37179918741673074, 12.718186441578242], [-5.808348852383846, 10.399143634633644], [-5.62067409116873, 8.584551869128157], [-6.0219549982056195, 8.128091964701236], [-10.876055570741038, 8.128091964701236], [-15.806376389011199, 5.751704161332494], [-15.803875782160226, 5.679328502952153], [-16.52804675689616, 5.4047452804727145], [-16.332849745593947, 4.738631289272161], [-16.77287029082629, 4.693128878430443], [-16.772870290826294, 4.69312887843044], [-20.510782420854106, 4.306592351275876], [-20.72025409713421, 10.02520509716035], [-21.110963626391317, 23.80268655297209], [-28.39342669483943, 23.36669424467017], [-31.907295356669874, 23.15632315256277], [-35.57939680722179, 22.936478853635744], [-34.01486197503165, -5.204546201922887], [-34.01486197503165, -5.659809500645515], [-42.90826061759137, -9.810088312127256], [-42.626816583115094, -13.438393818257616], [-42.626816583115094, -14.563558862209545], [-46.133008213245304, -14.744846046868682], [-45.85629956092909, -19.676055847864625], [-45.85629956092909, -20.352196942392524], [-56.11792652654719, -25.235662643093633], [-58.69069878725449, 21.926765591143386], [-58.98436889984724, 26.38079032265035], [-59.16347871142048, 30.149956130034738], [-59.30601221544174, 30.141849485989795], [-59.183035634083026, 30.561509710209283], [-59.196706488209024, 30.8491975564353]]]}, "properties": {"id": 3, "height_median_m": 6.0, "building_count": 19, "area_m2": 4126.884226782288}}, {"type": "Feature", "geometry": {"type": "Polygon", "coordinates": [[[72.29888889525581, 37.666619696413555], [74.79198215527077, 38.41900436031018], [73.05082932399912, 45.84615613382077], [75.81341733285618, 46.19531875946246], [74.7685175958665, 59.66590261686107], [79.26334701703897, 60.11050267212062], [79.16469647763569, 61.12044392220882], [82.79875005919179, 61.39602805296809], [82.89615127177672, 60.398876866244194], [92.6805058486985, 61.229456967676235], [92.6802117795832, 61.23380554207343], [93.02551148790695, 61.25874401124722], [93.38924337980718, 61.28962070007666], [93.38941168799217, 61.2850258577226], [101.42448197966581, 61.86534014107607], [101.74293425571295, 64.58215321371279], [106.92461609561133, 64.87686322286764], [114.54907922698608, 65.599663795619], [116.81639150860173, 65.82393196475823], [116.91425462921617, 65.82393196475823], [119.16510640162153, 66.0465719649871], [119.25935777238061, 66.0465719649871], [120.81119052978367, 66.23238468775378], [121.31890621476889, 66.29317734299862], [122.9781563530728, 66.49185196465385], [123.66917499062643, 66.49185196465385], [129.42470029531822, 66.98287330646046], [129.4303248031315, 67.04845196483052], [130.1328946992039, 67.04845196483052], [130.1325000811137, 67.0438509355882], [132.2839889149233, 66.91504388564914], [132.26678810794917, 66.71449196488271], [143.58486402647398, 66.71449196488271], [143.67123032200925, 66.83238270003724], [147.22763727347692, 66.70188468876752], [147.22763727347692, 66.1776055394445], [149.9678046487604, 66.15501887275428], [149.9678046487604, 65.37865196469599], [155.99247366042, 65.37865196469599], [155.84138525508618, 64.34746710805099], [159.06907485937435, 64.1314953416723], [159.06907485937435, 64.12684767326726], [161.88713074832216, 63.89787919188722], [161.84006039711994, 63.683707746626936], [161.4177897524248, 60.99382681518058], [161.4177897524248, 60.0925642225649], [160.8740467856995, 57.61851816045978], [160.72957183340208, 56.632470407020456], [160.58215415379328, 55.458649749120724], [160.18257941594368, 53.18605412773118], [157.32132486058774, 53.436415476292204], [154.20494551108484, 53.65797196483637], [148.38874920199524, 53.65797196483637], [148.0668849756699, 51.09511193888964], [145.66182734489252, 51.11451456485048], [145.66182734489252, 50.65233196491061], [134.19027567949436, 50.65233196491061], [134.0698287619665, 49.76177196478613], [132.28029603940965, 49.76177196478613], [132.61058407116337, 47.75801196470379], [127.70099145060841, 47.75801196470379], [127.83723508324145, 49.114070403559616], [108.85320199079865, 49.42703378803222], [108.73869727473004, 48.0919719646516], [108.23581493423771, 48.0919719646516], [107.56569006397459, 40.31679924177262], [94.61501304691964, 39.603985316065284], [95.59840506446805, 42.58695986956576], [87.60451789437992, 41.85951155994899], [87.26320120027945, 41.82803181544906], [87.26315437401016, 41.82844728413747], [77.38196506222634, 40.92925339899522], [78.51812008630581, 35.944341867981116], [79.3759665578444, 32.5290191157681], [78.76120289894443, 32.29591976159203], [73.49259604421113, 31.337027281389435], [72.9476760443377, 34.31230920111739], [72.849306075755, 34.53610228726136], [72.29888889525581, 37.666619696413555]]]}, "properties": {"id": 4, "height_median_m": 6.0, "building_count": 50, "area_m2": 1552.7066414139726}}, {"type": "Feature", "geometry": {"type": "Polygon", "coordinates": [[[44.201476602, 149.9294341], [42.831819175, 154.213920694], [43.598983488, 154.795690625], [46.323623598, 157.452231446], [46.460434116, 157.58562254], [47.143071226, 158.25119791], [47.143071227, 158.25119791], [51.30159426, 157.356266884], [51.090299919, 156.515045994], [59.141952623, 154.653089591], [59.328116215, 155.394258056], [68.669476845, 153.21459353], [68.705545391, 153.399220561], [75.265474009, 151.782461315], [75.06969086, 150.89164238], [79.238647634, 149.860725387], [95.595981837, 145.992029554], [95.539674783, 146.08810407], [99.053236503, 145.08892867], [98.312746957, 142.140836118], [99.163143729, 142.019919566], [98.001860416, 137.396531287], [97.949357449, 137.411461912], [96.149397594, 129.835833208], [96.068461366, 129.856292216], [93.588285371, 120.687333898], [92.908744196, 120.908186169], [91.129651316, 114.01656208], [91.814031319, 113.794137179], [90.859574855, 110.265608741], [90.24563195, 110.382002815], [90.20231865, 110.135656874], [90.124482872, 110.153364625], [87.324653669, 99.006474478], [86.639524838, 96.334455227], [84.600953434, 88.286544394], [83.013557365, 88.662726558], [81.710257843, 88.02030446], [79.494023441, 88.980678743], [75.25998917, 91.220792364], [73.87168812, 92.123193724], [71.308608537, 93.917360721], [66.970781695, 97.618092529], [66.953062515, 97.638248223], [66.944990286, 97.640095963], [66.781716615, 97.779389691], [66.80706002, 97.904312346], [65.633938174, 99.016341093], [62.433505678, 102.891727889], [59.771793284, 106.928683752], [57.507059004, 111.184933976], [56.513573439, 113.445127856], [55.033367358, 118.625881737], [53.394474693, 119.247299116], [54.298582399, 122.846800564], [52.193703774, 123.188845493], [53.199522701, 126.811911881], [51.135857349, 127.203150899], [51.940307338, 130.680407856], [49.964622542, 131.242246755], [51.566061349, 137.800179927], [48.604942777, 136.837810335], [46.991796669, 141.294154499], [47.742420554, 141.507614509], [44.700996953, 150.15671729], [44.201476602, 149.9294341]]]}, "properties": {"id": 5, "height_median_m": 12.0, "building_count": 65, "area_m2": 2329.9428392478485}}, {"type": "Feature", "geometry": {"type": "Polygon", "coordinates": [[[94.364165554, 85.972851965], [96.011489944, 85.972851965], [97.447535959, 92.098524291], [97.590508394, 92.168223792], [97.6282611, 92.30932542], [97.628261101, 92.30932542], [98.476845086, 95.48092802], [99.920936624, 100.878254101], [99.819770655, 101.036484995], [101.606854585, 107.916801413], [101.586003161, 107.957461945], [103.023786324, 113.448030943], [103.096173405, 113.496063089], [104.130748773, 117.699051965], [104.42978885, 117.699051965], [105.954498436, 123.412264418], [105.755494888, 123.525448398], [106.695508677, 126.866924687], [107.460236811, 126.758189221], [107.684360269, 127.777957369], [111.415426575, 140.401477794], [111.51312531, 140.623743813], [112.179140762, 142.896535844], [112.940571562, 142.788269221], [113.047184722, 143.273362152], [119.157817577, 141.651488144], [119.179311434, 141.700386975], [122.652128025, 140.746853317], [122.55632653, 140.419928659], [133.963409782, 137.536453362], [134.069485452, 138.139762529], [139.368470391, 136.991641902], [139.368470403, 136.991641899], [144.487101162, 135.536022118], [147.316987147, 134.858334631], [147.275355488, 134.716265701], [154.482043287, 133.076733912], [154.279096133, 132.49959931], [154.647704921, 132.413834396], [154.647509153, 132.413092103], [163.761285215, 130.272084228], [163.780767725, 130.346325234], [165.587547594, 129.318712718], [165.896764776, 130.577560063], [165.896764777, 130.577560063], [167.521375603, 130.166891965], [171.026194219, 129.280946129], [170.650542599, 128.283897847], [173.738225615, 122.536560802], [174.603536688, 122.255332933], [173.505406443, 118.053710435], [173.335054383, 117.401916123], [173.157635558, 116.723083234], [172.51259008, 116.845373875], [171.050500761, 110.94879701], [170.214579162, 107.577541987], [170.130241793, 107.23741107], [170.129751808, 107.237536926], [168.366641578, 100.170358955], [168.065912415, 98.802032654], [167.988926434, 98.364172133], [167.97142962, 98.372133233], [165.994108484, 89.375265461], [166.773638859, 89.248590978], [166.08057267, 86.09511998], [160.897326434, 81.933251965], [157.586169895, 81.933251965], [157.586169895, 82.808020927], [139.630700785, 83.301365725], [139.425417417, 82.367320526], [133.358806125, 82.605279621], [130.282359263, 82.725951356], [130.282359263, 82.899761899], [125.643675484, 83.05965693], [125.658447276, 83.19408108], [119.206394207, 83.416482794], [119.200541477, 83.363222616], [109.789139982, 83.867012571], [107.539536281, 84.506747648], [107.443972608, 83.74581711], [104.549799911, 84.42694997], [104.453582563, 84.098606203], [102.421125854, 84.538974594], [102.321801547, 84.087046155], [97.61958158, 85.201381335], [97.5104844, 84.736010751], [97.167251418, 85.272851965], [96.91735853, 85.272851965], [96.938444561, 85.362797633], [94.364165554, 85.972851965]]]}, "properties": {"id": 6, "height_median_m": 15.0, "building_count": 107, "area_m2": 3567.748679943692}}, {"type": "Feature", "geometry": {"type": "Polygon", "coordinates": [[[176.3780644380863, 48.20329196476603], [176.27591203917189, 64.58736291069464], [186.76320546578216, 64.95254774719089], [186.51834809707972, 64.39549372962378], [194.49047248115033, 64.69281663237831], [194.49071960093642, 64.70096854761641], [194.81860501648558, 64.71053193241514], [195.1917747914471, 64.72516928724839], [195.19166091601983, 64.7214127979538], [198.6364414482122, 64.82188619571487], [201.77910415541564, 64.92402337604574], [201.90000009395098, 65.3683187454036], [204.99043224619203, 65.48953904521251], [206.82423082973548, 65.60542565714873], [212.6009049475188, 63.37976160592929], [212.61753918995225, 63.441256707823584], [212.98765108204861, 63.23075424442327], [213.2553328161774, 63.12762057257834], [213.24672933399617, 63.09480693813092], [222.3457587752897, 59.56632587850347], [223.03733508655893, 61.02729002774287], [229.29591117978126, 58.420268161113505], [230.32114305336037, 58.03153196465775], [230.5231164722866, 58.03153196465775], [232.44186387835768, 57.22742026222315], [232.73350268818547, 57.11683985149562], [246.69589586246434, 51.46012236940664], [246.69826477305847, 51.46623024898432], [247.0281319861502, 51.32552038065179], [249.39503394251338, 50.36659482198647], [249.85230541350452, 50.21798065900712], [261.6288558468017, 45.399307853283766], [262.4954351187556, 58.583582012125085], [262.4954351187556, 59.06194436895449], [264.57362427068983, 58.89891298718252], [265.8908884106422, 58.8107719646678], [272.61809071552466, 58.8107719646678], [272.79769290500144, 61.1602078849244], [279.6679002175523, 60.915991948029124], [279.8240070321396, 60.20570147342692], [280.01032385431415, 59.35795459809845], [280.3820991053889, 58.61788483280105], [281.14481270059844, 57.09959853008463], [281.70229304821055, 56.46546064493611], [282.2700935906077, 55.81958346474316], [282.917954432911, 55.29319321810902], [283.7279229167558, 54.76671039112552], [284.8654429033705, 43.591798851821885], [266.64720952945066, 45.68506863418601], [266.1901881242347, 43.95872438437776], [280.49634717784016, 37.856215016740535], [280.81798450603543, 37.728162349793806], [280.79794296841743, 37.67800808634361], [283.9160711401236, 36.41126054633775], [285.0016700995651, 35.99963501793022], [285.8076868143634, 24.99743763628711], [285.0362216936629, 23.388601293330545], [220.4864051616741, 50.49285893068689], [220.00516183055612, 49.12431459603255], [210.34582958187468, 52.00993629936774], [210.32244622756218, 51.918740643784645], [209.81548399730704, 52.207077226851915], [205.17423711699234, 52.02074364303138], [201.58912951961875, 51.8768112118922], [198.72351575056572, 51.761764523533984], [198.5237290267258, 50.96635862568045], [191.98011004154043, 51.43157196492066], [191.86642034208705, 51.43157196492066], [191.17315855808988, 51.544227713318854], [188.85262631697182, 51.65421196475403], [188.7498009744958, 51.65421196475403], [184.4925385626838, 51.977056395472424], [183.72080144714684, 51.20893196469179], [183.45697883622574, 51.20893196469179], [176.9001497599526, 48.20329196476603], [176.3780644380863, 48.20329196476603]]]}, "properties": {"id": 7, "height_median_m": 12.0, "building_count": 23, "area_m2": 1685.140163867767}}, {"type": "Feature", "geometry": {"type": "Polygon", "coordinates": [[[175.662767105621, 86.05028029356347], [175.9064509337436, 87.43624078493043], [175.0336014295316, 87.73410255223361], [176.63799171149583, 93.93912100953791], [178.09906158027985, 99.16247865659251], [177.57165895439016, 99.26246603358649], [180.69144737752373, 112.19834756403577], [182.7789267269353, 121.01800330472963], [184.92834473223786, 122.39994759770143], [184.83366490217165, 122.7230445513633], [187.275137000722, 124.4422586372266], [187.6562230331315, 124.22551459224255], [189.46520155474695, 125.63343239194963], [196.75458003452223, 123.82432980528459], [200.39958433376617, 122.91970031945623], [200.71216509381452, 122.84212297001358], [200.7120191948089, 122.84129316419772], [210.71550773814027, 120.33121085290774], [213.70843379202378, 119.58022376332288], [214.09090408322228, 119.48425405151956], [214.09064952914656, 119.48360254808318], [226.55233278807532, 116.3335461277604], [226.5731033838584, 116.45167963439926], [226.96359058292066, 116.22958864223114], [227.23282610173484, 116.16153145790076], [227.22238058964393, 116.10212223416812], [240.59102104325177, 112.69758696745265], [240.57926712086703, 112.66193317855577], [254.7556613050311, 109.03000753893856], [254.56145288388356, 108.25681039701176], [258.91632312223334, 107.11364976689627], [263.7027302511107, 106.02473529251851], [263.9593532933111, 107.09507396539881], [266.7513800863153, 106.33284585542121], [273.6473707945206, 104.5766729933671], [273.3450439408214, 103.43034312873422], [276.3429022077894, 102.74832608190167], [276.4253849745314, 102.65450134435854], [276.4253849745315, 102.65450134435852], [277.3548724168584, 101.5972027258638], [275.50845364546456, 101.40626503840522], [276.1096827618448, 95.25114323310746], [276.20466061663353, 94.81899127527691], [276.3847147857089, 93.79492674274869], [276.6011325135146, 91.33315959987705], [276.6374202542059, 90.97542070587063], [276.6326105181194, 90.97509504460741], [277.68227428750913, 79.03509454304586], [277.3662426084332, 77.47731192385184], [276.6015913839262, 76.23474586592503], [275.6602102277004, 75.69933196495111], [274.7694524269288, 75.69933196495111], [261.1403095872931, 76.89188946618417], [261.1403095872931, 76.67213901257664], [260.701481435322, 76.92172409474217], [256.8500672853426, 77.25872495288557], [256.4844526641032, 77.28061386071163], [256.4856404958752, 77.2906124975636], [251.76029373999413, 77.70408293978171], [248.34288171833185, 77.9262161189876], [240.3389434812385, 78.26763625743585], [239.21863189174377, 79.96678619237177], [236.20736294926513, 80.15265735369412], [232.23538510785284, 80.34629249170769], [232.13889827248988, 79.35850230107141], [218.9463464765033, 79.9446984763955], [218.9463464765033, 80.98942243269182], [215.65811863717448, 81.15443931656411], [212.08150629596307, 81.32880026518045], [211.97469254269078, 80.35678899230967], [194.70868721459095, 81.32270069578584], [194.7031427390901, 81.29747317355798], [191.6590935905674, 82.07935684593564], [191.4619371132309, 81.29442268145294], [188.6107196638774, 82.07728343240336], [188.4114367748806, 81.39722629465379], [185.68784364739537, 82.25187641147062], [185.68784364739537, 81.81984291901473], [182.76757526062914, 82.65029946669408], [182.66677357585291, 82.19164891613269], [178.59070855617742, 83.19414689017017], [178.32242330315933, 83.499323285525], [178.1355863985052, 83.71185160171152], [176.7794568141965, 85.03408626554754], [175.662767105621, 86.05028029356347]]]}, "properties": {"id": 8, "height_median_m": 12.0, "building_count": 71, "area_m2": 3455.654607540345}}]}