{"type": "FeatureCollection", "crs": {"type": "name", "properties": {"name": "EPSG:32628_local_enu_m_section_centroid", "lng0": -16.311981775395243, "lat0": 28.482461240615187}}, "features": [{"type": "Feature", "geometry": {"type": "Polygon", "coordinates": [[[-230.93895229054368, 147.97106528276757], [-236.61403050372482, 164.22378528246867], [-266.2614218594211, 153.87102528250466], [-260.58634364589227, 137.7296252825225], [-230.93895229054368, 147.97106528276757]]]}, "properties": {"name": "", "kind": "water", "category": "agua", "extrude": false}}]}