{"type": "FeatureCollection", "crs": {"type": "name", "properties": {"name": "EPSG:32628_local_enu_m_section_centroid", "lng0": -16.568056323388777, "lat0": 28.371919433575624}}, "features": [{"type": "Feature", "geometry": {"type": "Polygon", "coordinates": [[[-326.23449946176567, -829.6196943615951], [-323.6878406363402, -827.281974361565], [-322.41451122380136, -824.0536943614103], [-322.70835647282206, -820.4914543617033], [-324.37347955083766, -817.4858143617776], [-327.3119320413921, -815.5933743614141], [-330.7401266138795, -815.036774361633], [-334.07037276991076, -816.0386543614765], [-336.6170315953363, -818.487694361621], [-337.8903610078751, -821.7159743617756], [-337.69446417531066, -825.1668943617636], [-335.9313926808389, -828.1725343616894], [-332.9929401902844, -830.1762943617717], [-329.5647456177969, -830.7328943615529], [-326.23449946176567, -829.6196943615951]]]}, "properties": {"name": "", "kind": "water", "category": "agua", "extrude": false}}, {"type": "Feature", "geometry": {"type": "Polygon", "coordinates": [[[-83.02858165085182, -1095.3405343614622], [-84.30191106339059, -1081.4255343613959], [-110.25824139783914, -1017.6391743614772], [-119.75923778434783, -1006.6184943616176], [-129.84792466889783, -1000.718534361485], [-140.6222504679453, -997.267614361497], [-150.80888576895148, -996.8223343614347], [-161.28936631897832, -998.9374143616316], [-340.0452261678238, -1069.9595743614739], [-351.60313929782495, -1077.7519743615744], [-359.5369610224263, -1086.6575743616327], [-362.7693236531153, -1092.6509811474787], [-353.9817849767348, -1096.2244525354492], [-344.6576486350492, -1098.87887177625], [-335.1494842184168, -1100.4818181348307], [-325.5488605472682, -1101.0178543617615], [-84.09142616883038, -1101.0178543617615], [-83.02858165085182, -1095.3405343614622]]]}, "properties": {"name": "Balsa de la Cruz Santa", "kind": "water", "category": "agua", "extrude": false}}]}