{"type": "FeatureCollection", "crs": {"type": "name", "properties": {"name": "EPSG:32628_local_enu_m_section_centroid", "lng0": -16.524691547427825, "lat0": 28.39559387938986}}, "features": [{"type": "Feature", "geometry": {"type": "Polygon", "coordinates": [[[-371.18594521286735, 443.93073367931464], [-321.83096376280827, 439.25529367925435], [-321.4392575607684, 447.60429367913605], [-321.14547790932556, 461.85325367915027], [-370.99009211167345, 463.07777367922256], [-371.18594521286735, 443.93073367931464]]]}, "properties": {"name": "", "kind": "reservoir", "category": "agua", "extrude": false}}, {"type": "Feature", "geometry": {"type": "Polygon", "coordinates": [[[-188.35707543626594, 57.31637367935747], [-186.00683822437495, 61.88049367930333], [-186.2026913252209, 66.88989367931143], [-188.94463473915172, 71.23137367942391], [-193.44925606208778, 73.56909367905857], [-198.54143668790962, 73.34645367922519], [-202.8502049096518, 70.67477367924724], [-205.20044212154284, 66.11065367930138], [-204.90666247009995, 61.10125367929328], [-202.26264560676603, 56.759773679180796], [-197.66009773358095, 54.42205367915065], [-192.56791710775911, 54.644693679379515], [-188.35707543626594, 57.31637367935747]]]}, "properties": {"name": "", "kind": "water", "category": "agua", "extrude": false}}, {"type": "Feature", "geometry": {"type": "Polygon", "coordinates": [[[184.25344920201292, 31.156173679359114], [209.32264612908227, 43.17873367906216], [207.55996822007702, 48.07681367935132], [203.54497964977773, 53.08621367935942], [198.06109282191608, 54.97865367932732], [169.956172829473, 52.084333679120505], [172.01263038992113, 34.38445367911825], [172.99189589484672, 31.935413679369162], [175.34213310673772, 31.267493679078058], [184.25344920201292, 31.156173679359114]]]}, "properties": {"name": "", "kind": "water", "category": "agua", "extrude": false}}, {"type": "Feature", "geometry": {"type": "Polygon", "coordinates": [[[28.354380812083043, -69.14314632091731], [35.11131279631318, -33.52074632068394], [-22.469498895538372, -40.97918632083662], [-19.531702380761587, -75.0431063206544], [28.354380812083043, -69.14314632091731]]]}, "properties": {"name": "", "kind": "water", "category": "agua", "extrude": false}}, {"type": "Feature", "geometry": {"type": "Polygon", "coordinates": [[[559.8996969056656, -86.73170632080513], [562.2499341175566, -87.73609729824045], [562.2499341175566, -79.07892801583046], [559.8996969056656, -86.73170632080513]]]}, "properties": {"name": "", "kind": "water", "category": "agua", "extrude": false}}]}