{"type": "FeatureCollection", "crs": {"type": "name", "properties": {"name": "EPSG:32628_local_enu_m_section_centroid", "lng0": -15.431404568097504, "lat0": 28.115880042395325}}, "features": [{"type": "Feature", "geometry": {"type": "Polygon", "coordinates": [[[-129.233850414, -38.463581472], [-141.390106798, -14.343923613], [-133.946884286, -9.521601717], [-132.125974474, -12.618400148], [-127.361319104, -10.817691369], [-124.437605032, -8.607769691], [-122.145747668, -7.308525353], [-117.062441946, -16.529980449], [-109.066627609, -32.394758223], [-114.241520661, -35.915108452], [-118.608353743, -38.390647832], [-116.760258284, -41.533680552], [-118.236522518, -41.533680552], [-121.128574031, -43.719669736], [-121.128574032, -43.719669736], [-124.415771521, -44.962002059], [-128.252012147, -37.350381472], [-129.233850414, -38.463581472]]]}, "properties": {"id": 0, "height_median_m": 4.1, "building_count": 1, "area_m2": 643.9292410647026}}, {"type": "Feature", "geometry": {"type": "Polygon", "coordinates": [[[-117.722078702, -50.764229546], [-112.112887369, -52.036160373], [-112.112887369, -53.078880552], [-108.185534302, -53.078880552], [-108.185534302, -54.192080552], [-103.276342969, -54.192080552], [-103.276342969, -61.984480552], [-95.38566031, -61.984480552], [-95.781539444, -66.024080552], [-96.476591718, -73.116480552], [-97.240243703, -80.908880553], [-97.166462542, -80.908880553], [-98.326203157, -88.798305703], [-91.212445503, -90.814685409], [-91.212445503, -80.908880553], [-90.230607236, -80.908880553], [-90.230607236, -73.116480552], [-88.266930703, -73.116480552], [-88.266930703, -66.024080552], [-90.230607236, -66.024080552], [-90.230607236, -59.758080553], [-90.230607236, -58.206816456], [-90.230607236, -56.418480552], [-81.675901103, -56.418480552], [-81.675901103, -58.644880552], [-77.701680886, -58.644880552], [-78.683519152, -66.437280552], [-77.748548037, -66.437280552], [-77.748548037, -74.229680552], [-76.76670977, -74.229680552], [-76.76670977, -76.602165948], [-74.765420425, -77.736688493], [-75.784871503, -83.515913946], [-75.784871503, -90.927680553], [-74.803033237, -90.927680553], [-74.803033237, -95.380480552], [-73.780486939, -95.380480552], [-76.449072248, -119.585437856], [-76.061305094, -119.704653263], [-68.611729946, -105.627543458], [-67.557126024, -100.844739097], [-63.009177236, -102.318003734], [-58.660288926, -90.81295977], [-58.469204473, -90.894203502], [-54.720898314, -81.332157738], [-49.921314828, -77.704339377], [-45.066046971, -80.063565955], [-45.066046971, -77.412843323], [-44.902491223, -77.474656035], [-42.545014312, -72.128880897], [-41.329797164, -71.21034555], [-46.656818899, -66.177235043], [-47.702827663, -67.363191016], [-48.204706964, -66.819017562], [-51.56118272, -70.624561651], [-56.505557649, -66.139848958], [-56.557606787, -66.184108615], [-56.759297198, -65.909698738], [-57.028418804, -65.66559648], [-56.973214372, -65.618653738], [-61.680090498, -59.214713681], [-66.566077897, -53.675022109], [-71.223021807, -49.451018921], [-71.250769023, -49.476758562], [-71.47526923, -49.222222109], [-71.743444045, -48.978978622], [-71.713944815, -48.95161373], [-78.790753046, -40.927987854], [-81.542292776, -37.808315162], [-69.274890033, -27.37680633], [-65.804300837, -30.000089631], [-66.786139104, -31.113289631], [-60.771457283, -35.659553533], [-61.514165067, -36.080591464], [-59.397183546, -38.480807375], [-57.627786572, -40.486934838], [-57.240774443, -40.925725947], [-55.25383844, -43.178497339], [-55.027943689, -43.434614915], [-52.996028654, -45.738383156], [-50.344581589, -48.744571623], [-46.600114186, -52.99001739], [-44.453624101, -55.423689863], [-44.203856033, -55.706874805], [-43.00113445, -57.070510459], [-41.956574176, -58.254824145], [-40.526191688, -59.876579826], [-36.78173152, -64.12201739], [-34.635358073, -66.555557619], [-34.385669477, -66.838652458], [-32.13819151, -69.386824145], [-26.576273174, -75.692880552], [-27.710919857, -76.979333455], [-29.561138797, -83.272621648], [-29.519163787, -83.288485286], [-29.659080488, -83.605758054], [-29.75914425, -83.94611242], [-29.80202872, -83.929905069], [-31.631882843, -88.079251615], [-33.729381786, -92.835505069], [-39.620411386, -90.609105069], [-42.428317901, -96.976266829], [-45.484129164, -105.06045764], [-59.528323895, -101.079660062], [-61.006074989, -107.781507295], [-54.078087995, -111.147890269], [-57.302409357, -118.459307357], [-58.002959618, -118.141596151], [-63.042207049, -131.472994681], [-64.890697591, -136.712502402], [-64.865341385, -136.722085287], [-65.00902655, -137.047903358], [-65.123645183, -137.372787472], [-65.148206318, -137.363505069], [-66.469254368, -140.359091489], [-67.960014951, -143.739515205], [-68.093666374, -144.042580932], [-68.144436402, -144.157706196], [-69.297903702, -146.773289316], [-71.042407739, -150.729097436], [-80.672781382, -146.829512814], [-80.672781383, -146.829512813], [-85.396624062, -144.916708082], [-84.457289923, -141.721680552], [-96.403475103, -141.721680552], [-96.403475103, -148.438809999], [-107.903696035, -147.253459623], [-107.903696035, -141.721680552], [-109.985084856, -141.721680552], [-107.6941289, -133.929280553], [-109.934516017, -133.929280553], [-108.95267775, -128.363280552], [-111.831049102, -128.363280552], [-111.831049102, -121.684080552], [-112.868098484, -121.684080552], [-111.783360651, -114.304880552], [-108.885534302, -114.304880552], [-108.885534302, -107.212480552], [-113.8192763, -107.212480552], [-112.78659605, -91.99150576], [-112.298641286, -92.060660638], [-110.466780562, -67.137280552], [-114.776563902, -67.137280552], [-114.776563902, -63.797680552], [-115.758402168, -63.797680552], [-115.758402168, -58.231680552], [-117.722078702, -58.231680552], [-117.722078702, -50.764229546]]]}, "properties": {"id": 1, "height_median_m": 7.2, "building_count": 20, "area_m2": 4866.474367451248}}, {"type": "Feature", "geometry": {"type": "Polygon", "coordinates": [[[-72.179786319, -156.458799455], [-67.257814049, -162.039290374], [-67.202676448, -161.994637124], [-67.013633247, -162.316140521], [-66.794374328, -162.564734447], [-66.843884406, -162.604830241], [-63.086280181, -168.995340521], [-59.040951454, -173.581900336], [-57.949594705, -174.819271474], [-58.013093721, -174.867267909], [-52.429925088, -185.417517603], [-48.502572022, -183.191117602], [-45.552228938, -188.766241382], [-30.838216625, -180.981016907], [-26.915868171, -187.651705625], [-26.902130156, -187.643917602], [-26.737273982, -187.955438517], [-24.767254138, -191.305826505], [-23.782244217, -193.539418497], [-23.629059734, -193.828883968], [-23.649484332, -193.840462587], [-20.711367935, -200.502886093], [-29.001906624, -205.874167979], [-29.001906627, -205.874167981], [-29.001906628, -205.874167981], [-29.001906631, -205.874167983], [-35.039806643, -208.61245616], [-39.43683779, -201.134480552], [-39.406224167, -201.134480552], [-44.892978777, -190.766419878], [-48.794138335, -191.872195383], [-51.679725043, -187.509990008], [-62.366424328, -195.220483712], [-64.598424757, -193.955172019], [-67.761405359, -189.173624148], [-56.344204064, -179.465078776], [-58.259894283, -176.72535899], [-71.328876101, -184.134110031], [-76.470365194, -176.847388464], [-83.886689322, -188.619381083], [-89.423794748, -184.85262684], [-88.441956482, -183.73942684], [-94.181814512, -179.834745075], [-97.862403371, -181.921255479], [-100.162250132, -178.009934999], [-88.84619837, -169.845361116], [-86.935092436, -172.012157011], [-86.027809553, -170.98348728], [-75.685536695, -176.846478435], [-83.516480357, -165.748155549], [-77.107732562, -162.115063273], [-77.562709385, -161.341289909], [-72.179786319, -156.458799455]]]}, "properties": {"id": 2, "height_median_m": 6.1, "building_count": 9, "area_m2": 1129.6662978013085}}, {"type": "Feature", "geometry": {"type": "Polygon", "coordinates": [[[-53.661870104, -170.767089245], [-57.988685424, -164.634955549], [-43.570131203, -156.461137567], [-40.336352516, -163.793999927], [-53.661870104, -170.767089245]]]}, "properties": {"id": 3, "height_median_m": 8.4, "building_count": 1, "area_m2": 122.02335851063236}}, {"type": "Feature", "geometry": {"type": "Polygon", "coordinates": [[[-17.094086349, -208.705373198], [-15.495230493, -203.267065078], [-15.495230492, -203.267065078], [-8.280258224, -205.604286537], [-1.674505746, -207.744157054], [-1.667357515, -207.732000148], [-1.399298858, -207.833307701], [2.543235855, -209.110454222], [4.514503209, -210.068314112], [4.815960725, -210.182244114], [4.806480929, -210.210189209], [11.379780253, -213.40422565], [15.056307641, -214.595201635], [18.229108224, -215.623000125], [18.578839835, -215.736292345], [21.723335631, -216.75492177], [24.801727611, -217.752137494], [24.808025707, -217.737856036], [25.11033434, -217.852107701], [25.471142578, -217.968988089], [25.463779144, -217.985685287], [31.00136394, -220.078507701], [38.224546848, -222.418388917], [32.062837309, -237.554927318], [25.860443845, -235.210853404], [11.426735061, -230.535191095], [13.629554208, -243.022880552], [5.007704627, -243.022880552], [5.007704627, -241.982012466], [-0.883324973, -243.095212466], [-0.883324973, -231.261360373], [10.275502883, -228.731003268], [-0.64057771, -225.194843064], [-4.508020446, -223.942021873], [-7.513708209, -222.968357987], [-7.882532425, -222.8488809], [-9.471226764, -222.33423852], [-11.202170118, -221.773515928], [-14.077515322, -220.84207527], [-14.105096003, -220.909828551], [-14.420741575, -220.730890399], [-14.745240129, -220.625772187], [-14.719164352, -220.561715777], [-20.618049346, -217.217662587], [-17.55396799, -210.26960305], [-17.094086349, -208.705373198]]]}, "properties": {"id": 4, "height_median_m": 6.1, "building_count": 10, "area_m2": 1072.1439591954145}}, {"type": "Feature", "geometry": {"type": "Polygon", "coordinates": [[[-92.23523224787436, 39.219694296445475], [-92.19428376937995, 39.23130105689865], [-92.19428376937995, 47.522319447698], [-96.27314767300112, 47.522319447698], [-91.06912290023638, 61.68299068797325], [-88.33689905064423, 60.65039985213338], [-85.2771000933208, 65.85416148241683], [-85.12260000672364, 66.14611298849483], [-85.1092481473899, 66.13962517724978], [-81.35609033697683, 72.52257349464855], [-78.27224401011267, 79.51545174711444], [-63.859055883496836, 72.51192949054811], [-67.96813786994207, 65.52366540032922], [-70.90546416975997, 58.863033506241585], [-73.72323592992517, 52.47350148203237], [-73.67244175678617, 52.444706478080185], [-73.86291990600837, 52.156756438636755], [-74.00711746875157, 51.829776461767864], [-74.05955294613118, 51.85950191421786], [-76.753241731354, 47.78739288165677], [-75.82620398138228, 40.42991944759752], [-75.78487150342951, 40.42991944759752], [-75.78487150342951, 40.101882527298955], [-75.73800435269231, 39.72991944759752], [-75.78487150342951, 39.72991944759752], [-75.78487150342951, 33.42630684955997], [-74.71555064215272, 26.151984653999083], [-68.98696441600084, 18.033205824237164], [-64.10322324421253, 12.49606100372802], [-59.23723676127144, 8.082449241595398], [-55.68034540550563, 6.066062433476926], [-55.66691768464417, 6.096510908284871], [-55.33122466334407, 5.868147347374004], [-55.068308864029696, 5.719101482218731], [-55.07842101016402, 5.696171349100687], [-50.139272678555734, 2.3361923525021946], [-52.07976006846089, -0.9639701625618734], [-40.78863710949406, -6.653650430763344], [-38.98967796130575, -2.8657386425829845], [-35.16122322002723, -4.726025745709052], [-31.799208520762868, -6.359664643964152], [-31.504434583481242, -6.502898452620741], [-31.504434583488244, -6.502898452637938], [-24.926340145717642, -9.699264891438531], [-17.750072129693542, -13.186290268765438], [-19.482727894275545, -17.115231445465323], [-14.140423856963498, -19.71111411182884], [-13.80975152054934, -19.83608528661311], [-13.822719063153732, -19.865490268915966], [-7.544025083863968, -22.91637482254763], [-5.5696063077438405, -19.55850562541319], [0.5975703013744706, -23.054652208015153], [6.084861151663522, -25.128467004196658], [6.093319615976989, -25.090106460328506], [6.478179742113373, -25.27711411162039], [6.746536521915367, -25.37853433442117], [6.740765408369382, -25.404707295155465], [13.038714786184666, -28.464948253147167], [13.0483332583704, -28.443137566804705], [13.37536131286584, -28.62852840082894], [13.668752402395334, -28.771090268990452], [13.660369799841844, -28.790098518065488], [19.5513993995424, -32.129698517933925], [16.20644691624733, -39.714656715170385], [16.652919749727157, -39.883392434385065], [13.527609915196479, -45.78914260746779], [6.973834372263445, -60.65037420207896], [10.959591025853646, -62.69230746407613], [19.76645286542728, -47.714588220695056], [21.83794977171081, -41.84297363239459], [21.89676088420371, -41.865200147918415], [25.834165887640964, -35.16890494501534], [30.707964478635834, -37.3792537471434], [30.721422057669002, -37.34873756644656], [31.0444039543097, -37.53183465055176], [31.345502542670772, -37.66838787319334], [31.33345859913077, -37.69569851773524], [39.188164732012716, -42.14849851795871], [36.24264993224636, -48.82769851809853], [36.26307452989522, -48.8392771369386], [36.10989004761987, -49.12874260773817], [35.95876839341883, -49.47142353836557], [35.93551890814116, -49.45824350256335], [33.164375247676105, -54.694742607530756], [29.378164668338353, -63.280290268859964], [29.41557944596553, -63.29847050945174], [25.306497459522173, -70.28673459966741], [22.486802053357124, -76.68062865093155], [22.504838485489746, -76.69289838430728], [22.364154314848076, -76.95874260747429], [22.199604939793247, -77.33187201287105], [22.175406502286595, -77.31541042145803], [19.418639514904303, -82.52474260766239], [16.61426720216529, -88.88389026867773], [16.651681979780506, -88.90207050926261], [16.469953059869933, -89.21113459934674], [16.33162153294468, -89.52481285165848], [16.295757803758043, -89.50738628209311], [12.90369131311315, -95.27623113051825], [16.47813323080063, -103.38157572393592], [18.195418085504077, -107.27566208239755], [19.423719564842386, -110.06093793320888], [19.586143300023718, -110.42924727322762], [19.58614330001516, -110.42924727323005], [23.34478538377349, -118.95228107596934], [28.086016735628917, -127.55319048491712], [28.09728132698552, -127.54771689950465], [28.249621514860692, -127.84998044950991], [28.424395353691175, -128.16703183200505], [28.412361745116307, -128.17287909110834], [32.02870197582733, -135.34818753340357], [32.06274088839638, -135.33275031985895], [32.18819859469911, -135.66465041103592], [32.344014984214475, -135.97381121555398], [32.310761486447205, -135.98889223041007], [35.25322834145438, -143.7732288506378], [20.909820324606667, -150.74284420517236], [16.978399675942946, -142.94237357128029], [16.94436076339175, -142.95781078481681], [16.818903057078476, -142.62591069364845], [16.66308666756723, -142.31674988912485], [16.696340165317693, -142.30166887427637], [13.875684078041138, -134.8395843197888], [9.139025716553164, -126.24697061990045], [9.111361719640007, -126.26041285186085], [8.971065735288155, -125.94228002878988], [8.800647098490991, -125.63312927281271], [8.82871605043295, -125.61949026887291], [5.709963922743106, -118.54746020739744], [5.70996392274311, -118.54746020739744], [2.6806230972265364, -111.67817771639767], [2.6806230972265386, -111.67817771639767], [-0.9896666158078822, -103.3554902689248], [12.98933111048272, -96.56294577144632], [9.818936919573996, -94.76566258694955], [10.165262542960289, -93.98034040699761], [-0.9966882774827128, -89.23459303818436], [0.7309542506247788, -85.31701979285246], [3.766294565184001, -78.4341329610375], [-5.893668410448351, -74.78333793376524], [-3.0034708876500344, -67.13728055231161], [-4.015711961671948, -67.13728055231161], [-2.5964550659794225, -63.91899739919401], [-1.6036763714355013, -65.04460156449849], [5.728751617829661, -49.60534579055096], [-2.9829183469987997, -45.80641563192866], [-0.046480896803118336, -40.2575686706124], [-3.0307243402649116, -39.129731933482], [-2.9957547194736436, -39.07686758275106], [-6.5734115806863, -37.04870889662107], [-12.54972774920621, -34.79007649760226], [-14.105364732359158, -38.31761285162145], [-21.290565421244146, -34.8262469930188], [-26.856513920067563, -32.722705069222975], [-26.888483283076006, -32.795198261052704], [-27.201783040520564, -32.59221732395934], [-27.512267357358315, -32.47487581832245], [-27.483518809499788, -32.4096860929537], [-34.387411915779325, -27.936785431506358], [-32.434091430260935, -24.614797831730108], [-37.99845712453763, -21.460382231302816], [-49.741147305993955, -16.467720830077706], [-51.44300030136923, -19.362040829996992], [-59.90698427510328, -15.763393038199991], [-57.90549464567392, -11.224848694972376], [-61.61669752976988, -8.06905064426265], [-68.81121689079576, -3.4078587757730268], [-66.7831738353332, -1.1084805524148515], [-72.47009519893894, 5.3393032396330184], [-79.9978252558181, 13.874180503954063], [-83.0184804906502, 11.819304346449327], [-89.35845832055423, 16.611446841171606], [-85.58323632111751, 23.03191944743869], [-90.19414059190584, 23.03191944743869], [-91.20964427899472, 32.24287602098373], [-92.13255704885398, 38.521220614324896], [-92.19428376937995, 38.50372430469272], [-92.19428376937995, 38.94113204554045], [-92.23523224787436, 39.219694296445475]]]}, "properties": {"id": 5, "height_median_m": 6.9, "building_count": 42, "area_m2": 4904.827136194892}}, {"type": "Feature", "geometry": {"type": "Polygon", "coordinates": [[[-12.469311627175216, -42.96431340764564], [-3.9838926620413653, -46.572074754134064], [-9.219124111178186, -57.2562655471944], [-17.69805208545274, -52.449596800734206], [-12.469311627175216, -42.96431340764564]]]}, "properties": {"id": 6, "height_median_m": 5.5, "building_count": 1, "area_m2": 107.55257944719706}}, {"type": "Feature", "geometry": {"type": "Polygon", "coordinates": [[[-199.19894697763297, 170.21495233756428], [-200.18078524421966, 174.66775233777975], [-201.1485736818861, 176.86229318068396], [-203.2520108818267, 181.63201212681443], [-197.95847352399076, 184.03271944769787], [-195.99045595361017, 184.03271944769787], [-187.8395461981542, 187.498256892022], [-184.0660330882494, 174.66312425376609], [-182.9439322121867, 175.29923853940582], [-180.86217354842566, 168.2183969490911], [-178.06851615220322, 161.88354625283435], [-178.02385220998698, 161.90380209421528], [-177.91665874865808, 161.53919694934405], [-177.78604824885517, 161.24302676872932], [-177.82446310173586, 161.22560499339977], [-175.86829181796608, 154.57193316053142], [-178.19082749900758, 153.25529741312653], [-175.75767941928137, 147.73793160163063], [-173.0988358490404, 148.4915752420519], [-171.04379088218494, 141.50159694931065], [-168.10749032821425, 134.8432910185283], [-165.00775681756238, 127.81438725433884], [-165.86152922329612, 127.5239872543588], [-165.8615292232961, 127.52398725435877], [-173.9774999888116, 124.76344135908792], [-175.65053643260146, 124.19437894856686], [-175.65053643260146, 125.25327693010394], [-180.55972776572187, 123.02687693018822], [-180.55972776572187, 124.60937120417006], [-182.47176497760216, 128.94507474438475], [-183.46269102490658, 130.06857839397213], [-185.42636755808496, 135.63457839376136], [-186.45075736543149, 136.79602297409585], [-186.45075736543149, 142.58792430473196], [-188.41443389878432, 142.03132430472832], [-188.41443389878432, 143.54758984480347], [-190.33555889121064, 148.99297839366622], [-191.30830937726017, 150.09587474438948], [-193.15116031224494, 154.27469264252247], [-193.19582425446418, 154.25443680114017], [-193.30301771579076, 154.61904194601425], [-193.43362821559305, 154.9152121266276], [-193.3952133627102, 154.93263390195813], [-194.29125222847728, 157.98039797658322], [-195.2666942489681, 161.29824194615074], [-196.23938234871937, 163.5038931806892], [-196.7759865173559, 164.72068780120995], [-199.19894697763297, 170.21495233756428]]]}, "properties": {"id": 7, "height_median_m": 6.3, "building_count": 9, "area_m2": 994.2548261656182}}, {"type": "Feature", "geometry": {"type": "Polygon", "coordinates": [[[-172.13282261028976, 118.48900209386603], [-172.12569291139977, 118.46475131528253], [-163.3320329812091, 121.7881439644725], [-160.39207674660872, 115.12154847394956], [-160.34807473260716, 115.14025689199406], [-160.24356994935422, 114.78479694913531], [-160.1095991288463, 114.48100696160128], [-160.14929418677477, 114.46412974007228], [-158.28568174399504, 108.12528522213341], [-156.15185294636674, 104.49630940452953], [-163.60490791317676, 100.8747902876505], [-164.50031549977135, 101.88999590682248], [-165.5816073258698, 100.66403629440208], [-166.6146418134154, 103.00652798702504], [-171.57348389746622, 99.63315182392027], [-172.68441411671807, 103.41184194597302], [-174.48277566734117, 107.48977646203164], [-174.5015962597174, 107.47910714706175], [-174.64275070268147, 107.85253317137959], [-174.76665720616077, 108.13350148229982], [-174.75207997047028, 108.14176525614198], [-177.70763662684382, 115.96073112543816], [-172.13282261028976, 118.48900209386603]]]}, "properties": {"id": 8, "height_median_m": 5.6, "building_count": 3, "area_m2": 285.2474759326949}}, {"type": "Feature", "geometry": {"type": "Polygon", "coordinates": [[[-76.57852591742395, 103.80048960282136], [-74.58111198500146, 104.20013392877475], [-74.58111198500146, 104.20013392877476], [-59.14339618867959, 107.28892560261596], [-57.849316093303166, 97.01840541820708], [-58.89592968947519, 95.83176369231265], [-56.93225315629681, 94.7185636923548], [-58.89592968947521, 92.49216369243909], [-56.99800251244975, 91.41623672703149], [-58.93141678044884, 88.12810338120272], [-55.9515037124, 87.00190322479196], [-60.31618050428292, 80.81611075562701], [-73.33288419178906, 87.62760132908178], [-76.56220567832654, 88.84806054346026], [-73.32978956812156, 99.84271944769472], [-75.41494639008373, 99.84271944769472], [-76.57852591742395, 103.80048960282136]]]}, "properties": {"id": 9, "height_median_m": 8.8, "building_count": 2, "area_m2": 367.4548494000686}}, {"type": "Feature", "geometry": {"type": "Polygon", "coordinates": [[[-76.26746476393829, 107.47780133053365], [-83.4536605498396, 121.44519887884236], [-80.51091355227557, 123.66950680466147], [-83.46188802885383, 129.24582369755342], [-70.11300349066418, 138.5595796607117], [-65.74814991843219, 129.89911944774332], [-71.8774870824029, 129.89911944774332], [-63.88834499851172, 115.665084319214], [-76.26746476393829, 107.47780133053365]]]}, "properties": {"id": 10, "height_median_m": 8.4, "building_count": 2, "area_m2": 341.8542536242887}}, {"type": "Feature", "geometry": {"type": "Polygon", "coordinates": [[[-120.8158234408447, 183.71848483754866], [-120.53995240474048, 183.95307003947258], [-129.73000704305025, 196.1092781440828], [-115.26323211453773, 200.79565191494322], [-111.24229941778728, 194.7171188473704], [-110.41542533845134, 195.30305816168337], [-106.29681854778552, 189.46600582407564], [-101.11497515436827, 183.59087520285058], [-101.76953399899554, 183.21980853608153], [-92.7515666528117, 172.99531271977065], [-92.72292610454856, 173.0115489265954], [-92.5510828150135, 172.76800582431233], [-92.27843075473884, 172.45887520290168], [-92.31738104907228, 172.43679444422094], [-88.61299137220028, 167.1867869728109], [-84.48258586011998, 161.33301302100904], [-97.84527951273296, 152.0096221907077], [-101.95968419061353, 159.0069385149392], [-104.88671314300872, 163.43179304975467], [-109.56520656718, 168.73622969337586], [-109.59484203098643, 168.71382939967418], [-109.79241178963895, 168.99383307086632], [-114.0409004179077, 173.81073387986734], [-117.43719240575544, 170.9227183309611], [-121.76976286764648, 177.06300844048843], [-117.870308641072, 180.37888483727383], [-120.8158234408447, 183.71848483754866]]]}, "properties": {"id": 11, "height_median_m": 6.4, "building_count": 7, "area_m2": 831.8456977161127}}, {"type": "Feature", "geometry": {"type": "Polygon", "coordinates": [[[-189.48607815070784, 220.44879464718937], [-189.43655295512698, 220.5049458989735], [-190.42801858029404, 223.8772921547139], [-182.44515700718887, 230.66546832769836], [-180.26666653704814, 234.37039969042448], [-173.852013167633, 227.09751944755072], [-176.30660883406702, 224.31451944711097], [-174.0950320164973, 221.80705218198824], [-173.71064271073044, 221.58914349492414], [-173.82046822665885, 221.49575405761937], [-169.09563025179725, 216.13877235079016], [-167.11643781565414, 209.40679694911498], [-166.16563135442237, 207.25076415100452], [-162.9209566677726, 203.5719791780075], [-166.40006086753226, 202.25711944777242], [-168.26968226838613, 202.25711944777242], [-169.25152053497533, 201.14391944741908], [-171.21519706820948, 201.14391944741908], [-174.34104522738355, 197.59985899627085], [-172.8827807415557, 193.4664388577347], [-177.48493939876155, 192.16196662663668], [-179.44861593193997, 197.72796662642597], [-179.48971772782608, 197.7163164084793], [-179.56507102026583, 198.05805613487883], [-181.43922962714794, 203.37031944773028], [-182.43531745250564, 203.37031944773028], [-183.58257674054397, 207.27257835183428], [-172.7070826312594, 211.3827597172765], [-181.8234042990747, 221.71876883925862], [-181.8234042990747, 214.6781369296918], [-185.3118672333657, 212.04134356602438], [-186.42170288138902, 215.81631064168556], [-189.08606243785738, 219.8440820291612], [-189.20321045599277, 219.711260587768], [-189.36721768133413, 220.26911064152162], [-189.48607815070784, 220.44879464718937]]]}, "properties": {"id": 12, "height_median_m": 9.2, "building_count": 5, "area_m2": 440.84493122512237}}, {"type": "Feature", "geometry": {"type": "Polygon", "coordinates": [[[-84.437536676, 195.779537413], [-84.271391049, 196.156286453], [-91.340326934, 202.568046674], [-82.113831353, 214.191294876], [-78.17310342, 211.95731272], [-75.415286034, 215.084102964], [-75.184034934, 215.346293524], [-74.161798799, 216.505296289], [-73.100579834, 217.708497459], [-72.486050344, 218.405245845], [-69.735248954, 222.563693268], [-69.774191636, 222.593128526], [-69.540535544, 222.858045845], [-69.348287287, 223.148671796], [-69.309837636, 223.119609202], [-66.57897014, 226.215843886], [-63.649505945, 229.537245845], [-60.733734301, 233.945082457], [-58.899629598, 238.104067546], [-58.986808483, 238.16337316], [-58.760143383, 238.420364151], [-58.612432485, 238.755310908], [-58.520113173, 238.692508391], [-55.814628583, 241.759964151], [-53.990438265, 245.896467546], [-54.020395263, 245.916846542], [-53.864618871, 246.181773495], [-53.369947302, 247.303482456], [-53.369947302, 247.303482457], [-51.885932593, 249.54690038], [-51.716004839, 249.835894375], [-51.700556862, 249.827136981], [-48.934940986, 254.007979789], [-47.964359406, 255.475229475], [-45.989628181, 258.46047443], [-45.801114781, 258.745454315], [-45.304024331, 259.496916964], [-44.101415784, 261.314926957], [-43.060645502, 262.888282456], [-40.238858392, 269.28691962], [-40.319043638, 269.347528526], [-40.105216317, 269.589964151], [-39.948637142, 269.945020465], [-39.854689637, 269.874009202], [-36.164196428, 274.058259479], [-32.43409143, 280.402002168], [-32.450902718, 280.411532417], [-32.24916726, 280.71650038], [-32.079239507, 281.005494375], [-32.063791529, 280.996736981], [-29.314909769, 285.152282456], [-27.27113166, 289.786719448], [-26.219106203, 289.786719448], [-25.237267937, 290.899919448], [-23.273591403, 290.899919448], [-22.133766839, 292.192242988], [-20.928262423, 290.825452182], [-13.444352432, 286.582854962], [-13.430217401, 286.610900777], [-13.112179198, 286.394547347], [-12.834668515, 286.237227703], [-12.84647748, 286.213797118], [-8.216057288, 283.063838148], [-3.629083478, 280.98356916], [-3.599790976, 281.036707709], [-3.306865955, 280.837438148], [-2.989634585, 280.69356844], [-3.0184738, 280.641252183], [2.576803694, 276.834924939], [2.576803694, 276.834924938], [6.62855286, 270.709805931], [10.297455873, 265.510091562], [10.306686232, 265.520556866], [13.194939127, 261.154320957], [13.228499401, 261.211396493], [13.513761732, 260.672349759], [13.624844016, 260.504424209], [13.613151144, 260.484538288], [16.456808331, 255.111013802], [20.374288593, 249.559005931], [23.332144399, 245.087549759], [26.285661367, 239.50642844], [29.271823026, 233.863619993], [29.271823026, 232.568244753], [23.721513664, 223.128903381], [30.428166272, 220.594254537], [25.041323242, 212.043674048], [16.022795712, 222.268804996], [13.344483017, 220.327621114], [25.572449859, 199.531671592], [29.608148051, 205.022440547], [34.387416513, 213.692351806], [34.37304664, 213.708644248], [34.513152902, 213.920445989], [34.746404973, 214.34358078], [34.773062353, 214.313356866], [40.515759525, 222.994719447], [42.844679506, 222.994719447], [47.65890973, 216.444718779], [47.727399872, 216.491310908], [47.881502691, 216.141869938], [48.073750006, 215.880307865], [48.014596986, 215.840067546], [50.830539956, 209.454682456], [53.554063341, 205.337471797], [53.584787244, 205.3606948], [53.769130664, 205.012349759], [53.941025009, 204.752493269], [53.916468674, 204.733932091], [57.913590876, 197.180759321], [58.588281378, 197.56323854], [59.679754807, 193.850728254], [62.596229197, 189.441829285], [65.748592104, 184.676332417], [47.66470325, 174.424651587], [52.615690297, 167.407917049], [52.6381357, 167.416399852], [52.780289917, 167.174639962], [55.571109279, 163.219380451], [55.781456225, 163.457870056], [55.781456225, 161.987012441], [66.223580829, 167.248876167], [65.775335515, 168.265309731], [73.219066338, 171.882298147], [77.12985875, 166.339768561], [77.16791218, 166.362779047], [77.330780862, 166.055013802], [77.534436277, 165.766385299], [77.495865175, 165.743061783], [80.28309708, 160.476161483], [84.374103757, 153.518637845], [62.389742497, 138.856470438], [65.096606004, 134.460780503], [87.935314955, 147.407948926], [92.065606588, 141.554336369], [92.268213077, 141.267194444], [92.20743113, 141.232737413], [95.15294593, 134.553537413], [86.104924848, 129.424252168], [86.336246382, 129.030846542], [80.847024643, 125.296666374], [80.586701589, 125.73939452], [74.568325216, 122.327602168], [76.517863716, 119.012046542], [71.608672383, 115.672446542], [75.195311559, 109.572694375], [80.904027423, 112.808941482], [80.548674265, 113.614734348], [82.49264092, 115.818787454], [82.42398379, 115.935551772], [82.710055166, 116.065289904], [82.979866461, 116.37119969], [83.065070028, 116.226295055], [87.673214628, 118.316165349], [94.48457503, 122.177497027], [94.157295609, 122.548563693], [100.736844505, 126.278482397], [103.891531289, 120.317219993], [103.891531289, 116.800640957], [98.982339956, 107.895040958], [98.982339956, 107.879832949], [98.932039679, 107.803792906], [98.282339956, 106.625194343], [98.282339956, 107.812563551], [90.175220598, 94.024887552], [89.056338863, 92.122019448], [88.870896061, 91.806639205], [87.41368525, 93.458812613], [82.944664921, 85.013916274], [74.001106602, 99.660772864], [73.995799054, 99.656259624], [73.786150924, 100.012805564], [71.452981731, 103.980797087], [69.857380109, 106.694416711], [69.660056786, 107.030002007], [67.713411766, 110.340636727], [68.956780098, 111.045497026], [64.193445241, 116.446126175], [64.127172608, 116.408556497], [63.978059184, 116.690329082], [63.720309343, 116.982563692], [63.799616986, 117.027522863], [61.016801634, 122.286077413], [57.100784265, 128.945998934], [53.36458376, 134.241089969], [53.326951675, 134.219756498], [53.16889692, 134.518425093], [52.959038705, 134.815844451], [52.999396054, 134.838722863], [50.216580701, 140.097277413], [46.300563333, 146.757198933], [42.575531944, 152.036460655], [42.51308387, 151.996001739], [42.361424261, 152.339902526], [42.171646181, 152.608863522], [42.226998121, 152.644724988], [39.415909461, 159.019102526], [35.349299869, 164.782462378], [36.552863009, 166.147052182], [46.701779388, 171.900430359], [42.265723953, 176.929992842], [31.749295219, 170.968273451], [26.477805778, 179.335752235], [26.960551502, 179.648513982], [22.531849526, 187.180351773], [29.249690297, 190.227004404], [21.470975259, 203.456167303], [17.10724963, 197.519100637], [14.929302465, 201.223108008], [14.870403103, 201.323277412], [9.167762108, 212.099288376], [6.673170663, 203.61424774], [5.791603722, 200.615708107], [5.761722762, 200.51407176], [11.713874512, 196.015071905], [4.49655987, 184.325170665], [0.612590795, 186.526976462], [-2.167609023, 180.222641946], [-4.222653989, 173.232663653], [-16.437170574, 176.694842793], [-18.60485454, 179.15254471], [-16.692298571, 184.573644541], [-16.719409858, 184.582426984], [-16.56836126, 184.924942253], [-16.459330144, 185.233988666], [-16.435479588, 185.226262506], [-13.626614923, 191.595596949], [-12.666210899, 194.862291057], [-11.66967618, 198.251879201], [-11.571977444, 198.584189227], [-11.571977443, 198.584189227], [-10.931731398, 200.76190603], [-10.69168784, 201.578384154], [-9.803625833, 204.599015942], [-9.849668764, 204.612936766], [-9.699261857, 204.953996949], [-9.606177093, 205.270613127], [-9.565110284, 205.258196806], [-5.49774004, 214.481297413], [-5.856599187, 214.68473316], [-4.892526269, 217.96390655], [-4.937350659, 217.978426984], [-4.790070524, 218.312396949], [-4.69500956, 218.635734922], [-4.653420388, 218.622262506], [-2.159489933, 224.277457413], [-2.944960547, 224.722737413], [0.267627607, 232.007548474], [8.172046668, 228.646811936], [12.012262872, 234.452151877], [5.306295255, 245.434508392], [2.431725078, 242.175344811], [0.244846089, 239.695879737], [-4.302691741, 234.539919448], [-5.254393606, 234.539919448], [-8.301747456, 229.933167099], [-8.340197108, 229.962229694], [-12.017023494, 225.793474744], [-12.184537525, 225.413622735], [-12.280259828, 225.495019594], [-16.223230893, 221.024512039], [-23.567556101, 228.161884367], [-20.63316856, 232.597863043], [-20.687047376, 232.643678556], [-20.442143667, 232.886639607], [-20.24415986, 233.185936115], [-20.188318274, 233.138451573], [-12.570161411, 240.69617869], [-8.650520795, 245.140234379], [-4.739209947, 249.574845846], [-1.816514212, 253.993149759], [0.961967922, 259.243516032], [0.882660278, 259.288475203], [1.945504828, 260.493519448], [-0.963611743, 263.791851441], [0.948409635, 267.043602168], [-1.015266898, 268.156802168], [0.163972298, 270.162319448], [-7.564179138, 270.162319448], [-9.3300791, 272.164482029], [-12.0140332, 268.107089136], [-14.799733187, 262.843083628], [-14.771530573, 262.825319246], [-14.959548, 262.541089136], [-15.128083395, 262.222615771], [-15.157824935, 262.241349498], [-16.974652145, 259.494811542], [-30.252512472, 269.5310294], [-33.616943267, 264.762825093], [-35.403139181, 261.387535157], [-30.07224791, 258.701259666], [-28.12730337, 260.906421488], [-18.458161552, 257.252157495], [-20.8505776, 253.635489136], [-23.629059734, 248.385122863], [-23.598690158, 248.367906478], [-23.796092399, 248.069489136], [-23.956615356, 247.766156497], [-23.985801348, 247.782701914], [-26.741607199, 243.616689136], [-29.532589646, 238.342701616], [-29.505946136, 238.324576703], [-29.687121999, 238.050689136], [-31.171288929, 235.246129086], [-31.171288932, 235.246129083], [-31.171288934, 235.24612908], [-32.655455864, 233.56339305], [-32.813695902, 233.324178078], [-32.850212834, 233.34257923], [-35.655836422, 230.161586713], [-37.917734488, 228.879326175], [-38.804153693, 229.884340843], [-44.214964396, 222.727153697], [-44.191021193, 222.710865735], [-44.444819149, 222.423111739], [-44.637631846, 222.168067415], [-44.657716502, 222.181730504], [-50.661735505, 215.374424065], [-45.462741966, 210.658763814], [-40.297887136, 205.974068509], [-42.096154778, 203.935207724], [-44.453191633, 201.262819087], [-44.680702055, 201.004869677], [-46.727210727, 198.684555292], [-47.363201093, 197.963474744], [-49.199688096, 193.79908759], [-49.127008365, 193.737284837], [-49.326877626, 193.510674744], [-49.494391657, 193.130822735], [-49.59011396, 193.212219594], [-52.296947125, 190.143234832], [-61.675702458, 177.146668571], [-69.488392959, 184.528304429], [-75.105199238, 188.773829693], [-75.125301119, 188.751038349], [-75.376574629, 188.978951789], [-75.665221237, 189.197128526], [-75.643840006, 189.221370386], [-80.268608779, 193.416189654], [-84.437536676, 195.779537413]]]}, "properties": {"id": 13, "height_median_m": 7.0, "building_count": 93, "area_m2": 8979.414248054034}}, {"type": "Feature", "geometry": {"type": "Polygon", "coordinates": [[[38.262086944, 146.780965288], [38.000263406, 146.669645288], [45.243055709, 134.351919448], [43.260151005, 134.351919448], [46.978185671, 127.607156965], [49.552890426, 122.936471081], [52.621463791, 117.369874647], [54.561259982, 118.469536981], [60.478359485, 109.524526531], [60.484372819, 109.526799154], [60.63470618, 109.288173766], [60.874370391, 108.925868067], [60.865152537, 108.922384358], [65.741409838, 101.18226082], [55.604063433, 95.435441613], [52.26266045, 93.541214261], [45.477551192, 89.694764248], [42.10728402, 95.808653336], [41.65287153, 96.632987854], [38.727741891, 101.939367815], [35.587972021, 107.635119448], [34.619685357, 107.635119448], [29.785618686, 115.308273451], [29.768138926, 115.298364248], [29.602081202, 115.599604017], [24.520993379, 124.817035696], [34.339376046, 130.383035696], [29.761456179, 138.687687195], [18.956025934, 133.119002524], [15.852241369, 138.984077413], [12.103482492, 145.35954452], [12.089744478, 145.351756497], [11.924888303, 145.663277413], [11.748630568, 145.963036727], [11.762188855, 145.970722863], [8.986174922, 151.216425093], [5.280235164, 156.4686294], [5.271420976, 156.461967099], [5.06869466, 156.768432964], [4.876449076, 157.040891004], [4.884459309, 157.046945627], [1.995606226, 161.414088855], [12.005987381, 177.303649644], [16.316845208, 178.525553265], [23.519481523, 166.859426545], [20.327084202, 165.049669878], [23.329676197, 159.375813802], [23.539534413, 159.078394444], [23.499177064, 159.055516032], [26.281992416, 153.796961483], [30.006155258, 147.463324544], [32.678318356, 149.483108631], [35.946885167, 150.718399853], [36.426155732, 149.903310427], [36.859117615, 149.166977594], [37.214258544, 148.562993879], [38.262086944, 146.780965288]]]}, "properties": {"id": 14, "height_median_m": 7.8, "building_count": 13, "area_m2": 1741.3775516059313}}, {"type": "Feature", "geometry": {"type": "Polygon", "coordinates": [[[22.431183748, 115.014319448], [21.417116893, 103.516914414], [21.417116893, 97.157013583], [21.517107824, 97.142842473], [21.417116893, 96.802735833], [21.417116893, 96.450018545], [20.435278626, 96.589168545], [20.435278626, 85.298787534], [12.580572493, 86.783054201], [12.580572493, 86.431218545], [-2.147001506, 88.518468546], [-2.147001506, 82.988282219], [-5.537599764, 84.26969285], [-16.563319153, 86.353170893], [-17.978240284, 83.144719448], [-18.926338886, 83.144719448], [-20.506637241, 77.769532345], [-18.650214528, 77.168161911], [-19.229445872, 75.854706622], [-23.61630322, 77.21119265], [-26.724758605, 66.63817064], [-23.605815446, 65.930924316], [-25.740880018, 61.089487671], [-28.596057814, 54.615134349], [-27.579405416, 53.462462378], [-31.991629081, 47.2092846], [-26.57515428, 43.524592353], [-28.694607205, 39.920065401], [-33.387546156, 29.278435679], [-39.429627796, 33.388712602], [-39.656205858, 32.874927987], [-44.909656956, 36.44871929], [-51.938914838, 41.002841397], [-51.938914838, 43.499332057], [-46.155133673, 55.521603532], [-46.166268876, 55.527916032], [-46.01037604, 55.82249935], [-45.850974881, 56.153833463], [-45.838713254, 56.146882398], [-43.067569594, 61.383381503], [-39.97093314, 68.405262433], [-36.106613898, 66.214596044], [-34.338267965, 73.231871351], [-38.325803849, 74.362130044], [-35.227056789, 81.388796949], [-33.269706054, 88.046480538], [-31.306107545, 94.725415149], [-30.338472972, 98.016703062], [-30.338472972, 105.626422974], [-31.268671917, 106.681074744], [-34.916716025, 114.953318431], [-35.92733657, 114.189429694], [-40.069388509, 118.885653476], [-43.797119909, 123.112124104], [-43.82623552, 123.093260655], [-44.009247926, 123.352633071], [-44.265260225, 123.642897671], [-44.230121282, 123.665663522], [-48.106952794, 129.160062379], [-46.918893497, 130.507074055], [-44.196380192, 132.564915904], [-58.893818854, 157.005204021], [-52.570753104, 164.174242988], [-49.184668999, 160.335129202], [-45.504937103, 163.116495329], [-44.30196409, 159.024733161], [-46.857435504, 157.576047122], [-37.556038828, 144.921032383], [-34.45785832, 140.237444248], [-35.412817573, 139.154719448], [-30.935186894, 134.078019301], [-30.864892523, 134.137793677], [-30.680369799, 133.789109813], [-30.4720813, 133.552954058], [-30.529540196, 133.504094246], [-27.734854999, 128.223109813], [-21.111415517, 120.713509626], [-21.04157557, 120.770069588], [-17.880569621, 114.796866157], [-16.874575506, 111.375103062], [-16.874575506, 110.261903062], [-15.928860658, 107.04517235], [-10.897375985, 101.340517187], [-8.805174554, 113.201119448], [-9.719869373, 113.201119448], [-9.719869373, 114.738067691], [-8.671594113, 117.115119103], [-5.87451906, 119.229319275], [-7.714467904, 123.401556439], [-10.643619842, 127.829620338], [-13.575754347, 132.26219305], [-15.559259651, 134.511074744], [-16.551012303, 136.759956439], [-19.480164242, 141.188020338], [-22.435117812, 145.655089136], [-25.568807244, 151.576673838], [-14.09665547, 156.306502768], [-12.870489458, 153.526069268], [-8.348240834, 158.653356866], [-4.943763093, 153.506732417], [-6.203942714, 152.792341869], [0.996204575, 144.628875203], [0.684995652, 144.452452168], [5.787991397, 135.773851441], [-4.533929511, 124.070944003], [-3.837114824, 123.212542959], [9.412147695, 130.723494375], [11.708423577, 126.818246841], [8.420613877, 124.333119448], [7.413687606, 124.333119448], [5.581370776, 123.294386713], [1.428476681, 118.585870185], [12.269757793, 116.127519448], [15.526087293, 116.127519448], [15.526087293, 115.014319448], [22.431183748, 115.014319448]]]}, "properties": {"id": 15, "height_median_m": 7.3, "building_count": 25, "area_m2": 3816.4666253112036}}, {"type": "Feature", "geometry": {"type": "Polygon", "coordinates": [[[-15.531023091, 76.157729593], [-8.498625865, 73.879651578], [-7.508699772, 75.002021488], [-4.336944074, 73.803318143], [-1.424404666, 72.702580551], [8.902063291, 71.030000144], [8.979342354, 71.599519448], [15.864261592, 71.599519448], [15.874792006, 71.659215925], [16.190704432, 71.599519448], [16.575069007, 71.599519448], [16.56267015, 71.529230845], [22.106035489, 70.481727316], [29.95009344, 69.370036419], [38.762164859, 68.259919448], [42.716203945, 68.259919448], [46.982572329, 67.050626266], [46.976664961, 67.007091058], [45.485090969, 56.014719448], [44.936950631, 51.975119448], [37.093905973, 51.975119448], [37.089767729, 51.932892294], [36.754569991, 51.975119448], [36.390552633, 51.975119448], [36.394991869, 52.020417966], [28.226787354, 53.049422614], [28.224709136, 53.037641284], [27.890116049, 53.091835404], [27.531432274, 53.137021255], [27.533646371, 53.14957288], [21.011237338, 54.206008982], [20.677561627, 54.260054514], [20.309082467, 54.319737169], [14.138381542, 55.319207027], [2.844779789, 57.148434318], [2.68810347, 56.378668361], [-4.516134621, 57.545540473], [-8.070766847, 58.121285078], [-11.388087816, 58.658592323], [-11.749384316, 58.717111601], [-14.986307064, 59.241396728], [-18.617051311, 59.829469215], [-15.789339377, 74.790971007], [-15.531023091, 76.157729593]]]}, "properties": {"id": 16, "height_median_m": 6.6, "building_count": 8, "area_m2": 1018.0957101080561}}, {"type": "Feature", "geometry": {"type": "Polygon", "coordinates": [[[52.95695272, 65.357200659], [53.143503712, 67.049280276], [53.160240979, 67.201092855], [60.39661263, 66.029016062], [67.603008457, 64.861794461], [65.551769837, 48.582054332], [58.322287507, 49.753015259], [51.154103158, 50.914047738], [51.154103158, 56.014719448], [51.926948502, 56.014719448], [52.95695272, 65.357200659]]]}, "properties": {"id": 17, "height_median_m": 8.7, "building_count": 2, "area_m2": 240.34201063424914}}, {"type": "Feature", "geometry": {"type": "Polygon", "coordinates": [[[-29.240667582, 26.457417971], [-24.209669886, 35.013572521], [-19.246582508, 31.637308391], [-18.280969155, 32.732112719], [-11.767692892, 29.039763692], [-13.07681058, 27.555497026], [-8.215457859, 24.799616535], [-6.275297563, 23.699747791], [-1.562716405, 21.918719447], [-7.698953667, 21.918719447], [-7.986946622, 17.834273688], [5.751309442, 15.887233737], [3.693509588, 0.721978228], [-4.81067804, 1.927225312], [-4.81067804, 3.36990685], [-4.211330311, 7.447119448], [-9.527855671, 7.447119448], [-15.226327345, 13.907998885], [-15.256852358, 13.863501594], [-15.535938193, 14.259033071], [-15.703819974, 14.449376027], [-15.687268249, 14.473504007], [-19.437619048, 19.788649398], [-21.296793979, 21.053399573], [-24.294311913, 23.092536003], [-24.573682344, 23.282584716], [-27.088122735, 24.993095584], [-29.203478007, 26.432118834], [-29.240667582, 26.457417971]]]}, "properties": {"id": 18, "height_median_m": 8.3, "building_count": 5, "area_m2": 465.4473083157915}}, {"type": "Feature", "geometry": {"type": "Polygon", "coordinates": [[[-0.930192124, 21.918719447], [1.126310031, 38.240233834], [11.268512222, 37.090319448], [14.826087293, 37.090319448], [14.826087293, 40.586356677], [18.185533258, 39.316719448], [24.678908269, 39.316719448], [24.684589641, 39.371472125], [25.022631247, 39.316719448], [25.382666637, 39.316719448], [25.376715639, 39.259368317], [32.315070521, 38.135561369], [32.238781695, 37.876074473], [52.135941425, 35.05617035], [52.135941425, 36.03022035], [60.725724363, 34.812842359], [58.882365422, 18.092962984], [58.685301123, 16.305524169], [50.497586504, 17.465919448], [43.962930381, 17.465919448], [43.956935738, 17.411546041], [36.426529159, 18.631247738], [33.462835957, 19.111277813], [29.875500004, 19.692319448], [29.875500001, 19.692319448], [28.849326362, 19.85852903], [28.817053791, 19.692319448], [23.002632136, 19.692319448], [15.773529816, 20.863218825], [12.818092572, 21.34191168], [9.256896405, 21.918719447], [-0.930192124, 21.918719447]]]}, "properties": {"id": 19, "height_median_m": 5.7, "building_count": 8, "area_m2": 1077.6211555765344}}, {"type": "Feature", "geometry": {"type": "Polygon", "coordinates": [[[64.821345616, 15.399536591], [68.975364139, 28.35146293], [77.53621045, 23.498355021], [70.281675194, 12.923186221], [64.821345616, 15.399536591]]]}, "properties": {"id": 20, "height_median_m": 8.7, "building_count": 1, "area_m2": 103.374014512016}}, {"type": "Feature", "geometry": {"type": "Polygon", "coordinates": [[[82.943791369, -3.895301947], [83.184516933, -4.213723346], [83.409133992, -4.425947462], [83.374577521, -4.465127299], [88.924336961, -11.806109843], [88.964200994, -11.78803084], [89.108324809, -12.049481038], [89.357053749, -12.378488957], [89.303162479, -12.402929545], [93.890171357, -20.724069118], [93.981947544, -20.694339098], [94.054057404, -21.02136932], [94.234329261, -21.348394473], [94.133377021, -21.381096988], [97.112739749, -34.893002979], [96.0737567, -43.138934908], [96.127754507, -43.15117936], [96.030558455, -43.481779568], [95.9858301, -43.836768006], [95.929919656, -43.824089847], [93.175066817, -53.194377047], [93.201142203, -53.202260795], [93.073372814, -53.540276473], [92.977618076, -53.865974232], [92.953065579, -53.858550921], [90.005250111, -61.657037371], [88.450925308, -61.153528674], [86.29474483, -70.932166114], [86.322927649, -70.935070973], [86.207634298, -71.327226879], [86.143025912, -71.620236664], [86.1221232, -71.61808218], [85.165440879, -74.872117378], [71.018157591, -78.309275504], [68.786911168, -75.779507004], [70.705392134, -69.254034067], [70.658243747, -69.240669956], [70.811476007, -68.893203051], [70.90284444, -68.582424758], [70.943452633, -68.593935065], [73.76075927, -62.205457747], [75.714620282, -56.667279634], [77.592728347, -49.214438481], [77.568659385, -49.207161364], [77.677451094, -48.878235688], [77.763967078, -48.534916845], [77.788545482, -48.542347989], [80.616256116, -39.992922328], [81.693299534, -31.444922708], [78.686172248, -25.762496509], [75.772137755, -20.255983356], [72.157831102, -17.182580406], [72.150438875, -17.190961651], [71.89171094, -16.956286799], [71.624476818, -16.729045942], [71.631899988, -16.720629614], [66.989974032, -12.510248211], [59.841884692, -7.107285677], [52.433399832, -5.907331669], [44.586955338, -4.795302541], [35.116894154, -3.721594939], [35.111857569, -3.761568005], [34.754260021, -3.680479784], [34.42129659, -3.642728669], [34.425921082, -3.606026197], [29.864475992, -2.571680552], [25.303137481, -2.571680552], [25.296400905, -2.625145668], [24.966308671, -2.571680552], [24.597602809, -2.571680552], [24.604976926, -2.513155566], [18.065734188, -1.453992905], [10.856046248, -0.28623808], [12.906695421, 14.826319448], [20.11343991, 14.826319448], [27.347639526, 13.65459446], [27.345078036, 13.634265092], [31.906523126, 12.599919447], [36.426529159, 12.599919447], [36.426529159, 12.688170454], [46.658275313, 10.368036842], [54.474296345, 9.260319448], [57.908570572, 9.260319448], [57.049864353, 1.471568118], [60.142766548, 0.812068789], [61.910706935, 6.324377782], [67.613111336, 4.7080432], [65.565305209, -6.900883944], [71.093034492, -0.633590798], [74.00009964, -2.830928203], [76.969666207, 1.658231386], [78.425653188, 0.28257652], [82.900023084, -3.944926062], [82.943791369, -3.895301947]]]}, "properties": {"id": 21, "height_median_m": 5.8, "building_count": 19, "area_m2": 2113.320199777032}}, {"type": "Feature", "geometry": {"type": "Polygon", "coordinates": [[[101.614649688, -34.081293522], [105.057248782, -32.129698518], [103.130954397, -27.761665651], [104.112792664, -26.648465651], [102.14911613, -22.195665651], [103.130954397, -21.082465651], [101.257606988, -16.834494459], [99.203601331, -12.176865651], [100.165729719, -11.086012546], [98.202053186, -7.746412547], [99.174372238, -6.644005353], [96.017492672, -1.871680552], [98.164627669, -1.871680552], [97.273569721, 1.159141554], [102.156957274, 10.017931778], [99.772994413, 14.072307454], [102.623480457, 17.304164647], [109.859325544, 4.412258097], [108.861299514, 3.280704547], [112.788652581, -5.624895453], [111.806814314, -6.738095453], [113.896786144, -11.477280552], [112.914947878, -11.477280552], [114.752329114, -15.643695453], [113.770490847, -16.756895453], [115.734167381, -21.209695453], [114.781558208, -22.289755752], [117.820989856, -26.884531933], [114.875475056, -27.997731933], [117.938437772, -32.628080552], [116.842300944, -32.628080552], [118.701108043, -36.84308038], [115.755593243, -39.06948038], [119.559218619, -47.694517543], [119.749696769, -47.982467583], [117.735226062, -49.124462587], [119.661520447, -53.492495454], [118.67968218, -54.605695454], [120.76965401, -59.344880552], [119.74556611, -59.344880552], [121.540244109, -64.431857747], [123.71516881, -69.363680552], [122.733330544, -69.363680552], [124.510134888, -73.392732309], [124.510134888, -74.505932309], [128.395763019, -83.316917544], [128.594687324, -83.617635824], [128.5406585, -83.645480109], [132.425417913, -92.454495454], [127.338971565, -98.221465704], [122.057264584, -101.814478777], [122.057264583, -101.814478777], [117.951481192, -93.280123631], [115.748650686, -88.701280552], [116.636096271, -88.701280552], [115.909154825, -87.602347058], [117.334466158, -86.309542221], [114.210187725, -82.539192266], [113.764549439, -82.876032902], [111.938269704, -80.115205353], [112.92010797, -79.002005353], [109.763228404, -74.229680552], [110.859365234, -74.229680552], [107.160609292, -65.842443561], [106.970131143, -65.554493522], [108.984601849, -64.412498518], [106.932012167, -59.758080553], [107.869515827, -59.758080553], [104.924001027, -54.192080552], [106.974261801, -54.192080552], [105.010585268, -48.626080553], [105.950173901, -48.626080553], [104.091366802, -44.411080725], [106.995639038, -42.215854373], [101.614649688, -34.081293522]]]}, "properties": {"id": 22, "height_median_m": 5.2, "building_count": 19, "area_m2": 1442.4496690566768}}, {"type": "Feature", "geometry": {"type": "Polygon", "coordinates": [[[118.42402527, -104.286080552], [117.887518008, -104.651053015], [128.432389263, -112.621510798], [132.938348819, -107.512691609], [135.427509692, -109.206005453], [138.102672542, -111.025851788], [138.415838293, -111.238890611], [141.233125487, -113.15542058], [143.340087733, -114.588734265], [139.762679591, -118.644769641], [145.660311617, -121.988112529], [145.686157817, -121.952296278], [145.953235218, -122.154169691], [146.272927996, -122.335402188], [146.24471981, -122.37449155], [152.149968058, -126.838038872], [141.873597454, -139.654428047], [139.133627287, -137.169183873], [134.914751176, -141.952510258], [141.861768764, -148.703770544], [144.791624884, -146.489206331], [150.354118524, -151.219237842], [159.489327338, -140.861814631], [167.800542734, -149.107102712], [161.539317879, -159.75548913], [170.807785419, -166.920382883], [153.677029781, -187.485602277], [145.572616167, -181.74265462], [143.596777526, -180.622559973], [124.64167759, -164.786987931], [128.057566579, -160.914081615], [122.204785141, -155.226223426], [122.185263952, -155.246511973], [120.232781822, -153.032804093], [117.247476749, -156.417517971], [114.074073883, -151.620214529], [109.44684142, -147.423160613], [109.419065673, -147.451503331], [109.182971829, -147.183822109], [108.927966021, -146.952523351], [108.954808738, -146.925132708], [104.271418893, -141.615144542], [98.632339956, -136.287194168], [98.60943535, -136.308835043], [98.380389293, -136.049144543], [98.12270809, -135.805680553], [98.146133655, -135.783547462], [94.45539783, -131.599022109], [89.823527674, -127.39776165], [89.795795556, -127.429204093], [89.546206497, -127.146222109], [89.304988787, -126.927429614], [89.329110558, -126.900080552], [84.62413258, -121.565615943], [79.723830389, -116.009694379], [73.144781374, -109.616033822], [73.125408702, -109.641659157], [72.850962523, -109.330494379], [72.638913969, -109.124421059], [72.652895193, -109.105927299], [68.694114459, -104.617494874], [76.06956617, -97.449873144], [79.22474035, -101.027183192], [88.36666667, -106.785538449], [88.147939369, -107.033529631], [94.657152891, -111.953590798], [99.393766363, -106.58325813], [92.161306895, -102.483207158], [92.003673742, -102.661930306], [80.023947096, -93.606921177], [80.3498581, -93.290193893], [72.900463725, -88.222557338], [72.67254227, -88.05028038], [73.812920788, -85.464377162], [83.699011377, -79.859993824], [81.248893601, -88.193762838], [88.778832945, -79.656380699], [96.681549819, -86.376406331], [96.746132885, -86.327590505], [96.929118239, -86.586924581], [97.227848643, -86.840948103], [97.149918973, -86.899852108], [101.07727204, -92.465852109], [98.162689689, -94.668871474], [102.58742514, -99.685599454], [104.772839275, -97.703356067], [107.437876542, -95.286078528], [112.903101467, -99.003934265], [110.962090437, -101.204636308], [116.397735202, -104.286080552], [118.42402527, -104.286080552]]]}, "properties": {"id": 23, "height_median_m": 6.6, "building_count": 25, "area_m2": 3775.396504208805}}, {"type": "Feature", "geometry": {"type": "Polygon", "coordinates": [[[87.959209025, 1.75674452], [87.938986586, 1.768208536], [86.642486255, 2.503189142], [81.459147499, 5.441602168], [89.668705555, 19.403494375], [96.168767081, 15.718636727], [90.621839879, 6.28504735], [89.609847823, 4.563965179], [87.959209025, 1.75674452]]]}, "properties": {"id": 24, "height_median_m": 8.8, "building_count": 1, "area_m2": 121.00421115058595}}, {"type": "Feature", "geometry": {"type": "Polygon", "coordinates": [[[92.570153325, 86.30187338], [92.899860224, 86.104702872], [96.380455385, 91.48597964], [96.380455388, 91.485979644], [96.380455389, 91.485979646], [101.350900323, 98.248518229], [100.561476716, 97.950170939], [107.237500175, 108.271833839], [110.579384257, 109.534833896], [114.860210341, 101.445559321], [115.45068049, 101.780294375], [117.40371197, 98.458798283], [117.417804254, 98.467928405], [117.592951212, 98.136961483], [117.758852899, 97.854814569], [117.746498518, 97.846810401], [120.538466012, 92.570961484], [124.461987946, 85.898277042], [128.222927758, 79.502093973], [128.236368104, 79.508866663], [128.393172145, 79.212561483], [128.578480991, 78.897409058], [128.563851345, 78.890037071], [131.3422553, 73.639818531], [134.268458995, 68.110309813], [137.95370462, 63.932009202], [138.022878174, 63.984294799], [138.195812061, 63.657509813], [138.418058621, 63.405528526], [138.354559604, 63.35753209], [141.159968274, 58.056284016], [141.328513428, 57.737792211], [142.259624964, 55.978314782], [142.830841057, 54.898914748], [144.106038337, 52.489234762], [147.041297792, 46.942613802], [150.772964019, 41.653948926], [150.787810694, 41.662365444], [150.961021901, 41.387425862], [151.178509074, 41.079194444], [151.161339034, 41.06946082], [155.697002027, 33.869965444], [155.743036922, 33.896062433], [155.888814089, 33.565500571], [156.070530367, 33.27706082], [156.026918461, 33.252337413], [158.832749284, 26.889882457], [161.758998987, 22.466205931], [165.906083074, 16.588794444], [148.271944569, 6.592075203], [150.218981341, 4.384541224], [150.159515698, 4.346014568], [158.03362899, -9.045390942], [148.871244599, -13.662384121], [146.834721467, -14.816880552], [144.730093301, -14.816880552], [140.615393646, -13.650577554], [135.636930404, -4.619313699], [124.664010898, 14.607692784], [138.340017607, 22.360563692], [134.167811692, 27.0909758], [129.401333723, 24.929298687], [121.642315267, 19.902378621], [121.0601452, 19.525201739], [121.060145199, 19.525201739], [117.962970791, 26.548302526], [114.238556291, 31.826689969], [114.21466222, 31.813144521], [114.04740373, 32.097598933], [113.833011235, 32.401444451], [113.859810297, 32.416636727], [109.915455255, 39.124751773], [114.793647284, 41.337093072], [107.582873723, 51.556486379], [104.402027248, 49.61456949], [97.026209362, 62.158530267], [96.552218475, 61.851440612], [92.614220355, 68.548744521], [92.594180364, 68.537383934], [92.433860435, 68.85548037], [92.259368432, 69.152236727], [92.278756432, 69.163227703], [88.46395729, 76.732305484], [88.46395729, 79.128819993], [91.3496124, 84.581705968], [91.328170701, 84.612093991], [91.462181316, 84.794422125], [91.716774551, 85.27551492], [91.765268501, 85.206787377], [92.519273891, 86.232649369], [92.570153325, 86.30187338]]]}, "properties": {"id": 25, "height_median_m": 4.5, "building_count": 27, "area_m2": 3795.060216139565}}, {"type": "Feature", "geometry": {"type": "Polygon", "coordinates": [[[-163.98346119841253, 252.5623887716544], [-163.8626172097315, 252.79726631765035], [-174.7974942953355, 258.11064003924344], [-171.82187234856056, 263.7335320903879], [-177.66823110092523, 268.15256713552986], [-176.60332021514685, 271.77472825350475], [-173.43750472711503, 276.5605616864037], [-166.2823754897931, 271.92488992774963], [-159.64379974843587, 268.16150915198676], [-150.5822584374558, 263.0245593453467], [-142.74096923861407, 258.57936534931525], [-138.1495037608225, 256.497059314429], [-138.13515485121863, 256.5249484689684], [-137.83177790548504, 256.3529653493956], [-137.511221599174, 256.2075877277232], [-137.52569833559616, 256.1794501235116], [-127.54046136798647, 250.5188611186016], [-127.54046136798647, 252.1886611188318], [-124.97260483156299, 250.73295400633822], [-117.82641539535466, 238.5795194476103], [-113.04785848447725, 238.5795194476103], [-114.07656390180365, 230.41515636780838], [-114.07656390180365, 223.40791944776268], [-119.43482657379306, 223.40791944776268], [-121.00576780040558, 214.50231944770434], [-131.46781443451772, 214.50231944770434], [-131.46781443451772, 218.6031703189606], [-130.4859761677541, 218.44414174751788], [-130.4859761677541, 229.1688539579754], [-140.44516560327406, 238.2021703857987], [-139.5202118486534, 239.25087520271492], [-145.01260717517786, 242.36449110308791], [-151.35210033239153, 244.76037917805007], [-150.35610671452397, 245.88962839668142], [-157.46849067627394, 248.91361389988285], [-157.48661961723244, 248.87935649761613], [-157.78272565295404, 249.0472177687389], [-158.11500100280287, 249.18849189657251], [-158.09583127108485, 249.22471603191022], [-163.98346119841253, 252.5623887716544]]]}, "properties": {"id": 26, "height_median_m": 6.4, "building_count": 12, "area_m2": 1293.4742077247545}}, {"type": "Feature", "geometry": {"type": "Polygon", "coordinates": [[[-72.72680277876594, 240.59602770311093], [-76.9695797773528, 232.17778393328976], [-81.50661676126596, 234.74981119217787], [-77.26383976269072, 243.16805496154876], [-72.72680277876594, 240.59602770311093]]]}, "properties": {"id": 27, "height_median_m": 9.4, "building_count": 1, "area_m2": 49.10642141508133}}, {"type": "Feature", "geometry": {"type": "Polygon", "coordinates": [[[-203.88813853305408, 400.1221637566556], [-161.08188360771084, 374.1624525284628], [-172.22739426397274, 354.63302779052657], [-216.04209757949647, 380.60041643913024], [-203.88813853305408, 400.1221637566556]]]}, "properties": {"id": 28, "height_median_m": 6.6, "building_count": 1, "area_m2": 1148.1309585504418}}, {"type": "Feature", "geometry": {"type": "Polygon", "coordinates": [[[-44.08420870476499, -231.44560585809012], [-40.03185268913279, -224.5538149134846], [-34.54766430511335, -223.31022954583528], [-34.54766430511335, -225.62488055221746], [-28.656634705229326, -225.62488055221746], [-28.656634705229326, -226.7380805525708], [-23.747443372108908, -226.7380805525708], [-23.747443372108908, -228.18204515856726], [-22.732201751403252, -237.39062470275647], [-29.356634705229332, -238.64241246567715], [-29.356634705229332, -237.456880552587], [-35.247664305113354, -237.456880552587], [-35.247664305113354, -236.34368055223365], [-38.93277995031421, -236.34368055223365], [-44.08420870476499, -232.8392924971897], [-44.08420870476499, -231.44560585809012]]]}, "properties": {"id": 29, "height_median_m": 4.9, "building_count": 3, "area_m2": 224.40586661608614}}, {"type": "Feature", "geometry": {"type": "Polygon", "coordinates": [[[15.962415088787065, -263.3105183479653], [26.441292191087296, -269.2509498767595], [26.107366844248453, -269.8999814658775], [39.98641534678311, -275.8009623036213], [44.05136242312936, -285.0185681749793], [24.06011548401377, -312.21765810569156], [17.635395791276768, -306.1474136423597], [26.471940190917167, -296.12861364235624], [20.62126034205358, -290.60073715058263], [23.594970691803645, -285.69663841868], [10.824287030794528, -278.4569913529192], [15.962415088787065, -263.3105183479653]]]}, "properties": {"id": 30, "height_median_m": 5.9, "building_count": 2, "area_m2": 738.0697533132957}}, {"type": "Feature", "geometry": {"type": "Polygon", "coordinates": [[[-17.4255532, -142.841090186], [-17.425553198, -142.841090188], [-12.828838801, -151.527283968], [-13.130942884, -151.698545507], [-7.919647468, -161.546083968], [-8.22175155, -161.717345506], [-3.010456135, -171.564883968], [-3.030880733, -171.576462587], [0.141283244, -178.769608462], [7.953219427, -180.983885409], [7.953219427, -180.940443324], [8.41300853, -181.114211668], [8.413008532, -181.114211668], [14.663558212, -183.476485286], [14.65425201, -183.497587874], [24.362631693, -187.900499689], [24.362631693, -188.255261368], [35.410373191, -192.430540283], [34.919454058, -192.987140282], [44.981235292, -196.789794702], [44.981235292, -203.898129943], [49.437919693, -198.845178512], [53.08346199, -200.222940283], [51.811551617, -201.665021606], [47.78165938, -213.087666738], [-3.128839773, -190.886936982], [-3.128839773, -193.354172164], [-12.599064098, -185.002969172], [-32.302149505, -144.792421512], [-32.302149505, -135.736467617], [-25.273546364, -118.66010044], [-12.827913254, -123.363685287], [-14.050887217, -126.136880552], [-15.032725484, -126.136880552], [-16.813998614, -130.176065651], [-15.832160347, -131.289265651], [-17.978240284, -136.155680552], [-23.322059673, -136.155680552], [-17.4255532, -142.841090186]]]}, "properties": {"id": 31, "height_median_m": 4.9, "building_count": 1, "area_m2": 1741.6146782308692}}, {"type": "Feature", "geometry": {"type": "Polygon", "coordinates": [[[53.98190567094088, -292.41688055245726], [54.09961795799218, -292.41688055245726], [54.09961795799218, -285.80816037279993], [59.7088092911126, -284.53622954589036], [59.7088092911126, -285.7376805523146], [63.63616235764382, -285.7376805523146], [63.63616235764382, -286.8508805522725], [64.54923344134605, -286.8508805522725], [66.66725932473287, -296.45648055233085], [66.58167715741142, -296.45648055233085], [66.58167715741142, -300.52864715952103], [67.54109880914903, -305.9675683088467], [68.45784337959964, -307.00696562134993], [69.52719195735342, -308.2193840788682], [69.52719195735342, -309.59717702558], [68.35333998868072, -310.928080552574], [63.3321154129828, -310.928080552574], [63.77779028368733, -311.93868542087455], [58.11099621300165, -313.22367814802476], [57.11389994065483, -308.7016805522628], [55.27346992670204, -308.7016805522628], [54.09961795799218, -307.3707770256995], [54.09961795799218, -305.9929840789524], [56.36662332381187, -303.42267239014274], [54.39486874569718, -292.2448782914507], [54.0472201007415, -292.63903941219655], [53.98190567094088, -292.41688055245726]]]}, "properties": {"id": 32, "height_median_m": 4.0, "building_count": 1, "area_m2": 303.69177801588756}}, {"type": "Feature", "geometry": {"type": "Polygon", "coordinates": [[[53.11777969140298, -228.33357702594088], [51.888420859199115, -226.93974028288082], [58.31303985909881, -224.5116805522596], [60.2767163922878, -224.5116805522596], [63.540844099183964, -223.27806700421334], [64.56898813695575, -227.94087138596495], [69.12963879200115, -229.6644805524865], [66.76854934670453, -229.6644805524865], [70.69590241253803, -238.57008055254485], [69.52719195735342, -238.57008055254485], [69.52719195735342, -254.04057665659803], [79.7802119088039, -250.16564728610322], [77.72567667834636, -239.6832805525027], [75.73268300943624, -239.6832805525027], [75.62358986870842, -238.57008055254485], [75.6235898687084, -238.57008055254485], [74.75084474284704, -229.6644805524865], [71.80917340159728, -229.6644805524865], [70.76323153433297, -220.17743955145306], [80.32741289018347, -216.56284332353752], [80.32741289018347, -221.17208055238603], [82.29108942353628, -221.17208055238603], [82.29108942353628, -228.43697665677635], [84.25476595671468, -227.69484332351507], [84.25476595671468, -230.07768055244438], [85.16783704040348, -230.07768055244438], [86.88605400732699, -237.87008055254486], [88.1821190232459, -237.87008055254486], [88.1821190232459, -240.09648055246058], [89.1639572898351, -240.09648055246058], [89.1639572898351, -243.91837702572877], [88.22239981299937, -244.98590700377187], [89.26168998600556, -248.52092247440368], [82.29108942353628, -249.64995226179371], [82.29108942353628, -259.72088055253516], [81.37639460465468, -259.72088055253516], [82.26867280868373, -264.77916830883595], [83.18541737898123, -265.8185656213503], [84.68014965545507, -267.51328055224013], [83.08091398800482, -267.51328055224013], [82.1287759708624, -268.59280665822996], [76.78880359034389, -269.80368984703034], [75.15674283270529, -264.25243941083056], [70.42151991283917, -269.621195483437], [69.36487850466975, -270.8192066585522], [64.00202581269842, -272.035278148005], [63.092773363504676, -267.91166691410893], [62.03448358786536, -269.11154699423696], [60.972485824291, -258.2747895002986], [60.972485824291, -252.7223139454282], [58.96696113871857, -241.3530785227263], [60.944302696447146, -240.4563212066569], [57.23105525645619, -232.0362235381602], [55.43145622458143, -233.0564086900214], [53.11777969140298, -231.74479515636682], [53.11777969140298, -228.33357702594088]]]}, "properties": {"id": 33, "height_median_m": 6.8, "building_count": 6, "area_m2": 990.1107699706096}}, {"type": "Feature", "geometry": {"type": "Polygon", "coordinates": [[[90.82546782169112, -274.48079079826056], [90.82546782169113, -274.48079079826056], [93.7709826214474, -272.2543907983534], [95.68682515629668, -274.4265570115658], [96.66866342289757, -273.31335701159475], [97.80848798736609, -274.6056805523406], [98.79032625394909, -274.6056805523406], [102.04453975429759, -278.2952805521662], [101.04140751245212, -279.43262348325413], [104.70476643845001, -284.6244805523568], [106.83704608913837, -284.6244805523568], [106.83704608913837, -287.35170494512994], [100.54853269792311, -293.29325810561505], [88.81840371275759, -277.3338317560067], [91.21178080852579, -275.97703630744104], [90.26544582371936, -274.90408963089095], [90.82546782169112, -274.48079079826056]]]}, "properties": {"id": 34, "height_median_m": 4.3, "building_count": 1, "area_m2": 177.5179333126131}}, {"type": "Feature", "geometry": {"type": "Polygon", "coordinates": [[[37.259614211999995, -165.98166758307082], [37.28512210782027, -165.94310673166552], [31.394092508110695, -161.49030673143864], [37.672083775288165, -151.99972820300997], [43.84205548851155, -156.6633696906364], [49.46587124169397, -159.8514872802996], [51.429547774874806, -157.62508728038114], [57.4874392039974, -161.05928055228884], [58.46927747077048, -161.05928055228884], [64.43095117742499, -164.4389284008294], [70.98968438688941, -167.6258870113539], [71.01033125827905, -167.586871595047], [71.31315203869866, -167.78306340277535], [71.61966461984457, -167.93200114403115], [71.6000999870078, -167.96897150533255], [78.1881501198272, -172.23724352805093], [87.14327435044835, -176.74979678107528], [88.15306453920546, -180.18447174639365], [90.85170337771821, -184.26406388457562], [90.90848047093706, -184.21578384015527], [91.08590888725705, -184.6181175437011], [91.24071207742729, -184.8521369569591], [91.20318403132718, -184.88404869512678], [94.88739212608257, -193.23829723174939], [94.91239858045331, -193.22798737413441], [95.03061091021728, -193.56305774662832], [95.16992799494042, -193.8789708333054], [95.14560278970195, -193.88899982017196], [96.99783994316101, -199.1391272324885], [98.84334534372685, -204.37017363214773], [98.86166867761652, -204.36324868466878], [98.9655009031746, -204.7164210066796], [99.07629293586479, -205.03045870255818], [99.0596741309639, -205.03673945647526], [100.92186064122409, -211.37073384319774], [104.45208832437034, -218.04163812335776], [106.81581307781987, -224.7415664236196], [109.75661342574999, -232.5214942759452], [112.84143899323365, -239.5165930384442], [104.34248386932961, -243.13010957878606], [101.39696906938653, -236.45090957864105], [101.37934853400382, -236.45840133440694], [101.25380221935076, -236.12626682865442], [101.114491451624, -235.8103680662925], [101.13163739226117, -235.80307809485632], [99.59379985742922, -231.73470770126443], [98.30482454088086, -228.3247057360769], [98.18609813612491, -228.01061339595236], [98.18609813613615, -228.0106133959476], [95.36277261963846, -220.54146682884289], [92.42611120084806, -213.88234260743687], [89.49444458380718, -208.34251086388124], [86.72303028542734, -204.15290244995361], [86.6949495594138, -204.16563752670086], [86.54892978403952, -203.88971086365422], [83.2575757876926, -198.91409808559692], [81.80026140748237, -199.74024350240995], [78.5271909858014, -193.55527713658498], [82.28708746922673, -191.42380757207883], [79.46522489070766, -189.29087147387938], [79.47918295084538, -189.27504594224808], [72.25355340503666, -183.13077726473216], [71.28264999403899, -185.33238156935212], [64.89983889082222, -180.5078630703697], [64.89983889082222, -179.4243951563731], [62.55304918188882, -178.094009902148], [59.18669540662854, -176.1856380501397], [58.910807329006495, -176.02923825475636], [58.91080732901058, -176.0292382547471], [51.36813545167619, -171.75332916685213], [43.800135322146396, -169.6081953830656], [43.76103904893796, -169.66729808570594], [43.51342931861909, -169.52692916693792], [41.134341175386446, -168.85258161628965], [37.565708961752506, -166.1551914143354], [37.259614211999995, -165.98166758307082]]]}, "properties": {"id": 35, "height_median_m": 6.2, "building_count": 16, "area_m2": 1387.8747743983513}}, {"type": "Feature", "geometry": {"type": "Polygon", "coordinates": [[[74.5460726415981, 81.177046841084], [71.24938104554167, 78.68520596853885], [51.33832351391036, 79.81395547835292], [49.99121337103959, 81.3412976710711], [57.21938018409074, 86.02428908165213], [68.32927224499875, 91.74988114098647], [74.5460726415981, 81.177046841084]]]}, "properties": {"id": 36, "height_median_m": 7.5, "building_count": 1, "area_m2": 179.92703646125136}}, {"type": "Feature", "geometry": {"type": "Polygon", "coordinates": [[[100.98526250969218, -261.2472805524508], [101.9478726045708, -261.2472805524508], [100.08381229916635, -258.0770966191444], [103.89153128919635, -256.6380433231361], [103.89153128919635, -257.65693888117977], [107.63296185705553, -255.53593756646896], [108.76275012274623, -258.09782650549295], [113.88741552871105, -266.8132805522401], [114.69175222220079, -266.8132805522401], [114.69175222220079, -270.72846141601815], [109.29041855087559, -273.17805615970883], [107.41194558441494, -269.98336079517077], [106.42059843706595, -271.1073418844603], [100.98526250969218, -261.2472805524508]]]}, "properties": {"id": 37, "height_median_m": 8.5, "building_count": 1, "area_m2": 136.84511547085}}, {"type": "Feature", "geometry": {"type": "Polygon", "coordinates": [[[78.19638042644537, 50.26708245689366], [80.78555518325986, 56.13825174721977], [87.69428677894776, 52.78122517736988], [87.72962505748208, 52.84132454352976], [88.01586511366978, 52.62496682531236], [88.32587544358584, 52.47432949050756], [88.29180837437062, 52.41639205405969], [94.18283797407454, 47.96359205423255], [85.97093645583273, 33.99771435139731], [79.7661250407956, 38.687689813552375], [73.61313797301007, 43.338493268308184], [78.19638042644537, 50.26708245689366]]]}, "properties": {"id": 38, "height_median_m": 5.7, "building_count": 2, "area_m2": 241.26112083485927}}, {"type": "Feature", "geometry": {"type": "Polygon", "coordinates": [[[119.80752272084356, -285.7376805523146], [120.74690780144837, -285.7376805523146], [119.79185247154106, -282.4891793600383], [125.10278785490476, -281.2848805524832], [126.28179771949945, -281.2848805524832], [127.45361618690414, -282.6134785123051], [134.32851755468246, -280.0152433235118], [134.32851755468246, -281.2848805524832], [138.1340441094171, -281.2848805524832], [139.22200103382013, -283.7519134425474], [140.30512932171766, -288.6640805522304], [139.30485233566694, -288.6640805522304], [140.19713053954484, -293.72236830893274], [141.2013854209813, -294.86098407897833], [141.2013854209813, -296.2387770257254], [140.05257493727183, -297.54128872641473], [128.12026682784625, -299.79608055220444], [122.91638346843462, -299.79608055220444], [121.85610562598242, -296.1896781513376], [119.80752272084356, -285.7376805523146]]]}, "properties": {"id": 39, "height_median_m": 8.4, "building_count": 2, "area_m2": 332.37250289269264}}, {"type": "Feature", "geometry": {"type": "Polygon", "coordinates": [[[151.1849213556759, -262.7104805524087], [154.10631438448098, -259.39822961433913], [139.37874038511782, -246.0398296140521], [151.62729033440087, -232.15252631084044], [168.83038892959655, -248.21524434788552], [164.9194565962646, -252.64942665820064], [171.24785863120655, -257.7744903743789], [175.1771815239036, -253.31945700174998], [186.51777456004115, -262.6706347203732], [171.32599967255757, -279.89494179800977], [156.6537389277969, -267.695731847726], [154.65405992507203, -271.0965607951676], [150.20308308909574, -266.05008055227194], [152.1667596222651, -263.8236805523665], [151.1849213556759, -262.7104805524087]]]}, "properties": {"id": 40, "height_median_m": 7.9, "building_count": 1, "area_m2": 944.0223719984419}}, {"type": "Feature", "geometry": {"type": "Polygon", "coordinates": [[[184.40226915265023, -174.2552222235656], [179.67695704596147, -171.57646258680455], [180.79847928864197, -169.03331754349355], [183.77373724519026, -164.53555415467017], [184.73574674069926, -163.44483584883275], [185.87416418231106, -160.8633795355507], [189.15411894929474, -163.34256969038535], [195.04514854900435, -166.6821696906544], [198.31019288491123, -169.1500896309416], [196.1190222087001, -171.634420583862], [194.15534567552567, -174.97402058412436], [192.9913204843604, -176.29378259264493], [190.04580568441838, -175.18058259268705], [189.01979095493505, -176.34386949612517], [184.40226915265023, -173.20268497799174], [184.40226915265023, -174.2552222235656]]]}, "properties": {"id": 41, "height_median_m": 10.6, "building_count": 1, "area_m2": 158.56265869968496}}, {"type": "Feature", "geometry": {"type": "Polygon", "coordinates": [[[171.77863900612004, 20.165978074805864], [171.78826802797485, 20.1714367269554], [167.86091496143666, 26.85063672710984], [176.27211840276442, 31.618912719571917], [177.4932778673779, 30.234372350536695], [178.45707404780126, 26.956140249612837], [180.47491608611904, 25.812234051714494], [180.47491608611904, 24.62741592115141], [182.38695329853542, 22.45956414966602], [184.40226915265023, 17.889667691037957], [184.40226915265023, 17.550139279638277], [189.43470580323708, 9.9424932683821], [185.66594568582866, 7.093834173121205], [185.66594568582866, 9.362115021864097], [181.01913891708136, 6.201008674343312], [177.09178585056108, 11.767008674117099], [177.07651297217933, 11.756618917192423], [176.8881474722348, 12.055613032961295], [176.6881574747284, 12.339046762300452], [176.7031567245485, 12.34925037656281], [172.1521673466949, 19.573073450882212], [172.1431199515212, 19.567944520461506], [171.97121944321825, 19.860293554437124], [171.77863900612004, 20.165978074805864]]]}, "properties": {"id": 42, "height_median_m": 5.0, "building_count": 3, "area_m2": 238.89352249968542}}]}