{"type": "FeatureCollection", "crs": {"type": "name", "properties": {"name": "EPSG:32628_local_enu_m_section_centroid", "lng0": -15.420577357575755, "lat0": 28.110077575757572}}, "features": [{"type": "Feature", "geometry": {"type": "LineString", "coordinates": [[72.30231630215833, 322.1128533328765], [100.5598877410287, 364.85973333291923]]}, "properties": {"osm_id": null, "type": "pedestrian", "width_m": 4, "extrude": false}}, {"type": "Feature", "geometry": {"type": "LineString", "coordinates": [[137.5896291045899, 364.85973333291923], [233.16801349610918, 342.6516545519209]]}, "properties": {"osm_id": null, "type": "residential", "width_m": 5, "extrude": false}}, {"type": "Feature", "geometry": {"type": "LineString", "coordinates": [[-173.2138872460446, 364.85973333291923], [-172.77777444733442, 364.1918133330236], [-168.75201975140396, 356.9560133327043], [-164.23531936105624, 346.2692933327925], [-153.13994666279694, 304.41297333287423], [-148.91781368916938, 293.3922933330146], [-142.4373305202807, 286.26781333280974], [-137.03692787959832, 282.81689333282173]]}, "properties": {"osm_id": null, "type": "tertiary", "width_m": 7, "extrude": false}}, {"type": "Feature", "geometry": {"type": "LineString", "coordinates": [[-16.26428700552136, 357.73525333271436], [-15.380584755186653, 359.1824133330155], [-11.950022015218028, 364.85973333291923]]}, "properties": {"osm_id": null, "type": "tertiary", "width_m": 7, "extrude": false}}, {"type": "Feature", "geometry": {"type": "LineString", "coordinates": [[-180.0437707275348, 361.74277333287904], [-182.5193638474369, 364.6616944100804]]}, "properties": {"osm_id": null, "type": "tertiary", "width_m": 7, "extrude": false}}, {"type": "Feature", "geometry": {"type": "LineString", "coordinates": [[-9.156710901448037, 364.85973333291923], [-12.434910587636846, 359.29373333273446], [-49.35402682225334, 296.73189333288815], [-53.18340324013786, 290.7206133330367], [-63.78783024380553, 274.2452533327112]]}, "properties": {"osm_id": null, "type": "tertiary", "width_m": 7, "extrude": false}}, {"type": "Feature", "geometry": {"type": "LineString", "coordinates": [[-180.0437707275348, 361.74277333287904], [-189.5362697798092, 364.16420839547686]]}, "properties": {"osm_id": null, "type": "residential", "width_m": 5, "extrude": false}}, {"type": "Feature", "geometry": {"type": "LineString", "coordinates": [[-77.82887710961465, 344.0428933328768], [-87.64779100179618, 354.5069733329552], [-79.07115958547263, 364.85973333291923]]}, "properties": {"osm_id": null, "type": "pedestrian", "width_m": 4, "extrude": false}}, {"type": "Feature", "geometry": {"type": "LineString", "coordinates": [[-91.2656364972298, 364.85973333291923], [-92.36086967018981, 363.4125733330136]]}, "properties": {"osm_id": null, "type": "pedestrian", "width_m": 4, "extrude": false}}, {"type": "Feature", "geometry": {"type": "LineString", "coordinates": [[-105.32183600779268, 280.7018133330205], [-96.87757006053751, 289.9413733330266], [-84.21117113965474, 310.3129333330068], [-51.12143132292276, 363.8578533330758], [-50.42442673114386, 364.85973333291923]]}, "properties": {"osm_id": null, "type": "residential", "width_m": 5, "extrude": false}}, {"type": "Feature", "geometry": {"type": "LineString", "coordinates": [[-202.62727267962205, 341.70517333284664], [-206.53048647218833, 360.33214290965805]]}, "properties": {"osm_id": null, "type": "residential", "width_m": 5, "extrude": false}}, {"type": "Feature", "geometry": {"type": "LineString", "coordinates": [[-202.62727267962205, 341.70517333284664], [-204.6892445970116, 347.2711733330314], [-208.224053598176, 352.1692533329251], [-212.83894312754666, 355.9541333328609], [-215.11006421036637, 356.96567712444323]]}, "properties": {"osm_id": null, "type": "residential", "width_m": 5, "extrude": false}}, {"type": "Feature", "geometry": {"type": "LineString", "coordinates": [[-169.73391114076162, 324.45057333290663], [-172.97415272503156, 341.1485733330654], [-180.0437707275348, 361.74277333287904]]}, "properties": {"osm_id": null, "type": "tertiary", "width_m": 7, "extrude": false}}, {"type": "Feature", "geometry": {"type": "LineString", "coordinates": [[-168.75201975140396, 356.9560133327043], [-151.37254216230195, 358.73713333295325], [-134.48401026761718, 326.0090533329267]]}, "properties": {"osm_id": null, "type": "service", "width_m": 3.5, "extrude": false}}, {"type": "Feature", "geometry": {"type": "LineString", "coordinates": [[-51.12143132292276, 363.8578533330758], [-64.27877593839716, 355.84281333274646], [-77.82887710961465, 344.0428933328768], [-81.75644266652215, 340.59197333288876]]}, "properties": {"osm_id": null, "type": "pedestrian", "width_m": 4, "extrude": false}}, {"type": "Feature", "geometry": {"type": "LineString", "coordinates": [[-53.576159795880926, 295.6186933329303], [-16.26428700552136, 357.73525333271436]]}, "properties": {"osm_id": null, "type": "tertiary", "width_m": 7, "extrude": false}}, {"type": "Feature", "geometry": {"type": "LineString", "coordinates": [[-45.62283954321738, 272.90941333291994], [-47.3902440438868, 276.1376933330746], [-49.25583768340478, 280.1452133328438], [-51.12143132292276, 284.26405333272737], [-52.10332271210603, 286.8244133329864], [-53.18340324013786, 290.7206133330367], [-53.576159795880926, 295.6186933329303]]}, "properties": {"osm_id": null, "type": "residential", "width_m": 5, "extrude": false}}, {"type": "Feature", "geometry": {"type": "LineString", "coordinates": [[21.24396406270974, 245.63601333296376], [32.24114762194608, 253.65105333289762], [47.558653293832975, 280.7018133330205], [55.9047301022396, 295.39605333270146], [72.30231630215833, 322.1128533328765]]}, "properties": {"osm_id": null, "type": "residential", "width_m": 5, "extrude": false}}, {"type": "Feature", "geometry": {"type": "LineString", "coordinates": [[44.90754654282885, 282.0376533328117], [47.558653293832975, 280.7018133330205]]}, "properties": {"osm_id": null, "type": "service", "width_m": 3.5, "extrude": false}}, {"type": "Feature", "geometry": {"type": "LineString", "coordinates": [[-57.70010363065996, 275.1358133328357], [-54.16529462949554, 281.4810533330305], [-53.576159795880926, 281.59237333274945], [-53.085214101289296, 281.3697333329161], [-50.13953993356507, 276.360333332908], [-50.13953993356507, 275.8037333327313], [-50.335918211436606, 275.46977333278346], [-56.81640138032525, 274.69053333277344], [-57.40553621393986, 274.69053333277344], [-57.60191449163698, 274.80185333288784], [-57.70010363065996, 275.1358133328357]]}, "properties": {"osm_id": null, "type": "pedestrian", "width_m": 4, "extrude": false}}, {"type": "Feature", "geometry": {"type": "LineString", "coordinates": [[-63.78783024380553, 274.2452533327112], [-66.24255871693812, 269.79245333287975]]}, "properties": {"osm_id": null, "type": "tertiary", "width_m": 7, "extrude": false}}, {"type": "Feature", "geometry": {"type": "LineString", "coordinates": [[-45.62283954321738, 272.90941333291994], [-49.35402682225334, 273.3546933329822], [-53.37978151800939, 273.13205333275334], [-58.97656243656333, 271.68489333284765], [-61.72585832641602, 271.01697333295203], [-66.24255871693812, 269.79245333287975]]}, "properties": {"osm_id": null, "type": "residential", "width_m": 5, "extrude": false}}, {"type": "Feature", "geometry": {"type": "LineString", "coordinates": [[21.24396406270974, 245.63601333296376], [10.24678050347341, 254.5416133330221], [-36.49124962349903, 277.36221333275137]]}, "properties": {"osm_id": null, "type": "tertiary", "width_m": 7, "extrude": false}}, {"type": "Feature", "geometry": {"type": "LineString", "coordinates": [[21.24396406270974, 245.63601333296376], [6.024647529845818, 249.08693333295176], [-40.41881518040652, 271.3509333328999], [-45.62283954321738, 272.90941333291994]]}, "properties": {"osm_id": null, "type": "residential", "width_m": 5, "extrude": false}}, {"type": "Feature", "geometry": {"type": "LineString", "coordinates": [[-198.69970712271459, 311.31481333285024], [-199.87797678976938, 324.2279333330732], [-200.56530076223257, 331.35241333288263], [-202.62727267962205, 341.70517333284664]]}, "properties": {"osm_id": null, "type": "residential", "width_m": 5, "extrude": false}}, {"type": "Feature", "geometry": {"type": "LineString", "coordinates": [[-169.73391114076162, 324.45057333290663], [-174.3488006699579, 328.3467733329569], [-180.632905560975, 330.79581333270596], [-187.89890184134978, 329.90525333297694], [-194.18300673219247, 326.454333332989], [-197.8160048723799, 320.10909333279415], [-198.69970712271459, 311.31481333285024]]}, "properties": {"osm_id": null, "type": "residential", "width_m": 5, "extrude": false}}, {"type": "Feature", "geometry": {"type": "LineString", "coordinates": [[-93.24457192035011, 329.90525333297694], [-99.9214333671103, 319.66381333273193], [-99.13592025579855, 319.32985333278407], [-106.00915998025586, 307.86389333286223], [-104.53632289648095, 305.41485333271766]]}, "properties": {"osm_id": null, "type": "footway", "width_m": 2, "extrude": false}}, {"type": "Feature", "geometry": {"type": "LineString", "coordinates": [[-92.85181536478144, 314.87705333295264], [-89.31700636361703, 320.44305333274195]]}, "properties": {"osm_id": null, "type": "footway", "width_m": 2, "extrude": false}}, {"type": "Feature", "geometry": {"type": "LineString", "coordinates": [[-255.35551858972863, 323.41043762568574], [-243.76852188786617, 328.124133332728]]}, "properties": {"osm_id": null, "type": "residential", "width_m": 5, "extrude": false}}, {"type": "Feature", "geometry": {"type": "LineString", "coordinates": [[-84.21117113965474, 310.3129333330068], [-87.54960186294761, 311.76009333291245], [-92.85181536478144, 314.87705333295264], [-97.76127231087222, 307.41861333279996], [-99.03773111677557, 298.4016933330227]]}, "properties": {"osm_id": null, "type": "footway", "width_m": 2, "extrude": false}}, {"type": "Feature", "geometry": {"type": "LineString", "coordinates": [[-90.49527603067183, 291.27721333281784], [-90.78984344739193, 292.39041333277567], [-79.7926598881556, 311.8714133330269], [-78.22163366535773, 305.748813333061], [-61.43129090969592, 296.95453333272155], [-90.49527603067183, 291.27721333281784]]}, "properties": {"osm_id": null, "type": "pedestrian", "width_m": 4, "extrude": false}}, {"type": "Feature", "geometry": {"type": "LineString", "coordinates": [[-176.01801603177876, 280.1452133328438], [-178.47274450473694, 292.5017333328901], [-182.00755350590134, 315.8789333327961]]}, "properties": {"osm_id": null, "type": "service", "width_m": 3.5, "extrude": false}}, {"type": "Feature", "geometry": {"type": "LineString", "coordinates": [[-73.5085549971385, 275.6924133330124], [-94.5210307264279, 269.12453333298413], [-108.95483414798008, 266.786813332954], [-123.38863756953228, 268.56793333280746], [-132.42203835022767, 271.23961333278544], [-141.8481956868405, 276.360333332908], [-154.5145946077233, 288.0489333330587], [-161.58421261022656, 301.74129333289625], [-169.73391114076162, 324.45057333290663]]}, "properties": {"osm_id": null, "type": "tertiary", "width_m": 7, "extrude": false}}, {"type": "Feature", "geometry": {"type": "LineString", "coordinates": [[241.97678128061892, 334.2797921731625], [215.46208085045103, 272.0188533327955], [211.23994787682344, 262.2226933330081], [176.87374925418808, 180.29117333302509], [173.5353185307208, 170.38369333272783]]}, "properties": {"osm_id": null, "type": "tertiary", "width_m": 7, "extrude": false}}, {"type": "Feature", "geometry": {"type": "LineString", "coordinates": [[-16.26428700552136, 357.73525333271436], [-12.434910587636846, 359.29373333273446], [-8.998290725320986, 357.73525333271436], [72.30231630215833, 322.1128533328765], [204.85765384695776, 265.00569333270505], [211.23994787682344, 262.2226933330081], [272.70634884206817, 234.94080559078995]]}, "properties": {"osm_id": null, "type": "residential", "width_m": 5, "extrude": false}}, {"type": "Feature", "geometry": {"type": "LineString", "coordinates": [[237.8492045246668, 137.4329733328679], [272.70634884206817, 219.54704729892725]]}, "properties": {"osm_id": null, "type": "residential", "width_m": 5, "extrude": false}}, {"type": "Feature", "geometry": {"type": "LineString", "coordinates": [[272.70634884206817, 119.81769653274696], [270.6443769246786, 120.8462933328235], [237.8492045246668, 137.4329733328679], [182.37234103371904, 165.9308933328964], [173.5353185307208, 170.38369333272783], [122.67334456914374, 196.3212533328928], [115.30915914992038, 200.10613333282862], [32.830282455560685, 239.06813333293556], [21.24396406270974, 245.63601333296376]]}, "properties": {"osm_id": null, "type": "tertiary", "width_m": 7, "extrude": false}}, {"type": "Feature", "geometry": {"type": "LineString", "coordinates": [[103.23189506265223, 170.6063333329567], [160.868919609838, 141.44049333303258], [220.86248349113342, 110.4935333328595], [260.53089561577707, 89.78801333293148], [266.12767653433093, 86.44841333305791]]}, "properties": {"osm_id": null, "type": "residential", "width_m": 5, "extrude": false}}, {"type": "Feature", "geometry": {"type": "LineString", "coordinates": [[-137.03692787959832, 282.81689333282173], [-128.6908510711917, 279.81125333289594], [-118.08642406769843, 278.0301333330425], [-105.32183600779268, 280.7018133330205], [-92.55724794788694, 285.93385333286193], [-75.2759594976335, 290.05269333274555], [-64.27877593839716, 292.83569333283793], [-53.576159795880926, 295.6186933329303]]}, "properties": {"osm_id": null, "type": "tertiary", "width_m": 7, "extrude": false}}, {"type": "Feature", "geometry": {"type": "LineString", "coordinates": [[-79.59628161028407, 246.52657333308824], [-93.34276105937309, 245.63601333296376], [-103.16167495155462, 248.08505333271285], [-136.8405496017268, 265.1170133328195], [-151.07797474558186, 275.02449333272125], [-161.28964519333203, 287.1583733329342], [-167.96650664009223, 301.74129333289625], [-171.50131564125664, 316.2128933327439], [-169.73391114076162, 324.45057333290663]]}, "properties": {"osm_id": null, "type": "residential", "width_m": 5, "extrude": false}}, {"type": "Feature", "geometry": {"type": "LineString", "coordinates": [[-199.87797678976938, 170.04973333278002], [-214.99910418378474, 261.4434533329981], [-225.9962877430211, 335.47125333276625], [-228.1932068424752, 349.71502234242905]]}, "properties": {"osm_id": null, "type": "residential", "width_m": 5, "extrude": false}}, {"type": "Feature", "geometry": {"type": "LineString", "coordinates": [[-66.24255871693812, 269.79245333287975], [-79.59628161028407, 246.52657333308824]]}, "properties": {"osm_id": null, "type": "tertiary", "width_m": 7, "extrude": false}}, {"type": "Feature", "geometry": {"type": "LineString", "coordinates": [[-176.01801603177876, 280.1452133328438], [-120.14839598508797, 244.41149333289147], [-117.98823492884988, 243.07565333270475], [-122.01398962460593, 235.83985333278093], [-122.01398962460593, 233.16817333280298]]}, "properties": {"osm_id": null, "type": "service", "width_m": 3.5, "extrude": false}}, {"type": "Feature", "geometry": {"type": "LineString", "coordinates": [[-110.91861692634662, 244.1888533330581], [-114.0606693719424, 241.0718933330179], [-118.38099148441852, 233.72477333297965], [-122.01398962460593, 233.16817333280298], [-122.50493531919756, 232.05497333284512], [-127.51258140413688, 232.38893333279293], [-170.02847855748172, 259.77365333286355], [-172.5813961694629, 262.4453333328415], [-174.0542332532378, 265.5622933328817], [-176.01801603177876, 280.1452133328438]]}, "properties": {"osm_id": null, "type": "service", "width_m": 3.5, "extrude": false}}, {"type": "Feature", "geometry": {"type": "LineString", "coordinates": [[-220.30131768561859, 172.1648133329768], [-220.69407424118725, 180.29117333302509], [-232.7713383286298, 258.6604533329057], [-243.76852188786617, 328.124133332728]]}, "properties": {"osm_id": null, "type": "residential", "width_m": 5, "extrude": false}}, {"type": "Feature", "geometry": {"type": "LineString", "coordinates": [[-103.16167495155462, 248.08505333271285], [-110.91861692634662, 244.1888533330581]]}, "properties": {"osm_id": null, "type": "service", "width_m": 3.5, "extrude": false}}, {"type": "Feature", "geometry": {"type": "LineString", "coordinates": [[-235.71701249635402, 160.9214933328883], [-250.7399507513464, 255.87745333281333], [-259.76750336638554, 316.6660203756669]]}, "properties": {"osm_id": null, "type": "residential", "width_m": 5, "extrude": false}}, {"type": "Feature", "geometry": {"type": "LineString", "coordinates": [[-252.80192266873595, 158.24981333291035], [-267.4321043681597, 253.20577333283538], [-272.89368427816026, 285.9529354163189]]}, "properties": {"osm_id": null, "type": "residential", "width_m": 5, "extrude": false}}, {"type": "Feature", "geometry": {"type": "LineString", "coordinates": [[-122.50493531919756, 232.05497333284512], [-121.32666565214276, 231.3870533329495], [-114.25704764981393, 227.9361333329615], [-112.68602142701604, 227.15689333295146]]}, "properties": {"osm_id": null, "type": "service", "width_m": 3.5, "extrude": false}}, {"type": "Feature", "geometry": {"type": "LineString", "coordinates": [[-79.59628161028407, 246.52657333308824], [-88.62968239115386, 232.277613333074], [-104.63451203532952, 209.67965333278258]]}, "properties": {"osm_id": null, "type": "tertiary", "width_m": 7, "extrude": false}}, {"type": "Feature", "geometry": {"type": "LineString", "coordinates": [[-112.4896431491445, 211.12681333308373], [-167.57375008434914, 244.07753333294366]]}, "properties": {"osm_id": null, "type": "footway", "width_m": 2, "extrude": false}}, {"type": "Feature", "geometry": {"type": "LineString", "coordinates": [[-112.68602142701604, 227.15689333295146], [-105.51821428566423, 225.82105333276473]]}, "properties": {"osm_id": null, "type": "service", "width_m": 3.5, "extrude": false}}, {"type": "Feature", "geometry": {"type": "LineString", "coordinates": [[-167.57375008434914, 244.07753333294366], [-162.3697257215383, 208.56645333282472]]}, "properties": {"osm_id": null, "type": "footway", "width_m": 2, "extrude": false}}, {"type": "Feature", "geometry": {"type": "LineString", "coordinates": [[-272.93069614769064, 155.13285333287016], [-277.15282912131823, 183.78599417762175]]}, "properties": {"osm_id": null, "type": "residential", "width_m": 5, "extrude": false}}, {"type": "Feature", "geometry": {"type": "LineString", "coordinates": [[-113.66791281619929, 192.64769333307143], [-112.7842105658646, 202.889133332921], [-112.4896431491445, 211.12681333308373], [-111.31137348208969, 215.6909333330296], [-105.51821428566423, 225.82105333276473], [-101.59064872875673, 233.8360933326986], [-101.59064872875673, 243.63225333288142], [-103.16167495155462, 248.08505333271285]]}, "properties": {"osm_id": null, "type": "residential", "width_m": 5, "extrude": false}}, {"type": "Feature", "geometry": {"type": "LineString", "coordinates": [[-65.16247818873187, 244.07753333294366], [-66.24255871693812, 242.07377333286132], [-68.79547632874485, 240.7379333330701], [-70.46469169056572, 240.84925333278903], [-72.62485274680378, 242.18509333297575], [-73.11579844139543, 242.9643333329858], [-73.60674413598706, 244.1888533330581], [-73.70493327501003, 245.4133733327349], [-60.8421560760813, 266.3415333328918], [-59.074751575586305, 267.90001333291184], [-56.620023102453715, 269.0132133328697], [-53.772538073752465, 269.458493332932], [-50.04135079471651, 269.12453333298413], [-43.16811107025921, 267.5660533329641], [-44.0518133204195, 265.6736133329962], [-46.899298349295165, 266.4528533330062], [-59.663886409026496, 253.98501333284543], [-65.16247818873187, 244.07753333294366]]}, "properties": {"osm_id": null, "type": "pedestrian", "width_m": 4, "extrude": false}}, {"type": "Feature", "geometry": {"type": "LineString", "coordinates": [[-88.62968239115386, 232.277613333074], [-82.34557750013676, 236.61909333279098], [-62.707749715599284, 238.95681333282113], [-35.607547373164316, 236.7304133329054], [-11.45301919827916, 232.6115733330218], [8.675754280675527, 226.9342533327226]]}, "properties": {"osm_id": null, "type": "footway", "width_m": 2, "extrude": false}}, {"type": "Feature", "geometry": {"type": "LineString", "coordinates": [[21.24396406270974, 245.63601333296376], [8.675754280675527, 226.9342533327226], [-23.530283285721737, 178.95533333283836], [-26.9669031480376, 173.83461333271583], [-32.0727383719999, 166.2648533328442]]}, "properties": {"osm_id": null, "type": "tertiary", "width_m": 7, "extrude": false}}, {"type": "Feature", "geometry": {"type": "LineString", "coordinates": [[-104.63451203532952, 209.67965333278258], [-98.74316370005549, 206.0060933329612], [-96.19024608807433, 204.55893333305553], [-49.55040510012488, 177.5081733329327], [-45.42646126534584, 175.05913333278812], [-42.87354365336469, 173.7232933329969], [-32.0727383719999, 166.2648533328442]]}, "properties": {"osm_id": null, "type": "residential", "width_m": 5, "extrude": false}}, {"type": "Feature", "geometry": {"type": "LineString", "coordinates": [[53.15543421238691, 180.17985333291065], [99.79527520033636, 161.92337333273173]]}, "properties": {"osm_id": null, "type": "residential", "width_m": 5, "extrude": false}}, {"type": "Feature", "geometry": {"type": "LineString", "coordinates": [[-32.0727383719999, 166.2648533328442], [-18.12988064503934, 154.3536133328601]]}, "properties": {"osm_id": null, "type": "residential", "width_m": 5, "extrude": false}}, {"type": "Feature", "geometry": {"type": "LineString", "coordinates": [[-43.757245903699406, 135.76317333273337], [-31.7781709552798, 154.68757333280791], [-21.370122229483663, 147.4517733328841], [-24.021228980313374, 148.34233333300858], [-26.475957453445965, 148.00837333306077], [-28.734307648707016, 146.00461333297844], [-32.76006234446307, 141.2178533328037], [-36.19668220677893, 137.65561333270128], [-38.455032401865566, 136.2084533327956], [-40.61519345827806, 135.5405333329], [-43.757245903699406, 135.76317333273337]]}, "properties": {"osm_id": null, "type": "pedestrian", "width_m": 4, "extrude": false}}, {"type": "Feature", "geometry": {"type": "LineString", "coordinates": [[173.5353185307208, 170.38369333272783], [167.05483536200657, 155.80077333276577], [160.868919609838, 141.44049333303258], [111.28340445416434, 27.337493332804144], [62.876158965719874, -84.53910666711309]]}, "properties": {"osm_id": null, "type": "residential", "width_m": 5, "extrude": false}}, {"type": "Feature", "geometry": {"type": "LineString", "coordinates": [[272.70634884206817, -45.631772738466196], [270.05524209106403, -44.35258666693386], [223.51359024213755, -23.981026666953653], [220.27334865769322, -22.64518666716242], [214.18562204454764, -20.196146667017842], [210.15986734861718, -18.192386666935505], [171.7679140302258, -1.9396666672344054], [111.28340445416434, 27.337493332804144], [55.70835182436806, 51.60525333283459], [7.301106335749184, 72.86737333293928], [-40.81157173597518, 93.9068533328151], [-65.55523474447494, 106.04073333302807], [-69.48280030120803, 108.48977333277716]]}, "properties": {"osm_id": null, "type": "residential", "width_m": 5, "extrude": false}}, {"type": "Feature", "geometry": {"type": "LineString", "coordinates": [[27.920825509469925, -17.19050666709208], [-18.031691506190782, 1.9565333328158374], [-20.97736567374059, 3.1810533328881263], [-64.08239766052563, 21.548853332785995], [-69.97374599597407, 23.997893332930573]]}, "properties": {"osm_id": null, "type": "residential", "width_m": 5, "extrude": false}}, {"type": "Feature", "geometry": {"type": "LineString", "coordinates": [[-277.15282912131823, 154.48985572110118], [-272.93069614769064, 155.13285333287016], [-252.80192266873595, 158.24981333291035], [-235.71701249635402, 160.9214933328883], [-229.72747502205704, 162.70261333274178], [-220.30131768561859, 172.1648133329768]]}, "properties": {"osm_id": null, "type": "residential", "width_m": 5, "extrude": false}}, {"type": "Feature", "geometry": {"type": "LineString", "coordinates": [[-116.90815440064364, 151.90457333271553], [-98.64497456120692, 134.20469333271328], [-96.97575919938606, 132.53489333297424], [-80.3817947215958, 116.50481333271102], [-74.19587896960167, 111.49541333270292], [-69.48280030120803, 108.48977333277716]]}, "properties": {"osm_id": null, "type": "residential", "width_m": 5, "extrude": false}}, {"type": "Feature", "geometry": {"type": "LineString", "coordinates": [[-192.51379137054604, 36.688373332924726], [-96.97575919938606, 132.53489333297424], [-55.93269912999054, 171.49689333308118], [-49.55040510012488, 177.5081733329327]]}, "properties": {"osm_id": null, "type": "residential", "width_m": 5, "extrude": false}}, {"type": "Feature", "geometry": {"type": "LineString", "coordinates": [[-215.68642815624793, 60.956133332955176], [-128.98541848808622, 146.44989333304068], [-121.03209823542267, 152.68381333272558], [-116.90815440064364, 151.90457333271553]]}, "properties": {"osm_id": null, "type": "residential", "width_m": 5, "extrude": false}}, {"type": "Feature", "geometry": {"type": "LineString", "coordinates": [[-142.33914138143214, 2.847093332940318], [-155.00554030231496, 11.196093332821988], [-192.51379137054604, 36.688373332924726], [-215.7846172950965, 52.607133333073506], [-216.9628869621513, 57.39389333285274], [-215.68642815624793, 60.956133332955176]]}, "properties": {"osm_id": null, "type": "residential", "width_m": 5, "extrude": false}}, {"type": "Feature", "geometry": {"type": "LineString", "coordinates": [[-32.0727383719999, 166.2648533328442], [-69.48280030120803, 108.48977333277716], [-89.61157378033712, 79.32393333285304], [-142.33914138143214, 2.847093332940318], [-165.9045347227027, -31.216826667272954], [-216.47194126755963, -107.47102666695682], [-224.52345065924618, -118.7143466670453], [-268.70856317406304, -185.17238666694183], [-271.9488047585074, -189.73650666728318]]}, "properties": {"osm_id": null, "type": "tertiary", "width_m": 7, "extrude": false}}, {"type": "Feature", "geometry": {"type": "LineString", "coordinates": [[-198.69970712271459, 311.31481333285024], [-191.63008912038575, 262.2226933330081], [-190.74638687005103, 257.88121333289564], [-179.16006847720007, 183.96473333284646], [-178.96369019932854, 171.60821333280012], [-183.5785797286992, 162.59129333302283], [-194.28119587121546, 149.0102533329042], [-211.07153862687727, 131.53301333273532], [-237.48441699684903, 109.82561333296388], [-277.15282912131823, 80.49207974323281]]}, "properties": {"osm_id": null, "type": "residential", "width_m": 5, "extrude": false}}, {"type": "Feature", "geometry": {"type": "LineString", "coordinates": [[-134.7785776845117, -253.52286666720175], [-123.48682670838085, -233.15130666722155], [-96.38662436594588, -175.0422666672067], [-40.124247763512, -39.67714666726906], [-20.97736567374059, 3.1810533328881263], [5.82826925197428, 69.41645333295128], [7.301106335749184, 72.86737333293928], [53.15543421238691, 180.17985333291065]]}, "properties": {"osm_id": null, "type": "residential", "width_m": 5, "extrude": false}}, {"type": "Feature", "geometry": {"type": "LineString", "coordinates": [[-83.22927975029704, -287.9207466669674], [-81.2654969719305, -282.9113466669593], [-69.09004374563936, -252.85494666691065], [-48.8630811276617, -205.32130666708866], [-45.81921782108892, -197.97418666705042], [-13.711369393540211, -118.82566666715974], [9.755834808881774, -61.16190666720712], [27.920825509469925, -17.19050666709208], [55.70835182436806, 51.60525333283459], [99.79527520033636, 161.92337333273173], [103.23189506265223, 170.6063333329567], [115.30915914992038, 200.10613333282862]]}, "properties": {"osm_id": null, "type": "residential", "width_m": 5, "extrude": false}}, {"type": "Feature", "geometry": {"type": "LineString", "coordinates": [[-142.33914138143214, 2.847093332940318], [-92.36086967018981, -18.303706667049937], [-88.33511497425934, -19.973506667184466], [-42.38259795877306, -38.786586667144576], [-40.124247763512, -39.67714666726906], [6.2210258075429365, -59.60342666718702], [9.755834808881774, -61.16190666720712], [53.744569045827106, -80.75422666717728], [62.876158965719874, -84.53910666711309], [69.16026385656257, -87.76738666726771], [82.41579761105994, -93.77866666711924], [166.95664622298358, -130.18030666696717], [172.357048863666, -132.40670666727837], [178.15020806009147, -134.74442666691303], [224.69185990919235, -155.89522666729877], [229.8958842720032, -161.12726666714025], [231.172343078081, -168.4743866671785]]}, "properties": {"osm_id": null, "type": "residential", "width_m": 5, "extrude": false}}, {"type": "Feature", "geometry": {"type": "LineString", "coordinates": [[-25.494066064262693, -89.54850666712119], [-25.19949864736818, -88.76926666711114], [-23.333905007850202, -84.53910666711309]]}, "properties": {"osm_id": null, "type": "footway", "width_m": 2, "extrude": false}}, {"type": "Feature", "geometry": {"type": "LineString", "coordinates": [[-28.537929370835478, -90.77302666719348], [-29.127064204275673, -90.55038666696461], [-31.09084698281663, -89.77114666695456]]}, "properties": {"osm_id": null, "type": "footway", "width_m": 2, "extrude": false}}, {"type": "Feature", "geometry": {"type": "LineString", "coordinates": [[-25.494066064262693, -93.22206666694257], [-26.279579175574426, -93.44470666717143], [-27.261470564757694, -93.333386667057], [-27.850605398372306, -92.99942666710919], [-28.341551092963943, -92.44282666693252], [-28.63611850968404, -91.66358666692247], [-28.537929370835478, -90.77302666719348], [-28.145172815092405, -90.10510666729786], [-27.55603798165221, -89.54850666712119], [-26.77052487016606, -89.32586666728781], [-25.88682261983135, -89.43718666700676], [-25.494066064262693, -89.54850666712119], [-25.00312036967106, -89.882466667069], [-24.708552952776543, -90.43906666724567], [-24.413985536056448, -91.21830666725572], [-24.610363813927986, -92.22018666709914], [-24.90493123064808, -92.66546666716138], [-25.494066064262693, -93.22206666694257]]}, "properties": {"osm_id": null, "type": "footway", "width_m": 2, "extrude": false}}, {"type": "Feature", "geometry": {"type": "LineString", "coordinates": [[-34.23289942823797, -97.34090666722167], [-31.09084698281663, -89.77114666695456], [-28.046983676243844, -82.53534666703075], [-23.333905007850202, -84.53910666711309], [-19.11177203422261, -86.32022666696656], [-22.057446201946835, -93.22206666694257], [-25.395876925239715, -101.12578666715748], [-29.716199037890284, -99.23334666718958], [-34.23289942823797, -97.34090666722167]]}, "properties": {"osm_id": null, "type": "footway", "width_m": 2, "extrude": false}}, {"type": "Feature", "geometry": {"type": "LineString", "coordinates": [[-24.610363813927986, -92.22018666709914], [-24.119418119336352, -92.44282666693252], [-22.057446201946835, -93.22206666694257]]}, "properties": {"osm_id": null, "type": "footway", "width_m": 2, "extrude": false}}, {"type": "Feature", "geometry": {"type": "LineString", "coordinates": [[-29.716199037890284, -99.23334666718958], [-27.55603798165221, -94.00130666695262], [-27.261470564757694, -93.333386667057]]}, "properties": {"osm_id": null, "type": "footway", "width_m": 2, "extrude": false}}, {"type": "Feature", "geometry": {"type": "LineString", "coordinates": [[62.876158965719874, -84.53910666711309], [36.6596588734452, -140.6443866670456], [52.2717319620522, -123.94638666728227], [67.78561591181064, -108.3615866670813], [82.41579761105994, -93.77866666711924]]}, "properties": {"osm_id": null, "type": "footway", "width_m": 2, "extrude": false}}, {"type": "Feature", "geometry": {"type": "LineString", "coordinates": [[-4.597434934032615, 364.85973333291923], [-8.998290725320986, 357.73525333271436], [-52.10332271210603, 286.8244133329864], [-61.72585832641602, 271.01697333295203], [-82.34557750013676, 236.61909333279098], [-96.28843522692289, 213.35321333299945], [-96.97575919938606, 209.90229333301144], [-98.74316370005549, 206.0060933329612], [-101.78702700662826, 202.10989333291096], [-104.7327011743525, 199.438213332933], [-112.88239970488758, 186.3024533328766], [-122.89769187494065, 171.83085333302898], [-128.88722934906323, 165.70825333306303], [-142.04457396471207, 156.13473333271358], [-148.32867885572918, 151.57061333276772], [-158.44216016463076, 144.66877333279172], [-171.79588305797674, 135.09525333283776], [-188.19346925806988, 121.40289333300018], [-236.9934713022574, 71.0862533330858], [-277.15282912131823, 36.826145610274494]]}, "properties": {"osm_id": null, "type": "footway", "width_m": 2, "extrude": false}}, {"type": "Feature", "geometry": {"type": "LineString", "coordinates": [[-18.12988064503934, 154.3536133328601], [-17.246178394704632, 150.12345333286206], [-39.142356374328735, 97.69173333275091], [-40.81157173597518, 93.9068533328151], [-69.97374599597407, 23.997893332930573], [-88.33511497425934, -19.973506667184466], [-144.3029241597987, -153.780146667102], [-157.26389049757597, -184.61578666716065], [-167.86831750124367, -210.1080666672634], [-182.6948774783645, -245.39650666715346], [-201.3508138735443, -290.2584666669975], [-202.62727267962205, -293.1527866672043], [-218.82848060166927, -332.0034666671968], [-231.20031210583196, -361.6145866671832], [-232.7713383286298, -365.2881466670045]]}, "properties": {"osm_id": null, "type": "residential", "width_m": 5, "extrude": false}}, {"type": "Feature", "geometry": {"type": "LineString", "coordinates": [[-277.15282912131823, -193.41530525523822], [-271.9488047585074, -189.73650666728318]]}, "properties": {"osm_id": null, "type": "tertiary", "width_m": 7, "extrude": false}}, {"type": "Feature", "geometry": {"type": "LineString", "coordinates": [[-271.9488047585074, -189.73650666728318], [-275.8763703154149, -197.52890666698818], [-277.15282912131823, -203.8964106670477]]}, "properties": {"osm_id": null, "type": "tertiary", "width_m": 7, "extrude": false}}, {"type": "Feature", "geometry": {"type": "LineString", "coordinates": [[-277.15282912131823, -215.18425866726105], [-269.9850219801408, -213.5589866672514], [-264.0936736446924, -212.22314666706467], [-243.08119791540298, -220.7947866671752]]}, "properties": {"osm_id": null, "type": "residential", "width_m": 5, "extrude": false}}, {"type": "Feature", "geometry": {"type": "LineString", "coordinates": [[-268.70856317406304, -225.8041866671833], [-256.7294882256434, -230.59094666696254], [-248.28522227838826, -225.35890666712106]]}, "properties": {"osm_id": null, "type": "footway", "width_m": 2, "extrude": false}}, {"type": "Feature", "geometry": {"type": "LineString", "coordinates": [[-138.80433238026774, -263.3190266669891], [-134.7785776845117, -253.52286666720175], [-167.86831750124367, -210.1080666672634]]}, "properties": {"osm_id": null, "type": "residential", "width_m": 5, "extrude": false}}, {"type": "Feature", "geometry": {"type": "LineString", "coordinates": [[-256.7294882256434, -230.59094666696254], [-259.96972981008776, -241.83426666705103], [-257.12224478138654, -247.4002666672358]]}, "properties": {"osm_id": null, "type": "footway", "width_m": 2, "extrude": false}}, {"type": "Feature", "geometry": {"type": "LineString", "coordinates": [[-259.96972981008776, -241.83426666705103], [-271.5560482027643, -238.82862666712526]]}, "properties": {"osm_id": null, "type": "footway", "width_m": 2, "extrude": false}}, {"type": "Feature", "geometry": {"type": "LineString", "coordinates": [[67.78561591181064, -108.3615866670813], [97.14416844950667, -122.72186666720998], [72.20412716330976, -150.77450666717624]]}, "properties": {"osm_id": null, "type": "footway", "width_m": 2, "extrude": false}}, {"type": "Feature", "geometry": {"type": "LineString", "coordinates": [[-13.711369393540211, -118.82566666715974], [36.6596588734452, -140.6443866670456]]}, "properties": {"osm_id": null, "type": "residential", "width_m": 5, "extrude": false}}, {"type": "Feature", "geometry": {"type": "LineString", "coordinates": [[52.2717319620522, -123.94638666728227], [65.92002227229266, -137.1934666670576]]}, "properties": {"osm_id": null, "type": "footway", "width_m": 2, "extrude": false}}, {"type": "Feature", "geometry": {"type": "LineString", "coordinates": [[97.14416844950667, -122.72186666720998], [98.22424897753848, -128.17654666728032], [108.82867598120616, -139.75382666692113], [108.82867598120616, -141.20098666722228], [107.84678459184848, -142.98210666707575], [102.25000367329454, -149.54998666710395]]}, "properties": {"osm_id": null, "type": "footway", "width_m": 2, "extrude": false}}, {"type": "Feature", "geometry": {"type": "LineString", "coordinates": [[36.6596588734452, -140.6443866670456], [51.48621885074047, -159.45746666700572], [-8.605534169577911, -213.8929466671992]]}, "properties": {"osm_id": null, "type": "residential", "width_m": 5, "extrude": false}}, {"type": "Feature", "geometry": {"type": "LineString", "coordinates": [[114.32726776073713, -269.21898666712167], [108.23954114759155, -266.4359866670293], [-8.605534169577911, -213.8929466671992], [-45.81921782108892, -197.97418666705042], [-96.38662436594588, -175.0422666672067], [-144.3029241597987, -153.780146667102], [-224.52345065924618, -118.7143466670453]]}, "properties": {"osm_id": null, "type": "residential", "width_m": 5, "extrude": false}}, {"type": "Feature", "geometry": {"type": "LineString", "coordinates": [[-69.09004374563936, -252.85494666691065], [-54.75442946293573, -259.08886666699107], [24.87696220272272, -293.7093866669855]]}, "properties": {"osm_id": null, "type": "footway", "width_m": 2, "extrude": false}}, {"type": "Feature", "geometry": {"type": "LineString", "coordinates": [[24.87696220272272, -293.7093866669855], [67.39285935606756, -311.9658666671644], [85.26328263993561, -320.0922266672127]]}, "properties": {"osm_id": null, "type": "footway", "width_m": 2, "extrude": false}}, {"type": "Feature", "geometry": {"type": "LineString", "coordinates": [[147.122440160749, -282.46606666729247], [131.31398879427044, -304.6187466671262], [93.21660289259917, -354.37878666725936], [86.34336316796744, -363.2843866669222]]}, "properties": {"osm_id": null, "type": "residential", "width_m": 5, "extrude": false}}, {"type": "Feature", "geometry": {"type": "LineString", "coordinates": [[-83.22927975029704, -287.9207466669674], [-25.98501175885433, -312.9677466670079], [68.27656160640227, -355.3806666671028], [73.28420769134159, -358.05234666708077]]}, "properties": {"osm_id": null, "type": "residential", "width_m": 5, "extrude": false}}, {"type": "Feature", "geometry": {"type": "LineString", "coordinates": [[-243.08119791540298, -220.7947866671752], [-194.67395242695852, -240.4984266672598], [-182.6948774783645, -245.39650666715346], [-149.21238110606387, -259.08886666699107], [-138.80433238026774, -263.3190266669891], [-103.06348581270605, -279.12646666702346], [-92.36086967018981, -283.8019066670837], [-83.22927975029704, -287.9207466669674]]}, "properties": {"osm_id": null, "type": "residential", "width_m": 5, "extrude": false}}, {"type": "Feature", "geometry": {"type": "LineString", "coordinates": [[-276.76331424237236, -300.917339142507], [-263.5045388112522, -268.7737066670594], [-261.93351258845433, -264.9888266671236], [-243.08119791540298, -220.7947866671752]]}, "properties": {"osm_id": null, "type": "footway", "width_m": 2, "extrude": false}}, {"type": "Feature", "geometry": {"type": "LineString", "coordinates": [[-214.01721279460148, -288.3660266670296], [-212.83894312754666, -285.47170666721826], [-194.67395242695852, -240.4984266672598]]}, "properties": {"osm_id": null, "type": "residential", "width_m": 5, "extrude": false}}, {"type": "Feature", "geometry": {"type": "LineString", "coordinates": [[-277.15282912131823, -273.9830164051699], [-270.27958939686096, -273.0038666670575]]}, "properties": {"osm_id": null, "type": "footway", "width_m": 2, "extrude": false}}, {"type": "Feature", "geometry": {"type": "LineString", "coordinates": [[-263.5045388112522, -268.7737066670594], [-214.01721279460148, -288.3660266670296], [-202.62727267962205, -293.1527866672043]]}, "properties": {"osm_id": null, "type": "footway", "width_m": 2, "extrude": false}}, {"type": "Feature", "geometry": {"type": "LineString", "coordinates": [[-102.47435097909144, -331.4468666670201], [-127.70895968200843, -320.9827866669417], [-157.46026877544753, -308.51494666717645], [-181.12385125556662, -298.7187866669936], [-201.3508138735443, -290.2584666669975], [-212.83894312754666, -285.47170666721826], [-261.93351258845433, -264.9888266671236], [-270.9669133693241, -261.2039466671878], [-275.67999203754334, -259.20018666710547], [-277.15282912131823, -258.58174222290415]]}, "properties": {"osm_id": null, "type": "residential", "width_m": 5, "extrude": false}}, {"type": "Feature", "geometry": {"type": "LineString", "coordinates": [[-174.15242239226075, -350.48258666720915], [-160.01318638742868, -315.0828266672046], [-157.46026877544753, -308.51494666717645], [-138.80433238026774, -263.3190266669891]]}, "properties": {"osm_id": null, "type": "residential", "width_m": 5, "extrude": false}}, {"type": "Feature", "geometry": {"type": "LineString", "coordinates": [[-138.018819268956, -362.39382666719325], [-127.70895968200843, -320.9827866669417], [-115.63169559456584, -300.38858666712815], [-103.06348581270605, -279.12646666702346]]}, "properties": {"osm_id": null, "type": "footway", "width_m": 2, "extrude": false}}, {"type": "Feature", "geometry": {"type": "LineString", "coordinates": [[-174.15242239226075, -350.48258666720915], [-218.82848060166927, -332.0034666671968], [-229.62928588320847, -327.32802666713656], [-275.2872354818003, -308.51494666717645], [-275.98240634612716, -308.1714000925612]]}, "properties": {"osm_id": null, "type": "residential", "width_m": 5, "extrude": false}}, {"type": "Feature", "geometry": {"type": "LineString", "coordinates": [[-245.14316983279247, -365.8447466671812], [-229.62928588320847, -327.32802666713656], [-214.01721279460148, -288.3660266670296]]}, "properties": {"osm_id": null, "type": "residential", "width_m": 5, "extrude": false}}, {"type": "Feature", "geometry": {"type": "LineString", "coordinates": [[-117.10453267851518, -372.7465866671572], [-116.1226412893319, -365.0655066671712], [-102.47435097909144, -331.4468666670201], [-83.22927975029704, -287.9207466669674]]}, "properties": {"osm_id": null, "type": "residential", "width_m": 5, "extrude": false}}, {"type": "Feature", "geometry": {"type": "LineString", "coordinates": [[-178.47274450473694, -362.39382666719325], [-174.15242239226075, -350.48258666720915]]}, "properties": {"osm_id": null, "type": "residential", "width_m": 5, "extrude": false}}, {"type": "Feature", "geometry": {"type": "LineString", "coordinates": [[-104.63451203532952, 209.67965333278258], [-113.66791281619929, 192.64769333307143], [-122.50493531919756, 178.95533333283836], [-129.47636418267786, 171.16293333273788], [-143.81197846520703, 159.25169333275377], [-175.2325029202926, 138.10089333276352], [-190.5500085921795, 126.41229333300828], [-240.33190202572473, 75.093773332855], [-277.15282912131823, 44.79441673068493]]}, "properties": {"osm_id": null, "type": "tertiary", "width_m": 7, "extrude": false}}, {"type": "Feature", "geometry": {"type": "LineString", "coordinates": [[-64.08239766052563, -398.7954666670412], [-62.314993160030625, -394.78794666727197], [-25.98501175885433, -312.9677466670079]]}, "properties": {"osm_id": null, "type": "residential", "width_m": 5, "extrude": false}}, {"type": "Feature", "geometry": {"type": "LineString", "coordinates": [[73.28420769134159, -358.05234666708077], [86.34336316796744, -363.2843866669222], [95.4749530876858, -367.2919066670869], [142.50755063137834, -387.88610666729596]]}, "properties": {"osm_id": null, "type": "residential", "width_m": 5, "extrude": false}}, {"type": "Feature", "geometry": {"type": "LineString", "coordinates": [[-55.00995090582499, -403.24826666726807], [-64.08239766052563, -398.7954666670412], [-104.92907945222403, -377.6446666670509], [-117.10453267851518, -372.7465866671572]]}, "properties": {"osm_id": null, "type": "residential", "width_m": 5, "extrude": false}}, {"type": "Feature", "geometry": {"type": "LineString", "coordinates": [[142.99849632596997, -376.6427866672075], [142.50755063137834, -387.88610666729596], [144.27495513204775, -402.91430666692474], [144.23333147534487, -403.24826666726807]]}, "properties": {"osm_id": null, "type": "tertiary", "width_m": 7, "extrude": false}}, {"type": "Feature", "geometry": {"type": "LineString", "coordinates": [[-275.7797115214435, -309.72059435304584], [-275.2872354818003, -308.51494666717645]]}, "properties": {"osm_id": null, "type": "residential", "width_m": 4, "extrude": false}}, {"type": "Feature", "geometry": {"type": "LineString", "coordinates": [[-117.10453267851518, -372.7465866671572], [-138.018819268956, -362.39382666719325], [-148.5250571336007, -360.7240266670587], [-178.47274450473694, -362.39382666719325]]}, "properties": {"osm_id": null, "type": "residential", "width_m": 5, "extrude": false}}, {"type": "Feature", "geometry": {"type": "LineString", "coordinates": [[-178.47274450473694, -362.39382666719325], [-232.7713383286298, -365.2881466670045], [-245.14316983279247, -365.8447466671812], [-251.93911782035158, -366.2087516443606]]}, "properties": {"osm_id": null, "type": "residential", "width_m": 5, "extrude": false}}, {"type": "Feature", "geometry": {"type": "LineString", "coordinates": [[-129.75542805127805, -403.24826666726807], [-121.52304393001431, -383.5446266671835], [-118.47918062344152, -376.0861866670308], [-117.10453267851518, -372.7465866671572]]}, "properties": {"osm_id": null, "type": "residential", "width_m": 5, "extrude": false}}, {"type": "Feature", "geometry": {"type": "LineString", "coordinates": [[-245.14316983279247, -365.8447466671812], [-247.59269134478865, -371.4666741548019]]}, "properties": {"osm_id": null, "type": "residential", "width_m": 5, "extrude": false}}, {"type": "Feature", "geometry": {"type": "LineString", "coordinates": [[-195.02538880241093, -401.62962011267484], [-180.82928383884652, -367.40322666720135], [-178.47274450473694, -362.39382666719325]]}, "properties": {"osm_id": null, "type": "residential", "width_m": 5, "extrude": false}}, {"type": "Feature", "geometry": {"type": "LineString", "coordinates": [[71.41861405182362, -350.8165466671569], [68.27656160640227, -355.3806666671028], [62.287024132105266, -362.39382666719325], [38.809405929968364, -403.24826666726807]]}, "properties": {"osm_id": null, "type": "footway", "width_m": 2, "extrude": false}}, {"type": "Feature", "geometry": {"type": "LineString", "coordinates": [[46.10090437544054, -403.24826666726807], [59.53772824225258, -380.3163466670288], [63.56348293800863, -373.5258266671673], [73.28420769134159, -358.05234666708077]]}, "properties": {"osm_id": null, "type": "tertiary", "width_m": 7, "extrude": false}}, {"type": "Feature", "geometry": {"type": "LineString", "coordinates": [[266.12767653433093, 86.44841333305791], [269.9570529522155, 84.77861333292338], [272.70634884206817, 83.4571372037702]]}, "properties": {"osm_id": null, "type": "residential", "width_m": 5, "extrude": false}}, {"type": "Feature", "geometry": {"type": "LineString", "coordinates": [[171.7679140302258, -1.9396666672344054], [220.86248349113342, 110.4935333328595]]}, "properties": {"osm_id": null, "type": "residential", "width_m": 5, "extrude": false}}, {"type": "Feature", "geometry": {"type": "LineString", "coordinates": [[272.70634884206817, 124.70861333297648], [270.6443769246786, 120.8462933328235], [269.17153984090373, 117.0614133328877], [269.07335070188077, 113.49917333278526], [261.31640872708874, 94.68609333282515], [260.53089561577707, 89.78801333293148], [259.9417607821624, 85.446533332819], [248.06087497259136, 58.61841333292503], [222.82626626967436, -1.0491066671099247], [214.18562204454764, -20.196146667017842], [210.15986734861718, -29.992306667200666], [195.23511823247335, -65.39206666720517], [169.01861814037312, -126.17278666719798], [166.95664622298358, -130.18030666696717], [129.35020601590392, -218.01178666708282], [108.23954114759155, -266.4359866670293], [88.50352422420552, -312.9677466670079], [85.26328263993561, -320.0922266672127], [74.7570447751165, -345.2505466669721], [73.97153166380477, -347.47694666728336], [71.41861405182362, -350.8165466671569]]}, "properties": {"osm_id": null, "type": "footway", "width_m": 2, "extrude": false}}, {"type": "Feature", "geometry": {"type": "LineString", "coordinates": [[272.70634884206817, -37.577749161037985], [270.05524209106403, -44.35258666693386], [228.61942546609984, -145.3198266671059], [224.69185990919235, -155.89522666729877]]}, "properties": {"osm_id": null, "type": "residential", "width_m": 5, "extrude": false}}, {"type": "Feature", "geometry": {"type": "LineString", "coordinates": [[82.41579761105994, -93.77866666711924], [171.7679140302258, -1.9396666672344054]]}, "properties": {"osm_id": null, "type": "residential", "width_m": 5, "extrude": false}}, {"type": "Feature", "geometry": {"type": "LineString", "coordinates": [[73.28420769134159, -358.05234666708077], [76.13169272004285, -353.1542666671871], [80.25563655482188, -346.25242666721107], [90.95825269733811, -321.8733466670662], [109.51599995366934, -280.35098666709575], [114.32726776073713, -269.21898666712167], [168.72405072365302, -142.64814666712795], [172.357048863666, -132.40670666727837], [215.75664826717113, -31.996066667283003], [220.27334865769322, -22.64518666716242], [235.59085432958014, 13.867773332799942], [266.12767653433093, 86.44841333305791], [272.70634884206817, 102.56550206852907]]}, "properties": {"osm_id": null, "type": "tertiary", "width_m": 7, "extrude": false}}, {"type": "Feature", "geometry": {"type": "LineString", "coordinates": [[272.70634884206817, -174.16955987492756], [261.8073544216804, -166.35930666698172], [258.272545420516, -163.57630666728483], [255.8178169473834, -161.68386666692143], [250.31922516785238, -157.5650266670378], [245.70433563848175, -154.1141066670498]]}, "properties": {"osm_id": null, "type": "residential", "width_m": 5, "extrude": false}}, {"type": "Feature", "geometry": {"type": "LineString", "coordinates": [[272.70634884206817, -128.33077772831913], [259.4508150875708, -145.6537866670537], [250.31922516785238, -157.5650266670378], [243.24960716534915, -168.25174666694963], [221.15705090802794, -201.20246666720504], [211.43632615469497, -214.5608666670948], [178.0520189212429, -299.9433066670659], [169.80413125168482, -322.31862666712846], [162.34175669361292, -329.6657466671667], [142.99849632596997, -376.6427866672075]]}, "properties": {"osm_id": null, "type": "residential", "width_m": 5, "extrude": false}}, {"type": "Feature", "geometry": {"type": "LineString", "coordinates": [[272.70634884206817, -119.92711622288738], [255.71962780853482, -141.64626666728452], [245.70433563848175, -154.1141066670498], [231.172343078081, -168.4743866671785], [225.182805603784, -177.49130666695578], [213.9892437666761, -194.52326666706242], [207.99970629237913, -206.43450666704652], [191.60212009246038, -239.2739066671875], [178.5429646158345, -274.5623466670776], [170.09869866857937, -296.2697466672445], [149.08622293911554, -352.9316266669582], [142.99849632596997, -376.6427866672075]]}, "properties": {"osm_id": null, "type": "tertiary", "width_m": 7, "extrude": false}}, {"type": "Feature", "geometry": {"type": "LineString", "coordinates": [[241.2858243869826, -194.52326666706242], [261.8073544216804, -166.35930666698172]]}, "properties": {"osm_id": null, "type": "service", "width_m": 3.5, "extrude": false}}, {"type": "Feature", "geometry": {"type": "LineString", "coordinates": [[272.70634884206817, -285.5596853765077], [262.396489255295, -294.0433466669333], [237.063691413355, -327.2167066670221], [230.8777756611865, -322.31862666712846], [227.73572321576512, -326.7714266669599], [225.57556215952707, -329.77706666728113]]}, "properties": {"osm_id": null, "type": "pedestrian", "width_m": 4, "extrude": false}}, {"type": "Feature", "geometry": {"type": "LineString", "coordinates": [[168.23310502906136, -273.3378266670053], [166.66207880626348, -272.113306666933], [164.7964851667455, -270.44350666719396], [162.53813497148445, -268.7737066670594], [189.54014817507087, -234.8211066669606], [194.64598339903316, -222.6872266671431], [202.30473623497662, -202.09302666693404], [145.74779221582264, -275.78686666714987], [153.01378849602304, -275.0076266671398], [168.23310502906136, -273.3378266670053]]}, "properties": {"osm_id": null, "type": "pedestrian", "width_m": 4, "extrude": false}}, {"type": "Feature", "geometry": {"type": "LineString", "coordinates": [[207.99970629237913, -206.43450666704652], [194.64598339903316, -222.6872266671431], [179.62304514386636, -240.8323866672076], [178.0520189212429, -242.83614666728994], [153.01378849602304, -275.0076266671398], [147.122440160749, -282.46606666729247]]}, "properties": {"osm_id": null, "type": "service", "width_m": 3.5, "extrude": false}}, {"type": "Feature", "geometry": {"type": "LineString", "coordinates": [[178.0520189212429, -242.83614666728994], [177.07012753188522, -253.74550666703513]]}, "properties": {"osm_id": null, "type": "service", "width_m": 3.5, "extrude": false}}, {"type": "Feature", "geometry": {"type": "LineString", "coordinates": [[191.60212009246038, -239.2739066671875], [186.103528312755, -242.83614666728994], [177.07012753188522, -253.74550666703513], [164.7964851667455, -270.44350666719396]]}, "properties": {"osm_id": null, "type": "service", "width_m": 3.5, "extrude": false}}, {"type": "Feature", "geometry": {"type": "LineString", "coordinates": [[147.122440160749, -282.46606666729247], [142.6057397704013, -280.6849466670435], [114.32726776073713, -269.21898666712167]]}, "properties": {"osm_id": null, "type": "residential", "width_m": 5, "extrude": false}}, {"type": "Feature", "geometry": {"type": "LineString", "coordinates": [[231.172343078081, -368.62774666727364], [224.10272507557775, -379.42578666729986], [218.89870071276687, -375.3069466670207], [210.06167820976862, -376.4201466669786], [190.60923217444878, -401.62452049312253]]}, "properties": {"osm_id": null, "type": "pedestrian", "width_m": 4, "extrude": false}}, {"type": "Feature", "geometry": {"type": "LineString", "coordinates": [[181.74746888047028, -402.84556584639245], [176.77556011516512, -399.01810666727], [179.1320994492747, -396.01246666694874], [213.4982980720845, -350.92786666727136], [192.97676803738673, -335.3430666670704], [172.74980541940906, -320.20354666693163], [212.71278496059836, -215.7853866671671], [252.38119708524192, -164.132906667066], [254.2467907247599, -163.7989466671182], [256.6033300588695, -165.0234666671905], [258.4689236983875, -166.47062666709616], [238.4383393582814, -192.40818666726113], [241.2858243869826, -194.52326666706242], [243.83874199896377, -196.52702666714475], [263.8693263390699, -171.25738666727088], [272.70634884206817, -177.7278616671495]]}, "properties": {"osm_id": null, "type": "pedestrian", "width_m": 4, "extrude": false}}, {"type": "Feature", "geometry": {"type": "LineString", "coordinates": [[272.70634884206817, -188.5965898670922], [271.3317008971418, -190.4044266671788], [232.25242360611284, -240.27578666703093], [229.8958842720032, -243.17010666723775], [210.55262390436027, -267.6605066671016], [213.30191979421295, -269.8869066670173], [228.22666891035675, -281.9094666671158], [207.1160040420444, -311.5205866671022], [224.00453593672918, -323.8771066671485], [227.73572321576512, -326.7714266669599], [250.41741430670098, -344.1373466670143], [231.172343078081, -368.62774666727364]]}, "properties": {"osm_id": null, "type": "pedestrian", "width_m": 4, "extrude": false}}, {"type": "Feature", "geometry": {"type": "LineString", "coordinates": [[154.0938690242293, -283.24530666730254], [141.7220375200666, -299.38670666728467], [135.43793262904947, -302.6149866670438], [131.31398879427044, -304.6187466671262]]}, "properties": {"osm_id": null, "type": "service", "width_m": 3.5, "extrude": false}}, {"type": "Feature", "geometry": {"type": "LineString", "coordinates": [[239.12566333074454, -340.5751066669119], [225.57556215952707, -329.77706666728113], [222.33532057508276, -337.6807866671005], [221.35342918589947, -357.6070666670185], [215.06932429488236, -365.8447466671812], [197.88622498347746, -388.10874666712937], [186.97272938339924, -402.23608207978543]]}, "properties": {"osm_id": null, "type": "service", "width_m": 3.5, "extrude": false}}, {"type": "Feature", "geometry": {"type": "LineString", "coordinates": [[197.88622498347746, -388.10874666712937], [208.2497821405801, -396.3333816604384]]}, "properties": {"osm_id": null, "type": "footway", "width_m": 2, "extrude": false}}, {"type": "Feature", "geometry": {"type": "LineString", "coordinates": [[212.0511849579721, -394.7913229134744], [217.81862018456061, -388.3313866669627], [220.4884597737714, -390.27253667989487]]}, "properties": {"osm_id": null, "type": "footway", "width_m": 2, "extrude": false}}, {"type": "Feature", "geometry": {"type": "LineString", "coordinates": [[142.50755063137834, -387.88610666729596], [162.07991898995863, -403.24826666726807]]}, "properties": {"osm_id": null, "type": "residential", "width_m": 5, "extrude": false}}]}