{"type": "FeatureCollection", "crs": {"type": "name", "properties": {"name": "EPSG:32628_local_enu_m_section_centroid", "lng0": -16.318256615938743, "lat0": 28.48739236079624}}, "features": [{"type": "Feature", "geometry": {"type": "Polygon", "coordinates": [[[-204.5265353875153, 270.65908383749377], [-144.3539472037459, 284.0174838373835], [-158.83450501077857, 341.4586038375028], [-138.67913400928586, 346.80196383745863], [-142.2834461424081, 365.3924038375854], [-210.69055661579475, 365.3924038375854], [-220.28071111998057, 364.8563676106548], [-229.7785071934516, 363.25342125207396], [-239.09247586858882, 360.5990020112732], [-241.50214731476166, 359.61803425318396], [-238.7710977680814, 343.68500383741844], [-229.6718283354953, 345.57744383738634], [-208.9294076932802, 272.5515238374617], [-204.5265353875153, 270.65908383749377]]]}, "properties": {"name": "Cementerio de San Juan Bautista", "kind": "cemetery", "category": "parque", "extrude": false}}, {"type": "Feature", "geometry": {"type": "Polygon", "coordinates": [[[-25.672078152513887, 361.3848838374207], [-94.06336130743841, 338.7869238371293], [-82.22452688435133, 303.1645238372914], [-13.833243729426801, 325.8738038373018], [-25.672078152513887, 361.3848838374207]]]}, "properties": {"name": "", "kind": "pitch", "category": "parque", "extrude": false}}, {"type": "Feature", "geometry": {"type": "Polygon", "coordinates": [[[-307.06453931610304, 153.88440383728735], [-305.49907360739434, 166.01828383750032], [-281.23435512049787, 171.36164383745623], [-279.9624142318027, 173.4767238372575], [-308.3364802047982, 190.28604383713528], [-308.5321634182564, 189.96866341203443], [-308.5321634182564, 153.43310654016747], [-307.06453931610304, 153.88440383728735]]]}, "properties": {"name": "", "kind": "garden", "category": "parque", "extrude": false}}, {"type": "Feature", "geometry": {"type": "Polygon", "coordinates": [[[-283.19118725647064, 155.99948383748412], [-285.63722742661037, 168.1333638373016], [-304.031449505241, 167.7994038373538], [-304.520657539408, 152.54856383749612], [-283.19118725647064, 155.99948383748412]]]}, "properties": {"name": "", "kind": "playground", "category": "parque", "extrude": false}}, {"type": "Feature", "geometry": {"type": "Polygon", "coordinates": [[[86.84576967009109, 125.27516383714442], [88.21555216534153, 120.37708383725075], [107.29466549159736, 124.94120383719661], [114.73062760857194, 155.10892383735964], [114.82846921547485, 159.45040383747212], [115.12199403583601, 168.35600383713498], [110.13207208900118, 189.3954838374063], [72.16952864960018, 179.04272383744228], [86.84576967009109, 125.27516383714442]]]}, "properties": {"name": "", "kind": "park", "category": "parque", "extrude": false}}, {"type": "Feature", "geometry": {"type": "Polygon", "coordinates": [[[98.7824457000811, 145.42408383729125], [96.23856392303843, 154.55232383718297], [88.0198689515357, 152.21460383715282], [90.56375072857837, 143.0863638372611], [98.7824457000811, 145.42408383729125]]]}, "properties": {"name": "", "kind": "playground", "category": "parque", "extrude": false}}, {"type": "Feature", "geometry": {"type": "Polygon", "coordinates": [[[241.72903323820955, 300.71548383714685], [259.63404728302083, 255.519563837355], [274.01676348280296, 251.62336383730477], [276.27304285821816, 260.73315506225936], [276.089511180191, 264.9836718991305], [274.6806462202421, 275.789858484299], [272.34761851949645, 286.38689410955055], [269.11289641006186, 296.67272352852194], [268.57896740016935, 297.95713549025197], [241.72903323820955, 300.71548383714685]]]}, "properties": {"name": "", "kind": "park", "category": "parque", "extrude": false}}, {"type": "Feature", "geometry": {"type": "Polygon", "coordinates": [[[168.54351134990847, 13.509883837341619], [170.59818509278415, 7.72124383732347], [182.63270272967708, 12.28536383726933], [193.4931210844302, 14.957043837247284], [186.83989182198374, 34.4380438374985], [189.38377359902643, 35.105963837394114], [186.83989182198374, 42.11912383748455], [182.73054433623238, 54.25300383730203], [157.7809346017107, 44.67948383734807], [168.54351134990847, 13.509883837341619]]]}, "properties": {"name": "", "kind": "garden", "category": "parque", "extrude": false}}, {"type": "Feature", "geometry": {"type": "Polygon", "coordinates": [[[214.52906654700635, -42.372756162757526], [221.7693454505227, -55.17455616286611], [227.44415864498274, -53.05947616266934], [228.42257471296912, -55.95379616287616], [237.13047771829125, -53.17079616278377], [230.67293166930304, -35.248276162552656], [214.52906654700635, -42.372756162757526]]]}, "properties": {"name": "", "kind": "garden", "category": "parque", "extrude": false}}, {"type": "Feature", "geometry": {"type": "Polygon", "coordinates": [[[-305.4012320004914, 116.92616383726275], [-306.0861232481167, 118.15068383733504], [-304.8141823597691, 118.81860383723065], [-303.0530334372546, 133.62416383742158], [-305.5969152142973, 147.87312383743583], [-308.5321634182564, 147.10779883739065], [-308.5321634182564, 115.25785949951143], [-305.4012320004914, 116.92616383726275]]]}, "properties": {"name": "", "kind": "garden", "category": "parque", "extrude": false}}, {"type": "Feature", "geometry": {"type": "Polygon", "coordinates": [[[125.49320435711732, 15.068363837361716], [142.32196072703923, -26.565316162723178], [153.08453747523703, -21.889876162662887], [144.67015929027608, -3.0767961627027773], [135.37520664388404, 18.18532383740191], [134.20110736243944, 18.853243837297526], [125.49320435711732, 15.068363837361716]]]}, "properties": {"name": "", "kind": "garden", "category": "parque", "extrude": false}}, {"type": "Feature", "geometry": {"type": "Polygon", "coordinates": [[[-168.52082408408705, -250.42983616267207], [-163.2373773168911, -246.86759616256964], [-163.92226856451632, -245.75439616261178], [-161.7697532147377, -244.1959161625917], [-162.16111964200178, -243.08271616263383], [-155.31220716574953, -238.74123616252135], [-154.43163270466607, -240.1883961628225], [-145.62588809244104, -234.73371616275216], [-147.38703701460796, -232.0620361627742], [-142.88632310194012, -228.945076162734], [-140.5381245387033, -232.9525961625032], [-135.84172741222963, -229.8356361628585], [-137.3093515140354, -227.16395616248505], [-120.87196157137757, -216.58855616268767], [-119.20865425576596, -219.1489161625512], [-116.1755644449039, -217.14515616286434], [-120.38275353721058, -210.35463616260728], [-110.30506803663802, -204.23203616264132], [-98.17270879318977, -224.04699616284034], [-91.42163792384042, -219.92815616256124], [-103.55399716728867, -198.77735616257098], [-95.82451022995293, -194.1019161625107], [-98.95544164771792, -188.75855616255478], [-103.45615556038575, -191.6528761627616], [-102.6734227062052, -192.98871616255283], [-104.43457162871974, -193.99059616279175], [-103.45615556038575, -195.77171616264522], [-104.72809644908088, -196.3283161628219], [-111.08780089116615, -185.4189561626812], [-148.46329468949725, -208.79615616258718], [-141.41869899978676, -219.37155616278005], [-158.3452969766116, -228.16583616272396], [-161.0848619671125, -223.9356761627259], [-169.10787372480937, -229.1677161625674], [-165.78125909358616, -234.06579616285654], [-174.97837013307526, -239.74311616276026], [-168.52082408408705, -250.42983616267207]]]}, "properties": {"name": "", "kind": "garden", "category": "parque", "extrude": false}}, {"type": "Feature", "geometry": {"type": "Polygon", "coordinates": [[[81.75800611635334, -247.53551616286074], [80.29038201419998, -244.08459616287274], [83.22563021850672, -243.08271616263383], [82.0515309367145, -240.07707616270807], [77.35513381024083, -241.63555616272816], [75.00693524700401, -236.18087616265782], [64.83140813952852, -240.5223561627703], [70.50622133398856, -252.21095616252555], [81.75800611635334, -247.53551616286074]]]}, "properties": {"name": "", "kind": "garden", "category": "parque", "extrude": false}}, {"type": "Feature", "geometry": {"type": "Polygon", "coordinates": [[[101.13064426331793, -275.36551616259817], [102.30474354476254, -277.7032361626283], [109.74070566173711, -274.47495616286915], [108.76228959375074, -272.248556162558], [112.18674583187686, -270.8013961626523], [106.9032990646809, -256.77507616286687], [98.48892087937233, -259.8920361625116], [93.4011573256346, -261.78447616287497], [96.43424713649665, -270.13347616275666], [96.23856392303843, -270.13347616275666], [98.58676248627525, -276.36739616283705], [101.13064426331793, -275.36551616259817]]]}, "properties": {"name": "", "kind": "garden", "category": "parque", "extrude": false}}, {"type": "Feature", "geometry": {"type": "Polygon", "coordinates": [[[240.35925074295915, -214.36215616277195], [239.87004270879217, -213.36027616253304], [232.14055577145643, -216.3659161628543], [232.92328862598453, -218.14703616270776], [215.2139577946316, -225.38283616263158], [215.60532422189567, -226.7186761628183], [210.419719061255, -229.5016761625152], [212.27870959067243, -233.9544761627421], [221.96502866398095, -230.1695961628063], [222.64991991160616, -232.17335616249315], [220.39956295527224, -233.06391616261763], [221.57366223671687, -236.62615616272006], [225.97653454282937, -235.62427616287664], [224.4110688341207, -231.50543616259753], [230.28156524238656, -229.27903616268182], [231.25998131037292, -231.61675616271197], [236.73911129137474, -229.1677161625674], [235.36932879612434, -225.38283616263158], [249.55636178244822, -218.9262761627178], [246.6211135781415, -211.91311616262738], [240.35925074295915, -214.36215616277195]]]}, "properties": {"name": "", "kind": "garden", "category": "parque", "extrude": false}}, {"type": "Feature", "geometry": {"type": "Polygon", "coordinates": [[[131.07017594467445, -269.9108361625278], [129.99391826978515, -267.3504761626643], [128.81981898834053, -264.01087616279074], [123.92773864806104, -266.01463616287305], [119.52486634194852, -267.90707616284095], [116.39393492418354, -269.2429161626322], [118.93781670122621, -275.14287616276476], [131.07017594467445, -269.9108361625278]]]}, "properties": {"name": "", "kind": "garden", "category": "parque", "extrude": false}}, {"type": "Feature", "geometry": {"type": "Polygon", "coordinates": [[[-74.78856476737676, -292.3974761627048], [-73.81014869939038, -292.84275616276705], [-72.63604941794576, -293.1767161627148], [-71.26626692269531, -292.954076162486], [-60.89505660141399, -288.50127616265456], [-60.4058485675946, -287.83335616275895], [-60.50369017414992, -286.9427961626344], [-62.558363917025595, -282.2673561625742], [-63.341096771553744, -281.71075616279296], [-64.7108792668042, -281.71075616279296], [-76.84323851025243, -288.9465561627168], [-74.78856476737676, -292.3974761627048]]]}, "properties": {"name": "", "kind": "garden", "category": "parque", "extrude": false}}, {"type": "Feature", "geometry": {"type": "Polygon", "coordinates": [[[-92.40005399182681, -298.7427161625041], [-91.42163792384042, -300.6351561628675], [-90.54106346275697, -300.6351561628675], [-83.6921509865047, -296.8502761625362], [-83.20294295233771, -295.40311616263057], [-84.1813590203241, -293.51067616266266], [-84.67056705449109, -293.3993561625482], [-92.20437077836857, -297.6295161625462], [-92.40005399182681, -298.7427161625041]]]}, "properties": {"name": "", "kind": "garden", "category": "parque", "extrude": false}}, {"type": "Feature", "geometry": {"type": "Polygon", "coordinates": [[[-69.50511800018079, -296.9615961626506], [-70.190009247806, -297.5181961628273], [-70.77705888852832, -298.4087561625563], [-70.87490049543123, -299.74459616274305], [-69.70080121363901, -302.08231616277317], [-56.68786750910731, -298.52007616267076], [-56.19865947494032, -297.9634761624941], [-55.807293047676254, -297.18423616287953], [-57.47060036328786, -293.28803616282926], [-58.05765000435777, -292.84275616276705], [-59.03606607234415, -292.84275616276705], [-69.50511800018079, -296.9615961626506]]]}, "properties": {"name": "", "kind": "garden", "category": "parque", "extrude": false}}, {"type": "Feature", "geometry": {"type": "Polygon", "coordinates": [[[-96.50940147757817, -303.9747561627411], [-95.72666862305002, -305.867196162709], [-92.30221238492389, -304.9766361625845], [-93.57415327361903, -302.416276162721], [-96.50940147757817, -303.9747561627411]]]}, "properties": {"name": "", "kind": "garden", "category": "parque", "extrude": false}}, {"type": "Feature", "geometry": {"type": "Polygon", "coordinates": [[[-79.8763283211145, -305.0879561626989], [-80.4633779618368, -302.86155616278324], [-81.73531885053194, -302.1936361624921], [-88.97559775370067, -304.08607616285553], [-89.36696418096474, -304.9766361625845], [-88.77991454024244, -307.3143561626147], [-87.80149847225606, -307.5369961628435], [-80.07201153492034, -305.42191616264677], [-79.8763283211145, -305.0879561626989]]]}, "properties": {"name": "", "kind": "garden", "category": "parque", "extrude": false}}, {"type": "Feature", "geometry": {"type": "Polygon", "coordinates": [[[-104.92377966253912, -307.9822761625103], [-100.71659057023244, -305.53323616276117], [-101.98853145857998, -303.30683616284546], [-106.19572055088665, -305.7558761625945], [-104.92377966253912, -307.9822761625103]]]}, "properties": {"name": "", "kind": "garden", "category": "parque", "extrude": false}}, {"type": "Feature", "geometry": {"type": "Polygon", "coordinates": [[[-98.95544164771792, -310.6539561624882], [-99.64033289534315, -308.2049161627391], [-104.23888841491389, -309.4294361628114], [-103.55399716728867, -311.9897961626749], [-98.95544164771792, -310.6539561624882]]]}, "properties": {"name": "", "kind": "garden", "category": "parque", "extrude": false}}, {"type": "Feature", "geometry": {"type": "Polygon", "coordinates": [[[-115.88203962454274, -312.4350761627372], [-115.78419801763982, -313.7709161625284], [-114.6100987358476, -314.4388361628195], [-113.24031624059715, -314.6614761626529], [-107.17413661887304, -312.9916761625184], [-106.9784534054148, -312.3237561626228], [-109.03312714829048, -307.9822761625103], [-109.62017678901279, -307.7596361626769], [-115.09930677001459, -310.98791616283154], [-115.88203962454274, -312.4350761627372]]]}, "properties": {"name": "", "kind": "garden", "category": "parque", "extrude": false}}, {"type": "Feature", "geometry": {"type": "Polygon", "coordinates": [[[172.16365080184045, -318.33503616286976], [169.815452238256, -305.867196162709], [155.33489443157094, -311.65583616272716], [159.15071709696113, -322.11991616280557], [172.16365080184045, -318.33503616286976]]]}, "properties": {"name": "", "kind": "garden", "category": "parque", "extrude": false}}, {"type": "Feature", "geometry": {"type": "Polygon", "coordinates": [[[255.42685819036652, -283.1579161626986], [251.80671873878214, -272.13723616283903], [243.58802376727942, -275.14287616276476], [246.7189551850444, -286.2748761627388], [255.42685819036652, -283.1579161626986]]]}, "properties": {"name": "", "kind": "garden", "category": "parque", "extrude": false}}, {"type": "Feature", "geometry": {"type": "Polygon", "coordinates": [[[220.49740456217518, -292.5087961628192], [217.65999796477135, -283.71451616287527], [213.74633369282583, -285.2729961624999], [217.07294832404904, -293.51067616266266], [220.49740456217518, -292.5087961628192]]]}, "properties": {"name": "", "kind": "garden", "category": "parque", "extrude": false}}, {"type": "Feature", "geometry": {"type": "Polygon", "coordinates": [[[224.21538562066246, -305.53323616276117], [223.04128633887024, -302.1936361624921], [219.22546367348002, -303.4181561625644], [219.6168301007441, -304.75399616275115], [220.39956295527224, -307.09171616278127], [224.21538562066246, -305.53323616276117]]]}, "properties": {"name": "", "kind": "garden", "category": "parque", "extrude": false}}, {"type": "Feature", "geometry": {"type": "Polygon", "coordinates": [[[245.64269751015507, -315.99731616283964], [243.29449894691828, -307.5369961628435], [242.51176609239013, -304.08607616285553], [238.50026021354165, -291.0616361625181], [227.24847543152453, -294.73519616273495], [229.98804042202542, -303.30683616284546], [234.88012076195736, -320.1161561627232], [245.64269751015507, -315.99731616283964]]]}, "properties": {"name": "", "kind": "garden", "category": "parque", "extrude": false}}, {"type": "Feature", "geometry": {"type": "Polygon", "coordinates": [[[268.5376335021487, -311.2105561626649], [268.3419502883429, -309.54075616253033], [269.90741599705154, -308.8728361626347], [271.17935688574676, -308.53887616268696], [267.1678510068983, -296.40499616286945], [266.28727654546725, -293.733316162496], [252.1002435591433, -298.0747961626085], [255.9160662245335, -310.43131616265487], [245.25133108289103, -314.3275161627051], [245.64269751015507, -315.99731616283964], [246.03406393741918, -317.5557961628597], [268.5376335021487, -311.2105561626649]]]}, "properties": {"name": "", "kind": "garden", "category": "parque", "extrude": false}}, {"type": "Feature", "geometry": {"type": "Polygon", "coordinates": [[[235.46717040267964, -322.0085961626911], [246.32758875778032, -318.66899616281756], [246.03406393741918, -317.5557961628597], [245.64269751015507, -315.99731616283964], [234.88012076195736, -320.1161561627232], [229.98804042202542, -303.30683616284546], [224.21538562066246, -305.53323616276117], [227.24847543152453, -317.11051616279747], [229.10746596059434, -323.901036162659], [235.46717040267964, -322.0085961626911]]]}, "properties": {"name": "", "kind": "garden", "category": "parque", "extrude": false}}, {"type": "Feature", "geometry": {"type": "Polygon", "coordinates": [[[227.24847543152453, -317.11051616279747], [224.21538562066246, -305.53323616276117], [220.39956295527224, -307.09171616278127], [219.6168301007441, -304.75399616275115], [215.60532422189567, -306.2011561626568], [216.68158189678496, -309.2067961625826], [210.51756066815793, -311.2105561626649], [209.44130299326864, -308.31623616285356], [204.84274747369787, -309.76339616275925], [206.1146883620454, -315.44071616266297], [206.79957960967064, -315.3293961625485], [207.777995677657, -319.78219616277545], [208.36504531837932, -322.4538761627534], [227.24847543152453, -317.11051616279747]]]}, "properties": {"name": "", "kind": "garden", "category": "parque", "extrude": false}}, {"type": "Feature", "geometry": {"type": "Polygon", "coordinates": [[[276.0714372256786, -316.999196162683], [272.64698098755247, -318.1123961626409], [267.1678510068983, -319.5595561625465], [269.0268415359682, -325.57083616279357], [269.32036635632926, -326.79535616286586], [276.41244456767174, -324.8842621561415], [276.47983441231855, -323.32354155870587], [276.4628036529427, -323.2331161627634], [276.4839275430639, -323.22874637020305], [276.5606452598456, -321.45199616251443], [276.5606452598456, -319.0029561631609], [276.0714372256786, -316.999196162683]]]}, "properties": {"name": "", "kind": "garden", "category": "parque", "extrude": false}}, {"type": "Feature", "geometry": {"type": "Polygon", "coordinates": [[[-120.38275353721058, -314.10487616287173], [-126.4489331589347, -317.5557961628597], [-126.15540833857354, -318.33503616286976], [-119.30649586266888, -316.3312761627874], [-120.38275353721058, -314.10487616287173]]]}, "properties": {"name": "", "kind": "garden", "category": "parque", "extrude": false}}, {"type": "Feature", "geometry": {"type": "Polygon", "coordinates": [[[248.1865792871978, 9.613683837291376], [224.90027686828768, 83.41884383722615], [55.53645549313651, 32.8795638374784], [70.1148549067245, 3.9363638373876597], [20.41131865113932, -15.433316162749122], [-47.88212289688229, -52.72551616272153], [-128.40576529525507, -102.26291616262586], [-308.5321634182564, -206.86480820165613], [-308.5321634182564, -321.45199616251443], [-308.06102933860177, -332.36326422419563], [-306.65216437865286, -343.1694508093641], [-304.3191366779073, -353.7664864346157], [-301.0844145684727, -364.05231585358706], [-296.97915019276115, -373.9278809061518], [-292.0428794906304, -383.2980745021275], [-286.3231414476832, -392.0726565554696], [-279.8750202677691, -400.16712304403075], [-272.7606148828559, -407.503519830708], [-265.0484409058708, -414.01119340384514], [-256.8127707883782, -419.6274713097395], [-248.13291853519823, -424.2982657216447], [-239.09247586858882, -427.97859433633835], [-229.7785071934516, -430.6330135771391], [-220.28071111998057, -432.2359599357199], [-210.69055661579475, -432.7719961626505], [-163.65525063365112, -432.7719961626505], [-127.91655726108806, -412.4004361626703], [-126.35109155237937, -414.0702361628048], [-110.10938482317978, -431.88143616252603], [-108.38737254349594, -432.7719961626505], [178.71903845738396, -432.7719961626505], [188.30919296156978, -432.2359599357199], [197.80698903504077, -430.6330135771391], [207.12095771017798, -427.97859433633835], [216.16140037678744, -424.2982657216447], [224.8412526299674, -419.6274713097395], [233.07692274746006, -414.01119340384514], [240.78909672444513, -407.503519830708], [247.90350210935824, -400.16712304403075], [254.35162328927242, -392.0726565554696], [260.0713613322195, -383.2980745021275], [265.00763203435037, -373.9278809061518], [269.11289641006186, -364.05231585358706], [272.34761851949645, -353.7664864346157], [274.6806462202421, -343.1694508093641], [276.089511180191, -332.36326422419563], [276.5606452598456, -321.45199616251443], [276.5606452598456, 29.395758887201282], [248.1865792871978, 9.613683837291376]]]}, "properties": {"name": "Conjunto Histórico de la Ciudad de San Cristóbal de La Laguna", "kind": "park", "category": "parque", "extrude": false}}, {"type": "Feature", "geometry": {"type": "Polygon", "coordinates": [[[-17.942591215178158, -327.12931616281367], [-15.300867831580172, -334.03115616278967], [-7.669222501147365, -331.1368361625829], [-2.874983767770779, -343.60467616274366], [2.0170965725087258, -341.71223616277575], [0.8429972907165074, -338.59527616273556], [5.245869596829021, -336.925476162601], [-0.9181516317980184, -320.56143616278547], [-17.942591215178158, -327.12931616281367]]]}, "properties": {"name": "", "kind": "garden", "category": "parque", "extrude": false}}, {"type": "Feature", "geometry": {"type": "Polygon", "coordinates": [[[46.8285524878144, -370.32147616252314], [73.83283596521179, -359.1894761625491], [64.53788331916736, -336.5915161626532], [51.62279122119099, -341.8235561624947], [38.12064948249229, -347.278236162565], [46.8285524878144, -370.32147616252314]]]}, "properties": {"name": "Plaza Guillermo Rancés", "kind": "park", "category": "parque", "extrude": false}}, {"type": "Feature", "geometry": {"type": "Polygon", "coordinates": [[[92.42274125764821, -377.3346361626136], [85.2803039610348, -360.0800361626736], [67.86449795039059, -367.3158361625974], [75.00693524700401, -384.5704361625374], [92.42274125764821, -377.3346361626136]]]}, "properties": {"name": "", "kind": "garden", "category": "parque", "extrude": false}}, {"type": "Feature", "geometry": {"type": "Polygon", "coordinates": [[[20.998368292209232, -393.0307561625335], [27.945122375016812, -389.4685161628266], [31.467420220045863, -388.1326761626399], [31.173895399337106, -387.3534361626298], [27.65159755465566, -378.1138761626237], [26.281815059405204, -375.1082361626979], [23.640091675807216, -369.09695616284637], [12.681831713803593, -373.21579616273], [15.421396704304499, -379.7836761627582], [20.998368292209232, -393.0307561625335]]]}, "properties": {"name": "", "kind": "garden", "category": "parque", "extrude": false}}, {"type": "Feature", "geometry": {"type": "Polygon", "coordinates": [[[269.0268415359682, -325.57083616279357], [267.1678510068983, -319.5595561625465], [253.5678676612967, -323.121796162649], [255.13333337000535, -329.6896761626772], [269.0268415359682, -325.57083616279357]]]}, "properties": {"name": "", "kind": "garden", "category": "parque", "extrude": false}}, {"type": "Feature", "geometry": {"type": "Polygon", "coordinates": [[[240.35925074295915, -340.59903616281787], [237.22831932519415, -327.35195616264707], [230.57509006274773, -329.244396162615], [234.09738790742915, -342.4914761627858], [240.35925074295915, -340.59903616281787]]]}, "properties": {"name": "", "kind": "garden", "category": "parque", "extrude": false}}, {"type": "Feature", "geometry": {"type": "Polygon", "coordinates": [[[258.1664231808674, -382.9006361627984], [255.81822461763062, -374.2176761625734], [247.79521285993368, -376.3327561627702], [250.14341142317053, -385.1270361627141], [258.1664231808674, -382.9006361627984]]]}, "properties": {"name": "", "kind": "garden", "category": "parque", "extrude": false}}, {"type": "Feature", "geometry": {"type": "Polygon", "coordinates": [[[-124.10073459569786, -399.9325961625095], [-131.24317189231127, -387.24211616251534], [-120.18707032375234, -381.56479616261163], [-116.37124765836214, -387.3534361626298], [-107.95686947340118, -385.9062761627241], [-105.80435412362259, -384.6817561626518], [-107.17413661887304, -381.56479616261163], [-100.12954092916253, -377.44595616272807], [-105.02162126944204, -369.87619616285644], [-136.82014348021602, -384.34779616270407], [-127.62303244072692, -401.82503616287295], [-124.10073459569786, -399.9325961625095]]]}, "properties": {"name": "", "kind": "garden", "category": "parque", "extrude": false}}, {"type": "Feature", "geometry": {"type": "Polygon", "coordinates": [[[-241.2171379382212, -390.35907616255554], [-238.1840481273591, -388.5779561627021], [-240.2387218702348, -385.2383561628285], [-244.25022774908322, -387.019476162682], [-241.2171379382212, -390.35907616255554]]]}, "properties": {"name": "", "kind": "garden", "category": "parque", "extrude": false}}, {"type": "Feature", "geometry": {"type": "Polygon", "coordinates": [[[-22.34546352129067, -392.25151616252344], [-23.128196375818817, -390.9156761627322], [-21.56273066711013, -389.9137961624933], [-24.59582047797219, -384.34779616270407], [-26.356969400139114, -385.34967616254744], [-26.846177434306103, -384.5704361625374], [-29.879267245168165, -386.3515561627864], [-25.57423654595857, -394.0326361627724], [-22.34546352129067, -392.25151616252344]]]}, "properties": {"name": "", "kind": "garden", "category": "parque", "extrude": false}}, {"type": "Feature", "geometry": {"type": "Polygon", "coordinates": [[[-239.74951383606782, -392.25151616252344], [-237.5969984866368, -394.700556162668], [-235.6401663506641, -392.6967961625857], [-237.0099488455669, -390.47039616267], [-239.74951383606782, -392.25151616252344]]]}, "properties": {"name": "", "kind": "garden", "category": "parque", "extrude": false}}, {"type": "Feature", "geometry": {"type": "Polygon", "coordinates": [[[20.41131865113932, -407.50235616277666], [18.845852942430632, -402.9382361628308], [21.096209898764545, -402.27031616253964], [21.781101146389773, -401.82503616287295], [21.194051505667467, -400.1552361627384], [27.260231127391584, -398.1514761626561], [30.48900415171188, -397.0382761626982], [27.945122375016812, -389.4685161628266], [20.998368292209232, -393.0307561625335], [17.5739120540831, -394.2552761626058], [18.650169728624792, -396.9269561625838], [13.36672296142882, -399.4873161628428], [10.920682791289067, -400.7118361625196], [11.40989082545606, -402.7155961626019], [13.758089388692893, -409.6174361625779], [20.41131865113932, -407.50235616277666]]]}, "properties": {"name": "", "kind": "garden", "category": "parque", "extrude": false}}, {"type": "Feature", "geometry": {"type": "Polygon", "coordinates": [[[29.314904870267267, -404.274076162622], [27.260231127391584, -398.1514761626561], [21.194051505667467, -400.1552361627384], [21.781101146389773, -401.82503616287295], [23.44440846200138, -406.1665161625899], [29.314904870267267, -404.274076162622]]]}, "properties": {"name": "", "kind": "garden", "category": "parque", "extrude": false}}, {"type": "Feature", "geometry": {"type": "Polygon", "coordinates": [[[-10.995837132370578, -406.6117961626521], [-14.224610156690874, -401.7137161627585], [-18.04043282208108, -395.9250761627403], [-27.433227075028412, -401.602396162644], [-25.085028511791577, -405.38727616257984], [-20.877839419484904, -411.9551561626081], [-10.995837132370578, -406.6117961626521]]]}, "properties": {"name": "", "kind": "garden", "category": "parque", "extrude": false}}, {"type": "Feature", "geometry": {"type": "Polygon", "coordinates": [[[-87.60581525845022, -409.8400761628068], [-90.63890506931229, -405.9438761627565], [-95.23746058923064, -409.506116162859], [-92.20437077836857, -413.4023161625137], [-87.60581525845022, -409.8400761628068]]]}, "properties": {"name": "", "kind": "playground", "category": "parque", "extrude": false}}, {"type": "Feature", "geometry": {"type": "Polygon", "coordinates": [[[-107.07629501231771, -418.9683161626985], [-101.59716503131591, -414.7381561627004], [-106.00003733742842, -408.9495161626823], [-111.47916731843023, -413.1796761626804], [-107.07629501231771, -418.9683161626985]]]}, "properties": {"name": "", "kind": "garden", "category": "parque", "extrude": false}}, {"type": "Feature", "geometry": {"type": "Polygon", "coordinates": [[[-56.68786750910731, -428.54183616265243], [-46.120973974367764, -420.1928361627708], [-48.95838057177159, -416.7419161627828], [-54.633193766231635, -421.08339616249975], [-70.6792172816254, -400.60051616280066], [-75.17993119464083, -404.4967161628509], [-56.68786750910731, -428.54183616265243]]]}, "properties": {"name": "", "kind": "garden", "category": "parque", "extrude": false}}, {"type": "Feature", "geometry": {"type": "Polygon", "coordinates": [[[218.73625563966064, -406.1665161625899], [225.5851681159129, -404.38539616273647], [222.16071187778678, -391.1383161625656], [206.6038963962124, -395.0345161626159], [210.3218774546997, -408.2815961627867], [218.73625563966064, -406.1665161625899]]]}, "properties": {"name": "", "kind": "garden", "category": "parque", "extrude": false}}, {"type": "Feature", "geometry": {"type": "Polygon", "coordinates": [[[-224.58406478175752, -393.0307561625335], [-229.37830351513406, -393.0307561625335], [-231.62866047146798, -394.0326361627724], [-197.24014161208225, -432.7719961626505], [-189.09870472950055, -432.7719961626505], [-224.58406478175752, -393.0307561625335]]]}, "properties": {"name": "", "kind": "garden", "category": "parque", "extrude": false}}, {"type": "Feature", "geometry": {"type": "Polygon", "coordinates": [[[-14.224610156690874, -427.7625961626424], [-19.312373710428613, -419.3022761626463], [-17.159858360997617, -417.9664361628551], [-19.508056924234452, -414.18155616252375], [-20.877839419484904, -411.9551561626081], [-25.085028511791577, -405.38727616257984], [-28.313801536459476, -407.9476361628389], [-26.846177434306103, -409.6174361625779], [-31.346891347321538, -413.1796761626804], [-32.71667384257199, -411.3985561628269], [-37.02170454178158, -414.626836162586], [-28.998692784084703, -427.8739161627568], [-26.650494220847868, -431.3248361627449], [-14.224610156690874, -427.7625961626424]]]}, "properties": {"name": "", "kind": "garden", "category": "parque", "extrude": false}}, {"type": "Feature", "geometry": {"type": "Polygon", "coordinates": [[[-84.768408661394, -424.6456361626022], [-77.0545763810515, -432.7719961626505], [-74.71016993947049, -432.7719961626505], [-89.0734393606036, -416.6305961626683], [-104.53241323527504, -429.9889961625581], [-100.7182489020933, -432.7719961626505], [-92.94348749487138, -432.7719961626505], [-84.768408661394, -424.6456361626022]]]}, "properties": {"name": "", "kind": "garden", "category": "parque", "extrude": false}}, {"type": "Feature", "geometry": {"type": "Polygon", "coordinates": [[[96.23856392303843, -432.6606761625361], [96.23856392303843, -432.2153961628693], [94.77093982088505, -428.3191961628191], [89.585334660592, -429.20975616254805], [80.3882236211029, -432.54935616281716], [79.70333237382528, -432.7719961626505], [95.76892421011297, -432.7719961626505], [96.23856392303843, -432.6606761625361]]]}, "properties": {"name": "", "kind": "garden", "category": "parque", "extrude": false}}, {"type": "Feature", "geometry": {"type": "Polygon", "coordinates": [[[159.24855870386406, -424.20035616253995], [140.56081180452472, -430.8795561626826], [141.23469193890776, -432.7719961626505], [162.3008393121109, -432.7719961626505], [159.24855870386406, -424.20035616253995]]]}, "properties": {"name": "", "kind": "pitch", "category": "parque", "extrude": false}}, {"type": "Feature", "geometry": {"type": "Polygon", "coordinates": [[[135.01394532635604, -432.7719961626505], [139.93637046686362, -432.7719961626505], [139.3867125227325, -431.2135161626304], [135.01394532635604, -432.7719961626505]]]}, "properties": {"name": "", "kind": "pitch", "category": "parque", "extrude": false}}, {"type": "Feature", "geometry": {"type": "Polygon", "coordinates": [[[-119.30649586266888, -428.3191961628191], [-127.13382440655992, -420.63811616283306], [-150.14720023783005, -432.7719961626505], [-120.6302352486863, -432.7719961626505], [-119.30649586266888, -428.3191961628191]]]}, "properties": {"name": "", "kind": "garden", "category": "parque", "extrude": false}}]}