{"type": "FeatureCollection", "crs": {"type": "name", "properties": {"name": "wgs84_and_EPSG:32628_local_enu_m_section_centroid", "lng0": -16.309048855669978, "lat0": 28.423764391104168}}, "features": [{"type": "Feature", "geometry": {"type": "Polygon", "coordinates": [[[-16.31268, 28.42747], [-16.31267, 28.42742], [-16.31264, 28.42731], [-16.31259, 28.42713], [-16.31259, 28.42705], [-16.31264, 28.4269], [-16.31285, 28.42648], [-16.31292, 28.42634], [-16.31293, 28.42624], [-16.31292, 28.42613], [-16.31285, 28.42601], [-16.31226, 28.42548], [-16.31214, 28.42537], [-16.31204, 28.42524], [-16.312, 28.42512], [-16.31198, 28.42504], [-16.31194, 28.42489], [-16.31192, 28.42473], [-16.31191, 28.4247], [-16.31186, 28.42457], [-16.31181, 28.42452], [-16.31174, 28.42447], [-16.31164, 28.42445], [-16.31156, 28.42445], [-16.31149, 28.42446], [-16.31027, 28.42516], [-16.30996, 28.42533], [-16.3096, 28.42554], [-16.30949, 28.42563], [-16.30946, 28.42571], [-16.30942, 28.42579], [-16.30943, 28.42591], [-16.30949, 28.42667], [-16.30946, 28.42675], [-16.30936, 28.42681], [-16.30922, 28.42683], [-16.30912, 28.42678], [-16.30908, 28.42669], [-16.30905, 28.42657], [-16.30898, 28.42643], [-16.30893, 28.42636], [-16.30804, 28.42566], [-16.30794, 28.42555], [-16.30788, 28.42561], [-16.30789, 28.4257], [-16.30806, 28.42622], [-16.3081, 28.42635], [-16.30808, 28.42646], [-16.30797, 28.42651], [-16.30782, 28.42647], [-16.30761, 28.42638], [-16.30748, 28.42631], [-16.30732, 28.42618], [-16.30716, 28.42607], [-16.30699, 28.42603], [-16.30675, 28.42607], [-16.30636, 28.42619], [-16.30626, 28.4262], [-16.30578, 28.42617], [-16.30573, 28.42616], [-16.30575, 28.42595], [-16.30573, 28.42547], [-16.3059, 28.4243], [-16.3048, 28.42466], [-16.30442, 28.42472], [-16.30447, 28.42461], [-16.30463, 28.42423], [-16.30483, 28.42378], [-16.30501, 28.42335], [-16.30514, 28.42307], [-16.30532, 28.42267], [-16.30541, 28.42246], [-16.30546, 28.42234], [-16.3056, 28.42205], [-16.30571, 28.42183], [-16.30573, 28.42179], [-16.30588, 28.42149], [-16.30599, 28.42151], [-16.30601, 28.42152], [-16.30604, 28.42151], [-16.30606, 28.4215], [-16.30611, 28.42148], [-16.30615, 28.42147], [-16.30619, 28.42145], [-16.30622, 28.42144], [-16.30626, 28.42142], [-16.30629, 28.42141], [-16.30633, 28.42139], [-16.30638, 28.42137], [-16.30641, 28.42136], [-16.30644, 28.42134], [-16.30647, 28.42132], [-16.30651, 28.42129], [-16.30654, 28.42127], [-16.30656, 28.42125], [-16.30659, 28.42122], [-16.30662, 28.42119], [-16.30664, 28.42117], [-16.30667, 28.42115], [-16.30669, 28.42112], [-16.30672, 28.4211], [-16.30675, 28.42108], [-16.30678, 28.42106], [-16.30682, 28.42104], [-16.30687, 28.42102], [-16.30691, 28.42101], [-16.30696, 28.421], [-16.30699, 28.42099], [-16.30701, 28.42099], [-16.30703, 28.42099], [-16.30707, 28.42098], [-16.30712, 28.42098], [-16.30716, 28.42098], [-16.3072, 28.42098], [-16.30725, 28.42098], [-16.30729, 28.42097], [-16.30733, 28.42096], [-16.30736, 28.42095], [-16.3074, 28.42094], [-16.30744, 28.42093], [-16.30748, 28.42092], [-16.30751, 28.42091], [-16.30754, 28.42091], [-16.30757, 28.42091], [-16.30761, 28.42091], [-16.30765, 28.42092], [-16.30769, 28.42092], [-16.30773, 28.42092], [-16.30775, 28.42092], [-16.30778, 28.42092], [-16.3078, 28.42092], [-16.30781, 28.42092], [-16.30785, 28.42091], [-16.30788, 28.42092], [-16.30791, 28.42092], [-16.30794, 28.42094], [-16.30796, 28.42096], [-16.30797, 28.42099], [-16.30798, 28.421], [-16.30803, 28.42102], [-16.30807, 28.42104], [-16.30813, 28.42106], [-16.30819, 28.42108], [-16.30826, 28.4211], [-16.30834, 28.42112], [-16.30838, 28.42113], [-16.30841, 28.42114], [-16.30848, 28.42115], [-16.30854, 28.42117], [-16.30858, 28.42118], [-16.30862, 28.42119], [-16.3087, 28.42121], [-16.30878, 28.42122], [-16.30881, 28.42122], [-16.30884, 28.42123], [-16.30889, 28.42123], [-16.30893, 28.42123], [-16.30897, 28.42123], [-16.309, 28.42124], [-16.30905, 28.42124], [-16.3091, 28.42125], [-16.30914, 28.42126], [-16.30919, 28.42128], [-16.3093, 28.42129], [-16.30942, 28.42131], [-16.30948, 28.42131], [-16.30954, 28.42131], [-16.30957, 28.42131], [-16.30961, 28.42132], [-16.30964, 28.42132], [-16.30968, 28.42132], [-16.30974, 28.42133], [-16.3098, 28.42134], [-16.30985, 28.42136], [-16.30989, 28.42138], [-16.30993, 28.4214], [-16.30997, 28.42143], [-16.31001, 28.42145], [-16.31004, 28.42148], [-16.31008, 28.42151], [-16.31011, 28.42153], [-16.31014, 28.42156], [-16.31018, 28.42159], [-16.31021, 28.4216], [-16.31023, 28.42162], [-16.31027, 28.42164], [-16.31031, 28.42166], [-16.31035, 28.42169], [-16.31038, 28.42171], [-16.31042, 28.42174], [-16.31046, 28.42176], [-16.31049, 28.42178], [-16.31052, 28.42179], [-16.31056, 28.42181], [-16.3106, 28.42183], [-16.31062, 28.42184], [-16.31064, 28.42185], [-16.31068, 28.42186], [-16.31073, 28.42187], [-16.31077, 28.42187], [-16.31082, 28.42187], [-16.3109, 28.42188], [-16.31098, 28.42187], [-16.31103, 28.42186], [-16.31107, 28.42186], [-16.31113, 28.42185], [-16.31119, 28.42184], [-16.31123, 28.42183], [-16.31127, 28.42183], [-16.31131, 28.42184], [-16.31135, 28.42185], [-16.31138, 28.42186], [-16.31141, 28.42188], [-16.31143, 28.42188], [-16.31146, 28.42189], [-16.31149, 28.42189], [-16.31151, 28.42191], [-16.31155, 28.42195], [-16.31158, 28.42198], [-16.3116, 28.422], [-16.31161, 28.42202], [-16.31163, 28.42203], [-16.31167, 28.42205], [-16.31171, 28.42205], [-16.31174, 28.42206], [-16.31177, 28.42205], [-16.31181, 28.42205], [-16.31184, 28.42204], [-16.31188, 28.42203], [-16.31191, 28.42203], [-16.31195, 28.42203], [-16.31198, 28.42203], [-16.31201, 28.42203], [-16.31204, 28.42203], [-16.31208, 28.42203], [-16.31212, 28.42203], [-16.31216, 28.42205], [-16.3122, 28.42207], [-16.31223, 28.42209], [-16.31225, 28.4221], [-16.31229, 28.42211], [-16.31232, 28.42212], [-16.31236, 28.42213], [-16.3124, 28.42213], [-16.31243, 28.42214], [-16.31246, 28.42215], [-16.31249, 28.42216], [-16.31252, 28.42217], [-16.31254, 28.42218], [-16.31256, 28.42219], [-16.3126, 28.4222], [-16.31264, 28.42222], [-16.31265, 28.42221], [-16.31269, 28.42223], [-16.31274, 28.42224], [-16.31277, 28.42224], [-16.31281, 28.42225], [-16.31286, 28.42226], [-16.31292, 28.42228], [-16.31298, 28.42229], [-16.31305, 28.4223], [-16.31309, 28.42231], [-16.31313, 28.42231], [-16.31318, 28.42232], [-16.31323, 28.42232], [-16.31327, 28.42232], [-16.31331, 28.42233], [-16.31336, 28.42233], [-16.31341, 28.42234], [-16.31346, 28.42234], [-16.3135, 28.42234], [-16.31354, 28.42234], [-16.31357, 28.42233], [-16.31363, 28.42231], [-16.31358, 28.42243], [-16.31356, 28.42247], [-16.31329, 28.42304], [-16.31314, 28.42331], [-16.31304, 28.42348], [-16.31296, 28.42366], [-16.31295, 28.42375], [-16.31292, 28.42409], [-16.31293, 28.42416], [-16.31297, 28.42424], [-16.31302, 28.42434], [-16.31305, 28.42444], [-16.31309, 28.42458], [-16.31322, 28.42512], [-16.31328, 28.42535], [-16.31333, 28.4256], [-16.31337, 28.42575], [-16.31337, 28.42582], [-16.31334, 28.42602], [-16.31331, 28.42628], [-16.31329, 28.42647], [-16.31326, 28.42669], [-16.31325, 28.42677], [-16.31328, 28.42682], [-16.3135, 28.42708], [-16.31381, 28.4273], [-16.31378, 28.42733], [-16.31353, 28.42757], [-16.3133, 28.4278], [-16.31312, 28.42798], [-16.31309, 28.42797], [-16.313, 28.42792], [-16.31292, 28.42783], [-16.31284, 28.42775], [-16.3128, 28.42769], [-16.31272, 28.42759], [-16.3127, 28.42751], [-16.31268, 28.42747]]]}, "properties": {"cusec": "3803812003", "mun": "038", "nmun": "Santa Cruz de Tenerife", "area_m2": 372218.92930633057, "perimeter_m": 3695.1998157107987, "coords_system": "wgs84"}}, {"type": "Feature", "geometry": {"type": "Polygon", "coordinates": [[[-355.49088273911497, -412.508382283974], [-354.5118776365458, -406.9423822841847], [-351.57486232849067, -394.6971822838573], [-346.67983681564505, -374.6595822838249], [-346.67983681564505, -365.753982284162], [-351.57486232849067, -349.0559822840032], [-372.1339694834856, -302.3015822841913], [-378.9870052014695, -286.7167822839903], [-379.96601030438643, -275.5847822840162], [-378.9870052014695, -263.3395822840844], [-372.1339694834856, -249.98118228419457], [-314.3726684294727, -190.98158228405524], [-302.62460719829545, -178.73638228412332], [-292.8345561722564, -164.2647822838802], [-288.9185357619799, -150.90638228399044], [-286.9605255564939, -142.0007822839321], [-283.0445051462174, -125.30278228416876], [-281.08649494107914, -107.49158228405207], [-280.10748983851, -104.1519822841785], [-275.2124643253166, -89.68038228393539], [-270.317438812471, -84.1143822841461], [-263.4644030941393, -78.54838228396133], [-253.67435206810026, -76.32198228404562], [-245.8423112471995, -76.32198228404562], [-238.98927552886784, -77.43518228400347], [-119.55065301091335, -155.35918228421735], [-89.20149483022712, -174.2835822838964], [-53.95731113634747, -197.66078228419786], [-43.188255007739315, -207.67958228421406], [-40.251239700031945, -216.58518228387692], [-36.33521928940765, -225.49078228393526], [-37.314224391976765, -238.84918228382503], [-43.188255007739315, -323.45238228418157], [-40.251239700031945, -332.3579822838444], [-30.46118867399291, -339.037182283987], [-16.75511723732957, -341.26358228390274], [-6.965066211290537, -335.6975822841134], [-3.0490458010140484, -325.6787822840972], [-0.11203049295886897, -312.3203822842075], [6.7410052253728, -296.7355822840065], [11.63603073821841, -288.943182283906], [98.76748487034843, -211.01918228408763], [108.55753589638745, -198.77398228415572], [114.43156651180219, -205.45318228390286], [113.45256140923307, -215.47198228391906], [96.80947466486236, -273.35838228410057], [92.89345425458588, -287.8299822839482], [94.85146445972411, -300.07518228388005], [105.62052058833227, -305.6411822840648], [120.30559712756474, -301.18838228383794], [140.86470428221193, -291.1695822842172], [153.59177061595832, -283.37718228411677], [169.2558522577599, -268.9055822838736], [184.9199338995615, -256.6603822839417], [201.5630206439322, -252.2075822841103], [225.05914310628677, -256.6603822839417], [263.2403421078738, -270.01878228383146], [273.0303931339128, -271.1319822841848], [320.02263805931756, -267.7923822839158], [324.9176635721632, -266.6791822839579], [322.9596533670249, -243.30198228405195], [324.9176635721632, -189.86838228409738], [308.2745768277925, -59.62398228388679], [415.96513811456964, -99.69918228395159], [453.16733201358755, -106.37838228409422], [448.272306500742, -94.1331822841623], [432.60822485894033, -51.83158228418179], [413.0281228068623, -1.737582284100796], [395.4060309599225, 46.130017716064486], [382.67896462582826, 77.29961771607094], [365.05687277923624, 121.82761771596716], [356.2458268557664, 145.20481771587313], [351.35080134257294, 158.5632177161584], [337.6447299062574, 190.8460177161227], [326.8756737773014, 215.33641771598653], [324.9176635721632, 219.78921771581795], [310.2325870332785, 253.1852177161356], [299.46353090432257, 250.9588177158244], [297.50552069918433, 249.84561771586655], [294.56850539147695, 250.9588177158244], [292.61049518633865, 252.07201771578227], [287.71546967314526, 254.29841771609347], [283.79944926286873, 255.41161771605132], [279.8834288522445, 257.63801771596707], [276.94641354453717, 258.7512177159249], [273.0303931339128, 260.9776177158406], [270.0933778262054, 262.0908177157985], [266.17735741592895, 264.31721771610967], [261.2823319027355, 266.5436177160254], [258.3453165950282, 267.65681771598327], [255.40830128732082, 269.8832177158989], [252.4712859792656, 272.1096177158147], [248.5552655689891, 275.4492177160837], [245.61825026128176, 277.67561771599946], [243.66024005579567, 279.9020177159151], [240.72322474808834, 283.2416177157887], [237.786209440381, 286.5812177160578], [235.82819923489492, 288.8076177159735], [232.89118392718757, 291.0340177158892], [230.93317372204928, 294.37361771615826], [227.99615841434195, 296.600017716074], [225.05914310628677, 298.8264177159897], [222.12212779857938, 301.0528177159054], [218.2061073883029, 303.2792177158211], [213.31108187510947, 305.5056177161323], [209.395061464833, 306.6188177160902], [204.50003595163957, 307.73201771604806], [201.5630206439322, 308.8452177160059], [199.60501043879395, 308.8452177160059], [197.6470002333079, 308.8452177160059], [193.73097982303142, 309.9584177159637], [188.83595430983797, 309.9584177159637], [184.9199338995615, 309.9584177159637], [181.0039134889372, 309.9584177159637], [176.10888797609158, 309.9584177159637], [172.19286756581508, 311.0716177159216], [168.27684715519078, 312.1848177158795], [165.33983184748342, 313.2980177158373], [161.42381143685913, 314.41121771579515], [157.50779102658262, 315.5244177161485], [153.59177061595832, 316.6376177161064], [150.65475530825097, 317.75081771606426], [147.71774000054359, 317.75081771606426], [144.78072469283623, 317.75081771606426], [140.86470428221193, 317.75081771606426], [136.94868387193543, 316.6376177161064], [133.03266346131113, 316.6376177161064], [129.11664305103466, 316.6376177161064], [127.1586328458964, 316.6376177161064], [124.22161753784123, 316.6376177161064], [122.26360733270297, 316.6376177161064], [121.28460223013386, 316.6376177161064], [117.36858181985737, 317.75081771606426], [114.43156651180219, 316.6376177161064], [111.49455120409482, 316.6376177161064], [108.55753589638745, 314.41121771579515], [106.5995256909014, 312.1848177158795], [105.62052058833227, 308.8452177160059], [104.64151548576315, 307.73201771604806], [99.74648997291754, 305.5056177161323], [95.83046956229325, 303.2792177158211], [89.9564389468785, 301.0528177159054], [84.08240833111596, 298.8264177159897], [77.22937261278429, 296.600017716074], [69.3973317918835, 294.37361771615826], [65.48131138160701, 293.2604177158049], [62.544296073899645, 292.1472177158471], [55.69126035556798, 291.0340177158892], [49.81722973980543, 288.8076177159735], [45.90120932952894, 287.69441771601566], [41.98518891890464, 286.5812177160578], [34.15314809800385, 284.35481771614207], [26.32110727745087, 283.2416177157887], [23.38409196939569, 283.2416177157887], [20.447076661688325, 282.1284177158309], [15.5520511484949, 282.1284177158309], [11.63603073821841, 282.1284177158309], [7.720010327941922, 282.1284177158309], [4.782995019886743, 281.015217715873], [-0.11203049295886897, 281.015217715873], [-5.007056006152293, 279.9020177159151], [-8.923076416428781, 278.7888177159573], [-13.818101929622205, 276.5624177160416], [-24.587158058230365, 275.4492177160837], [-36.33521928940765, 273.22281771616804], [-42.20924990517019, 273.22281771616804], [-48.08328052058492, 273.22281771616804], [-51.0202958286401, 273.22281771616804], [-54.93631623891659, 272.1096177158147], [-57.87333154697177, 272.1096177158147], [-61.78935195724826, 272.1096177158147], [-67.66338257301081, 270.9964177158568], [-73.53741318842555, 269.8832177158989], [-78.43243870161896, 267.65681771598327], [-82.34845911189545, 265.4304177160675], [-86.26447952251975, 263.20401771615184], [-90.18049993279624, 259.8644177158827], [-94.09652034307274, 257.63801771596707], [-97.03353565112792, 254.29841771609347], [-100.94955606140441, 250.9588177158244], [-103.88657136945959, 248.7324177159087], [-106.82358667716694, 245.39281771603513], [-110.73960708744343, 242.05321771616156], [-113.67662239549861, 240.9400177158082], [-115.63463260063686, 238.7136177158925], [-119.55065301091335, 236.48721771597678], [-123.46667342153765, 234.26081771606107], [-127.38269383181414, 230.921217715792], [-130.3197091395215, 228.6948177158763], [-134.2357295501458, 225.35521771600273], [-138.1517499604223, 223.128817716087], [-141.0887652684775, 220.9024177161713], [-144.02578057618484, 219.78921771581795], [-147.94180098646135, 217.56281771590224], [-151.85782139708564, 215.33641771598653], [-153.81583160222388, 214.22321771602867], [-155.77384180736212, 213.11001771607081], [-159.68986221798642, 211.99681771611296], [-164.58488773083204, 210.8836177161551], [-168.50090814145634, 210.8836177161551], [-173.39593365430196, 210.8836177161551], [-181.22797447520273, 209.77041771580176], [-189.06001529610353, 210.8836177161551], [-193.95504080894915, 211.99681771611296], [-197.87106121957345, 211.99681771611296], [-203.7450918349882, 213.11001771607081], [-209.61912245075072, 214.22321771602867], [-213.53514286102723, 215.33641771598653], [-217.45116327165152, 215.33641771598653], [-221.367183681928, 214.22321771602867], [-225.28320409255232, 213.11001771607081], [-228.22021940025968, 211.99681771611296], [-231.157234707967, 209.77041771580176], [-233.1152449134531, 209.77041771580176], [-236.05226022116045, 208.6572177158439], [-238.98927552886784, 208.6572177158439], [-240.94728573400607, 206.43081771592819], [-244.86330614463034, 201.97801771609676], [-247.80032145233776, 198.6384177158277], [-249.758331657476, 196.412017715912], [-250.73733676039294, 194.18561771599627], [-252.69534696553117, 193.07241771603842], [-256.6113673758077, 190.8460177161227], [-260.527387786432, 190.8460177161227], [-263.4644030941393, 189.73281771616485], [-266.4014184018467, 190.8460177161227], [-270.317438812471, 190.8460177161227], [-273.25445412017837, 191.95921771608056], [-277.1704745304549, 193.07241771603842], [-280.10748983851, 193.07241771603842], [-284.0235102487865, 193.07241771603842], [-286.9605255564939, 193.07241771603842], [-289.89754086454906, 193.07241771603842], [-292.8345561722564, 193.07241771603842], [-296.75057658288074, 193.07241771603842], [-300.6665969931572, 193.07241771603842], [-304.5826174034337, 190.8460177161227], [-308.49863781405804, 188.6196177158115], [-311.43565312176537, 186.3932177158958], [-313.3936633269036, 185.28001771593793], [-317.30968373752796, 184.16681771598007], [-320.2466990452353, 183.05361771602222], [-324.1627194558596, 181.94041771606436], [-328.07873986613606, 181.94041771606436], [-331.01575517384344, 180.8272177161065], [-333.95277048189865, 179.71401771614865], [-336.889785789606, 178.6008177157953], [-339.82680109731336, 177.48761771583744], [-341.7848113024516, 176.3744177158796], [-343.7428215079377, 175.26121771592173], [-347.6588419182142, 174.14801771596387], [-351.57486232849067, 171.92161771604816], [-352.5538674314076, 173.03481771600602], [-356.4698878416841, 170.8084177160903], [-361.3649133548775, 169.69521771613245], [-364.3019286625849, 169.69521771613245], [-368.21794907286136, 168.5820177161746], [-373.11297458605475, 167.46881771582125], [-378.9870052014695, 165.24241771590553], [-384.86103581723205, 164.12921771594768], [-391.71407153556373, 163.01601771598982], [-395.63009194584026, 161.90281771603196], [-399.5461123564645, 161.90281771603196], [-404.4411378693101, 160.7896177160741], [-409.33616338250357, 160.7896177160741], [-413.25218379278004, 160.7896177160741], [-417.16820420340434, 159.67641771611625], [-422.06322971624996, 159.67641771611625], [-426.9582552294434, 158.5632177161584], [-431.853280742289, 158.5632177161584], [-435.76930115291333, 158.5632177161584], [-439.6853215631898, 158.5632177161584], [-442.62233687089713, 159.67641771611625], [-448.4963674866597, 161.90281771603196], [-443.6013419738141, 148.5444177161422], [-441.643331768328, 144.09161771591528], [-415.2101939979183, 80.63921771594451], [-400.52511745903365, 50.582817715895914], [-390.7350664329946, 31.658417715821372], [-382.9030256120938, 11.620817715788974], [-381.92402050952467, 1.6020177161682625], [-378.9870052014695, -36.24678228398082], [-379.96601030438643, -44.039182284081306], [-383.8820307146629, -52.94478228413965], [-388.77705622785635, -64.0767822841137], [-391.71407153556373, -75.20878228408776], [-395.63009194584026, -90.79358228389324], [-408.3571582799344, -150.90638228399044], [-414.23118889534913, -176.5099822842076], [-419.1262144085426, -204.339982283945], [-423.04223481881905, -221.03798228410383], [-423.04223481881905, -228.83038228420432], [-420.10521951111167, -251.09438228415243], [-417.16820420340434, -280.03758228384766], [-415.2101939979183, -301.18838228383794], [-412.2731786902109, -325.6787822840972], [-411.29417358764175, -334.5843822841556], [-414.23118889534913, -340.15038228394485], [-435.76930115291333, -369.0935822840356], [-466.11845933359956, -393.58398228389945], [-463.1814440258922, -396.9235822841685], [-438.70631646062066, -423.64038228394804], [-416.1891991008352, -449.2439822841652], [-398.56710725389536, -469.2815822841976], [-395.63009194584026, -468.16838228384427], [-386.81904602237034, -462.602382284055], [-378.9870052014695, -452.5835822840388], [-371.1549643809165, -443.67798228398044], [-367.2389439702922, -436.99878228383784], [-359.40690314939144, -425.86678228386376], [-357.4488929442532, -416.9611822842009], [-355.49088273911497, -412.508382283974]]]}, "properties": {"cusec": "3803812003", "mun": "038", "nmun": "Santa Cruz de Tenerife", "area_m2": 372218.92930633057, "perimeter_m": 3695.1998157107987, "coords_system": "local_m_enu"}}]}