{"type": "FeatureCollection", "crs": {"type": "name", "properties": {"name": "EPSG:32628_local_enu_m_section_centroid", "lng0": -16.29954234032627, "lat0": 28.44888655181854}}, "features": [{"type": "Feature", "geometry": {"type": "Polygon", "coordinates": [[[-95.99766335956585, -112.2800030214383], [-112.37376391777616, -121.65046491417279], [-118.57199173331006, -109.78379075185464], [-102.50698032666455, -100.76372063455699], [-95.99766335956585, -112.2800030214383]]]}, "properties": {"id": 0, "height_median_m": 3.0, "building_count": 1, "area_m2": 248.06690514396502}}, {"type": "Feature", "geometry": {"type": "Polygon", "coordinates": [[[-158.89529696520935, -54.14272759938366], [-158.0125898097126, -53.58498283618049], [-159.58603565103869, -50.676968630509], [-159.09011561218213, -50.39495310373049], [-154.35940831767502, -47.79750143756511], [-158.90536503200502, -39.426521945213366], [-155.368706687775, -37.527058730267946], [-155.8559183891667, -36.52963068663036], [-146.27120147763392, -31.197566898458028], [-145.7815155740912, -31.977283888609286], [-141.9476357472922, -29.85296921407857], [-139.4576035985451, -34.35845555466671], [-140.24443360595498, -34.80590325293554], [-137.7947227388602, -39.375207077133894], [-150.34610345662588, -46.23180964044078], [-142.0506207026822, -61.57758019349805], [-137.55077136992583, -59.01864470999176], [-128.9354947100038, -73.93912193696244], [-128.9319573702761, -73.93716623046275], [-128.76268202029647, -74.23840980699735], [-128.58540567225842, -74.54542812088235], [-128.58903437955854, -74.54743434222341], [-120.63815072159372, -88.69688155957607], [-115.73398674189446, -85.9080239117872], [-115.42124012678217, -85.72681820453937], [-115.41986921537453, -85.72939426772025], [-107.95681341194604, -81.48536810150246], [-107.70901074226805, -82.04904123587134], [-105.92994800546063, -85.28648777461478], [-105.16119474607744, -84.84931980599383], [-102.72061212804306, -88.83195912708291], [-102.39105344268684, -89.58160148246843], [-106.07771498462954, -91.78844239695657], [-105.68796978903009, -92.45335319945872], [-115.19186315636415, -98.27368310927022], [-115.58306193403072, -97.60629247525337], [-119.18885979547089, -99.82306437673279], [-119.67179745657457, -99.09071018653945], [-124.31275521261193, -91.61303407511917], [-129.20041282270162, -94.25117599186243], [-130.86884045056723, -91.34900391679176], [-131.75320257756553, -91.79603629213351], [-133.11675682991648, -89.35902003245992], [-133.12110855984625, -89.36144423251204], [-133.28854655004477, -89.05198836102075], [-133.45855557161312, -88.74813924820481], [-133.4542489498494, -88.74574017637072], [-135.63684437195883, -84.71190670965872], [-137.06759348731384, -82.20844191163745], [-136.57204854090466, -81.8702792434238], [-137.9875346118023, -79.25420343430557], [-139.59679274804688, -76.30542211987137], [-140.38172899212705, -76.64020019658483], [-141.6093297708093, -74.3555046527795], [-142.4633905751591, -72.7863848870332], [-144.15820398351744, -69.67259579290481], [-146.78805035774238, -64.84092115609236], [-150.5389458833659, -66.86729670768739], [-152.68852285438726, -63.088960531327125], [-153.67182330569025, -63.64813534564165], [-158.89529696520935, -54.14272759938366]]]}, "properties": {"id": 1, "height_median_m": 12.0, "building_count": 8, "area_m2": 981.8066642909324}}, {"type": "Feature", "geometry": {"type": "Polygon", "coordinates": [[[-98.7561252160489, -40.48985009221483], [-101.35487852242358, -35.992086519501875], [-84.10728335634322, -25.837700708290168], [-79.63469908655846, -33.891897681178904], [-74.41375125713681, -31.20123821059735], [-70.42783986003218, -38.05937913037261], [-65.82764399526138, -46.296995155466405], [-56.81002144580663, -61.797733359880226], [-52.891653589201574, -59.4580565633764], [-44.279112292579576, -74.26248502407994], [-40.95228404047388, -72.25932645793108], [-31.003948303317358, -89.23132758892183], [-34.625407215438834, -91.34640758881444], [-34.235431471242094, -92.0117117114612], [-38.954792374367216, -94.82327549424177], [-41.29918775413358, -90.60150547735573], [-42.16876243206174, -91.1509523922747], [-44.27052908471351, -87.67396469420547], [-44.270529084713594, -87.67396469420531], [-44.69269200263914, -86.9755735239219], [-44.66887089752441, -86.9620271434595], [-49.004922901885884, -79.21240572634314], [-52.16466141109111, -81.00925855224038], [-54.51371584051384, -77.00173855208769], [-55.29463681490255, -77.44582595225579], [-57.70833842261755, -73.39337900166954], [-57.68170104835189, -73.37823108957294], [-62.159452475452426, -65.73912397811698], [-65.17466694713686, -67.54403570824657], [-67.52769906374, -63.64123821749071], [-68.3152318665785, -64.08908557519986], [-73.84109500895687, -54.60259451902057], [-72.93108680413174, -53.98159978431379], [-74.4589059983558, -51.32401121015463], [-76.02526141300828, -48.75075804806519], [-77.03558727562722, -49.273070222913], [-83.13641869935029, -38.59809126191992], [-90.44496836679492, -42.95216673332565], [-91.03085582851776, -41.84157531593756], [-95.42477454003901, -44.50685080649845], [-97.97453705971736, -40.045383285172214], [-98.7561252160489, -40.48985009221483]]]}, "properties": {"id": 2, "height_median_m": 12.0, "building_count": 5, "area_m2": 997.1708392151198}}, {"type": "Feature", "geometry": {"type": "Polygon", "coordinates": [[[-133.94919682413266, -29.19619237951077], [-133.16695575954773, -28.751354281842605], [-134.83086931357886, -25.857034282263985], [-134.32943995049538, -25.571885759022507], [-129.49251179765756, -22.821263201327866], [-134.046800997499, -14.835757078466557], [-130.5043423943991, -12.821262292576192], [-130.99241950671274, -11.822062563943257], [-121.20883299464973, -6.140041583904528], [-120.62255888594476, -7.140233485036676], [-117.78040780573518, -5.4682507801518465], [-114.35426452166192, -11.480300956610607], [-110.93226656263164, -9.47870891088196], [-110.34642906293381, -10.478155951479643], [-106.23410804989979, -8.028236765039216], [-97.16841927236763, -23.66820717865641], [-101.27776955094822, -26.00507703053581], [-100.88985090681163, -26.666871711059812], [-105.60602152191889, -29.476534877148733], [-107.79742168620635, -25.624685593362376], [-108.5190192592527, -26.171821434368734], [-114.78629322345407, -15.347762910699478], [-116.47951781147688, -16.343854303016013], [-116.48129106812912, -16.340537786508943], [-125.55362534877857, -21.551827445308664], [-118.93685103539839, -32.96988847474717], [-117.21007410138728, -35.94965527394051], [-117.0356632671049, -36.25062270243578], [-117.03721896249964, -36.25148580431985], [-108.79644211351334, -50.63731811419968], [-100.35060094875912, -65.26435630855063], [-100.34424814084556, -65.26107207220711], [-99.86354250563477, -66.13583537474682], [-96.24364253695775, -64.02166586173684], [-88.99807843179335, -77.05086448686224], [-81.27958345446682, -72.70042062454746], [-78.23434135146982, -70.98400377707098], [-77.93829020560379, -70.81713784086871], [-77.93714129203184, -70.81919841967203], [-73.92364643326502, -68.59250610870673], [-71.57639227994012, -72.8194241846896], [-70.80044392055811, -72.37816456811261], [-68.09932858418516, -76.98630544217976], [-71.92980322777935, -79.22044007008401], [-71.63670565879049, -79.77602739003834], [-80.91401359667563, -85.22960071558829], [-81.30563676259251, -84.67283851002499], [-84.36737475701078, -86.47012649901602], [-87.5835184300984, -80.83504848848693], [-95.7219299112873, -85.46313009225872], [-97.95461814342721, -81.59892960270425], [-98.73912656177278, -82.1565889484532], [-105.66455896980321, -70.03875776825822], [-108.64184720972739, -71.77526913397016], [-110.78648397159681, -68.00561642069006], [-111.47101685437555, -68.4505012802724], [-119.95629403592193, -53.60331913408467], [-119.99692233578723, -53.62642328501948], [-125.43387451738643, -44.1130723793034], [-125.42648755387644, -44.108871624649645], [-133.94919682413266, -29.19619237951077]]]}, "properties": {"id": 3, "height_median_m": 12.0, "building_count": 11, "area_m2": 1377.3192591928732}}, {"type": "Feature", "geometry": {"type": "Polygon", "coordinates": [[[-8.367821337854124, -30.151347967795566], [-8.37034398172645, -30.149029726356012], [-12.239760372559624, -34.13075354179577], [-15.463847968817406, -37.68652820261655], [-16.8730724827688, -39.28929947234454], [-29.720713923019957, -27.460398562865937], [-29.09692476244576, -26.75093649011452], [-25.373470184796826, -22.96186551622727], [-20.87522615294054, -18.17947544717516], [-13.829895536391952, -10.500392974091472], [-8.349153281863565, -4.489534935908324], [-2.8691095426119175, 1.5205570246376627], [2.9045144617999723, 7.864548064947391], [7.959511800741495, 13.613812586153838], [7.954824003394399, 13.6180334617063], [8.189995170908189, 13.87595117376879], [8.421436740868618, 14.139179562962054], [8.426149913234822, 14.134947595300861], [13.907599902691006, 20.146581823304622], [21.18504352153678, 13.593998257347183], [21.380431129104828, 13.482886918722919], [24.637488476351226, 10.564276201637115], [28.95709980798983, 6.743148412805125], [28.989854011735748, 6.77601849146754], [29.234520127218246, 6.559586868101996], [29.519855999613707, 6.316193355984478], [29.515081678930216, 6.311402145132784], [37.426300772787506, -0.6868615413093612], [33.07615854082426, -5.634464224242078], [42.05170020792931, -5.033977920787042], [49.979995906368345, -12.360444429744089], [50.27148749132225, -12.581461654792983], [53.24597829326771, -15.246867819871794], [53.42063593708927, -15.043602551565295], [53.88739979484539, -15.574473036240411], [53.703120627315364, -15.788935762358228], [55.5300109037672, -17.377841944220883], [55.49294934273477, -17.42182632407092], [58.50346132792544, -20.13739980061467], [58.63770909794046, -21.206199885164562], [56.59309247616021, -23.640928034120655], [56.17421458655469, -24.35553962298777], [53.44287222857037, -27.332575672771267], [52.9734115702214, -27.88319889632485], [49.819967832978186, -31.341654294461016], [49.59128004810148, -31.60175068620051], [49.58657292387975, -31.59762394241632], [47.081451491047886, -34.34504912715673], [44.56572682322306, -37.30847749759962], [44.577239173452014, -37.31876523813278], [44.33988880323225, -37.57450613106854], [44.112560119906334, -37.84229070948424], [44.05314134945941, -37.78919252527336], [39.74069762788688, -42.69391908146165], [39.604040388964854, -42.84934519994832], [39.408285853333105, -42.960665199662046], [38.80015012947883, -43.652323949893905], [36.51070726208186, -46.25620517291261], [34.844951669906585, -48.15074020166182], [31.810756359096526, -51.490340208266424], [27.01384925648495, -56.94606767342808], [24.958426630690454, -59.172467673343796], [21.81652260663796, -62.745889403273246], [17.94702256464616, -67.14683718148758], [17.950873095809587, -67.15029458174759], [17.716598673671346, -67.40890812089272], [16.803729900458762, -68.44715279221289], [16.24704576104499, -69.0802934563642], [14.385612057053638, -71.0859558750017], [14.160028773034213, -71.33497534080503], [14.156929777239371, -71.33235705138976], [12.300392572885817, -73.3327435768889], [6.954793418344548, -68.94179252033808], [6.9125613962606565, -68.98525030081585], [6.666876150186149, -68.78565863594663], [6.361426342525192, -68.54796313206232], [6.367100332743184, -68.54212445777776], [2.948924345317831, -65.76524042812262], [5.256053499245607, -63.266196053778295], [8.776787358544093, -59.373144991688086], [10.922306895232254, -56.932953924549324], [6.369218580559121, -52.531295277591], [6.058856569210359, -52.31950248955877], [6.101905461203026, -52.27287263740911], [2.4405639624398003, -48.73330249211631], [1.5600709696626904, -47.98223575795875], [3.0708396254042034, -47.552670317926236], [6.131537462482623, -44.56890249319726], [4.870598983763162, -43.37380314001674], [-7.529229464348502, -29.270948233536217], [-8.367821337854124, -30.151347967795566]]]}, "properties": {"id": 4, "height_median_m": 9.0, "building_count": 71, "area_m2": 3589.491191075958}}, {"type": "Feature", "geometry": {"type": "Polygon", "coordinates": [[[46.149337546125096, 1.3403680929424242], [45.509123975969, 1.9152172421891793], [43.73185605004137, 3.4873882869412682], [43.43781435713834, 3.821814471471779], [37.5651782832746, 9.05385447141616], [37.36963335845167, 9.276256072302642], [31.873134730344038, 14.155399726550698], [31.866593920210747, 14.148167226494204], [31.609163986789948, 14.384285021391447], [28.725031016415052, 16.935588783495337], [25.73602629506811, 19.72805395577246], [22.183542913551673, 22.83604717182458], [22.17416216557615, 22.825568566323845], [21.917866731600554, 23.068481692269327], [21.65667334167442, 23.296994311974125], [21.674237153138527, 23.316613669822974], [19.21508237798916, 25.524694060841238], [24.54833155503449, 31.59042629064203], [24.106305184049443, 31.978250806626754], [25.781514927879186, 33.88353844629202], [25.778042597104527, 33.88690690734148], [26.00323345873531, 34.13570840762424], [27.914011681637465, 36.30891814667113], [29.43283540834221, 37.9248946306154], [29.656180340171613, 38.1716566604655], [29.66099097291317, 38.16764434577004], [32.46530464487414, 41.151338152900884], [32.757545779070576, 41.48371648505943], [37.69596020985471, 46.86635837444914], [40.359518148353395, 44.39797606993306], [42.40349772563651, 46.27988038656053], [49.344360954255, 40.453252949402106], [53.650238146497664, 45.19982624446212], [71.43644370530686, 28.474162893645474], [71.4634100292759, 28.50421944736839], [71.71051544544642, 28.270016488223867], [71.99989534868325, 28.05060040042004], [71.97312700313947, 28.021117031180683], [78.88165324620596, 21.47331522849864], [79.58298721654994, 22.27097232762683], [88.9034574257827, 13.554948827897164], [88.11326683522977, 12.656231296918715], [88.5062670342348, 10.980071586328544], [84.95661269475997, 7.1735936292075335], [84.27190677489646, 6.394848322565173], [82.31436141709622, 4.279768322763815], [80.63680471754945, 2.3718113904520606], [77.80066292725489, -0.04743756384773991], [78.1962761376993, -0.4088710525993398], [77.89880351602444, -0.6344232705056845], [77.6955994939556, -0.8985519780048745], [77.62358565535759, -0.833028444828153], [73.69897358292557, -5.073476038586057], [68.31712742088928, -10.97189774461857], [64.45982389358241, -15.240404279327727], [61.16684857086106, -12.220048170655863], [58.476849029372836, -9.793586677567278], [58.4596347735276, -9.812223912001874], [58.43483509163498, -9.784018173959861], [58.11922968618894, -9.425066659083953], [55.630657958448836, -7.2012131697893045], [55.62671271436211, -7.204831794561659], [45.99180915420094, 1.6986956385792527], [46.149337546125096, 1.3403680929424242]]]}, "properties": {"id": 5, "height_median_m": 6.0, "building_count": 46, "area_m2": 2205.43968959254}}, {"type": "Feature", "geometry": {"type": "Polygon", "coordinates": [[[-186.81652701303508, -0.6789804749812418], [-167.04957184947037, -13.64042808702685], [-171.54237492799598, -20.575233962792424], [-175.84980489181257, -17.70751248266091], [-191.31210198456327, -7.49632654657994], [-186.81652701303508, -0.6789804749812418]]]}, "properties": {"id": 6, "height_median_m": 6.0, "building_count": 1, "area_m2": 194.2649576154392}}, {"type": "Feature", "geometry": {"type": "Polygon", "coordinates": [[[-208.84127289430904, 50.482812817949785], [-210.21412296575477, 48.36376852048236], [-178.20843434403636, 27.213086136633525], [-186.22327891290982, 14.825185116964045], [-217.84019737470885, 35.75504040956728], [-222.8339486679123, 28.182231374711296], [-227.52266558611015, 31.35644455598686], [-213.24716273367923, 53.309534613370964], [-208.84127289430904, 50.482812817949785]]]}, "properties": {"id": 7, "height_median_m": 6.0, "building_count": 2, "area_m2": 707.2834549632353}}, {"type": "Feature", "geometry": {"type": "Polygon", "coordinates": [[[-173.58658692159133, 27.432688386590286], [-171.77356030411562, 30.59447179874337], [-166.86396174906983, 27.802523663773666], [-170.29334089853265, 21.561916500291883], [-152.9559042601203, 10.748486481243283], [-162.91906470385914, -5.208155260343952], [-181.61804788143044, 6.5175181490176275], [-170.00723279605307, 25.304690527223528], [-173.58658692159133, 27.432688386590286]]]}, "properties": {"id": 8, "height_median_m": 3.0, "building_count": 2, "area_m2": 441.91691769684167}}, {"type": "Feature", "geometry": {"type": "Polygon", "coordinates": [[[-5.855339853411531, 140.7409819874444], [-0.19012585345284955, 146.81955746909662], [0.22756005832325563, 146.46326843984286], [1.4548619390137687, 146.46326843984286], [3.7182362218406104, 146.08041893264274], [10.355182705518851, 152.57784724776783], [12.594144834475001, 152.70517061397157], [22.182186360333272, 143.67283796650628], [23.039624436190852, 144.47843876793655], [23.156860032119802, 144.56733013711028], [26.89063123186986, 141.048737297456], [33.0121961652921, 135.86403282708352], [33.36652305727193, 135.05805059251685], [32.58144046065335, 134.18183247033429], [37.884038307415686, 129.35713554131829], [38.182505669532894, 129.69659522859692], [44.315424893823774, 123.88390260183074], [46.17127561132598, 122.21753022925054], [46.68622220513199, 121.75736033875843], [50.285604013414975, 118.5408575936586], [50.471237105338254, 118.37497095490897], [50.470924889773556, 118.37426076269891], [56.14909147445069, 113.2703405142916], [57.19892076211455, 114.18881414331807], [61.45692461606985, 110.29094286676631], [61.76309836445496, 109.94271837701817], [61.944746307320386, 109.73612240805696], [67.79863419943699, 104.5207855096829], [68.45758075765818, 103.95869944707088], [67.36486340097247, 102.71590529513009], [70.98632231252125, 99.15366529543715], [70.66869346931072, 98.79241243547573], [61.36928780428197, 88.43846642658347], [58.21362626251135, 84.91465347915535], [55.98600898614948, 82.42715394967345], [55.745249187197096, 82.15830620236638], [55.745204618144825, 82.15834871680148], [50.70099442677185, 76.52759354257766], [44.13692187494246, 69.17510843981572], [42.27703262249309, 69.17510843981572], [40.407661365415294, 70.90566783370117], [37.958199113794514, 73.17324303764246], [37.69732062277147, 73.41474975900306], [37.69926263965587, 73.41664296369171], [33.46516302020586, 77.39476586571172], [31.131741536750337, 79.52829330253576], [28.465050139297027, 81.96654087261632], [28.224019252859147, 82.18692369371544], [28.22575737652285, 82.1889352174891], [20.91995004132885, 88.97478754261284], [20.89824655741308, 88.95101747608523], [20.642471999470086, 89.19537627867528], [20.386292915401633, 89.42846701568442], [20.42310899475092, 89.4687886828792], [12.913441550335028, 96.42817558532751], [9.557561609024246, 99.41971031230166], [9.551946977547363, 99.41332455195652], [9.291392984993175, 99.65698122066107], [9.041862583751996, 99.87942030483677], [9.046970514551326, 99.88555252106828], [4.871374826409338, 103.790354459646], [4.773782183067249, 103.90135074397874], [2.6337656783325043, 105.89274984452781], [1.0671128637557525, 107.34047957276996], [-1.1836182975698646, 109.45514053584313], [-9.797757681800906, 117.35972293225265], [-16.564316264840237, 123.81069481036127], [-16.564316264840237, 127.77253412011113], [-5.051561113246274, 140.05535305122459], [-5.855339853411531, 140.7409819874444]]]}, "properties": {"id": 9, "height_median_m": 6.0, "building_count": 64, "area_m2": 3390.3208254497304}}, {"type": "Feature", "geometry": {"type": "Polygon", "coordinates": [[[-421.341433147334, 152.8497084891907], [-420.8317301411868, 153.77723970995416], [-416.3133486025657, 158.7020652957576], [-416.3590942766878, 158.7562616606787], [-416.0805506003518, 158.95580428345204], [-415.83576611685925, 159.22260797787393], [-415.7877738101754, 159.16554319896952], [-400.8458540378972, 169.86960907419942], [-398.92154810148537, 169.383254543981], [-398.4028608621983, 169.2357732529567], [-394.1124968783746, 162.9279791230133], [-399.40647798386595, 159.66656567886835], [-399.41973369861273, 159.68594948148544], [-410.6357533469528, 153.02424336934678], [-409.6314222570596, 151.80582345153564], [-409.63217969226326, 151.8047631888532], [-404.72585669527535, 145.79534843994725], [-404.26901127783003, 145.79534843994725], [-404.4914228626356, 145.50820669808155], [-404.49142286263555, 145.5082066980815], [-408.5366277937991, 140.2856946101726], [-421.95048669682205, 150.15057681107092], [-422.07617892231696, 151.1512627905945], [-421.84921299903147, 151.92567692455867], [-421.341433147334, 152.8497084891907]]]}, "properties": {"id": 10, "height_median_m": 6.0, "building_count": 3, "area_m2": 327.0407109804062}}, {"type": "Feature", "geometry": {"type": "Polygon", "coordinates": [[[-360.08276520115936, 161.36668848735476], [-347.3214332519632, 145.4703937500352], [-355.45692678439684, 144.98340193411013], [-359.18672912229306, 145.2066684396662], [-360.14509712559436, 145.2066684396662], [-367.0881821089243, 155.47233592375122], [-367.8019224831096, 156.2841033567883], [-365.75970975772026, 157.96160589051297], [-360.7017211161361, 162.0706535033179], [-360.08276520115936, 161.36668848735476]]]}, "properties": {"id": 11, "height_median_m": 12.0, "building_count": 4, "area_m2": 171.25348469314795}}, {"type": "Feature", "geometry": {"type": "Polygon", "coordinates": [[[-311.8261444332401, 161.07227979152083], [-310.8025609771308, 161.30511283392462], [-312.8987443240577, 171.75838190301835], [-302.6234175908256, 174.14339583276447], [-301.1971365579048, 166.90602030305598], [-299.8072159195597, 167.2388237023634], [-299.09558867331367, 164.54094342957404], [-301.520941322104, 160.40325759066442], [-302.5845163828134, 158.70974846809838], [-310.99877476858205, 157.1738392844974], [-311.8261444332401, 161.07227979152083]]]}, "properties": {"id": 12, "height_median_m": 3.0, "building_count": 2, "area_m2": 162.15211171410084}}, {"type": "Feature", "geometry": {"type": "Polygon", "coordinates": [[[-382.7681313433838, 171.80125502826303], [-376.9952439758303, 163.39248552081102], [-380.11948703229683, 161.18696714771858], [-382.07500232953447, 159.87867825052578], [-387.75199826353355, 168.18013696018102], [-392.85010159809895, 175.68380742388808], [-391.99346168659343, 177.75418043894274], [-391.64697631894177, 178.54232567341893], [-388.31993255473446, 180.18205427002115], [-382.7681313433838, 171.80125502826303]]]}, "properties": {"id": 13, "height_median_m": 3.0, "building_count": 1, "area_m2": 125.76651676245618}}, {"type": "Feature", "geometry": {"type": "Polygon", "coordinates": [[[-355.9048040524005, 182.4310758460296], [-344.8298136557813, 182.07458358426496], [-344.8298136557813, 180.94756441234296], [-337.08449736545066, 180.50711045000216], [-337.22690028476245, 176.82249937589242], [-327.1087867607204, 176.62408966958404], [-327.21723975256697, 169.46989275158208], [-337.38936919443086, 169.602872034084], [-337.71804239020264, 166.238545382184], [-343.45953190525165, 166.37458791129575], [-343.45953190525165, 162.68390843983508], [-347.97674535320544, 162.68390843983508], [-347.97674535320544, 168.3612284397388], [-349.3714986155445, 168.3612284397388], [-349.27301638456726, 169.81733309296672], [-358.46262817038223, 170.0397105026261], [-358.25368929012325, 175.6241357805192], [-358.1559812138359, 179.4024731958397], [-358.1559812138359, 181.41774843978513], [-355.9048040524005, 181.41774843978513], [-355.9048040524005, 182.4310758460296]]]}, "properties": {"id": 14, "height_median_m": 6.0, "building_count": 6, "area_m2": 374.7848760211467}}, {"type": "Feature", "geometry": {"type": "Polygon", "coordinates": [[[36.913864214820194, -64.60810964395202], [35.496525069417736, -67.09938296822682], [30.418556133547042, -64.14751640587714], [32.462069891370184, -61.82334087036976], [36.913864214820194, -64.60810964395202]]]}, "properties": {"id": 15, "height_median_m": 3.0, "building_count": 1, "area_m2": 16.435934669549148}}, {"type": "Feature", "geometry": {"type": "Polygon", "coordinates": [[[22.390330363029285, 165.7216284398652], [23.07190954722801, 165.7216284398652], [23.213212627198622, 165.88233847222278], [23.27191316451038, 165.823921171054], [27.96267257528656, 170.83882226011863], [28.059991329541077, 170.94950703868616], [31.58437693377858, 174.75412271966667], [33.84780757939919, 177.19752270313785], [34.08888611845919, 177.45776981938778], [34.09103505148316, 177.45555204910528], [35.94108041744811, 179.41941200269866], [44.99745694117821, 188.43209057718852], [45.63208602219908, 189.1538813547566], [51.627440077862644, 182.94392791387378], [51.215547166224944, 182.56915718394163], [57.82895088381023, 175.3893462407634], [58.65257285928111, 176.2089941556736], [62.78534175390315, 172.397879537465], [61.75719284271993, 171.3454576078506], [65.05123870603464, 168.53561324710117], [67.01161455191853, 166.96176437556494], [65.35953332288697, 165.2669957641081], [71.59656791264416, 159.94676125935032], [70.57050612410549, 158.83754881536453], [75.80046055915777, 153.50463439049113], [76.85538124986823, 154.62703391510334], [83.34566005715462, 148.33446150685697], [82.1643482836288, 147.2351881143818], [86.50704676432186, 142.91344360083252], [86.7595000547542, 142.67417200339503], [86.69146492716884, 142.60324101653327], [94.11596979005569, 135.64918843976446], [93.41410366891023, 134.99179592693898], [99.57095932497079, 129.10084165448833], [91.02770736931743, 119.49854907807327], [85.48148053499206, 113.19058825649059], [85.48435216278727, 113.18799028204027], [85.25233770568879, 112.92997432288064], [85.01930447265738, 112.66493566718549], [85.01638313026909, 112.66757668242165], [80.72842672668898, 107.89907562373638], [75.8349426972218, 108.3727410307363], [69.97084772449875, 113.79876340970908], [63.08692039137726, 120.44837787311232], [62.19763059356073, 119.43695057826345], [59.78185905182147, 121.93473259916952], [56.25983493639702, 125.4953979825752], [52.22056430890441, 129.56738365788328], [52.21636259711572, 129.5624854018274], [51.95133962545156, 129.83878885836617], [50.332195015003016, 131.4710473198626], [48.286308300933136, 133.3504458737802], [45.69809287826527, 135.72804004316245], [43.19222618495016, 138.02998677723065], [40.50492202631264, 140.52004794224933], [40.26642854745451, 140.7401177449615], [40.26817286763629, 140.74217793831286], [35.187734471268044, 145.50665841211043], [35.16350564493969, 145.48069940948443], [34.91953189808521, 145.75818117909546], [34.67713569603007, 145.98550250090108], [34.686320891516985, 145.99534360960914], [31.872980456186113, 148.6133064151303], [29.44945383699856, 150.86852674593158], [29.180551460741718, 151.11875469933383], [29.181018633990806, 151.11920301417067], [20.068618109010156, 159.62852891868906], [19.623861791961712, 162.03127066888754], [22.750721604141667, 165.3581425344174], [22.390330363029285, 165.7216284398652]]]}, "properties": {"id": 16, "height_median_m": 9.0, "building_count": 50, "area_m2": 2773.2010455898217}}, {"type": "Feature", "geometry": {"type": "Polygon", "coordinates": [[[42.719572828840235, -57.94766221056098], [43.12150219778464, -57.261965036429096], [39.14072199670179, -54.545458161066485], [43.23099424147713, -50.131982948449505], [43.423723518021966, -49.91278370547351], [43.524886338963206, -49.797726905160935], [43.52488634866689, -49.79772689473766], [43.61188218956108, -49.698782806906614], [43.63458924623665, -49.711695659933774], [45.67672307763604, -47.46167101399199], [45.879318667166956, -47.23125039118637], [45.883354435886744, -47.234004422537524], [50.36774384253379, -42.29310068164914], [50.334570193526545, -42.2631770401541], [50.57143657554797, -42.00602415577037], [50.80282704091542, -41.74285389005257], [50.80884526823357, -41.74828251434002], [54.880260221031634, -37.32816983435502], [57.52400669964305, -34.432688633150626], [60.57233811848744, -31.182378377034112], [60.51299785967816, -31.128386207033966], [60.751485200696386, -30.87309976397222], [60.98307353005938, -30.60970445902068], [60.99595668820418, -30.621426512120053], [64.3817514726797, -26.97329156007722], [64.85630990224931, -26.97329156007722], [65.57387053535611, -27.08987904251094], [66.13334577876677, -27.195931560306086], [66.34501231521733, -27.195931560306086], [66.80873720600705, -27.327785094369844], [67.36313460790602, -27.58000103866495], [75.60802908831158, -34.29459006015726], [73.82998115362544, -36.31683996913713], [73.86813031626238, -36.35263562447984], [73.5896414292602, -36.59018860965488], [73.36752409748908, -36.842812144259575], [73.31522189578581, -36.79373658253225], [69.09972158710664, -41.47405123587112], [64.89106443340651, -46.03810035061455], [60.838075923593365, -50.54297292686426], [60.84373958709022, -50.547353164923464], [60.58370611265548, -50.825703455891286], [56.432948096923354, -55.43924625534579], [65.10998946098448, -60.53280496276219], [68.51623894218943, -62.74656102952245], [68.61396111738321, -62.57289914447256], [75.28285470608384, -66.54034225132753], [94.38792936978533, -77.68926245909678], [91.58879366769222, -80.23612379337526], [88.39122116343631, -83.16571657893708], [88.39939167655145, -83.17129218319806], [88.06288054372425, -83.46653987831034], [87.86109667139723, -83.65141280169993], [87.85607542919847, -83.64798627768555], [84.63545249917976, -86.47369218799213], [78.0901416076449, -92.31457453958728], [78.02945082708361, -92.28133969357475], [73.48889076394336, -96.3316714746897], [73.49837678396575, -96.33951791541523], [73.18102629566324, -96.6062969003664], [72.960482801052, -96.80302909043114], [72.8796064366317, -96.73613152980803], [67.49666839657462, -101.60253179649656], [67.55867395854284, -101.64282983976598], [56.24918982869436, -111.60857156014262], [54.897962477100265, -111.60857156014262], [44.26927806661869, -101.24703695061248], [45.587234127215815, -99.88433899030221], [53.14370518051558, -91.93461381359222], [53.12906431442593, -91.92377085738657], [53.421740459889975, -91.64210901275783], [53.62914221060612, -91.42391365308106], [53.65285719154894, -91.4413955447235], [59.437014137495176, -85.75483598116732], [56.820528936170014, -84.10159128859453], [58.68602459210722, -80.86319495952696], [58.196711060829365, -80.5292846444054], [63.5679871603625, -71.19920323767758], [63.56281068053102, -71.19618772385327], [63.92408633590905, -70.59268680355788], [42.719572828840235, -57.94766221056098]]]}, "properties": {"id": 17, "height_median_m": 12.0, "building_count": 28, "area_m2": 1682.3574147699949}}, {"type": "Feature", "geometry": {"type": "Polygon", "coordinates": [[[51.021382583516825, 61.374759722690584], [56.60765288984311, 67.50533373220473], [56.60354725249279, 67.50928486183176], [56.8390073088789, 67.75923039501404], [57.07930028264323, 68.02293654936182], [57.11599166827665, 67.98762597308267], [63.45656269965877, 75.0679119919488], [63.451624890089214, 75.0724749772125], [63.68868979537764, 75.3271199122266], [63.923758382275764, 75.58961248916516], [63.92875575018654, 75.584988445686], [68.97525571638018, 81.00572187046932], [74.16119911255221, 86.68134354045442], [77.38890168833412, 90.24110508235181], [78.70101823767597, 91.73343131262801], [84.24972707673383, 86.59131125127263], [85.81541095025143, 85.14447691304063], [91.74353081174188, 79.68088567322529], [91.45044150240714, 79.34754267523141], [97.00127506474438, 74.25625215101952], [97.3052100307714, 74.58603712609434], [103.39050500854664, 68.8791931817161], [102.40532953258902, 67.77254412029434], [107.97967197677347, 62.557433907035154], [109.05500915780563, 63.669276575517394], [114.86568603336949, 58.29268173685154], [116.04165935884845, 59.18433821922955], [124.83758277655278, 50.945766753850435], [123.61232700144281, 49.691584570143775], [119.70347775268417, 45.468168322792316], [118.23652678822646, 43.799742294179], [111.67811176457778, 36.5632382476729], [97.56403047358035, 20.959714860197316], [96.00298915408848, 21.096287091944102], [90.47650726751517, 26.002046349114305], [87.87962328199157, 28.307253877746728], [87.62556270144067, 28.532778917093676], [87.62753567240962, 28.53494806316019], [81.72314487278122, 33.86456394189293], [77.98037608397678, 37.186952943031], [77.97607033465442, 37.18182263445747], [77.49343209392252, 37.6192044252935], [77.45667462248132, 37.65183337613632], [77.4593463098842, 37.65501669679961], [75.9794444281207, 39.00154122510424], [75.97992975604292, 39.00206811910252], [70.27135974355991, 44.217435859492525], [64.07318230535242, 49.66473976055529], [64.06803392740629, 49.65904694223042], [63.811101266391304, 49.89507118945677], [62.376194487642785, 51.15614726729792], [59.60367458881304, 53.67879156918648], [57.773792297198376, 55.27030000442457], [55.10197873280887, 57.68573078693258], [54.82771987086053, 57.92338893957864], [54.83297839153529, 57.92891830326133], [51.021382583516825, 61.374759722690584]]]}, "properties": {"id": 18, "height_median_m": 6.0, "building_count": 33, "area_m2": 2369.0481289476124}}, {"type": "Feature", "geometry": {"type": "Polygon", "coordinates": [[[63.965369065, -114.464637455], [66.230027571, -112.404083127], [66.224948708, -112.400441478], [66.551872922, -112.111244348], [67.531063918, -111.220303732], [71.839504389, -107.433806036], [72.047817918, -107.249531908], [72.048568713, -107.250068652], [74.202635588, -105.356954586], [74.263539553, -105.400824751], [80.422786491, -99.952355475], [80.399834094, -99.936913233], [82.72268049, -97.95550887], [82.665433748, -97.912102759], [82.984491494, -97.648191479], [84.26182797, -96.195422112], [87.769177089, -93.536050072], [87.939276927, -93.290998439], [88.025435886, -93.352243606], [90.046182065, -91.51361881], [94.060090968, -88.165812702], [93.928148208, -88.073630445], [94.031223947, -88.015014223], [94.499562717, -87.618932448], [94.594639223, -87.685357972], [96.406458165, -85.98834458], [96.442078571, -86.012283849], [100.272926959, -82.660754926], [100.412335135, -82.50220005], [100.435939592, -82.520941847], [105.579394087, -77.679669606], [105.568073775, -77.671729977], [105.896319253, -77.381364057], [106.962037178, -76.378257952], [110.306186552, -73.480395848], [110.508947293, -73.301033715], [110.555760196, -73.332979105], [116.778294376, -67.70342473], [118.203530631, -67.838506573], [125.328067422, -73.127991142], [136.432712578, -81.247140277], [136.432712578, -83.658046125], [132.535642394, -88.772243601], [129.827433177, -92.326276782], [129.324678125, -92.98605156], [128.727236821, -93.770084863], [123.858285926, -100.230695137], [124.868210756, -100.805010473], [121.030787404, -105.56624566], [126.13935676, -109.439708504], [130.373699321, -103.935824196], [130.601906696, -103.639195624], [132.474380569, -101.205316121], [132.481862359, -101.194983327], [132.492957609, -101.203095607], [135.608450948, -97.242843204], [138.437955111, -93.401866024], [137.907832614, -92.98605156], [138.649804432, -92.98605156], [138.800512884, -92.796601538], [139.926907152, -91.380652948], [141.283506939, -89.675321512], [141.483291863, -89.391291596], [141.499793533, -89.403435632], [143.219614345, -87.241512474], [143.884469937, -87.052470304], [153.905825815, -94.439879047], [154.900496984, -95.173117402], [154.800201363, -95.287187899], [160.307524475, -99.429321322], [160.45173496, -99.265304573], [162.162397702, -100.526347994], [162.201866861, -100.47419227], [163.597146693, -101.513892834], [165.768009599, -103.073270833], [165.130539197, -103.798293167], [163.986762019, -105.325397518], [161.905260722, -108.13367444], [161.597405431, -108.553838816], [159.471968535, -111.561965081], [159.443064659, -111.538635419], [158.472357637, -112.863467319], [158.427443036, -112.829943907], [152.520994137, -120.833960484], [151.81900099, -121.75519911], [151.790129843, -121.738543236], [147.340122065, -127.811964081], [143.390053842, -133.203061779], [142.526483192, -132.947696068], [139.380286696, -130.562160241], [139.377616951, -130.5656864], [139.09944673, -130.349219376], [138.822497351, -130.139228466], [138.840345558, -130.115654819], [131.946033, -124.888190597], [128.042741231, -130.215447258], [138.775353382, -139.28325072], [139.283986629, -139.861741051], [129.574094297, -151.510338544], [138.438269523, -157.825190237], [135.289031515, -162.003913717], [133.91544406, -163.956713366], [133.123167301, -163.393531979], [132.526830754, -164.184810862], [130.394620013, -162.525563111], [123.636418854, -157.86714431], [131.073964884, -148.393020656], [120.67595625, -139.769823012], [120.648732065, -139.800031041], [120.648008792, -139.799406651], [114.321436073, -146.780097706], [112.855016745, -148.447919081], [111.836603374, -149.606204134], [102.670733635, -141.243504308], [102.276695306, -140.907386834], [101.637836552, -140.301885697], [101.6161016, -140.281285622], [101.616101599, -140.281285621], [100.868631426, -139.572844143], [105.010233244, -134.077353259], [94.79578703, -135.529519039], [94.478669611, -135.709854636], [64.412875267, -117.37497502], [64.286730342, -116.657624944], [63.965369065, -114.464637455]]]}, "properties": {"id": 19, "height_median_m": 9.0, "building_count": 102, "area_m2": 4175.252054753902}}, {"type": "Feature", "geometry": {"type": "Polygon", "coordinates": [[[143.635579489, -144.810993594], [146.641100471, -140.584722544], [147.113306689, -139.920720702], [157.100296926, -144.136295032], [156.91165635, -144.565393012], [164.762802922, -147.439237235], [164.768245409, -147.426238292], [165.083596693, -147.556661017], [165.420833658, -147.680103688], [165.387540697, -147.759621255], [171.994781061, -150.216349073], [172.290615946, -149.431262537], [178.637013673, -151.920238185], [178.348529594, -152.576448729], [181.146276359, -153.563965031], [181.138617823, -153.589370307], [186.318814232, -155.57018662], [186.645704165, -155.690470291], [186.644177544, -155.694599848], [197.332081289, -159.78146691], [197.62619463, -158.889446449], [202.911215599, -160.935703549], [202.523016575, -161.818734232], [204.657858007, -162.591294451], [204.641393407, -162.634988201], [208.832739206, -164.253968216], [209.155606235, -164.376371707], [209.154863391, -164.37839427], [215.824371738, -166.954607555], [215.843951219, -166.900526717], [216.174936277, -167.037415245], [216.501007422, -167.155414451], [216.471347413, -167.234126174], [225.347824346, -170.551250769], [226.022028943, -173.23505673], [221.679644027, -178.690685752], [220.755757294, -179.851426536], [220.755757294, -179.851426537], [219.905548433, -180.919600875], [217.490155803, -183.954220419], [217.299576186, -184.193658357], [217.297946524, -184.192608049], [215.343821622, -186.617164162], [212.021828019, -190.867690129], [212.05867941, -190.89324663], [211.61057343, -191.434749843], [211.21298115, -191.915210954], [210.494487075, -192.78345835], [210.04629494, -193.325065675], [210.043151895, -193.322920844], [207.499484396, -196.32309156], [207.004426822, -196.32309156], [206.515040482, -196.21177156], [206.070278583, -196.21177156], [205.776190992, -196.044532367], [200.768086154, -192.358929518], [198.014045777, -190.338098662], [198.011773912, -190.34114396], [197.732553182, -190.131547978], [197.449661996, -189.923971051], [197.451945149, -189.920910623], [192.840105615, -186.459050764], [189.982570031, -184.406420859], [187.258997026, -182.450019186], [184.787953552, -180.675014963], [181.967051095, -178.750015206], [181.954078735, -178.767129868], [181.682956413, -178.556147391], [179.040726928, -176.753075079], [178.540375258, -177.416991641], [176.221557627, -175.805314176], [176.811386929, -174.910863411], [173.757406044, -172.657832285], [170.352750475, -170.291450995], [170.028228339, -170.752817114], [163.299153765, -165.772121423], [163.386525072, -165.64790752], [157.210920341, -160.965388052], [151.505256257, -156.79369801], [151.697850192, -156.355607383], [149.380438053, -154.619907858], [149.174081135, -154.466451118], [149.174387575, -154.465579799], [141.080714559, -148.403565983], [143.635579489, -144.810993594]]]}, "properties": {"id": 20, "height_median_m": 12.0, "building_count": 57, "area_m2": 1783.2634894621547}}, {"type": "Feature", "geometry": {"type": "Polygon", "coordinates": [[[150.413577379, -135.279981689], [150.876210493, -134.629441251], [154.308505887, -130.409229093], [155.18945449, -129.295961874], [160.257817654, -123.070338545], [160.085777561, -123.010683499], [164.924189708, -116.525083978], [164.929802566, -116.526919304], [166.341543884, -114.720581349], [169.572190421, -110.331771559], [169.526699407, -110.317399649], [169.871131365, -109.925662463], [170.010612391, -109.736178505], [170.031837765, -109.742884206], [170.421891462, -109.299259466], [175.194336857, -110.760618806], [175.212567211, -110.708783403], [177.37665911, -111.412016034], [180.351122591, -113.548637788], [180.707213177, -113.066185721], [184.832503153, -114.375544401], [187.908478243, -115.329663838], [191.300319935, -116.38161075], [193.868032445, -117.143446188], [193.868032446, -117.143446188], [193.86803245, -117.14344619], [195.507106784, -117.717042895], [195.833255371, -117.820561796], [195.818938118, -117.866907494], [202.745163115, -120.164509244], [206.813221798, -121.398316446], [206.815448949, -121.391192289], [207.148878345, -121.500118189], [207.483114635, -121.60148918], [207.480896908, -121.608583192], [216.349105673, -124.505681139], [222.759269229, -126.439909481], [222.771445801, -126.401824906], [223.099706595, -126.508494915], [223.441203526, -126.605594679], [223.437185915, -126.618160531], [227.901601099, -128.068894873], [235.444120362, -130.505948714], [238.326945258, -131.277421646], [239.308723754, -131.540155444], [239.985868954, -131.721366309], [239.98331473, -131.729226974], [247.229934911, -133.845388138], [245.466074021, -139.083575676], [245.473149606, -139.085780433], [245.350667689, -139.426301123], [245.242629153, -139.747146217], [245.205901268, -139.73570178], [242.103380887, -148.753309298], [242.180626251, -148.776318798], [241.988358403, -149.189370519], [241.930850215, -149.25477704], [241.85417263, -149.477643703], [241.297480506, -150.673593223], [241.302430144, -150.675138558], [241.127755249, -151.038216381], [238.531606085, -156.61556014], [238.540578523, -156.61874912], [238.273131819, -156.971813528], [238.152023772, -157.223547735], [238.097202449, -157.204063162], [232.616373812, -164.439469281], [223.284617594, -161.142100681], [220.043828248, -160.013181354], [219.706090287, -159.896274105], [219.706384793, -159.895484569], [212.345698764, -157.328186906], [212.447611477, -157.096367537], [204.836105539, -154.210737199], [204.729119822, -154.575775485], [199.635012302, -152.68166615], [199.632910465, -152.6885117], [199.284196526, -152.551224569], [198.977790954, -152.43729575], [198.994963829, -152.381364795], [191.420400095, -149.587351259], [191.388757529, -149.66925599], [191.071427248, -149.54895156], [190.041328686, -149.214215811], [186.656719121, -147.875272815], [181.319504321, -145.851858647], [181.306955953, -145.884208049], [180.985304529, -145.762265412], [180.649939037, -145.642388824], [180.65769015, -145.622406635], [173.840337585, -143.090597184], [161.029611064, -138.419239586], [150.413577379, -135.279981689]]]}, "properties": {"id": 21, "height_median_m": 9.0, "building_count": 69, "area_m2": 2702.9784032856287}}, {"type": "Feature", "geometry": {"type": "Polygon", "coordinates": [[[169.545263222, -97.959638266], [164.842918039, -94.394186165], [162.784425321, -92.833378334], [157.651195737, -88.760186661], [157.308189484, -89.28034089], [152.740731768, -85.732696587], [153.033057849, -85.289396659], [147.611356125, -81.141136216], [147.947211583, -80.759153449], [150.089201368, -77.880035731], [150.880445045, -76.755141668], [151.17716142, -76.417673452], [153.608233933, -73.149990294], [153.597728798, -73.14209612], [153.811499233, -72.8665485], [155.758839285, -70.148393369], [156.273246181, -69.473327659], [156.280771617, -69.478849595], [159.684234731, -64.962794857], [159.88894407, -64.685622618], [159.89164948, -64.687576255], [162.033885863, -61.845043093], [163.697150852, -59.619510905], [166.059095236, -56.444745101], [166.595567268, -56.843691012], [168.596194071, -54.113212969], [168.618586574, -54.128927237], [172.110353714, -49.590257517], [173.375823579, -49.446330221], [177.302449513, -52.423609885], [182.790083961, -56.443443876], [182.793519148, -56.438668672], [183.077208319, -56.653769885], [186.178859134, -58.92580923], [186.612203392, -58.334376094], [192.038999337, -62.407979892], [191.646723854, -63.077207401], [194.04801355, -64.897933669], [193.460749942, -65.565853669], [194.318334911, -66.216099027], [188.993722124, -73.362072466], [188.181918167, -72.669597963], [186.369325715, -75.246521544], [186.353011986, -75.233904619], [180.898745303, -82.522865088], [179.530033525, -84.413136862], [176.99658199, -87.911983009], [177.001266423, -87.915312888], [176.787854478, -88.200248028], [176.586030234, -88.478979225], [176.581500729, -88.475759476], [170.038912405, -97.211040514], [169.545263222, -97.959638266]]]}, "properties": {"id": 22, "height_median_m": 9.0, "building_count": 29, "area_m2": 1138.6046264077747}}, {"type": "Feature", "geometry": {"type": "Polygon", "coordinates": [[[141.338374634, -77.359840719], [138.985585156, -75.50727516], [136.432712578, -73.497165943], [132.149364379, -70.124495576], [130.095039992, -68.566848292], [123.04565025, -63.105603432], [123.444272854, -62.652232908], [123.457398902, -62.662043272], [123.575673965, -62.502784808], [131.266000019, -52.14768987], [132.081217559, -51.049991935], [133.746602834, -48.807535307], [133.725027066, -48.783840653], [135.029937874, -46.984894189], [135.022822456, -46.982513992], [135.311539293, -46.596679244], [135.46080706, -46.39089911], [135.464578712, -46.392160775], [139.227655885, -41.363268286], [140.94608814, -39.042363129], [141.392509074, -39.196890749], [148.05575083, -30.392585146], [150.802284589, -32.512272801], [150.848030775, -32.454462699], [151.102741023, -32.744155549], [151.356092925, -32.939684513], [151.338147237, -32.962427528], [157.640553475, -37.857644292], [157.648400358, -37.847167593], [157.928775234, -38.067932283], [158.200535642, -38.277668348], [158.192866121, -38.287908244], [165.651964963, -44.072148184], [166.436685969, -44.607646227], [164.347681128, -47.358705109], [164.143560043, -47.627516896], [164.141809282, -47.626198768], [162.207193658, -50.140851378], [160.238670705, -52.699577422], [160.010381793, -52.996311978], [160.009458256, -52.995471676], [155.315540897, -59.055495967], [155.368875326, -59.095935651], [155.154536275, -59.371683364], [154.947190955, -59.654670597], [154.93925007, -59.648649592], [149.174474134, -67.065047918], [148.98772947, -67.277440605], [148.699854378, -67.7139908], [145.658697124, -71.619130615], [142.040333506, -76.401799327], [141.338374634, -77.359840719]]]}, "properties": {"id": 23, "height_median_m": 9.0, "building_count": 18, "area_m2": 959.4668422211892}}, {"type": "Feature", "geometry": {"type": "Polygon", "coordinates": [[[117.62169965, -58.300461157], [117.24078372, -58.531518206], [117.075664737, -58.766264301], [116.97626311, -58.691971857], [114.023569845, -60.483024788], [108.450911594, -55.643080409], [103.232621475, -51.337307428], [105.456072773, -47.544068142], [95.972784646, -42.654528641], [95.004116815, -42.024981598], [95.891537747, -40.355751775], [79.593547273, -28.22283467], [79.571383224, -28.250406051], [79.302692042, -28.050834482], [79.006189251, -27.836236566], [79.009023491, -27.832710861], [69.398053574, -20.694120262], [77.807045826, -11.484432729], [83.576953767, -16.044718814], [84.355602246, -15.15912862], [84.358198722, -15.161097342], [96.515123592, -1.611038911], [98.834785142, 0.974446306], [99.061140065, 1.226740571], [99.06340583, 1.224658186], [101.706092063, 4.118978185], [111.65409252, -5.023879262], [136.024885544, -27.287288501], [136.546487131, -27.761880323], [136.880588152, -28.26853015], [137.207764523, -29.012753491], [137.316414283, -30.001329608], [137.207128026, -30.747105189], [136.990590978, -31.362797289], [136.451437294, -32.343921334], [135.777484729, -32.854931372], [134.356436283, -33.547596714], [133.184436011, -37.324333715], [132.258401591, -37.069008012], [128.776899601, -42.828514939], [128.834394325, -42.848132301], [128.540663927, -43.219323563], [128.406256657, -43.441675756], [128.373544794, -43.430514376], [126.77092056, -45.455773306], [124.310990225, -48.925025349], [124.340542946, -48.945432375], [123.9316857, -49.513778933], [123.414015578, -50.2333847], [120.708660356, -53.994059957], [119.82314465, -55.138531388], [117.606862491, -58.289371914], [117.62169965, -58.300461157]]]}, "properties": {"id": 24, "height_median_m": 6.0, "building_count": 30, "area_m2": 2065.066708462751}}, {"type": "Feature", "geometry": {"type": "Polygon", "coordinates": [[[102.22590536321663, 81.62613496202208], [102.22607937728985, 81.6263460699077], [84.4966428986839, 98.00299546570932], [97.61041283139238, 112.25001733595057], [95.16934439818255, 114.47108250307963], [96.57172038679299, 116.06606465176034], [105.62235998739253, 126.2453696757745], [108.32992722155554, 123.65864685004443], [116.51678453965485, 116.04034098000771], [119.09970757937857, 113.63679380789836], [119.35196970391507, 113.40205049315955], [119.35104020868273, 113.40105941067151], [135.57488588747492, 98.18619212667868], [135.59911056660118, 98.21254598686667], [135.8450437195842, 97.93283570042477], [136.0855086949801, 97.70732550022115], [136.0660450830452, 97.68615117196637], [140.1340404208784, 93.83056370383109], [140.52531152186032, 93.49680669452444], [151.61993165459188, 83.0190400344433], [151.32636826011623, 80.23668840652557], [151.4490421714014, 80.12152715762353], [151.296241105277, 79.95114756632245], [151.23419672457703, 79.36309985025059], [150.98155996234877, 79.60026490638988], [148.41632084087385, 76.73991579893871], [146.22133274071416, 74.29241209427525], [145.97924328293428, 74.02247220497328], [145.97755760300115, 74.02419768122317], [141.43969286241355, 69.02957750511197], [141.47991319383803, 68.99459656834232], [141.23593887472273, 68.73343664321328], [141.00955896278828, 68.47596509396257], [140.97680981427564, 68.50444809877149], [136.14707281311973, 63.1683265387904], [130.52705874518037, 56.892660382424324], [121.84826866643947, 64.92699900876144], [117.90328119896836, 68.57904784292427], [117.21859721452932, 67.80032748437769], [105.18932406337464, 78.89335976525521], [102.46823039064908, 81.4026701426606], [102.22590536321663, 81.62613496202208]]]}, "properties": {"id": 25, "height_median_m": 9.0, "building_count": 20, "area_m2": 2175.991419216336}}, {"type": "Feature", "geometry": {"type": "Polygon", "coordinates": [[[116.30417162283815, 24.641904667677533], [113.37116749287658, 27.310569429440534], [121.38078058380145, 36.183629781555645], [124.22114778802168, 33.510136526088296], [133.9072867862236, 44.08148689988704], [143.54328876868385, 35.2911052259468], [144.3450866679452, 34.74395381400024], [143.10274472693254, 33.38085470698319], [150.60287042150972, 25.951313913345594], [156.16422880206517, 33.28851178051125], [155.70709558283122, 33.680902080791185], [156.1022572555566, 34.017977775240475], [153.9960512688635, 35.86902902401779], [158.26394073864668, 40.97200792529922], [160.514947567447, 38.96839953772304], [162.36527701571814, 41.183619288649034], [162.37373824295662, 41.176690501584346], [176.95699142760733, 57.54021464747814], [182.40250716712436, 53.0996509494253], [185.06372795568433, 50.9809468501352], [185.06762424853463, 50.985828923439776], [185.3396465748803, 50.76127702338742], [185.61136617246436, 50.54495020535958], [185.60752917469875, 50.54014242907561], [191.673478794553, 45.532757443222565], [185.88762706939605, 38.144129849125314], [183.15672563497034, 34.41696474638393], [183.16558316849736, 34.41015276873889], [182.951293015581, 34.13658798862157], [182.74289106243137, 33.85215865062688], [182.73390550165428, 33.85906908895094], [178.15476718907777, 28.013299003119403], [175.22403577506972, 24.055069265284462], [175.23377155469166, 24.04711060528055], [175.0216706414484, 23.78175602819541], [174.80701539110586, 23.49184382702027], [174.796688334391, 23.500285835408526], [168.5860915717686, 15.73035098603901], [169.36528868548905, 15.163173910828972], [167.16554146507607, 12.244329626087133], [166.10921102247076, 13.145386945903153], [161.0414280337764, 16.87490859692245], [142.6377663266017, -7.44523487735774], [148.31817721477972, -11.900803208963925], [141.91850744581797, -20.133994000987283], [125.11921334561265, -7.012624785520868], [126.08759302091967, -5.766801967507904], [115.42993885216035, 3.930322502941013], [118.36765859717684, 7.271516725986627], [108.57334737695015, 16.294502617032624], [116.30417162283815, 24.641904667677533]]]}, "properties": {"id": 26, "height_median_m": 3.0, "building_count": 17, "area_m2": 2578.30481069335}}, {"type": "Feature", "geometry": {"type": "Polygon", "coordinates": [[[156.9353100418848, -18.29605174833418], [157.1225224261933, -18.40251407116298], [161.32589104243124, -12.502962899351129], [159.7584377056573, -11.500176333886715], [161.53431445003434, -9.03155569651978], [161.5198617310094, -9.020871194738275], [161.74125110895497, -8.743896032944251], [161.94313023015116, -8.463266779581714], [162.01735867354233, -8.518141847330696], [164.87595888949292, -4.45413159672574], [167.15177940677293, -6.128970852712702], [171.5485032634158, -0.2949585698497038], [171.02405694368622, 0.10806522341594448], [176.04950949402036, 6.674995998814683], [183.90607178697962, 0.6486583623082349], [186.50904071802776, -1.3323763269237223], [186.80509572477112, -1.5568536684855017], [186.80401141106213, -1.5580869048097512], [191.88907488097783, -5.448778189122353], [193.92662193637574, -6.993704422491712], [189.62768879159844, -12.772039440538107], [189.63247723124564, -12.77540320637324], [189.2023346655039, -13.334511233853528], [189.2023346655039, -13.33451123385352], [187.82738893906387, -15.121693564150789], [187.78566532023262, -15.090057527527284], [184.61677967622313, -19.294851453477055], [180.23032558916563, -25.239074764967473], [180.23813563208915, -25.244561135788153], [180.01486622772933, -25.531050591799282], [179.7998788066334, -25.82238687728015], [179.79249461029386, -25.816388047211372], [176.74333446672102, -29.728935909860656], [174.72329466443082, -32.48590903308012], [174.7232946644308, -32.48590903308009], [172.76722850186786, -35.15557021070194], [172.75803774152564, -35.14903705786046], [170.30600887558631, -38.272489953259516], [166.59786456299668, -35.49786428809789], [166.59388373352112, -35.50337610940402], [166.31020636208095, -35.282623520810276], [166.03731467060877, -35.07843182082779], [166.07641524780885, -35.02429350723834], [159.2553706112762, -30.0370941977429], [159.25097298502914, -30.04300518935024], [158.97220494073363, -29.830057928101837], [158.68965968981436, -29.623475277588344], [158.69406037764827, -29.61758693599137], [152.13389986033712, -24.606366159084658], [156.9353100418848, -18.29605174833418]]]}, "properties": {"id": 27, "height_median_m": 9.0, "building_count": 30, "area_m2": 901.6130513660097}}, {"type": "Feature", "geometry": {"type": "Polygon", "coordinates": [[[182.55082589903802, -207.78905156013994], [184.12955076050426, -205.09572467506902], [181.4724159490365, -202.92360971655714], [176.39830162377234, -198.8014617971431], [180.0561015538929, -194.52242754133616], [184.17290388203716, -189.61181156036656], [184.5437694669245, -189.61181156036656], [191.9819759138593, -194.78168328639205], [189.32822398970805, -198.24705328585614], [189.3376578919495, -198.25434940040495], [187.9340975334716, -199.9647020967532], [190.5312716126936, -202.16117479894575], [190.78561422748942, -202.37155641806334], [190.78346254429712, -202.37445680473778], [194.34954799492252, -205.39035374004484], [196.59358986930332, -207.2767954992413], [197.44819457216926, -207.92478113500832], [196.04732952084868, -209.83669756825176], [195.47635888095806, -210.54893100692624], [195.25235982744712, -210.8428891190805], [195.2454993654906, -210.83690705169028], [192.36712001950968, -214.42742095235303], [190.7990089299315, -214.83899320507498], [186.5409284631103, -210.96467568244063], [186.53832015401377, -210.96821271258696], [186.25250966860156, -210.70225086493673], [183.05074910477524, -207.78905156013994], [182.55082589903802, -207.78905156013994]]]}, "properties": {"id": 28, "height_median_m": 6.0, "building_count": 7, "area_m2": 234.85035015463347}}, {"type": "Feature", "geometry": {"type": "Polygon", "coordinates": [[[186.90337172472655, -104.90281031340358], [176.13002405273014, -101.53924477290262], [177.39972576283716, -99.80634154764103], [190.51670204876316, -82.43853820544777], [195.21380901689184, -76.20594761404065], [196.77883698215453, -74.09222944651975], [199.43236165851968, -70.49941156013003], [208.07900425983354, -70.49941156013003], [208.49845967369527, -70.49941156013003], [208.46190432459161, -70.61648071316951], [219.22146049271515, -73.86532224123573], [219.8891363454101, -74.24501038259609], [216.28539905262824, -86.3195132071372], [216.29107266177348, -86.32138113397484], [216.18719643172224, -86.64854602145529], [216.08512580754706, -86.99053877502658], [216.0792287263751, -86.9885972743164], [213.68031407464628, -94.54413372111362], [219.63237131042663, -96.65961156012838], [225.82984056961763, -96.65961156012838], [226.38151919205535, -94.66318713734395], [226.38847011681153, -94.66561962466882], [227.3546558703186, -91.4212943957485], [228.3421646256972, -88.10536931899505], [228.4405311292503, -87.77506748210726], [228.4583670036326, -87.78066348272395], [231.47332908406912, -77.64939347917625], [235.19385421924102, -78.76294933468195], [235.19623891901165, -78.75503869018799], [235.53241534754414, -78.8642809244902], [235.86446285602756, -78.96366298319002], [235.85935951526352, -78.9805920385844], [242.38769953433, -81.0748115603229], [242.72567283232834, -81.0748115603229], [247.80274879155095, -82.69885466378908], [247.82167912732254, -82.63211079595446], [248.16627390894172, -82.7627515870378], [248.48538327419712, -82.85743073129144], [248.46764571476473, -82.91996915304733], [253.04969454966667, -84.31813890191418], [253.23243620772095, -84.37315534551391], [255.8284983641818, -85.15190292225864], [256.37768518746805, -85.32006813455058], [256.73409398773464, -85.42736903609155], [256.7334814579382, -85.42901567829458], [259.2843082641348, -86.21009838725126], [259.2843082641295, -86.21009838726475], [261.5985634614437, -86.91874105739471], [261.9435169902189, -87.50723664381862], [259.6453700590253, -94.42606797728372], [259.665633269382, -94.43152629140396], [259.5442399604983, -94.78296650581777], [258.78008366034356, -97.14197290220994], [258.59558335812443, -97.71153883130451], [257.68478969959597, -100.34833587951177], [257.57545434049854, -100.69030326579126], [257.52864164493553, -100.67342163085584], [256.26406940549214, -104.50876044488625], [255.13630969416667, -107.92915863079773], [255.03335694672603, -108.24140545700034], [255.03102290495067, -108.24070032742323], [249.84463481723958, -123.59958174839524], [245.3093206412576, -122.28004051248334], [241.72612283576973, -121.13206191863382], [238.64961235988824, -120.20125867425077], [238.27698586552893, -121.15481775962223], [235.91011332821972, -120.39294644950078], [232.76128489411474, -119.37937178224534], [230.40755689462378, -118.62173156023306], [230.18365654052346, -118.62173156023306], [226.81825354164346, -117.49596195254102], [225.82759324858168, -117.27061789397793], [224.7408966204713, -116.82118279615565], [221.35821583897692, -115.828339589086], [221.75905842782873, -114.80257492114487], [214.80419369979342, -112.58775674847196], [214.80086900986177, -112.5978402470177], [214.46904350517192, -112.4810261691366], [214.13716387896693, -112.37533712182908], [214.14045612485987, -112.36535202326165], [210.54055299978046, -111.09806135972298], [207.91594721198447, -110.2561167518875], [207.57530531094534, -110.14763730587413], [207.57555095693775, -110.14692138517886], [204.10025471417325, -109.03208465585674], [198.66657100964395, -107.35616310714703], [198.4703311850288, -108.02573892711419], [187.06370894535598, -104.44691437910254], [186.90337172472655, -104.90281031340358]]]}, "properties": {"id": 29, "height_median_m": 12.0, "building_count": 60, "area_m2": 2459.6844112865933}}, {"type": "Feature", "geometry": {"type": "Polygon", "coordinates": [[[199.83797047865184, -69.95022555224091], [201.03837251992763, -68.32490585456911], [202.01061991287003, -68.63387338033452], [199.83797047865184, -69.95022555224091]]]}, "properties": {"id": 30, "height_median_m": 9.0, "building_count": 1, "area_m2": 0.9755490436880273}}, {"type": "Feature", "geometry": {"type": "Polygon", "coordinates": [[[212.7621224101081, -64.43159416607804], [212.7621224101081, -60.631720906996094], [223.55028209535698, -54.20466443093527], [223.77485655787822, -54.71550069932815], [232.48610746218708, -49.34184485220632], [239.9349849808631, -59.57417198210689], [246.5693651838089, -59.23119179289076], [246.6532880894369, -59.25609156004153], [246.74814371433905, -59.25609156004153], [247.08962396243, -59.385551587143304], [248.1802538400303, -59.709139406186445], [251.58971461643796, -60.72071996106577], [251.91077687699425, -60.815978525684464], [251.9102101794614, -60.81798372802768], [257.4537011179884, -62.49927683994953], [268.5528465075659, -65.82729902447207], [268.160287588127, -67.16672113500937], [264.2368638448645, -79.52379731173461], [250.65069661601004, -75.33583720870908], [250.62663291313794, -75.40882034938889], [250.3013813499579, -75.30312820540678], [249.9567248863574, -75.20513007380498], [249.99028280681014, -75.10335178796336], [243.59842327755834, -73.28591803110496], [243.59587904527234, -73.294998149544], [243.25601723790973, -73.18855977531719], [242.92510692498078, -73.09447016485919], [242.9275657387995, -73.08569489665092], [230.04347071337662, -69.05063682839713], [229.84968362081622, -69.49144151424932], [227.23766011108506, -68.7179876511672], [227.23766011108506, -68.71798765116719], [212.7621224101081, -64.43159416607804]]]}, "properties": {"id": 31, "height_median_m": 9.0, "building_count": 12, "area_m2": 753.022228319639}}, {"type": "Feature", "geometry": {"type": "Polygon", "coordinates": [[[182.01615709176036, -35.18295776690147], [182.0165342188625, -35.18324085593062], [186.48522953914744, -29.287612569504844], [186.4803228680473, -29.28401220385897], [186.7017561849568, -29.001945159600194], [186.90811991486748, -28.729685863283628], [186.92536001518485, -28.742336123235308], [190.4160297662215, -24.110566909623422], [190.6885711366268, -23.729061741740914], [190.9930962705217, -23.30278549546588], [192.7686855189831, -20.98882831414849], [192.97728014230478, -20.712044137089222], [192.97969308370185, -20.713842153854703], [197.6952099511925, -14.56855594613012], [206.09882583016594, -21.938419275810244], [209.32580014992737, -24.71885549738895], [212.76158692870104, -27.59818918489154], [212.763535697526, -27.595618139925644], [213.2969885607108, -28.05065719562908], [213.2969885607108, -28.050657195629082], [218.96061183993692, -32.88176780857624], [220.33251192587764, -31.52948995334314], [221.95970461987105, -32.851401236321784], [222.75220367228266, -33.6400763991204], [229.3052772077389, -39.850985238131074], [229.43171356055308, -41.28899991540548], [228.9748698572497, -41.635391828094605], [223.30294228556244, -45.38109058809364], [223.31464775652475, -45.39024336662603], [222.89282403926066, -45.65192962600621], [222.68757460356085, -45.78747482595356], [222.68169462672367, -45.78290771934408], [212.9262557131966, -51.834877329896905], [210.94480253262603, -53.00340619808338], [210.74959763757485, -53.12551437663011], [210.74425431715193, -53.12167615345891], [208.30117265461973, -54.56244269692264], [202.53098332100467, -58.1218639548092], [199.68810929795495, -59.91815402665045], [197.381297732239, -58.2237228400846], [194.79729651741602, -56.325686472661936], [194.48966033494887, -56.099717282358085], [194.48972029147174, -56.09964909124212], [191.1215209012195, -53.624364797190395], [188.42837481653956, -51.64517608755293], [187.88742664457925, -51.247634149321954], [196.39376417077662, -40.79904322685213], [198.51425334526155, -38.016285957429616], [193.0979872291624, -34.22542383831967], [183.81411167218627, -48.22750766383389], [183.6334128293854, -48.083646102000955], [183.3620765786891, -47.88210989648608], [183.39847746454262, -47.83124669136996], [177.17062803440425, -43.109113803554564], [176.91257875471777, -41.93515190378396], [179.6883869028716, -38.26267070230293], [181.80724048592975, -35.459360985942546], [182.01615709176036, -35.18295776690147]]]}, "properties": {"id": 32, "height_median_m": 12.0, "building_count": 24, "area_m2": 1121.2353292970695}}, {"type": "Feature", "geometry": {"type": "Polygon", "coordinates": [[[186.29781912738517, 8.47998859580529], [186.30067760061323, 8.48349974467976], [180.8263296285196, 13.375521824513125], [188.55966661694714, 23.427470025045903], [191.88543817716965, 27.87751959815319], [194.29446411231038, 31.139291212725634], [194.2944641123105, 31.139291212725773], [194.29446411231106, 31.13929121272653], [195.41067476932807, 32.55528769361504], [195.62630513584352, 32.85308596081751], [195.63784074099289, 32.84346467385875], [197.95893076848594, 35.78794051280022], [200.32415785213047, 38.84484261642786], [206.58477163090157, 34.06078111764907], [206.59648776400653, 34.07632725305819], [207.36107407023243, 33.4241297401768], [207.93361332747162, 34.292360896825535], [210.45485392478665, 32.42847634976564], [209.87187078837292, 31.544407499577197], [211.94631389855428, 30.083855760260818], [211.93642169443896, 30.070822624579503], [218.39868908789796, 25.059586556012505], [215.34867843117794, 21.112209083521766], [211.83715569335294, 16.38270329222735], [211.8449204280042, 16.376771913032155], [211.6284322954013, 16.101583506569206], [211.41982965297666, 15.820626360884384], [211.36598453015023, 15.861757945624806], [204.7715000459277, 7.038006123160018], [199.10262791644774, 11.023702831423975], [196.6911217742009, 12.915226280999342], [192.63194575182246, 8.298551903636401], [190.16024687653496, 5.120708946268161], [186.82627914358207, 8.020369648008767], [186.82318702657096, 8.016571507429118], [186.55167441697483, 8.259202353672054], [186.29781912738517, 8.47998859580529]]]}, "properties": {"id": 33, "height_median_m": 9.0, "building_count": 19, "area_m2": 645.5307207137091}}, {"type": "Feature", "geometry": {"type": "Polygon", "coordinates": [[[216.45240052428244, 9.885822643602964], [218.01605786619533, 12.219991444704332], [218.00972181878424, 12.224542765243289], [218.2068062413415, 12.504733436566983], [218.4058565730713, 12.80186827661078], [218.41246838477386, 12.797118868588854], [223.367353262129, 19.841371793826337], [225.78710929846395, 20.591942328130077], [232.37443439739263, 16.50537157897333], [234.8264979970969, 15.166729947523205], [239.06401510939608, 12.337887520037105], [239.06715700489667, 12.342148126695202], [239.34408999514457, 12.15091772176087], [239.64227212202914, 11.95186005914969], [239.6389970989921, 11.947275660783285], [242.3805280259931, 10.05416762464385], [241.4868190134531, 8.811835622320432], [252.7258144621386, -0.052004070456004914], [257.5120883900474, 2.669812884936315], [257.6468258980779, 2.8397729997741807], [257.7339591774702, 2.7959844497504975], [257.928545313684, 2.9066400145611264], [266.71447142094706, -1.44308401942162], [266.61643120747715, -1.6660946693576875], [280.4328404799807, -8.527133766908895], [280.0963404275892, -11.844004826230702], [259.7783906728812, -23.173887040367312], [256.2376939281139, -25.2749230760096], [256.26890416064055, -25.3259496273325], [255.97137235333747, -25.505506497961107], [255.6743845408889, -25.695506022387526], [255.66957268388597, -25.68763897211455], [246.37671442395603, -31.295767270977834], [238.88368692750214, -35.9023296598412], [238.50531235386353, -35.47198808570578], [234.8512842905412, -32.10770242432584], [234.7929010619397, -32.18689264896517], [234.51070495879432, -31.926659928134924], [234.26779704822118, -31.719457766769157], [234.27517126345046, -31.70945787005069], [226.44791860365885, -24.491401938094366], [223.64001546763424, -21.902038496250334], [221.99789380440438, -20.387723508929383], [217.4242290752802, -16.34186010802761], [221.87040327593968, -10.896049704620205], [224.47732463685819, -7.189845850806234], [229.37127795558243, -0.7991358326957922], [222.581615596517, 4.237064072323206], [223.16962995917646, 4.905837938409582], [220.3422268569992, 7.016158381729575], [216.45240052428244, 9.885822643602964]]]}, "properties": {"id": 34, "height_median_m": 6.0, "building_count": 22, "area_m2": 1765.6355709958543}}, {"type": "Feature", "geometry": {"type": "Polygon", "coordinates": [[[218.6911901281571, -1.7670876022937054], [216.52325623965018, -4.602624050204902], [211.21725732442624, -11.68183750888773], [208.58995528215598, -9.565236286498568], [204.5033907161156, -6.46668659435302], [211.97686629825077, 3.804029762918647], [215.97675826278868, 0.33223517186398854], [218.6911901281571, -1.7670876022937054]]]}, "properties": {"id": 35, "height_median_m": 6.0, "building_count": 3, "area_m2": 107.15146018376652}}, {"type": "Feature", "geometry": {"type": "Polygon", "coordinates": [[[255.67257707571036, -35.33450453274649], [257.885681524306, -34.075975399046506], [257.8360792609464, -34.00150789724808], [258.149024849095, -33.81507026305388], [258.4341605013541, -33.636706932909995], [258.43821072369246, -33.64278750098971], [261.04907241576535, -32.08736414462181], [264.31875212623055, -30.13944932211785], [264.5950201849965, -29.97486236122006], [264.59502018500984, -29.9748623612387], [268.42890030098016, -27.69082460656408], [268.93912046948657, -27.384557693194417], [271.9554727074618, -25.573949358630436], [272.2508767144957, -25.396628901667427], [272.2512962658607, -25.39732157316569], [275.89427239489027, -23.222082536743432], [276.27671905281625, -23.07709156002698], [276.50371225996923, -23.07709156002698], [277.09097586758753, -22.965771560308035], [277.48160583270146, -22.965771560308035], [277.77523763633667, -23.07709156002698], [278.09730883073627, -23.07709156002698], [278.7650305005662, -23.456805757067134], [278.9808458009146, -23.579533739092142], [279.32096538918444, -23.83742210224884], [279.5400039674488, -24.086544038905913], [279.7715193102701, -24.349856333144167], [279.86939657785325, -24.57249633283317], [280.06515111391917, -24.79513633275441], [280.1939285314126, -25.088064455387947], [280.3122963813833, -25.49193889916896], [280.3122963813833, -26.814727203079066], [278.24477779658355, -34.205084278165224], [276.7549371751368, -39.923884800066986], [276.7694680760132, -39.930223775533904], [276.6772734636179, -40.221999422244124], [276.57628251019065, -40.60965640303335], [276.5573870762105, -40.601413439059165], [274.5214396373902, -47.0447387613949], [274.5266816738089, -47.04682545861617], [274.42249168164915, -47.3578872526889], [274.3099734209203, -47.71398277104838], [274.3040124607764, -47.71160989188944], [273.51518239128393, -50.066681540791876], [269.24928588082696, -48.12596697161743], [262.50499482091845, -45.19310179205607], [260.3706655443293, -42.11436708144252], [258.4349436144671, -39.32212018639608], [258.22983554296735, -39.02625518277186], [258.2299402339536, -39.026187143038655], [255.67257707571036, -35.33450453274649]]]}, "properties": {"id": 36, "height_median_m": 9.0, "building_count": 6, "area_m2": 367.9635899564066}}]}