{"type": "FeatureCollection", "crs": {"type": "name", "properties": {"name": "wgs84_and_EPSG:32628_local_enu_m_section_centroid", "lng0": -16.329669530994767, "lat0": 28.442207552589142}}, "features": [{"type": "Feature", "geometry": {"type": "Polygon", "coordinates": [[[-16.32331, 28.45011], [-16.3232, 28.44903], [-16.32352, 28.44892], [-16.32565, 28.44791], [-16.32561, 28.44777], [-16.32558, 28.44758], [-16.32551, 28.44748], [-16.32549, 28.44738], [-16.32548, 28.44727], [-16.32544, 28.44715], [-16.32542, 28.447], [-16.32524, 28.4469], [-16.32516, 28.44678], [-16.32503, 28.44658], [-16.32476, 28.44648], [-16.32461, 28.44634], [-16.32463, 28.44627], [-16.32452, 28.44609], [-16.32431, 28.44594], [-16.32405, 28.44568], [-16.32414, 28.44555], [-16.32422, 28.44544], [-16.32428, 28.44527], [-16.32434, 28.44515], [-16.32437, 28.44509], [-16.32436, 28.44487], [-16.3248, 28.44485], [-16.32518, 28.44487], [-16.32529, 28.44481], [-16.32546, 28.44486], [-16.32552, 28.44484], [-16.32558, 28.44443], [-16.32562, 28.44431], [-16.32572, 28.44413], [-16.32582, 28.44396], [-16.32545, 28.44383], [-16.32537, 28.44381], [-16.32534, 28.44378], [-16.32534, 28.44374], [-16.32598, 28.44251], [-16.32609, 28.44239], [-16.32637, 28.44202], [-16.32657, 28.44183], [-16.32649, 28.44174], [-16.32639, 28.44166], [-16.32638, 28.44164], [-16.32635, 28.44163], [-16.32632, 28.44161], [-16.32626, 28.44156], [-16.3262, 28.4415], [-16.32618, 28.44148], [-16.32616, 28.44145], [-16.32614, 28.44143], [-16.32613, 28.4414], [-16.32612, 28.44138], [-16.32611, 28.44136], [-16.32609, 28.44134], [-16.32608, 28.44133], [-16.32603, 28.44129], [-16.32599, 28.44124], [-16.32598, 28.44123], [-16.32596, 28.44122], [-16.32595, 28.44122], [-16.32594, 28.44121], [-16.32591, 28.4412], [-16.32589, 28.44119], [-16.32586, 28.44119], [-16.32584, 28.44118], [-16.32579, 28.44118], [-16.32575, 28.44117], [-16.32563, 28.44113], [-16.32552, 28.44109], [-16.32544, 28.44105], [-16.32537, 28.44101], [-16.32532, 28.44098], [-16.32528, 28.44094], [-16.32521, 28.4409], [-16.32514, 28.44088], [-16.32508, 28.44086], [-16.32504, 28.44085], [-16.32499, 28.44085], [-16.32495, 28.44083], [-16.32489, 28.44082], [-16.32484, 28.4408], [-16.32476, 28.44076], [-16.32469, 28.44072], [-16.32465, 28.44069], [-16.32461, 28.44066], [-16.32457, 28.44062], [-16.32453, 28.44057], [-16.32452, 28.44056], [-16.3245, 28.44055], [-16.32445, 28.4405], [-16.3244, 28.44045], [-16.32437, 28.44041], [-16.32433, 28.44038], [-16.32429, 28.44035], [-16.32432, 28.43984], [-16.32432, 28.43983], [-16.32432, 28.43982], [-16.32432, 28.43981], [-16.32329, 28.43989], [-16.32328, 28.43989], [-16.32274, 28.43993], [-16.32278, 28.43935], [-16.32348, 28.43837], [-16.32373, 28.43844], [-16.32396, 28.43845], [-16.3243, 28.43835], [-16.32459, 28.43827], [-16.32484, 28.4382], [-16.32508, 28.43808], [-16.32571, 28.43813], [-16.32595, 28.43754], [-16.3263, 28.43754], [-16.32663, 28.43737], [-16.32685, 28.43737], [-16.32721, 28.43731], [-16.32753, 28.43734], [-16.32771, 28.43729], [-16.32797, 28.43714], [-16.32826, 28.43705], [-16.32869, 28.43693], [-16.32884, 28.43684], [-16.32909, 28.43674], [-16.32917, 28.43673], [-16.32856, 28.43493], [-16.32845, 28.43463], [-16.3281, 28.43399], [-16.32769, 28.43293], [-16.32749, 28.43246], [-16.32753, 28.43188], [-16.32757, 28.43138], [-16.32773, 28.43103], [-16.32783, 28.43079], [-16.32798, 28.43104], [-16.32811, 28.43115], [-16.32841, 28.43142], [-16.32877, 28.43181], [-16.32896, 28.43208], [-16.32903, 28.43222], [-16.32912, 28.4323], [-16.3292, 28.43253], [-16.32939, 28.43278], [-16.32949, 28.43289], [-16.32952, 28.43291], [-16.32955, 28.43292], [-16.3296, 28.43292], [-16.32999, 28.43291], [-16.33039, 28.43286], [-16.33073, 28.43282], [-16.33098, 28.43277], [-16.33136, 28.43273], [-16.33219, 28.43267], [-16.33212, 28.43286], [-16.33195, 28.43322], [-16.33192, 28.4333], [-16.33193, 28.43353], [-16.33173, 28.43402], [-16.3317, 28.43416], [-16.33167, 28.43454], [-16.33175, 28.435], [-16.3318, 28.43517], [-16.33189, 28.43531], [-16.33223, 28.43605], [-16.33257, 28.43685], [-16.33281, 28.43675], [-16.33288, 28.43674], [-16.33295, 28.43674], [-16.33345, 28.43683], [-16.33362, 28.43684], [-16.33385, 28.43684], [-16.33397, 28.43682], [-16.33402, 28.43682], [-16.33404, 28.43684], [-16.33406, 28.43681], [-16.33399, 28.43667], [-16.33375, 28.4366], [-16.33334, 28.43656], [-16.33314, 28.43649], [-16.33297, 28.43632], [-16.33289, 28.43602], [-16.33303, 28.4358], [-16.33316, 28.43598], [-16.33334, 28.43607], [-16.33351, 28.43604], [-16.3338, 28.43595], [-16.33432, 28.4359], [-16.33575, 28.4361], [-16.33686, 28.43678], [-16.337, 28.43703], [-16.33723, 28.43732], [-16.33736, 28.43763], [-16.33744, 28.43813], [-16.33751, 28.43848], [-16.33749, 28.43877], [-16.33749, 28.43877], [-16.33749, 28.43885], [-16.3375, 28.43886], [-16.33739, 28.43888], [-16.33703, 28.43896], [-16.33694, 28.43899], [-16.33684, 28.43903], [-16.3367, 28.4391], [-16.33653, 28.43921], [-16.33646, 28.43925], [-16.33637, 28.43932], [-16.3363, 28.43939], [-16.33623, 28.43948], [-16.33597, 28.43982], [-16.33572, 28.44014], [-16.33564, 28.44025], [-16.33557, 28.44035], [-16.33552, 28.4404], [-16.33542, 28.44052], [-16.33534, 28.44061], [-16.33521, 28.44076], [-16.33511, 28.44092], [-16.33502, 28.44109], [-16.33487, 28.44133], [-16.33483, 28.44139], [-16.33472, 28.44156], [-16.33463, 28.44171], [-16.33458, 28.44179], [-16.33454, 28.44187], [-16.33447, 28.4421], [-16.3344, 28.44234], [-16.3344, 28.44235], [-16.33442, 28.44242], [-16.3344, 28.44249], [-16.33438, 28.44254], [-16.33429, 28.44266], [-16.33419, 28.44281], [-16.33399, 28.44311], [-16.33375, 28.44346], [-16.3337, 28.44354], [-16.33365, 28.44364], [-16.33363, 28.44367], [-16.33357, 28.44378], [-16.33348, 28.44395], [-16.3334, 28.44408], [-16.33328, 28.44429], [-16.33246, 28.44543], [-16.33232, 28.4456], [-16.33216, 28.44576], [-16.33208, 28.44584], [-16.33201, 28.4459], [-16.3319, 28.44602], [-16.3318, 28.44612], [-16.33173, 28.44622], [-16.33168, 28.44629], [-16.33163, 28.44636], [-16.33156, 28.44647], [-16.33148, 28.44657], [-16.3314, 28.44667], [-16.33132, 28.44675], [-16.33125, 28.44682], [-16.3312, 28.44687], [-16.33109, 28.44695], [-16.33097, 28.44704], [-16.33091, 28.44709], [-16.33083, 28.44717], [-16.33074, 28.44727], [-16.33069, 28.44735], [-16.33063, 28.44753], [-16.33062, 28.44755], [-16.33059, 28.44774], [-16.33052, 28.44837], [-16.33051, 28.44841], [-16.33049, 28.44858], [-16.33042, 28.44919], [-16.3304, 28.44938], [-16.33039, 28.44959], [-16.33039, 28.44972], [-16.33041, 28.44985], [-16.33044, 28.45005], [-16.33048, 28.45039], [-16.3305, 28.45058], [-16.33051, 28.45067], [-16.33051, 28.4508], [-16.3305, 28.45088], [-16.33049, 28.45101], [-16.33048, 28.45112], [-16.33047, 28.45123], [-16.33047, 28.45136], [-16.33047, 28.45144], [-16.33048, 28.45153], [-16.3305, 28.45162], [-16.33061, 28.45221], [-16.33067, 28.45259], [-16.33068, 28.45267], [-16.33069, 28.45273], [-16.33069, 28.45282], [-16.33068, 28.45302], [-16.33067, 28.45311], [-16.33066, 28.45322], [-16.33064, 28.45335], [-16.33062, 28.45345], [-16.33058, 28.4538], [-16.33055, 28.45402], [-16.3305, 28.45434], [-16.33048, 28.45457], [-16.33048, 28.45472], [-16.33049, 28.45483], [-16.33044, 28.45481], [-16.3304, 28.45479], [-16.3303, 28.45476], [-16.33022, 28.45474], [-16.33016, 28.45472], [-16.33012, 28.45471], [-16.33009, 28.45471], [-16.33006, 28.45469], [-16.33002, 28.45468], [-16.32991, 28.45461], [-16.32984, 28.45456], [-16.3298, 28.45454], [-16.32977, 28.45451], [-16.32975, 28.45448], [-16.32972, 28.45445], [-16.32969, 28.45442], [-16.32967, 28.45439], [-16.32964, 28.45435], [-16.3296, 28.45423], [-16.32958, 28.45419], [-16.32957, 28.45415], [-16.32956, 28.45411], [-16.32954, 28.45408], [-16.32951, 28.45402], [-16.32948, 28.45399], [-16.32945, 28.45395], [-16.32942, 28.45393], [-16.32938, 28.45391], [-16.32935, 28.45389], [-16.32915, 28.45375], [-16.32911, 28.45372], [-16.32908, 28.45369], [-16.32905, 28.45366], [-16.329, 28.4536], [-16.32897, 28.45354], [-16.32895, 28.45351], [-16.32894, 28.45348], [-16.32894, 28.45345], [-16.32897, 28.45339], [-16.32899, 28.45335], [-16.32904, 28.4533], [-16.32906, 28.45327], [-16.32909, 28.45319], [-16.32912, 28.45307], [-16.32913, 28.45302], [-16.32912, 28.45298], [-16.32911, 28.45294], [-16.32909, 28.45291], [-16.32907, 28.45289], [-16.32904, 28.45286], [-16.32901, 28.45284], [-16.3289, 28.4528], [-16.32879, 28.45277], [-16.3287, 28.45273], [-16.32864, 28.45268], [-16.3286, 28.45266], [-16.32856, 28.45263], [-16.32853, 28.45261], [-16.3285, 28.45259], [-16.32847, 28.45257], [-16.32844, 28.45254], [-16.32841, 28.45252], [-16.32837, 28.45249], [-16.32834, 28.45246], [-16.3283, 28.45243], [-16.32827, 28.45241], [-16.32824, 28.45238], [-16.32821, 28.45236], [-16.32818, 28.45234], [-16.32815, 28.45231], [-16.32812, 28.45229], [-16.32809, 28.45226], [-16.32806, 28.45223], [-16.32804, 28.45221], [-16.32801, 28.45218], [-16.32799, 28.45215], [-16.32796, 28.45213], [-16.32794, 28.45209], [-16.32792, 28.45207], [-16.32789, 28.45204], [-16.32786, 28.45202], [-16.32784, 28.452], [-16.32778, 28.45197], [-16.32758, 28.45189], [-16.32754, 28.45186], [-16.32748, 28.45179], [-16.32746, 28.45176], [-16.32745, 28.45172], [-16.32742, 28.45155], [-16.3274, 28.45148], [-16.32739, 28.45144], [-16.32738, 28.4514], [-16.32737, 28.45136], [-16.32736, 28.45132], [-16.32735, 28.45129], [-16.32733, 28.45124], [-16.3273, 28.45117], [-16.32729, 28.45113], [-16.32724, 28.45103], [-16.3272, 28.45096], [-16.32714, 28.45088], [-16.32712, 28.45084], [-16.32708, 28.45076], [-16.32706, 28.45072], [-16.32704, 28.45068], [-16.32702, 28.45064], [-16.32699, 28.4506], [-16.32697, 28.45057], [-16.32696, 28.45055], [-16.32695, 28.45052], [-16.32693, 28.4505], [-16.3269, 28.45047], [-16.32684, 28.45041], [-16.3268, 28.45038], [-16.32677, 28.45037], [-16.32674, 28.45035], [-16.32666, 28.45032], [-16.32662, 28.45031], [-16.32657, 28.4503], [-16.32653, 28.45029], [-16.32649, 28.45027], [-16.32644, 28.45025], [-16.32639, 28.45023], [-16.32635, 28.45021], [-16.32631, 28.4502], [-16.32626, 28.45018], [-16.32622, 28.45016], [-16.32618, 28.45015], [-16.32614, 28.45013], [-16.3261, 28.45011], [-16.32605, 28.4501], [-16.32601, 28.45008], [-16.32597, 28.45007], [-16.32592, 28.45006], [-16.32588, 28.45005], [-16.32584, 28.45004], [-16.32579, 28.45003], [-16.32575, 28.45003], [-16.3257, 28.45002], [-16.32565, 28.45002], [-16.3256, 28.45001], [-16.32555, 28.45001], [-16.3255, 28.45001], [-16.32546, 28.45001], [-16.32541, 28.45001], [-16.32536, 28.45002], [-16.32531, 28.45003], [-16.32527, 28.45004], [-16.32523, 28.45005], [-16.32519, 28.45006], [-16.32514, 28.45007], [-16.3251, 28.45009], [-16.32507, 28.4501], [-16.32504, 28.45011], [-16.325, 28.45011], [-16.32497, 28.45011], [-16.32492, 28.45011], [-16.32487, 28.45011], [-16.32483, 28.4501], [-16.32479, 28.45007], [-16.32476, 28.45006], [-16.32472, 28.45004], [-16.32468, 28.45003], [-16.32464, 28.45001], [-16.32459, 28.44999], [-16.32454, 28.44997], [-16.32451, 28.44997], [-16.32447, 28.44996], [-16.32445, 28.44997], [-16.32439, 28.44997], [-16.32434, 28.44998], [-16.3243, 28.44999], [-16.32426, 28.45001], [-16.32421, 28.45003], [-16.32417, 28.45005], [-16.32413, 28.45007], [-16.32408, 28.45008], [-16.32403, 28.45009], [-16.32399, 28.4501], [-16.32394, 28.45011], [-16.3239, 28.45012], [-16.32385, 28.45013], [-16.32381, 28.45014], [-16.3238, 28.45014], [-16.32376, 28.45014], [-16.32371, 28.45013], [-16.32367, 28.45012], [-16.32363, 28.45012], [-16.32358, 28.45011], [-16.32353, 28.45011], [-16.32349, 28.45011], [-16.32347, 28.4501], [-16.32345, 28.4501], [-16.32341, 28.4501], [-16.32338, 28.45009], [-16.32335, 28.4501], [-16.32332, 28.45011], [-16.32331, 28.45011]]]}, "properties": {"cusec": "3803812001", "mun": "038", "nmun": "Santa Cruz de Tenerife", "area_m2": 1588813.9614483127, "perimeter_m": 8459.117790942872, "coords_system": "wgs84"}}, {"type": "Feature", "geometry": {"type": "Polygon", "coordinates": [[[622.4928275732435, -879.7004457765388], [633.2600069594296, -759.4748457767399], [601.9373032904932, -747.229645776808], [393.44555699308233, -634.7964457767141], [397.3608949515689, -619.2116457765131], [400.2973984207817, -598.0608457765229], [407.1492398481332, -586.9288457765488], [409.10690882772434, -575.7968457765747], [410.085743317346, -563.5516457766428], [414.00108127583263, -550.1932457767531], [415.95875025507587, -533.4952457765942], [433.57777106896117, -522.3632457766201], [441.40844698628223, -509.0048457767304], [454.13329535171147, -486.7408457767823], [480.5618265725395, -475.60884577680827], [495.2443439175598, -460.0240457766073], [493.28667493831654, -452.23164577650675], [504.0538543245024, -432.19404577686987], [524.6093786072528, -415.49604577671107], [550.059075338459, -386.5528457766203], [541.2495649315164, -372.0812457767727], [533.4188890141954, -359.83604577684076], [527.5458820761177, -340.91164577676625], [521.6728751383878, -327.55324577687645], [518.7363716695228, -320.87404577673385], [519.7152061591445, -296.38364577687], [476.6464886140528, -294.1572457765588], [439.45077800703893, -296.38364577687], [428.68359862085293, -289.70444577672737], [412.0434122965893, -295.2704457765167], [406.17040535851163, -293.0440457766009], [400.2973984207817, -247.40284577674686], [396.38206046194733, -234.0444457768571], [386.593715565383, -214.0068457768247], [376.8053706688186, -195.08244577675015], [413.0222467862109, -180.61084577650703], [420.85292270353193, -178.38444577659132], [423.78942617239693, -175.04484577671775], [423.78942617239693, -170.59204577649083], [361.1440188341767, -33.668445776533105], [350.3768394479907, -20.310045776643335], [322.9694737375411, 20.87835422337932], [303.3927839444125, 42.029154223369574], [311.22345986173343, 52.04795422338577], [321.0118047582978, 60.953554223444115], [321.9906392479195, 63.17995422335983], [324.92714271678443, 64.29315422331769], [327.86364618599714, 66.5195542232334], [333.7366531237271, 72.08555422341817], [339.6096600618048, 78.76475422316531], [341.567329041048, 80.99115422347651], [343.5249980202914, 84.33075422335008], [345.48266699988244, 86.5571542232658], [346.4615014895041, 89.89675422313937], [347.44033597912573, 92.12315422345057], [348.41917046874744, 94.34955422336628], [350.3768394479907, 96.575954223282], [351.3556739376124, 97.68915422323985], [356.2498463860684, 102.14195422346677], [360.16518434455503, 107.70795422325605], [361.1440188341767, 108.82115422321391], [363.10168781376774, 109.93435422317177], [364.0805223033894, 109.93435422317177], [365.05935679301103, 111.04755422312962], [367.995860261876, 112.16075422348297], [369.9535292411194, 113.27395422344082], [372.89003271033204, 113.27395422344082], [374.8477016895754, 114.38715422339868], [379.7418741376836, 114.38715422339868], [383.65721209651804, 115.50035422335654], [395.40322597232563, 119.95315422318797], [406.17040535851163, 124.40595422341488], [414.00108127583263, 128.8587542232463], [420.85292270353193, 133.31155422347322], [425.7470951516402, 136.6511542233468], [429.6624331104746, 141.10395422317822], [436.51427453817394, 145.55675422340514], [443.3661159655255, 147.78315422332085], [449.23912290360323, 150.00955422323656], [453.1544608620899, 151.12275422319442], [458.0486333105459, 151.12275422319442], [461.9639712690325, 153.34915422350562], [467.8369782071102, 154.46235422346348], [472.7311506555662, 156.6887542233792], [480.5618265725395, 161.14155422321062], [487.4136680002388, 165.59435422343753], [491.32900595907313, 168.9339542233111], [495.2443439175598, 172.27355422318468], [499.1596818760464, 176.7263542234116], [503.0750198348808, 182.29235422320087], [504.0538543245024, 183.40555422315873], [506.0115233037458, 184.5187542231166], [510.90569575220184, 190.08475422330136], [515.79986820031, 195.65075422348613], [518.7363716695228, 200.10355422331756], [522.6517096280094, 203.44315422319113], [526.5670475864961, 206.7827542234602], [523.6305441176311, 263.5559542232883], [523.6305441176311, 264.6691542232462], [523.6305441176311, 265.78235422320404], [523.6305441176311, 266.89555422316187], [624.4504965524869, 257.989954223499], [625.4293310421085, 257.989954223499], [678.2863934837644, 253.53715422327213], [674.3710555249301, 318.10275422320075], [605.8526412489799, 427.19635422342105], [581.3817790073953, 419.4039542233206], [558.8685857454017, 418.29075422336274], [525.5882130968744, 429.4227542233368], [497.2020128968031, 438.32835422339514], [472.7311506555662, 446.1207542234956], [449.23912290360323, 459.4791542233854], [387.5725500550047, 453.91315422320065], [364.0805223033894, 519.5919542234826], [329.82131516524043, 519.5919542234826], [297.5197770063348, 538.5163542231617], [275.98541823396283, 538.5163542231617], [240.74737660619223, 545.1955542233043], [209.42467293725602, 541.8559542234307], [191.8056521233707, 547.4219542232199], [166.3559553921644, 564.1199542233788], [137.96975519209312, 574.138754223395], [95.87987213662316, 587.4971542232847], [81.19735479195057, 597.5159542233009], [56.72649255036593, 608.6479542232751], [48.89581663304493, 609.7611542232329], [108.6047205024002, 810.1371542231614], [119.37189988858616, 843.5331542234791], [153.63110702673512, 914.7779542231548], [193.76332110261401, 1032.7771542234334], [213.34001089574264, 1085.0975542234303], [209.42467293725602, 1149.6631542233588], [205.50933497842163, 1205.323154223229], [189.8479831441274, 1244.2851542233361], [180.05963824756307, 1271.0019542235111], [165.37712090254274, 1243.1719542233782], [152.65227253711348, 1230.9267542234463], [123.28723784707279, 1200.8703542233977], [88.04919621964991, 1157.4555542234593], [69.45134091614295, 1127.3991542234107], [62.59949948844362, 1111.8143542232096], [53.78998908150096, 1102.9087542231514], [45.95931316417997, 1077.3051542233297], [27.361457860673003, 1049.4751542231968], [17.57311296410869, 1037.229954223265], [14.636609495243725, 1035.0035542233493], [11.700106026031007, 1033.8903542233913], [6.805933577922727, 1033.8903542233913], [-31.368611518712854, 1035.0035542233493], [-70.52199110531784, 1040.5695542231385], [-103.80236375349739, 1045.0223542233655], [-128.27322599508204, 1050.5883542231547], [-165.46893660209597, 1055.0411542233817], [-246.71219924382316, 1061.7203542231287], [-239.8603578161238, 1040.5695542231385], [-223.22017149186016, 1000.4943542234691], [-220.28366802299522, 991.5887542234109], [-221.26250251261686, 965.9851542231936], [-201.68581271948824, 911.4383542232813], [-198.74930925062327, 895.8535542234757], [-195.81280578141056, 853.5519542234953], [-203.64348169873156, 802.3447542234564], [-208.5376541471876, 783.4203542233819], [-217.34716455413025, 767.8355542231809], [-250.62753720230978, 685.4587542231355], [-283.9079098508371, 596.4027542233431], [-307.3999376024523, 607.5347542233171], [-314.2517790301517, 608.6479542232751], [-321.10362045785104, 608.6479542232751], [-370.0453449406725, 598.6291542232589], [-386.68553126493623, 597.5159542233009], [-409.19872452727753, 597.5159542233009], [-420.9447384030852, 599.7423542232167], [-425.8389108511935, 599.7423542232167], [-427.7965798307845, 597.5159542233009], [-429.75424881002783, 600.8555542231745], [-422.9024073823285, 616.4403542233755], [-399.41037963036547, 624.232754223476], [-359.27816555448663, 628.6855542233075], [-339.7014757613579, 636.4779542234079], [-323.06128943709433, 655.4023542234825], [-315.2306135197733, 688.7983542234047], [-328.93429637517204, 713.2887542232685], [-341.65914474060133, 693.2511542232361], [-359.27816555448663, 683.2323542232199], [-375.91835187875023, 686.5719542234889], [-404.30455207882153, 696.5907542235051], [-455.2039455412341, 702.1567542232945], [-595.1772775623472, 679.8927542233463], [-703.827905914524, 604.1951542234436], [-717.5315887695749, 576.3651542233107], [-740.0447820319163, 544.0823542233464], [-752.7696303973455, 509.5731542234664], [-760.6003063146666, 453.91315422320065], [-767.4521477423659, 414.9511542234892], [-765.4944787627749, 382.66835422312937], [-765.4944787627749, 382.66835422312937], [-765.4944787627749, 373.7627542234665], [-766.4733132523965, 372.64955422350863], [-755.7061338662105, 370.42315422319746], [-720.4680922384399, 361.5175542231391], [-711.6585818314973, 358.17795422326554], [-701.8702369349329, 353.7251542234341], [-688.1665540798821, 345.93275422333363], [-671.5263677556184, 333.6875542234017], [-664.6745263279189, 329.23475422317483], [-655.8650159209762, 321.4423542234698], [-649.0131744936248, 313.6499542233693], [-642.1613330659254, 303.6311542233531], [-616.7116363347192, 265.78235422320404], [-592.2407740931345, 230.15995422336616], [-584.4100981761612, 217.91475422343424], [-577.5582567484619, 206.7827542234602], [-572.6640843000059, 201.21675422327542], [-562.8757394034415, 187.85835422338565], [-555.0450634861206, 177.83955422336945], [-542.3202151206912, 161.14155422321062], [-532.5318702241269, 143.33035422348942], [-523.7223598171843, 124.40595422341488], [-509.03984247216397, 97.68915422323985], [-505.1245045136773, 91.00995422349271], [-494.35732512749144, 72.08555422341817], [-485.5478147205488, 55.38755422325934], [-480.6536422720926, 46.481954223201], [-476.73830431360614, 37.57635422314266], [-469.8864628859067, 11.972754223320976], [-463.0346214582073, -14.744045776854051], [-463.0346214582073, -15.857245776811908], [-464.9922904377985, -23.649645776516905], [-463.0346214582073, -31.44204577661739], [-461.0769524789641, -37.00804577680216], [-452.2674420720214, -50.36644577669193], [-442.4790971754571, -67.06444577685076], [-422.9024073823285, -100.46044577677293], [-399.41037963036547, -139.42244577687987], [-394.51620718225723, -148.32804577654272], [-389.62203473380123, -159.46004577651678], [-387.6643657545578, -162.79964577678584], [-381.79135881682794, -175.04484577671775], [-372.9818484098853, -193.9692457767923], [-365.1511724925643, -208.44084577663992], [-353.4051586164089, -231.8180457765459], [-273.14073046465114, -358.7228457768829], [-259.43704760925243, -377.64724577656193], [-243.77569577461045, -395.4584457766787], [-235.9450198576372, -404.364045776737], [-229.09317842993786, -411.04324577687964], [-218.3259990437519, -424.4016457767694], [-208.5376541471876, -435.53364577674347], [-201.68581271948824, -446.6656457767175], [-196.7916402710322, -454.458045776818], [-191.89746782292394, -462.25044577652295], [-185.0456263952246, -474.4956457768504], [-177.21495047790359, -485.62764577682447], [-169.38427456058258, -496.7596457767985], [-161.55359864360935, -505.66524577685686], [-154.70175721591, -513.4576457765618], [-149.80758476745396, -519.0236457767467], [-139.04040538126802, -527.9292457768049], [-127.29439150546038, -537.9480457768211], [-121.4213845673827, -543.5140457766104], [-113.5907086500617, -552.4196457766687], [-104.78119824311905, -563.5516457766428], [-99.88702579501077, -572.4572457767011], [-94.01401885693309, -592.4948457767335], [-93.03518436731143, -594.7212457766493], [-90.09868089844646, -615.8720457766395], [-83.24683947074712, -686.0036457767529], [-82.26800498112546, -690.4564457765844], [-80.31033600188215, -709.3808457766589], [-73.45849457418281, -777.2860457768566], [-71.5008255949395, -798.4368457768469], [-70.52199110531784, -821.8140457767528], [-70.52199110531784, -836.2856457766004], [-72.47966008456116, -850.7572457768435], [-75.41616355342612, -873.0212457767916], [-79.3315015122605, -910.8700457765452], [-81.28917049150381, -932.0208457765355], [-82.26800498112546, -942.0396457765517], [-82.26800498112546, -956.5112457767948], [-81.28917049150381, -965.4168457768532], [-80.31033600188215, -979.8884457767008], [-79.3315015122605, -992.1336457766326], [-78.35266702229109, -1004.3788457765646], [-78.35266702229109, -1018.8504457768078], [-78.35266702229109, -1027.7560457768661], [-79.3315015122605, -1037.7748457768823], [-81.28917049150381, -1047.793645776503], [-92.05634987768977, -1113.472445776785], [-97.92935681576746, -1155.7740457767654], [-98.90819130538911, -1164.6796457768237], [-99.88702579501077, -1171.358845776571], [-99.88702579501077, -1181.377645776587], [-98.90819130538911, -1203.6416457765354], [-97.92935681576746, -1213.6604457765516], [-96.9505223261458, -1225.9056457768788], [-94.99285334655474, -1240.3772457767266], [-93.03518436731143, -1251.5092457767005], [-89.11984640882481, -1290.4712457768076], [-86.18334293961209, -1314.9616457766713], [-81.28917049150381, -1350.5840457765091], [-79.3315015122605, -1376.1876457767264], [-79.3315015122605, -1392.8856457764896], [-80.31033600188215, -1405.130845776817], [-75.41616355342612, -1402.9044457765058], [-71.5008255949395, -1400.6780457765901], [-61.71248069837519, -1397.3384457767165], [-53.88180478105419, -1395.1120457768009], [-48.008797842976506, -1392.8856457764896], [-44.09345988448988, -1391.7724457765319], [-41.156956415277165, -1391.7724457765319], [-38.220452946412195, -1389.5460457766162], [-34.30511498792557, -1388.4328457766583], [-23.53793560173961, -1380.6404457765577], [-16.686094174040267, -1375.0744457767685], [-12.77075621520589, -1372.8480457768528], [-9.834252746340924, -1369.5084457765838], [-7.876583767097613, -1366.1688457767102], [-4.940080297884894, -1362.8292457768366], [-2.0035768290199263, -1359.4896457765676], [-0.04590784977661486, -1356.150045776694], [2.8905956190883524, -1351.6972457768625], [6.805933577922727, -1338.3388457765773], [8.763602557166038, -1333.886045776746], [9.742437046787694, -1329.433245776519], [10.72127153640935, -1324.9804457766875], [12.678940515652661, -1321.6408457768139], [15.615443984865381, -1314.9616457766713], [18.55194745373035, -1311.6220457767977], [21.488450922595316, -1307.1692457765707], [24.424954391808033, -1304.942845776655], [28.340292350294657, -1302.7164457767394], [31.276795819159624, -1300.4900457768238], [50.85348561263599, -1284.9052457766227], [54.76882357112262, -1281.565645776749], [57.70532703998759, -1278.2260457768755], [60.641830509200304, -1274.8864457766065], [65.53600295730858, -1268.2072457768593], [68.47250642617355, -1261.5280457767167], [70.43017540576461, -1258.188445776843], [71.40900989538628, -1254.848845776574], [71.40900989538628, -1251.5092457767005], [68.47250642617355, -1244.8300457765579], [66.51483744693024, -1240.3772457767266], [61.62066499882196, -1234.8112457765417], [59.66299601957865, -1231.471645776668], [56.72649255036593, -1222.5660457766098], [53.78998908150096, -1209.20764577672], [52.81115459187931, -1203.6416457765354], [53.78998908150096, -1199.1888457767038], [54.76882357112262, -1194.7360457768723], [56.72649255036593, -1191.3964457766033], [58.68416152960924, -1189.1700457766876], [61.62066499882196, -1185.830445776814], [64.55716846768692, -1183.604045776503], [75.3243478538729, -1179.1512457766714], [86.09152724005885, -1175.8116457767978], [94.90103764700152, -1171.358845776571], [100.7740445850792, -1165.7928457767816], [104.68938254356583, -1163.566445776866], [108.6047205024002, -1160.226845776597], [111.54122397126517, -1158.000445776681], [114.47772744047788, -1155.7740457767654], [117.41423090934285, -1153.5476457768498], [120.35073437820782, -1150.2080457765808], [123.28723784707279, -1147.981645776665], [127.20257580590716, -1144.6420457767913], [130.13907927477212, -1141.3024457765223], [134.0544172336065, -1137.9628457766487], [136.99092070247147, -1135.736445776733], [139.92742417133644, -1132.3968457768594], [142.86392764054915, -1130.1704457765484], [145.80043110941412, -1127.9440457766325], [148.7369345782791, -1124.604445776759], [151.6734380474918, -1122.3780457768432], [154.60994151635677, -1119.0384457765742], [157.54644498522174, -1115.6988457767006], [159.50411396446506, -1113.472445776785], [162.44061743367777, -1110.132845776516], [164.3982864129211, -1106.7932457766424], [167.33478988178607, -1104.5668457767265], [169.29245886102936, -1100.1140457764998], [171.25012784062042, -1097.887645776584], [174.1866313094854, -1094.5480457767103], [177.12313477835036, -1092.3216457767946], [179.08080375794142, -1090.095245776879], [184.95381069567136, -1086.75564577661], [204.5305004888, -1077.8500457765515], [208.44583844763434, -1074.510445776678], [214.31884538536428, -1066.7180457765776], [216.27651436495535, -1063.378445776704], [217.255348854577, -1058.9256457768724], [220.19185232344196, -1040.001245776798], [222.1495213026853, -1032.2088457766974], [223.12835579230693, -1027.7560457768661], [224.1071902819286, -1023.3032457766392], [225.086024771898, -1018.8504457768078], [226.06485926151967, -1014.3976457765808], [227.04369375114132, -1011.0580457767072], [229.0013627303846, -1005.4920457765224], [231.93786619924958, -997.6996457768175], [232.91670068887126, -993.2468457765906], [237.8108731373273, -982.1148457766164], [241.7262110958139, -974.322445776516], [247.59921803389162, -965.4168457768532], [249.55688701313488, -960.9640457766262], [253.47222497196927, -952.0584457765679], [255.4298939512126, -947.6056457767365], [257.3875629304559, -943.1528457765096], [259.34523190969924, -938.7000457766782], [262.28173537891195, -934.2472457768467], [264.23940435815524, -930.9076457765776], [265.21823884777695, -928.681245776662], [266.19707333739854, -925.3416457767884], [268.1547423166419, -923.1152457768726], [271.0912457858546, -919.7756457766036], [276.96425272358454, -913.0964457768564], [280.8795906824189, -909.7568457765874], [283.81609415128383, -908.6436457766296], [286.75259762014883, -906.4172457767138], [294.58327353746984, -903.0776457768402], [298.4986114963042, -901.9644457768824], [303.3927839444125, -900.851245776529], [307.3081219028991, -899.7380457765712], [311.22345986173343, -897.5116457766555], [316.1176323098418, -895.2852457767398], [321.0118047582978, -893.058845776824], [324.92714271678443, -890.8324457765128], [328.84248067561873, -889.719245776555], [333.7366531237271, -887.4928457766393], [337.65199108256144, -885.2664457767236], [341.567329041048, -884.1532457767657], [345.48266699988244, -881.92684577685], [349.3980049583691, -879.7004457765388], [354.2921774068251, -878.587245776581], [358.20751536531174, -876.3608457766652], [362.1228533237983, -875.2476457767074], [367.0170257722544, -874.1344457767495], [370.932363730741, -873.0212457767916], [374.8477016895754, -871.9080457768338], [379.7418741376836, -870.794845776876], [383.65721209651804, -870.794845776876], [388.5513845446263, -869.6816457765226], [393.44555699308233, -869.6816457765226], [398.33972944119057, -868.5684457765648], [403.23390188964663, -868.5684457765648], [408.1280743377549, -868.5684457765648], [412.0434122965893, -868.5684457765648], [416.9375847446976, -868.5684457765648], [421.8317571931536, -869.6816457765226], [426.7259296412619, -870.794845776876], [430.6412676000962, -871.9080457768338], [434.5566055585829, -873.0212457767916], [438.47194351741723, -874.1344457767495], [443.3661159655255, -875.2476457767074], [447.2814539243599, -877.4740457766231], [450.2179573932249, -878.587245776581], [453.1544608620899, -879.7004457765388], [457.0697988209243, -879.7004457765388], [460.0063022897892, -879.7004457765388], [464.9004747382452, -879.7004457765388], [469.7946471863534, -879.7004457765388], [473.70998514518783, -878.587245776581], [477.6253231036745, -875.2476457767074], [480.5618265725395, -874.1344457767495], [484.47716453137383, -871.9080457768338], [488.3925024898605, -870.794845776876], [492.3078404486949, -868.5684457765648], [497.2020128968031, -866.342045776649], [502.0961853452592, -864.1156457767333], [505.03268881412407, -864.1156457767333], [508.9480267726108, -863.0024457767754], [510.90569575220184, -864.1156457767333], [516.7787026899317, -864.1156457767333], [521.6728751383878, -865.2288457766912], [525.5882130968744, -866.342045776649], [529.5035510557087, -868.5684457765648], [534.397723503817, -870.794845776876], [538.3130614626514, -873.0212457767916], [542.2283994211381, -875.2476457767074], [547.122571869594, -876.3608457766652], [552.0167443177023, -877.4740457766231], [555.9320822765367, -878.587245776581], [560.826254724645, -879.7004457765388], [564.7415926834793, -880.8136457764966], [569.6357651315876, -881.92684577685], [573.5511030900742, -883.0400457768078], [574.5299375800437, -883.0400457768078], [578.4452755385303, -883.0400457768078], [583.3394479869863, -881.92684577685], [587.2547859454729, -880.8136457764966], [591.1701239039595, -880.8136457764966], [596.0642963524156, -879.7004457765388], [600.9584688005239, -879.7004457765388], [604.8738067593582, -879.7004457765388], [606.8314757386016, -878.587245776581], [608.7891447178448, -878.587245776581], [612.7044826766793, -878.587245776581], [615.6409861455443, -877.4740457766231], [618.5774896144092, -878.587245776581], [621.5139930836219, -879.7004457765388], [622.4928275732435, -879.7004457765388]]]}, "properties": {"cusec": "3803812001", "mun": "038", "nmun": "Santa Cruz de Tenerife", "area_m2": 1588813.9614483127, "perimeter_m": 8459.117790942872, "coords_system": "local_m_enu"}}]}