{"type": "FeatureCollection", "crs": {"type": "name", "properties": {"name": "EPSG:32628_local_enu_m_section_centroid", "lng0": -16.31463440998315, "lat0": 28.492238889254324}}, "features": [{"type": "Feature", "geometry": {"type": "Polygon", "coordinates": [[[-137.655932857, 105.543445055], [-137.651272541, 105.544692714], [-139.814095612, 113.890287984], [-141.868439162, 121.793104084], [-144.505352787, 131.486398444], [-135.40899739, 133.773008604], [-134.334073086, 129.659082559], [-128.157201544, 131.307649971], [-132.58297854, 147.953406828], [-148.050292714, 144.054925814], [-149.108477306, 148.509772029], [-153.022936362, 161.757295451], [-139.917028927, 165.303448], [-136.630191122, 166.192789567], [-136.284459426, 166.286336492], [-136.284373429, 166.285979234], [-125.479191241, 169.19777269], [-118.803176816, 171.041469946], [-115.390256127, 171.984007231], [-115.068271399, 172.072928902], [-115.067554906, 172.070411273], [-95.182655841, 177.400392691], [-95.19816827, 177.454722179], [-94.898229714, 177.535453412], [-94.549836279, 177.733656094], [-94.522147044, 177.636679537], [-85.757026195, 179.995892791], [-72.548705224, 183.558216093], [-59.398537232, 187.136178008], [-59.400211509, 187.14151203], [-59.04498512, 187.232374192], [-58.719617714, 187.320901744], [-58.718122337, 187.315981323], [-46.422164524, 190.461122982], [-17.053466808, 198.111920558], [-7.566148999, 171.06937642], [-1.512157813, 172.819679296], [-2.661112723, 176.226561013], [-2.656126899, 176.227890603], [-5.086583732, 183.779551357], [-7.367660431, 190.649809248], [-8.412721642, 193.797375499], [-8.528947927, 194.147431486], [-8.528829475, 194.147463832], [-10.488004511, 200.054758995], [3.182562293, 203.4858989], [22.893683148, 208.553200323], [26.569029059, 209.498051998], [26.881740207, 209.578443248], [26.882004459, 209.577641465], [34.881123204, 211.612088454], [38.999802189, 212.674310133], [42.230670761, 213.50756241], [42.573771242, 213.596049221], [42.574313091, 213.593440864], [56.014805383, 216.955670069], [69.333091119, 220.373791608], [73.060975561, 210.17097024], [76.16814178, 202.028921499], [76.172235415, 202.030324444], [76.289504082, 201.710902536], [76.417909364, 201.374428079], [76.41357765, 201.372945118], [79.518722495, 192.915005628], [84.273023926, 180.07892914], [85.292681235, 177.325969658], [85.436116507, 176.938710637], [85.43492007, 176.938495239], [91.868956779, 159.413163612], [85.905587787, 157.212565359], [89.028731471, 149.00557416], [95.146072892, 151.275259781], [99.845020171, 138.89387539], [100.849923486, 136.246028227], [101.00012296, 135.850263535], [100.997396227, 135.849854822], [105.738159147, 123.119813915], [108.797349369, 115.114029749], [102.114497549, 112.540431723], [99.118505043, 111.337301572], [99.121605937, 111.329804089], [96.610911681, 110.387095795], [99.997447836, 101.005311004], [104.18636636, 103.388406666], [111.404394519, 106.051998367], [112.028123136, 106.525121267], [114.556456827, 99.916343434], [115.816913733, 96.621651878], [115.94082009, 96.297774698], [115.93970618, 96.297358261], [121.000275295, 82.934536938], [123.614356563, 76.136076312], [123.617693193, 76.137341795], [123.740036271, 75.80922016], [123.865584997, 75.482704653], [123.862251844, 75.481440489], [127.849738764, 64.787082087], [130.099720305, 58.776528991], [134.305974129, 47.646492715], [137.776226086, 38.704333981], [122.325314297, 34.930574983], [118.700110892, 34.045148662], [118.382706455, 33.967625221], [118.38261242, 33.967925822], [95.260766084, 28.344059369], [91.697175658, 27.477296553], [86.083873819, 26.111987769], [86.084562251, 26.109539943], [85.727003885, 26.029626257], [85.40204151, 25.950828083], [85.400408965, 25.956632849], [80.251600693, 24.805882972], [75.123038508, 23.451253531], [75.125382243, 23.44292002], [74.775144155, 23.359362682], [74.446163448, 23.272467577], [74.443947133, 23.280348028], [68.705491283, 21.911307621], [48.037107803, 16.936624623], [45.303809839, 25.711189649], [45.291703729, 25.707481144], [45.1983493, 26.049744162], [45.095622524, 26.379522614], [45.107414818, 26.383134987], [42.557544367, 35.731661491], [38.547250702, 47.862431709], [37.568577713, 51.20306201], [36.200505082, 55.428135569], [34.753516146, 59.860744953], [33.652317254, 63.234084181], [33.549296633, 63.549670679], [33.552039103, 63.550595244], [28.960032755, 78.027724182], [23.472159754, 95.057235321], [24.152603759, 95.278439795], [23.042540364, 98.573328542], [22.013355296, 101.628154343], [21.893734046, 101.983213985], [21.89501763, 101.983529315], [19.48522227, 109.219067291], [18.490223367, 112.206604105], [18.369209275, 112.569955314], [18.370976726, 112.570333625], [16.046938563, 119.657091718], [14.970292845, 122.82172087], [14.96678277, 122.821096839], [14.872857663, 123.108116116], [14.742205577, 123.49214718], [14.746912281, 123.492983951], [11.447979038, 133.573967256], [8.121578667, 143.703899832], [4.795170399, 153.833856454], [0.686449087, 166.30036893], [-1.29977773, 172.189929759], [-7.353901223, 170.404038094], [-5.821015077, 165.104558779], [-4.903572237, 161.932784168], [-4.804402126, 161.589934208], [-4.806836306, 161.589366078], [-1.582528649, 150.151816704], [1.960347167, 139.910598532], [1.960347171, 139.910598518], [2.017456001, 139.745516811], [2.036859973, 139.689426698], [2.036859974, 139.689426695], [2.136119818, 139.350610311], [3.17258837, 136.04855974], [4.094858239, 133.110330948], [4.211198171, 132.739687441], [4.208940007, 132.739288747], [6.264619307, 126.056513161], [-1.209870617, 124.808563518], [8.254578765, 120.126502429], [10.54913973, 112.748230102], [13.187235425, 104.279286833], [13.194006875, 104.281212988], [13.289835746, 103.949914334], [13.395484684, 103.610755016], [13.38851203, 103.608771628], [15.834288922, 95.153255159], [18.004735092, 87.821765858], [18.966175477, 84.574143323], [19.985322497, 81.131595161], [20.922739845, 77.895505582], [21.023932777, 77.550090742], [21.022294859, 77.5496766], [22.780923068, 71.44140996], [22.975101567, 70.778595533], [23.820257169, 68.146776786], [24.836668598, 64.981666544], [25.568166079, 62.703779753], [26.88821881, 58.423169384], [26.986478657, 58.109061847], [26.985229279, 58.108587996], [28.844519143, 52.079362587], [30.892558232, 45.724057996], [30.897132661, 45.725359203], [30.997007688, 45.39993913], [31.107393344, 45.057399541], [31.102558936, 45.056024382], [33.149504426, 38.386517807], [36.124810935, 29.104155766], [36.198495729, 29.115334334], [36.198495729, 28.880408943], [38.927562666, 19.219916417], [39.029205927, 18.757313746], [39.133609185, 18.163358646], [39.133609185, 17.489602636], [38.780356037, 16.819711317], [38.332522402, 16.310161949], [37.746559185, 15.910133238], [37.063386796, 15.780579897], [27.354023918, 15.334220083], [14.832776131, 14.666401577], [10.74968978, 14.434112853], [5.575478674, 20.321379473], [5.575478674, 14.109271791], [5.220232383, 14.109271791], [5.032912764, 14.002704769], [-1.875282274, 13.645422496], [-1.875282274, 13.7241792], [-17.065273829, 12.755021247], [-17.097402171, 12.901244977], [-28.996181658, 12.217480106], [-33.694299997, 11.913754894], [-37.616842516, 11.660169316], [-37.917122832, 11.640756714], [-37.917507377, 11.642925386], [-45.333513313, 11.215684775], [-52.576179471, 10.687430004], [-52.575356682, 10.682724483], [-52.964273868, 10.659123754], [-57.308099946, 10.342300253], [-60.307280111, 10.21352683], [-60.587916067, 10.19649695], [-60.589263623, 10.201419527], [-65.835814419, 9.976152531], [-66.374861651, 17.581482557], [-62.580965002, 17.692167984], [-63.508575624, 24.86918845], [-64.721996767, 31.458616728], [-67.76100926, 31.026389564], [-68.638646301, 31.151212535], [-69.50350029, 31.520227195], [-70.18029081, 32.033599654], [-70.617026958, 32.778983468], [-71.750084608, 35.357391004], [-71.95980205, 35.328022573], [-74.499332843, 49.553264586], [-91.028661097, 46.062102713], [-89.503009948, 39.016389385], [-89.486136242, 39.019233691], [-89.198170235, 37.271764565], [-86.29237712, 38.04322034], [-82.294429586, 22.063741548], [-79.750608774, 22.170940937], [-79.652984578, 19.282919727], [-77.799418202, 19.393920014], [-77.799023655, 19.385839456], [-74.775080439, 19.496828854], [-74.71808882, 18.740296786], [-74.455996895, 15.261172126], [-74.429867938, 14.914324744], [-74.430596786, 14.914272913], [-74.063933093, 9.907951675], [-74.063933093, 9.232056579], [-84.830030091, 8.569906982], [-84.828185483, 8.562684598], [-100.800844785, 7.854612768], [-100.554910637, 1.697427567], [-76.530541823, 2.55165117], [-76.530743976, 2.564071791], [-76.181221597, 2.564071791], [-75.830854027, 2.576529652], [-75.830146399, 2.533051768], [-70.006412392, 2.645361936], [-66.491662553, 2.787133464], [-66.150978918, 2.806515118], [-66.150693233, 2.79773864], [-59.557137195, 3.00906852], [-50.758605221, 3.454004225], [-44.821152436, 3.876234865], [-41.369821381, 4.121669696], [-41.01671641, 4.146780083], [-37.838325309, 4.372805309], [-33.542845829, 4.678270146], [-25.075467462, 5.280411623], [-25.077520198, 5.327124083], [-24.737760439, 5.346214546], [-24.379063163, 5.377609098], [-24.378570447, 5.366396758], [-16.811055024, 5.791601252], [-6.967847074, 6.545426918], [-6.967966112, 6.553147176], [-6.635498604, 6.570879271], [-6.270362877, 6.598842582], [-6.270191551, 6.590362858], [-0.369595928, 6.905070067], [0.450258345, 6.947471794], [3.939438648, 7.127927364], [4.286061371, 7.145854211], [4.286099723, 7.145068747], [14.903214157, 7.670297171], [18.418962913, 7.907261262], [18.760472762, 7.93081115], [18.760625441, 7.928408035], [28.810193745, 8.552107728], [28.809696603, 8.55695113], [29.176207549, 8.5748234], [29.509566068, 8.595512409], [29.510016891, 8.591101034], [36.022182677, 8.908655497], [42.066725708, 9.374929297], [43.923697164, 3.489049905], [44.89085018, 0.423549903], [45.004569657, 0.063103262], [45.003811593, 0.062934138], [48.326419454, -10.543454104], [48.330180479, -10.543056027], [48.412803326, -10.819207645], [48.5398529, -11.224773743], [48.534321351, -11.225359217], [49.977760291, -16.049787461], [50.701607662, -18.291810832], [51.739602821, -21.50686624], [51.849278392, -21.846572099], [51.848022043, -21.8469267], [55.749068043, -34.080271517], [60.401226909, -48.383364403], [58.640791723, -50.887164272], [55.736124936, -51.123232664], [55.457291937, -51.14589401], [55.457211737, -51.145632421], [47.421982886, -51.790989583], [42.537676203, -52.202649626], [42.73370831, -53.094838408], [35.009310153, -53.713774583], [35.009310153, -53.381954737], [26.708295556, -53.672569301], [26.708295556, -53.684608209], [26.364420346, -53.684608209], [25.901076319, -53.700829662], [16.190964491, -54.129888209], [13.322810168, -54.129888209], [5.410756265, -54.981467549], [5.411410143, -54.988386641], [5.063793351, -55.018811386], [4.712396316, -55.05663247], [4.711780084, -55.049620927], [-0.027213771, -55.464395717], [-1.876939057, -55.626290719], [-5.128376093, -55.910868871], [-5.489312023, -55.942459358], [-5.489358104, -55.939523204], [-14.899517044, -56.689010987], [-24.558352806, -57.550965118], [-24.558352806, -57.557949406], [-24.880992679, -57.579757488], [-25.258352806, -57.613433091], [-25.258352806, -57.605264257], [-35.126637279, -58.272287697], [-35.420234559, -50.143548462], [-35.423789514, -50.143765151], [-35.433247081, -49.783274674], [-35.445508739, -49.443789842], [-35.442158916, -49.443585657], [-35.637842604, -41.984785164], [-30.639394141, -41.685454522], [-30.639394141, -35.952648209], [-25.957812297, -35.952648209], [-26.152538303, -31.189084537], [-26.017061415, -31.180160243], [-26.529981506, -20.286193582], [-26.714512823, -14.302291208], [-26.725909533, -14.303101663], [-26.725909533, -13.613962842], [-34.63557567, -13.716232085], [-34.63557567, -16.850988499], [-41.285043383, -16.602928577], [-41.510709602, -12.623068457], [-48.67155666, -12.924834378], [-48.571280087, -13.609408209], [-52.80881795, -13.609408209], [-52.712023704, -15.041142594], [-58.089312456, -15.267747419], [-57.814170491, -26.068287899], [-75.335815591, -26.511316664], [-75.335815591, -29.72996273], [-75.189607155, -35.053397873], [-71.595334368, -34.951157929], [-68.415188849, -34.701613114], [-67.940683677, -41.396329673], [-59.697017353, -41.940081669], [-59.697017353, -37.845088209], [-57.64858079, -37.845088209], [-57.549891299, -39.41714598], [-54.887858515, -39.529326951], [-54.887858515, -45.740888343], [-51.184828133, -45.627014203], [-50.98871555, -50.312928209], [-48.659677281, -50.312928209], [-48.198018282, -54.909128209], [-50.355241198, -54.909128209], [-49.966284586, -59.334713527], [-56.080122102, -59.788390644], [-59.32385743, -60.029091921], [-59.697017353, -60.056782241], [-59.697017353, -60.056189191], [-73.115589558, -61.030728279], [-82.289420538, -61.755594398], [-82.283006203, -61.77967876], [-82.702258127, -61.809870458], [-82.992597891, -61.8352821], [-82.993774683, -61.830863515], [-90.47143, -62.369353852], [-91.336857025, -62.246267465], [-92.223864603, -61.867800344], [-93.122840383, -60.972795052], [-94.80949924, -54.312401366], [-98.33104463, -40.8449406], [-99.459023261, -36.62797336], [-100.386007243, -33.162428025], [-100.473786079, -32.834265357], [-100.473323749, -32.834130403], [-102.635417399, -24.705267171], [-104.217917161, -18.928395822], [-104.987107727, -16.120487066], [-105.095637398, -15.724302523], [-105.091966375, -15.724034771], [-109.695754406, 1.66244337], [-104.2265449, 1.797724209], [-114.155759224, 11.906062422], [-114.166435184, 11.902591791], [-114.257222878, 12.186664319], [-114.80338333, 12.963447514], [-115.842420287, 17.146709206], [-115.958934826, 17.511280419], [-115.934159099, 17.516058395], [-117.116925263, 22.277987552], [-120.050766367, 33.903966273], [-119.170306638, 34.015276879], [-120.689361552, 40.030091915], [-121.520576108, 43.32135003], [-121.607170889, 43.664228741], [-121.606228567, 43.664443178], [-123.889134389, 52.807685252], [-124.671625392, 52.696394539], [-128.700800414, 68.788692261], [-129.543037274, 72.152538764], [-129.628119592, 72.492352741], [-129.627472869, 72.492507656], [-130.814135862, 77.270125819], [-133.766017005, 89.137457037], [-133.648305241, 89.941058423], [-128.95961813, 97.943307596], [-135.122946565, 96.296849075], [-137.471159246, 104.868934127], [-137.475823488, 104.867694763], [-137.563562517, 105.206249699], [-137.655932857, 105.543445055]]]}, "properties": {"id": 0, "height_median_m": 6.0, "building_count": 365, "area_m2": 36685.09215416424}}, {"type": "Feature", "geometry": {"type": "Polygon", "coordinates": [[[-186.36826365988972, 311.1194586729806], [-186.3600411724608, 311.12257721444223], [-187.92441024924312, 317.68615762971365], [-183.981459331068, 319.2466192117052], [-180.8899890964748, 320.47009894377993], [-180.54780119678807, 320.6055231685204], [-180.5476800022868, 320.6051596238455], [-168.76010159100855, 325.25610162883123], [-153.40041475023077, 331.3784065704952], [-141.9539552249296, 335.94233398858455], [-132.68064767273933, 339.6809685404126], [-129.52376911433473, 340.9536983822681], [-129.19489268589538, 341.0862884825883], [-129.19447067765256, 341.08514523260834], [-121.67036113567332, 344.08900606887767], [-118.36189978342593, 345.40984774839853], [-118.05412738585039, 345.53272015561214], [-118.05308597391647, 345.53021251643764], [-114.94806030257872, 346.7415020255851], [-105.85091987366883, 350.30307205057795], [-99.37411189290594, 352.90840618993263], [-96.16261990325043, 354.2002477488865], [-95.83783325168774, 354.33089509150284], [-95.83752303028388, 354.3300957117832], [-90.24351672937735, 356.5645866433027], [-86.95594862613231, 357.8777852201908], [-86.64644540069524, 358.00141435346563], [-86.64538922120593, 357.99882600963133], [-83.5430092872181, 359.20908340045355], [-72.45091464182738, 363.6037882191433], [-61.65882629174393, 358.9087461691274], [-63.682182333153634, 366.1031016195201], [-48.032303449402946, 372.45449357185606], [-33.948363792269355, 378.232157141355], [-33.94943266169912, 378.2355561800301], [-33.64907796383143, 378.35493335809036], [-33.29844143765735, 378.49877520438696], [-33.29718887390861, 378.49479308674927], [-19.36379543816281, 384.03267613293224], [-13.006024664015408, 386.59237516325555], [-1.8550999691240366, 391.155469498999], [4.467162626762362, 393.74985591074613], [6.554884876150668, 387.0803787329951], [7.71357450706585, 383.4733931247341], [7.812817188325175, 383.17227508105975], [7.808959199902358, 383.17071266115846], [9.08120089107548, 379.1381998707493], [11.707324488719621, 370.9211217673617], [11.711919607340482, 370.9228994130467], [11.821142042007988, 370.56498935769673], [11.920802987544509, 370.25315263604904], [11.916779408989392, 370.25159609362936], [14.266929421724214, 362.55040976044427], [17.195225997220415, 353.474007988006], [15.981951364063523, 352.86046335909316], [22.23838249391191, 334.02348158815454], [20.765856058000725, 331.3706785021175], [3.7815902811828632, 325.15911664628675], [-3.923819710916897, 322.2723264450439], [-3.922681545265831, 322.26891231274203], [-4.241505450572109, 322.1533071999614], [-4.5797678253140175, 322.02657902977245], [-4.580979710419075, 322.03021429681775], [-9.930532209719537, 320.0904738642005], [-13.160261284901875, 318.9193785110191], [-13.483085032513682, 318.80232306087936], [-13.484042541969625, 318.80516513922004], [-21.654748352071493, 315.9199802805036], [-27.794564275353775, 313.48548571027175], [-27.784373990121395, 313.45603909836865], [-28.120288551874637, 313.35633298118483], [-28.44591824705178, 313.2272177544874], [-28.501916990299755, 313.38903591971837], [-47.35726705080099, 306.32190292381074], [-47.480682750859614, 306.7908646144535], [-72.92576916740329, 297.6619624080954], [-83.12350508118509, 293.9857387587318], [-90.97881532325518, 313.3322170366255], [-93.36606784135803, 319.1189862600267], [-88.62855891036206, 320.915780497069], [-83.61234889348836, 322.88745936401415], [-89.87901900365401, 337.6761817018065], [-99.24291545330891, 333.8318356735345], [-104.10411939552893, 344.0806832149387], [-112.1920841566861, 340.8840033618278], [-107.01939801696926, 328.17125537160535], [-110.91277504840343, 326.828854944766], [-111.09251178475967, 327.2787685137745], [-114.62467204155332, 326.05076349145384], [-115.69160887170138, 328.5890662211364], [-122.36389058701661, 325.7298223003655], [-121.14401884060524, 321.843473614841], [-132.20022309665924, 316.9258941927541], [-135.34502720474117, 315.73316485337176], [-131.7943666319149, 307.6532141289178], [-123.43280800182363, 311.1416297997216], [-122.4597429491802, 308.70587192596554], [-116.97684529184717, 311.03208968881324], [-114.02685899179731, 303.67970714932517], [-107.51304025848975, 306.2207876846029], [-103.32927216521612, 307.8765550308867], [-103.33094227507004, 307.8811699647207], [-103.01099694696074, 308.00251557692314], [-102.67810561830771, 308.1342605923151], [-102.6763588122217, 308.1294337274901], [-99.4623375780575, 309.34841503469033], [-98.67837504270149, 307.45291497668876], [-98.67278168028314, 307.4549739764064], [-98.54860903503271, 307.13916085711065], [-98.41063189941485, 306.8055535011829], [-98.41657918976328, 306.80336421534156], [-96.90666096790477, 302.96313046204665], [-96.52040451383854, 302.52364419725546], [-96.57787276360426, 302.5010099168884], [-94.34108516500919, 296.5625874508168], [-94.20902139019047, 296.24953866171614], [-94.2211851589518, 296.24426626104423], [-92.15714923851664, 290.764480299968], [-99.92974553610112, 288.0880871228359], [-106.54069500288944, 285.65138251917546], [-106.53879691016661, 285.64639867006247], [-106.87510420003326, 285.528123910971], [-107.19753796752286, 285.40927928062484], [-107.19936808820403, 285.4140846545793], [-117.6382616311794, 281.74286593235985], [-129.64126184719797, 277.4072698111766], [-129.64016473978225, 277.4040450381136], [-129.96597135862115, 277.28998169379753], [-130.3004007763256, 277.16918265521434], [-130.30152424795315, 277.17250622663687], [-138.86942678012358, 274.17292438856157], [-146.76854376814202, 271.3347063605257], [-150.02132347259527, 270.165955725181], [-150.35394755935755, 270.0464411413307], [-150.35394755936602, 270.04644114135505], [-155.59865807917885, 268.16197329914695], [-173.7665398018606, 261.6879043472075], [-175.8616412624039, 269.8430998026463], [-175.89722812731628, 269.8835908757955], [-177.64473957659405, 277.06369000725346], [-177.6932794199993, 277.0465499431667], [-177.72628001479154, 277.19674350579714], [-177.78641539066234, 277.26516610804765], [-177.78641539066234, 277.47043391649964], [-177.87465326317675, 277.8720254791773], [-179.44964634890644, 283.92016759796894], [-179.44964634890644, 284.1374189064386], [-179.62409155060317, 284.7328751357235], [-179.61271252313412, 284.7372377676299], [-184.52592759844347, 304.2484907896164], [-186.18605402660359, 310.43991026455063], [-186.19639866929253, 310.43598685361087], [-186.28757179153914, 310.8185194211862], [-186.36826365988972, 311.1194586729806]]]}, "properties": {"id": 1, "height_median_m": 6.0, "building_count": 96, "area_m2": 11129.449976697195}}, {"type": "Feature", "geometry": {"type": "Polygon", "coordinates": [[[16.3842949908302, 323.47715724695774], [16.369686200580368, 323.45083904790005], [26.452348335951086, 327.73013266808744], [30.694334927176318, 317.1576401295491], [43.217174792628384, 286.10013113157214], [46.337470722878436, 278.36836111395644], [47.62290515105743, 275.1831879466371], [47.7537779533658, 274.858898718726], [47.75230052776997, 274.85833837576223], [50.94658488463082, 266.84108738519376], [54.71678964157723, 257.5696385736771], [54.73909033475811, 257.57732764663433], [54.85874371376653, 257.27100645372985], [55.00866817259895, 256.9298355038775], [54.99398714254522, 256.9247736203631], [56.81732947658033, 252.25688706786036], [66.8480500098097, 227.50978037518573], [41.12475176624701, 220.84250397619], [31.856054125042544, 218.25980708334532], [31.857370013247397, 218.2535686245467], [31.536535558111574, 218.17077412079078], [31.1803652908797, 218.07152826359354], [31.1788984582694, 218.07848233064124], [22.061732397281297, 215.72570747246638], [21.76781557278274, 215.61423368641033], [10.100704618391674, 212.63414291818074], [8.969460228998555, 212.34519298236367], [7.356046883455184, 211.93308425765983], [6.766199603156326, 211.82122861679622], [-12.697585007960338, 207.18863041443686], [-18.173676370785987, 221.11618661133178], [-23.350617010262894, 219.22950634673725], [-18.684344416977776, 205.35073318991448], [-41.06148485415882, 199.57959060394913], [-63.314045635686504, 193.78130619380613], [-66.6982081489541, 192.8995049065422], [-67.03406816208869, 192.81199084929423], [-67.03426544800215, 192.81275715636468], [-78.33757097033762, 189.89471320952418], [-93.60005586351932, 185.93567062172932], [-97.2203014686039, 184.9965898213801], [-97.53701152911172, 184.91443618609011], [-97.53703371075613, 184.9145031229441], [-114.82870532912791, 180.43305998880638], [-121.71815421329764, 178.56108853720298], [-122.98154097212063, 183.13493138890652], [-116.61621511459717, 184.80628407105024], [-120.7419030458202, 197.24603851255193], [-118.05449715434689, 198.13788400612046], [-114.46601334413617, 199.1586367565752], [-115.5518139797547, 203.173798192425], [-117.506926293992, 211.8495251836286], [-119.3699545783683, 217.73777878779228], [-108.56271326123765, 221.0611793111091], [-108.89687101106965, 222.2018029068482], [-108.75875958012168, 222.24024598181833], [-111.63220779984555, 232.21202793976195], [-111.11755385082269, 232.37029230657095], [-113.09841815441148, 237.87969422941788], [-116.17111275478544, 247.99618772537448], [-126.68499522457088, 244.5633855522788], [-123.9773884764403, 236.00577248435573], [-130.40204475073406, 233.40389561956908], [-131.1210155861791, 235.70931447890283], [-138.35297313673976, 233.10024933496663], [-137.37170820601037, 230.08571939851697], [-147.77865872398502, 226.6479727747438], [-146.99536659329289, 223.0830238358943], [-146.2727240909945, 219.79410579268614], [-146.19746744563653, 219.45159488583815], [-146.2528677319348, 219.4418971977513], [-144.53368503208458, 212.0087079877442], [-147.42496415258785, 211.37606858817384], [-151.68807872142932, 210.44325853119736], [-151.6828615727377, 210.4159523727884], [-152.31155743657345, 210.33647058023354], [-150.91370911696413, 205.67862132903852], [-150.78292361720958, 205.25079549630524], [-150.68483448906878, 204.91597526851479], [-149.4146091077038, 200.68338561022279], [-149.40736556024706, 200.68544605451683], [-149.21214493766536, 200.01320821119273], [-149.21926889925675, 200.01118178338237], [-148.43268512284266, 197.21436146981793], [-148.43389612764236, 197.214069189532], [-146.18232538960012, 189.10151696895946], [-143.5333445301383, 179.3059012329562], [-143.5272083015051, 179.3075168698161], [-143.05214637850972, 177.41566196332366], [-136.19179098245928, 179.3113508101485], [-135.13784901627096, 175.18082404026762], [-142.09307307745837, 173.28598965631565], [-142.09177507293626, 173.2802667390005], [-142.4194945591345, 173.19706158704005], [-142.7690813669183, 173.10182251239092], [-142.77047148761454, 173.1079515710091], [-154.60343102483859, 170.10366516784805], [-155.11623494424126, 172.21314511118936], [-155.9623826374629, 175.69387433423165], [-156.0399547082034, 176.01297627787736], [-156.0371151938679, 176.01372390712962], [-160.27994280743096, 194.14377953021088], [-160.28472256693388, 194.1425038430449], [-160.3627436918477, 194.4975965543382], [-160.4400615121204, 194.82798385966225], [-160.435591408547, 194.8291438533916], [-161.4397781998025, 199.3994369726687], [-162.0253011095103, 202.17532669989464], [-162.31823865697285, 203.28635045685485], [-162.7444911676196, 205.18591091595508], [-163.4946609762409, 208.52898308673397], [-163.572087366234, 208.8740276442395], [-163.57121178199768, 208.8742034527224], [-166.13544478595992, 220.43657865257757], [-167.70072413108073, 227.44922568808315], [-173.0487155156434, 251.22578198817243], [-159.76445192502663, 256.6808056633351], [-147.66035789013873, 261.7775868023436], [-147.66202570042356, 261.7816456657016], [-147.33854704684387, 261.91309462570536], [-147.01519497483517, 262.04925142828165], [-147.01351917701, 262.0451731260611], [-135.35277333013326, 266.7836400928237], [-135.35925983095373, 266.7972654509403], [-135.0025890618098, 266.92594116082745], [-134.70316670186295, 267.0476145923857], [-134.69762046932442, 267.0359643349315], [-122.96270331121524, 271.26955712250697], [-99.80826487747885, 279.72202044508606], [-99.80949790775693, 279.72549442536774], [-99.4806793795777, 279.84160461958214], [-99.15068158480798, 279.9620693963378], [-99.13742549379538, 279.9247212471413], [-73.09387015538705, 289.5188843130481], [-73.0954536271297, 289.5235523259906], [-72.77149660424098, 289.63764322970303], [-72.436802371819, 289.76094095159044], [-72.43515838192724, 289.7560945335046], [-68.66160184742296, 291.0850624052077], [-57.02154753561263, 295.3142913991977], [-48.84577578599497, 298.337594422046], [-48.83547459466067, 298.30318822190543], [-22.520357660242638, 308.0488823126422], [-20.226853803689497, 308.89827192537297], [-19.76433416104951, 309.0695641510302], [-19.76433416104951, 309.0666240982883], [-12.898486862239592, 311.5664725283794], [-8.159705425864862, 313.3637493883284], [-8.147669220267302, 313.3285339075779], [1.1798427717080604, 316.9059266627689], [16.3842949908302, 323.47715724695774]]]}, "properties": {"id": 2, "height_median_m": 6.0, "building_count": 96, "area_m2": 15400.271444721902}}, {"type": "Feature", "geometry": {"type": "Polygon", "coordinates": [[[-87.37381599248411, -82.6992443521613], [-88.64661640655258, -77.68622907191227], [-88.93813455621348, -76.47002462163013], [-90.53027855256484, -71.27689576317664], [-84.5192606197607, -70.79693833412827], [-79.14679198181874, -70.36030648390673], [-74.92661317878375, -70.01732365734883], [-74.64277079562785, -69.99425518859064], [-74.64255264763003, -69.9950457861648], [-66.41978621174616, -69.34980841753594], [-59.500459275239834, -68.76228035924927], [-59.30452708613348, -73.88975104459017], [-51.92125148769697, -73.22066387051447], [-48.51501050739193, -72.91198351294855], [-48.16159592757501, -72.87995637819864], [-48.16154592351728, -72.88071023817245], [-39.35442103094693, -72.10131231429075], [-38.745551666758786, -82.0311210323443], [-37.57358015962961, -97.36614476920533], [-33.18550745563155, -96.79878217260068], [-32.98913892768742, -101.15566675408942], [-30.42857971687029, -100.9315568601483], [-30.42857971687029, -101.49340196450765], [-23.595121847299158, -101.0946751266565], [-23.595121847299158, -100.43552363784221], [-19.009562881272796, -100.0442116932484], [-18.813860518930305, -102.60493979632912], [-18.80688952629587, -102.60435226583223], [-18.786718829880783, -102.96008362332374], [-18.76051729337733, -103.30292573348117], [-18.767246819960715, -103.30349291269147], [-18.57212804825596, -106.7446168135348], [-22.48201921424513, -107.18948794835951], [-22.481685588529363, -107.19442278100821], [-22.816757015488765, -107.22757473369086], [-23.178261394952994, -107.26870704574478], [-23.178621698321496, -107.26337760996608], [-31.48009382230745, -108.08472490760968], [-31.47980145095476, -108.08860597483829], [-31.82229824540419, -108.11858259862572], [-32.176883803140285, -108.15366527857456], [-32.17718675264111, -108.14964379230796], [-36.90931847268322, -108.56381798191558], [-43.11694896839897, -109.19633449021757], [-42.921181195784804, -111.31242560360324], [-47.85488918687836, -111.80056646205033], [-44.80862288505559, -122.84866702557865], [-39.937606133429114, -122.07274654054345], [-37.106972015315456, -130.12455258140153], [-36.09660769620637, -129.9763616818585], [-35.4294401272081, -132.50672702918646], [-35.330047004113, -132.8836951645234], [-35.330394963859774, -132.88374640018216], [-29.212734835900314, -156.17055846281212], [-21.979835518070555, -155.24826879837812], [-21.78500324237195, -156.35667887695527], [-17.84479408581348, -155.7962779464274], [-17.747173119446376, -156.7959445195436], [-15.502549939823258, -156.46282013724095], [-14.837418424092453, -162.3279656022852], [-9.089412199462474, -161.36116286850745], [-3.5459700441089637, -184.06773517795673], [-50.00471059959237, -194.12039866822977], [-55.12698451790848, -176.34447415400308], [-55.967230491606365, -173.42855258478983], [-56.07752604202346, -173.0457918402973], [-56.07610147011839, -173.0455964136674], [-57.14938066017768, -169.27101758475388], [-48.97518185458805, -167.92634079475553], [-49.519314457638856, -163.69569258640638], [-50.37742894740343, -156.47054847448845], [-55.196371357319485, -157.13921170561989], [-57.73254411829636, -148.3711795039368], [-59.20175028454386, -148.70551485318774], [-63.42119912073643, -133.83434450941718], [-61.43945859881398, -133.69341680862127], [-49.25270930331783, -131.9059770639185], [-53.91330024733814, -112.30144698571205], [-45.840850601669004, -111.22086934226776], [-46.320184901737186, -105.22156697735245], [-37.66686202931377, -104.55780295171658], [-38.552557639676195, -92.66631888297516], [-47.24100256720242, -93.34035037765533], [-47.713957020415165, -87.77965227680592], [-58.4646953381743, -88.82514734439128], [-58.234521027721414, -93.74876430312666], [-58.03169216225421, -94.64880868932123], [-57.8827873310918, -95.07237202155656], [-57.93565933633225, -95.0749502331414], [-57.049188106307135, -99.00862827383469], [-54.33106732361349, -110.5776309035265], [-65.95967146273931, -113.81023808371096], [-64.59135483144331, -118.81450703715842], [-71.0521408728431, -120.55884624242871], [-72.22675653344001, -115.54701298790441], [-73.4835255144519, -115.87700461070112], [-76.91268239278176, -103.70733135270012], [-77.68850455306226, -100.95403002181186], [-77.80246210287531, -100.5496081199528], [-77.80009418642739, -100.54943973008713], [-80.23828030704955, -91.7131265321769], [-84.97023851926912, -92.83480716758028], [-85.42075248697735, -90.14366201727863], [-87.37381599248411, -82.6992443521613]]]}, "properties": {"id": 3, "height_median_m": 3.0, "building_count": 33, "area_m2": 3811.34368054321}}, {"type": "Feature", "geometry": {"type": "Polygon", "coordinates": [[[-35.62447576522057, -211.52355441338273], [-37.65917439589786, -203.4816300074897], [-27.30262017996311, -200.6249546456695], [-27.015398097379823, -201.70340790102583], [-21.567850797666484, -200.38246487585457], [-15.920066990420512, -198.96654406969472], [-16.125802934574452, -198.01347022143594], [-5.103587930760684, -195.34266314790938], [-3.2811667016277264, -196.24984923721377], [-1.886393877461862, -201.62118573119267], [-3.2075104654577378, -202.05066545019884], [-1.6755478788853762, -208.09334832536805], [-1.5865252589882832, -208.43297036389208], [-1.5892686678127228, -208.43366858893165], [-0.20811983116033372, -213.8814807590528], [0.4362140438499038, -216.3099712667708], [1.3567890283120385, -219.77961285805512], [2.8312107587570248, -225.33669951084337], [2.8365668997579117, -225.33520176697306], [2.922869803715252, -225.68216190247765], [3.0107415072581096, -226.0133498258114], [3.005606681125086, -226.01478568315056], [4.389979357858226, -231.58032414690362], [5.957347559733793, -237.24513520531767], [5.967897926688972, -237.24205717766517], [6.053413009220375, -237.5923367243557], [6.144031854816586, -237.91985302717458], [6.134079659941071, -237.9227565404988], [7.5217841348097005, -243.60695259116517], [9.086255507603779, -249.72594460587217], [10.645797806009975, -255.57123138147998], [12.619460223409332, -255.06595971161798], [13.91426954801644, -260.0995514473163], [13.19160897549142, -261.4699682320083], [1.7428645165217898, -264.37766696243347], [1.044593276684591, -261.59691816449407], [-4.372217631909234, -262.9549331895506], [-9.791126859152186, -264.41797743127466], [-8.9253301544195, -267.7673572916866], [-21.057953420979107, -270.83504931901115], [-22.589448649802442, -264.36272136289205], [-20.624117567545575, -263.88078765733644], [-22.114941826480646, -258.36789709811444], [-23.683763962319684, -252.80283242548222], [-23.687347237054666, -252.8037991567559], [-23.778172784725164, -252.46793709837584], [-24.28050630209057, -250.68601520455056], [-25.344271411948434, -246.67669089005545], [-25.43383762500716, -246.34548570108876], [-25.432268154702847, -246.34503169475744], [-26.909186533853305, -240.77853518798273], [-28.57162798990512, -234.88137577987337], [-30.139964608058108, -229.3180333785305], [-30.143576813310876, -229.319051093184], [-30.235422387462684, -228.97941709835652], [-30.32989571976748, -228.64429293602814], [-30.3263207668477, -228.64328571697013], [-31.8013700166774, -223.18872926268867], [-33.27556064078235, -217.7373479052894], [-33.279627283612506, -217.73843662643802], [-33.36724495160325, -217.39831024312923], [-35.00995084949944, -211.32377947278331], [-35.62447576522057, -211.52355441338273]]]}, "properties": {"id": 4, "height_median_m": 6.0, "building_count": 42, "area_m2": 2254.388316389007}}, {"type": "Feature", "geometry": {"type": "Polygon", "coordinates": [[[-25.774951265722716, -71.38410280610348], [-25.772341938747136, -71.38387442786929], [-26.164449435073905, -66.14168668373878], [-21.994473249389976, -65.89837188573028], [-9.669615216148108, -65.11929740418577], [-0.9156868672238975, -64.47669721621214], [2.4745250253091036, -64.22783171119806], [2.821315580249893, -64.20237483436404], [2.8214319322022816, -64.20528733423278], [14.048110073711467, -63.4723631702303], [14.047707105788309, -63.46668922363809], [14.402165712560732, -63.449248948031794], [14.746634505498646, -63.42676059494047], [14.747026562166727, -63.43228090677666], [32.837960642043804, -62.542160395382126], [33.360462967761215, -67.89273342581673], [33.679378166094565, -75.06939172158108], [33.67937816609453, -75.06939172158108], [34.25660912556752, -88.05901835437524], [20.509138959999394, -88.97241994705166], [16.40119147096028, -89.19499431468414], [7.734607547653996, -89.83118280472245], [4.258185065320066, -90.08637677611222], [3.920773275384271, -90.1111451853332], [3.9205826342221113, -90.10821685541504], [-2.5799555858619985, -90.53086639858408], [-4.260446079984496, -90.63909723238395], [-7.766437158270907, -90.86489817504028], [-8.112527356871547, -90.88718787611], [-8.11255529401895, -90.88677464313487], [-20.43715583733029, -91.66583284829677], [-21.40882680790949, -78.87273369618615], [-25.130379912974984, -79.20702989438864], [-25.457480020702437, -75.23713535530638], [-25.747441308652657, -71.71798110746381], [-25.774951265722716, -71.38410280610348]]]}, "properties": {"id": 5, "height_median_m": 12.0, "building_count": 25, "area_m2": 1473.1189310892623}}, {"type": "Feature", "geometry": {"type": "Polygon", "coordinates": [[[41.165683645988075, -91.18083857355724], [47.23661333945907, -89.29695815566603], [45.01239626708453, -83.12829077719098], [44.921080632644625, -83.15592370197544], [43.42747296795564, -78.78593254970829], [42.224212355238244, -62.12877591559159], [52.85592866765318, -61.66794285199945], [55.10514687238103, -61.5566740757188], [64.36811399547179, -61.098435289809395], [65.82970098622133, -65.3113878161411], [65.83529295986148, -65.31074512919348], [65.92275933529119, -65.5796239247624], [66.06477552902983, -65.98897860975754], [66.05624162723811, -65.98995941325319], [71.50023984984891, -82.7252554396801], [74.1560686552642, -90.74472011478352], [64.09832737251853, -93.84408090071912], [62.78866973829224, -90.03594301921903], [59.46970158373688, -94.56756725137609], [58.962657535211626, -94.85602702132526], [58.28608811099062, -94.98432820879844], [57.3945971670747, -94.98432820879844], [54.808487153614465, -93.80732798209898], [47.792230886954265, -95.80311875638381], [47.814889614969296, -95.89921275314433], [47.48410579461264, -95.97448654849691], [47.138714580927385, -96.08166547772633], [47.130068246791105, -96.04499701143241], [43.362484334129284, -97.17973628234303], [41.165683645988075, -91.18083857355724]]]}, "properties": {"id": 6, "height_median_m": 6.0, "building_count": 7, "area_m2": 845.783609753931}}, {"type": "Feature", "geometry": {"type": "Polygon", "coordinates": [[[-8.308277519952266, -108.48798639192763], [-8.549760921876375, -104.77869789056508], [-0.3471988645920776, -104.08220885297945], [-0.3786835337659887, -104.01000199797065], [4.4672375518368055, -103.61616377724405], [6.232170987732999, -107.63247986992417], [10.711211310656159, -118.4041936058247], [6.1855369042031905, -119.06436737154921], [1.1651751779910653, -107.55068338605092], [-8.308277519952266, -108.48798639192763]]]}, "properties": {"id": 7, "height_median_m": 3.0, "building_count": 2, "area_m2": 106.23869055316135}}, {"type": "Feature", "geometry": {"type": "Polygon", "coordinates": [[[9.155529973197513, -395.3756974803577], [7.149640661181744, -387.2607821623045], [20.547097582542975, -383.9775120954982], [22.47849850982812, -391.6689942895063], [9.622927144187333, -394.84388853472154], [9.155529973197513, -395.3756974803577]]]}, "properties": {"id": 8, "height_median_m": 3.0, "building_count": 1, "area_m2": 109.79241935763993}}, {"type": "Feature", "geometry": {"type": "Polygon", "coordinates": [[[-4.451200146894107, -278.97560885799425], [1.6333075029149224, -277.3340702473522], [5.038878760357441, -276.4152815741947], [5.372010958620609, -276.32540587719984], [5.37214304680478, -276.32588205490504], [17.40704935309113, -273.0973495818322], [35.887156395221766, -340.4507082472069], [32.664377611963, -341.3396557248601], [33.25185961140677, -343.34498354008434], [31.18410312888642, -343.9051532989346], [31.57950267682921, -345.4797660794081], [24.376577493009705, -347.0699487360411], [24.085125556301204, -346.29617623756303], [14.21438386767529, -348.67196972379605], [1.26019798115247, -352.0997362084957], [-17.51155608831983, -282.2905759212788], [-4.451200146894107, -278.97560885799425]]]}, "properties": {"id": 9, "height_median_m": 6.0, "building_count": 3, "area_m2": 2622.213756634987}}, {"type": "Feature", "geometry": {"type": "Polygon", "coordinates": [[[10.558700755413039, -202.7003888392524], [8.66823181960475, -196.12790860396677], [9.47676892926945, -194.4194092108261], [13.000519838532744, -193.38473636114549], [13.68729216371043, -195.84061547606893], [17.860574588764045, -194.8164506783404], [22.516965696888082, -193.66469283482735], [22.22584929457232, -192.33975279130186], [25.72747075012971, -191.45437986021994], [25.725644332625635, -191.44795069130896], [26.079940788332586, -191.3652590244006], [26.406401657477335, -191.28271451744382], [26.40809330153548, -191.2886692705946], [30.229977708834063, -190.39665359479548], [30.523188738806255, -191.50871458842255], [34.88664600017496, -190.4743847625909], [39.63533714236237, -189.33142004510026], [39.2477444405646, -187.67764506371853], [43.16655723982106, -186.5310804295361], [44.08470211498923, -187.2772761218146], [45.77607806181729, -194.06950071834433], [46.641321314681356, -197.5151877204076], [45.47698096332579, -197.8463871011833], [45.478243650395385, -197.85085682628753], [45.474432123272656, -197.85188681434113], [46.94817634290636, -203.3016174211708], [48.518042256598925, -208.97545575531979], [48.521625074330224, -208.97447436026255], [48.61162947226706, -209.31370039596885], [48.70470904376672, -209.65011029970304], [48.70114566027667, -209.65108637138923], [50.17749810116566, -215.21544986148865], [51.74219981490157, -221.11280122945345], [53.3105411532193, -226.67616037458234], [53.31413146471236, -226.67518130329174], [53.40520471026767, -227.01195931895015], [53.500479204930436, -227.3499254352729], [53.49686572236283, -227.35091082527256], [54.97103353857847, -232.80220784302392], [56.63380333393175, -238.92311023394697], [58.12005654784327, -244.2077134832552], [59.884564906039124, -243.69698929663627], [60.571781352047665, -246.82467492331028], [59.999395516771784, -248.6482198521117], [49.186615191894624, -251.9436352820699], [49.188219797408514, -251.9497763920932], [48.861901384566764, -252.0425984403731], [48.51647952152907, -252.14787280118483], [48.514772585102186, -252.14134005259984], [43.383605809199906, -253.60091264017524], [37.61624874562453, -255.3804797478835], [27.269641902569784, -258.6631870736676], [26.148118804988496, -257.8124673106694], [24.95490450840174, -253.24582447333486], [25.8250731454082, -252.99607301215735], [24.358154412285025, -247.57158224155398], [24.26261294335572, -247.24545826597398], [24.269387953134142, -247.24333444857768], [22.791761425695306, -241.7792475286395], [22.70253333143229, -241.44929266278422], [22.702533331450642, -241.4492926627788], [21.227129316630226, -235.99342432981254], [19.662940303227472, -230.54948580457457], [19.65590795211814, -230.55163434904625], [19.56366826781099, -230.20398353250138], [19.469605742134245, -229.8766122219212], [19.476269055765464, -229.8745764268588], [17.9982744245115, -224.3040235323655], [16.433370191332735, -218.85759578553004], [16.4263867484983, -218.85965581492405], [16.335043466264775, -218.5153835323382], [16.240057853102424, -218.18479954636052], [16.246804000695104, -218.18280951613232], [14.7691672728361, -212.61360555614993], [13.204393564277161, -206.93853463969745], [11.92599603770675, -202.36701993063383], [10.558700755413039, -202.7003888392524]]]}, "properties": {"id": 10, "height_median_m": 6.0, "building_count": 40, "area_m2": 2184.293179488208}}, {"type": "Feature", "geometry": {"type": "Polygon", "coordinates": [[[29.85597601855272, -176.88702833971143], [29.855886248360243, -176.8858537138564], [26.4848278261252, -177.65297817950503], [26.484736136658267, -177.6525686067043], [9.107892426806055, -181.58502920551467], [8.093154475232378, -181.7499689894465], [2.6437636410669616, -159.47457029350724], [21.601696983866322, -156.24748509904916], [19.773817940033243, -148.47568251035065], [72.09152989944147, -136.10493997333114], [75.20124952147575, -135.36963371918242], [75.56997570526524, -135.2824468657157], [75.57013104323627, -135.2835515220941], [79.3561932140694, -134.3998966420607], [80.387457284565, -138.9630491205898], [78.03781901268246, -139.6314093126106], [82.4897061290104, -159.78523283190975], [85.03385371814908, -159.2285491169292], [86.06357265759674, -163.9150451210317], [85.08661719901492, -164.14306342069946], [81.90693358345607, -164.88519147283563], [81.54561034774443, -164.96952316791314], [81.54545164197646, -164.96852999478756], [33.18536242022061, -176.11934234871813], [30.24769409430494, -176.79670644765852], [30.242075739454222, -176.7980019212957], [29.85597601855272, -176.88702833971143]]]}, "properties": {"id": 11, "height_median_m": 15.0, "building_count": 13, "area_m2": 2217.6499788455167}}, {"type": "Feature", "geometry": {"type": "Polygon", "coordinates": [[[31.069011289333154, -374.797445374881], [22.582475632145265, -376.57327267941946], [20.351649407306734, -368.11242170752803], [23.05097602326541, -367.4725634803663], [37.77595242544083, -364.16730955549264], [41.260818997960854, -379.5612828130955], [32.24087866159248, -381.13091411307596], [31.069011289333154, -374.797445374881]]]}, "properties": {"id": 12, "height_median_m": 6.0, "building_count": 1, "area_m2": 217.14293648306386}}, {"type": "Feature", "geometry": {"type": "Polygon", "coordinates": [[[40.56529923751514, -393.97542859580324], [44.31611508288148, -404.76326104331224], [35.15260751514107, -407.99901740245224], [31.08883462839162, -397.21015205935754], [40.56529923751514, -393.97542859580324]]]}, "properties": {"id": 13, "height_median_m": 3.0, "building_count": 1, "area_m2": 113.18829629981599}}, {"type": "Feature", "geometry": {"type": "Polygon", "coordinates": [[[41.38623538661319, -265.0445397059706], [62.01928035649718, -259.29050177321557], [65.43428042555813, -271.65383671124073], [43.89850594821367, -277.65962322717047], [51.612990739984106, -306.5741169080182], [58.994325855928935, -304.7744269188722], [58.50514027981122, -302.99330691862326], [65.36136231587776, -301.3216480699392], [65.1667403008998, -300.5465983417839], [68.53836019914428, -299.680345817031], [70.78425630798321, -299.12482365402445], [73.08578427520511, -298.4701485526684], [74.91684638578127, -306.06843047170923], [72.07743223687774, -306.73685373068287], [72.46986238549539, -308.4112690607796], [68.94293945591549, -309.1915680920832], [69.3317981849378, -310.9613567298607], [66.29482333149994, -311.74163066755204], [66.68889324299593, -313.6472307604395], [63.07694433673917, -314.4247434274549], [63.56416839262303, -316.5313424494317], [54.83191633045743, -318.6389023288344], [56.13549931956378, -323.5248335502149], [53.48566517670173, -324.3065018982188], [53.77945708098825, -325.5321923804951], [49.579768168944284, -326.75458553794186], [50.168431790183945, -328.987209091053], [45.38749535218499, -330.2823983627925], [28.764550260912184, -270.0511271075137], [41.79722644104564, -266.53245184649643], [41.38623538661319, -265.0445397059706]]]}, "properties": {"id": 14, "height_median_m": 6.0, "building_count": 3, "area_m2": 1292.626482432624}}, {"type": "Feature", "geometry": {"type": "Polygon", "coordinates": [[[52.72186498275242, 1.2196548577826416], [52.78478947841741, 1.2389307280361461], [50.344122659214094, 8.693020711546861], [51.354737196282706, 10.865029168930121], [58.172832736887294, 12.462201450625209], [75.97792576289835, 16.692061658501068], [80.58223870810637, 17.806706563069216], [82.24518940206157, 18.14061028877475], [85.98483833136902, 19.052397741577686], [85.9838804600801, 19.055459771510765], [86.34882941819815, 19.141144710123825], [86.66813576206211, 19.218996808927507], [86.66896041688254, 19.216307015318122], [92.51370584519763, 20.588571936464028], [101.51338525152173, 22.703338133822168], [105.55836738010488, 23.69373212374121], [109.25128606051673, 24.597925109043906], [109.5547666378416, 24.672230836556473], [109.55538596939915, 24.67036189910188], [119.51547283648428, 27.044828509252426], [127.55694990365623, 28.983317719796645], [131.0689238755875, 29.82991885979034], [131.3903308642407, 29.907397658087383], [131.39080717279077, 29.905646747879945], [139.87224173310076, 31.902251622311276], [142.42644604123683, 25.15987237783765], [143.74906673766827, 21.74492876624089], [144.9738476003757, 18.582602942976788], [145.10064382268956, 18.255221139158355], [145.09842714719255, 18.254450480851517], [150.03530329348166, 5.257734684153432], [133.5490656255719, 0.6723973998246451], [131.49427255108162, 7.352291968629707], [125.37582781066618, 5.664625397628382], [120.90260821452794, 4.106562603940138], [122.67170648469074, -2.2676107037767017], [119.69666117265957, -3.019840669847808], [118.41072953143988, -3.45878424459034], [115.9549235786178, 3.0611076071855075], [110.68641811571071, 1.3338627693014313], [109.71375226476663, 3.768621368587206], [107.9479775521179, 3.0989162824464014], [106.49158595718175, 6.904100161958498], [99.34607712415371, 4.672272896069166], [100.50563258149253, 2.253458649362055], [97.38603201041768, 0.9756346197360222], [96.39763574273245, 3.5315588739454524], [91.42116546730894, 2.2121937786896124], [91.07395004523316, 2.0993180618670695], [91.06904787691195, 2.1188401299217987], [81.33122609097745, -0.4628576311665919], [78.03009404728847, -1.2677275088453481], [79.25934244345045, -7.661558430487064], [84.22748659852999, -6.8540153358451885], [84.91516641032338, -9.044871496411286], [79.03837431377787, -10.716538978890563], [83.05547087298028, -24.42861097036912], [100.06147592651075, -18.175388434859386], [99.18467270482381, -15.958421672008118], [106.0036032509079, -13.226504764599765], [104.20422183609028, -9.493095835476327], [103.70093478386023, -7.91832265128679], [108.24631231089379, -6.366790519782454], [111.33074359616475, -13.570491287949098], [111.58163096026881, -13.473016448923552], [113.14349479137378, -17.619591326088575], [120.72195894618999, -15.895021611507559], [120.33605247046827, -14.577757438514876], [123.80547943781421, -13.590870689840887], [136.57740194028224, -9.903643035885128], [136.3758973771809, -9.215821611461717], [140.241747247067, -8.336101462365274], [137.1985540586172, -4.8735273270979045], [151.52472565591077, 0.5599574310683001], [154.03500031386702, -6.421899932776011], [154.5624220687666, -6.242558062792579], [154.75971153127716, -6.915991541410349], [156.22200711912197, -10.909144720848033], [160.272774429214, -21.279398240717775], [130.17058108125244, -30.180037664458474], [125.5697836162573, -31.712183353643017], [122.1509529818756, -32.850713501595415], [121.83046553613751, -32.957441403043234], [121.83028148262972, -32.95693530995086], [114.76103013143178, -35.29870255548932], [114.76294156900798, -35.304203651344096], [114.42122045897479, -35.41126824613238], [114.09863978691757, -35.51812664093813], [114.0967901658617, -35.512915457408916], [107.67257936761057, -37.52568407413986], [96.49754562148983, -41.38561289945265], [96.39749831258688, -41.27177812003214], [85.50281452497609, -44.87405627062307], [85.51386131551766, -44.907443057572614], [85.15454752057305, -44.98920918786143], [84.83820223807918, -45.093807331450144], [84.82317593511813, -45.0483932382154], [69.18174869321824, -50.215253943168285], [67.36412027350856, -44.581423698527644], [66.23429147276588, -41.07946279173958], [66.13386156325967, -40.76817526151218], [66.13500210531893, -40.767745443555334], [63.398825532972374, -32.17947586503327], [58.79894949816282, -17.763617248413013], [57.81899099182173, -14.692460076584094], [57.706061574564345, -14.33854306124492], [57.7081097978546, -14.338076963657592], [55.2782821851343, -6.575703491112918], [52.94003579413139, 0.554380170073693], [52.929397565362066, 0.5511213260366058], [52.83135196675369, 0.8857929693418788], [52.72186498275242, 1.2196548577826416]]]}, "properties": {"id": 15, "height_median_m": 6.0, "building_count": 50, "area_m2": 4400.428120701671}}, {"type": "Feature", "geometry": {"type": "Polygon", "coordinates": [[[58.52437524955393, -386.738612680541], [54.023675815969256, -388.29715921483086], [52.134145069860004, -382.73264473079314], [66.78981629011301, -377.8349859394259], [67.06040489679948, -378.64020608188645], [68.1733416626265, -381.95209386645666], [68.28471870006318, -382.2835307109337], [68.2845153774782, -382.2835985713624], [69.89909449190421, -387.0980242151815], [71.01324240387345, -390.4202412750121], [71.12179171819496, -390.7439185713546], [71.12006514623006, -390.74449482762105], [72.8796601502047, -396.0833853018158], [64.87880485515777, -398.8751097337449], [63.007828230112125, -393.08000224721974], [61.843156731019285, -389.5122252677966], [59.69479847833879, -390.1788859358635], [58.52437524955393, -386.738612680541]]]}, "properties": {"id": 16, "height_median_m": 3.0, "building_count": 3, "area_m2": 211.8937350450507}}, {"type": "Feature", "geometry": {"type": "Polygon", "coordinates": [[[83.37288999344845, -371.6659200497398], [89.31452596642883, -379.6939543168891], [94.84518591569513, -376.3624521206768], [100.07099175625969, -383.7949165924916], [100.07099175625969, -371.2810607456519], [104.34917723492545, -368.1711028917048], [99.05818783032854, -361.6878772923574], [99.05264342470595, -361.6907686778506], [98.87559207235093, -361.46413662649553], [98.52831917035354, -361.03861156945555], [94.85380263445683, -356.30025839916834], [97.16298193660698, -354.29842512850735], [98.14877774083197, -353.4972480997004], [102.07673197255663, -359.3072908784884], [105.40350898227022, -356.9693494424588], [109.95917658615927, -363.7235834581818], [117.20972886521872, -358.07901949699516], [116.09467097055453, -355.7295315791664], [119.83636246485155, -354.0490057256137], [119.14419516395132, -352.2488810702668], [121.99004766979125, -351.1695350558841], [119.57012797489573, -345.11203824851793], [115.2933841273667, -346.7804221856003], [114.7061827839921, -345.3328217623807], [110.69148688337586, -346.8926126990289], [107.50216987416864, -338.78821404123244], [117.833768888431, -334.5740170516486], [117.71332883514934, -334.0715449792793], [125.07416787414046, -331.72647983652973], [124.87072003656276, -330.4533129747559], [129.72263941871722, -329.6830022758403], [130.99771184406345, -333.7715909530188], [128.0754757834319, -334.5474121477743], [129.3266960960051, -338.10653807155114], [129.98751568323246, -341.11408531234275], [126.1031710938411, -342.306687718268], [128.71582072298543, -347.06300386422146], [130.7598962060669, -351.5982524819852], [141.56412964231714, -347.646879772165], [143.63201411131996, -356.1171707765044], [144.4907815266829, -355.6498555137274], [146.02530248541945, -358.48709338903933], [148.52632222140323, -356.51700444022737], [150.50475763304033, -359.2009875693904], [159.68227753328642, -352.88066660981707], [152.96745675919883, -342.9252715217315], [147.7865387541004, -346.59567956793586], [145.56747521699742, -343.41214581934344], [142.88540391063455, -339.564367521348], [156.86202342775647, -329.6977098554472], [161.75844507248584, -336.77777030487493], [168.70943406459946, -346.66389701951914], [169.08757313688704, -346.4034824053107], [174.37452757995393, -353.6915490103457], [178.31313525128726, -358.99845260855164], [176.92649544054186, -359.90001372954356], [177.81256675842184, -361.2442542247999], [167.91732947972568, -367.28850315691346], [164.69774390471795, -362.29312804495765], [159.61867054297258, -365.7383118335187], [154.5482187074364, -358.3496766247953], [147.80272720018357, -363.1970983383722], [147.9185715257251, -363.3289071130698], [145.41808390025588, -364.880768166332], [143.02115141355986, -366.4391982098525], [141.0960267775699, -362.05834797613954], [139.57674060356763, -358.8171137465859], [131.12501190880258, -361.9191967388876], [130.93925743619832, -361.3908137255248], [121.39130992753311, -365.7992901463712], [123.81545705541083, -369.0088525067264], [120.47368522068416, -371.2902323692004], [121.16536054603814, -372.2346260838899], [112.88941439648059, -378.11990747452194], [116.62060441739884, -383.05841479473247], [116.62060441739884, -383.46601865551], [110.02749009525394, -388.22900796979826], [107.39661917631103, -384.57037136571114], [105.73160594055246, -385.907642819289], [98.53910814208668, -388.3739610731261], [94.84507754356204, -383.7038464713117], [90.84763638226904, -386.6837845657071], [90.57050589314203, -386.89399903625264], [90.56874504446695, -386.8916872935222], [82.05342927502454, -393.2395265294997], [77.92162170843939, -387.6723042337125], [81.24868097010862, -385.1114844600527], [75.5699701936878, -377.4247760582013], [83.37288999344845, -371.6659200497398]]]}, "properties": {"id": 17, "height_median_m": 3.0, "building_count": 23, "area_m2": 1936.9439244340736}}, {"type": "Feature", "geometry": {"type": "Polygon", "coordinates": [[[57.470007898930774, -355.01087708221365], [65.41895534038339, -350.187203489635], [71.15602635604301, -359.9194017498368], [54.121164739294755, -370.18747347837234], [49.65422199865901, -362.684691206053], [58.839496034357886, -357.12559964172414], [57.470007898930774, -355.01087708221365]]]}, "properties": {"id": 18, "height_median_m": 3.0, "building_count": 1, "area_m2": 197.53038004938344}}, {"type": "Feature", "geometry": {"type": "Polygon", "coordinates": [[[79.77668652603971, -335.56315028269233], [81.91753226333171, -334.0247031437843], [83.07964382930611, -333.1431954163992], [87.60560567399288, -339.3963812175783], [86.5379425470764, -340.15562950356355], [84.302181612254, -341.80914503700063], [82.02852489137142, -338.72939713589733], [81.83214455210357, -338.3942320095969], [79.77668652603971, -335.56315028269233]]]}, "properties": {"id": 19, "height_median_m": 3.0, "building_count": 1, "area_m2": 31.56121970844442}}, {"type": "Feature", "geometry": {"type": "Polygon", "coordinates": [[[66.80596992142848, -191.02370667453178], [67.5923696640565, -190.80001339797272], [65.15061443146145, -183.24316708057125], [95.85237082375409, -173.2298705583935], [98.00881925422703, -179.92158200434702], [98.79478063050522, -179.69801342223772], [100.66611850261297, -185.70994572989497], [99.8892020117258, -185.93094147245796], [101.0584680212754, -189.47868009666755], [98.76123646976616, -190.23966330910207], [101.72259292510806, -199.28400206080107], [102.80068188143262, -198.94945846064144], [104.876222315539, -205.41270169150454], [103.70169186599213, -205.74679966993432], [105.26192494767825, -210.62873177022462], [103.03053298284811, -211.3809981392902], [105.54012970490759, -218.99551284275253], [105.54664139765828, -218.99366057626946], [106.23150120399379, -221.22006057651322], [107.00616656033141, -220.99970517413237], [108.01134094958996, -224.00190974314967], [107.22086638075778, -224.22676211331154], [108.97805914445813, -229.8915889145264], [82.97437959225232, -238.34508430392788], [81.20942726610708, -232.76680780538157], [80.42767829135862, -232.98917815946578], [79.4317737962283, -229.87301674750498], [80.21190262926926, -229.6511072461864], [77.98150471891903, -222.84527501360813], [77.23096087743737, -220.55506686527067], [71.51082853780304, -202.83769867212143], [71.54578449531755, -202.82603584796004], [68.59169214711703, -193.80388255537855], [67.81114431061725, -194.02591124283273], [66.80596992142848, -191.02370667453178]]]}, "properties": {"id": 20, "height_median_m": 6.0, "building_count": 11, "area_m2": 1741.3905359229714}}, {"type": "Feature", "geometry": {"type": "Polygon", "coordinates": [[[151.76227585337617, -372.35666960283964], [153.53043044172762, -376.2461942700154], [152.5889614388038, -376.6032650650928], [148.37017328632558, -378.0433182477093], [146.82216577256872, -374.65613042205], [151.76227585337617, -372.35666960283964]]]}, "properties": {"id": 21, "height_median_m": 3.0, "building_count": 1, "area_m2": 21.84592222831516}}, {"type": "Feature", "geometry": {"type": "Polygon", "coordinates": [[[103.12006257651414, -304.2138408533228], [106.77224569353615, -301.097224343931], [106.76866455913536, -301.0931496951572], [107.04441190673049, -300.8649693648784], [107.30477672343169, -300.64278519168795], [107.30820257629892, -300.6466831596563], [109.46061911067578, -298.8655631597904], [110.55654798755685, -300.112521457103], [112.59663525335455, -302.1021477630725], [115.69844976562965, -304.9012271795721], [113.64364563626987, -307.0165385070362], [120.26836078479545, -313.0053673514013], [122.03206782785882, -311.2215783337112], [125.66199295566548, -314.57733603774636], [123.38433859451509, -317.1688728280986], [120.93304484236323, -320.0695423824205], [116.99674585974597, -324.14114093904743], [117.24452036603701, -324.37745639187966], [115.4119733103324, -326.4625458575665], [108.1369435510808, -319.50456489783375], [112.0250595393001, -315.67048760067087], [107.19426308461205, -311.19657097338], [107.73801220142164, -310.45415147498636], [102.16701212183537, -305.1433178850576], [103.12006257651414, -304.2138408533228]]]}, "properties": {"id": 22, "height_median_m": 3.0, "building_count": 5, "area_m2": 261.7374046115211}}, {"type": "Feature", "geometry": {"type": "Polygon", "coordinates": [[[132.35478087970134, -309.09091300967174], [147.71861379438104, -306.5270161156629], [150.19199705440556, -313.9908673562087], [134.61357267160417, -316.5563683218795], [132.35478087970134, -309.09091300967174]]]}, "properties": {"id": 23, "height_median_m": 3.0, "building_count": 1, "area_m2": 121.55491330281443}}]}