{"type": "FeatureCollection", "crs": {"type": "name", "properties": {"name": "wgs84_and_EPSG:32628_local_enu_m_section_centroid", "lng0": -17.790235218556465, "lat0": 28.66436420706422}}, "features": [{"type": "Feature", "geometry": {"type": "Polygon", "coordinates": [[[-17.78638, 28.66634], [-17.78641, 28.66619], [-17.78645, 28.66594], [-17.78642, 28.66579], [-17.78646, 28.66527], [-17.78649, 28.66481], [-17.7865, 28.66462], [-17.78682, 28.66464], [-17.78697, 28.66408], [-17.78728, 28.66349], [-17.78719, 28.66283], [-17.78713, 28.66253], [-17.78713, 28.66239], [-17.78699, 28.6623], [-17.7867, 28.66229], [-17.78692, 28.66217], [-17.78689, 28.66191], [-17.78664, 28.6614], [-17.78646, 28.66106], [-17.78631, 28.66079], [-17.78624, 28.66045], [-17.7859, 28.66019], [-17.78582, 28.65996], [-17.78596, 28.65957], [-17.78596, 28.65957], [-17.78608, 28.65958], [-17.7862, 28.6596], [-17.78629, 28.65961], [-17.78636, 28.65962], [-17.78638, 28.65963], [-17.78641, 28.65963], [-17.78652, 28.65964], [-17.78655, 28.65965], [-17.78659, 28.65966], [-17.7867, 28.65967], [-17.78674, 28.65968], [-17.78681, 28.65969], [-17.78693, 28.65971], [-17.78701, 28.65973], [-17.78704, 28.65974], [-17.78709, 28.65975], [-17.78715, 28.65976], [-17.7872, 28.65977], [-17.78729, 28.65978], [-17.7874, 28.65978], [-17.78745, 28.65979], [-17.78753, 28.65982], [-17.78755, 28.65983], [-17.78762, 28.65986], [-17.78772, 28.65989], [-17.78781, 28.65992], [-17.78788, 28.65995], [-17.78795, 28.65998], [-17.788, 28.66], [-17.78806, 28.66004], [-17.78812, 28.66008], [-17.7882, 28.66013], [-17.78821, 28.66013], [-17.78829, 28.66018], [-17.78835, 28.66022], [-17.78845, 28.66028], [-17.78852, 28.66035], [-17.7886, 28.66042], [-17.78864, 28.66046], [-17.78867, 28.66049], [-17.78872, 28.66054], [-17.78879, 28.66062], [-17.78885, 28.66067], [-17.78889, 28.6607], [-17.78893, 28.66072], [-17.78897, 28.66074], [-17.789, 28.66077], [-17.78904, 28.66079], [-17.7891, 28.66085], [-17.78911, 28.66087], [-17.78915, 28.66091], [-17.78915, 28.66091], [-17.78916, 28.66092], [-17.78921, 28.66098], [-17.78927, 28.66107], [-17.78932, 28.66114], [-17.78933, 28.66116], [-17.78939, 28.66125], [-17.78944, 28.66131], [-17.78947, 28.66136], [-17.78951, 28.66142], [-17.78955, 28.66148], [-17.7896, 28.66153], [-17.78961, 28.66155], [-17.78968, 28.66162], [-17.78976, 28.66169], [-17.78979, 28.66171], [-17.78986, 28.66174], [-17.78991, 28.66176], [-17.78995, 28.66176], [-17.79005, 28.66179], [-17.79015, 28.66183], [-17.79026, 28.66186], [-17.79035, 28.66189], [-17.79036, 28.66189], [-17.79041, 28.6619], [-17.79052, 28.66193], [-17.79062, 28.66196], [-17.79068, 28.66198], [-17.79075, 28.662], [-17.79082, 28.66201], [-17.79084, 28.66202], [-17.79087, 28.66202], [-17.79097, 28.66202], [-17.79101, 28.66203], [-17.79103, 28.66203], [-17.79108, 28.66202], [-17.79111, 28.66202], [-17.79115, 28.66202], [-17.79123, 28.66201], [-17.79124, 28.66201], [-17.79128, 28.66202], [-17.79134, 28.66204], [-17.79141, 28.66206], [-17.79152, 28.6621], [-17.79164, 28.66213], [-17.79171, 28.66215], [-17.79178, 28.66218], [-17.79185, 28.66222], [-17.79192, 28.66226], [-17.79197, 28.66228], [-17.79204, 28.66232], [-17.7921, 28.66235], [-17.7922, 28.6624], [-17.79227, 28.66243], [-17.79229, 28.66244], [-17.79234, 28.66245], [-17.79239, 28.66245], [-17.79246, 28.66245], [-17.79259, 28.66244], [-17.79262, 28.66244], [-17.79267, 28.66244], [-17.79277, 28.66242], [-17.79287, 28.6624], [-17.79298, 28.6624], [-17.79305, 28.66241], [-17.79312, 28.66242], [-17.79315, 28.66242], [-17.79322, 28.66243], [-17.79332, 28.66245], [-17.79343, 28.66249], [-17.79352, 28.66252], [-17.79361, 28.66255], [-17.79363, 28.66256], [-17.79369, 28.66259], [-17.79376, 28.66261], [-17.79382, 28.66263], [-17.79388, 28.66264], [-17.79395, 28.66265], [-17.79405, 28.66265], [-17.79414, 28.66265], [-17.79421, 28.66265], [-17.79425, 28.66264], [-17.79429, 28.66264], [-17.79433, 28.66264], [-17.79437, 28.66263], [-17.79441, 28.66262], [-17.7945, 28.66261], [-17.79455, 28.66259], [-17.79464, 28.66256], [-17.79473, 28.66255], [-17.79477, 28.66255], [-17.7948, 28.66255], [-17.79487, 28.66255], [-17.795, 28.66255], [-17.7951, 28.66255], [-17.79523, 28.66256], [-17.79526, 28.66257], [-17.79533, 28.66257], [-17.79543, 28.66259], [-17.7955, 28.66261], [-17.79554, 28.66263], [-17.79559, 28.66266], [-17.7956, 28.66267], [-17.79568, 28.66273], [-17.79573, 28.66277], [-17.79579, 28.66282], [-17.79584, 28.66286], [-17.79589, 28.66291], [-17.79598, 28.66298], [-17.79599, 28.66299], [-17.79606, 28.66303], [-17.79613, 28.66309], [-17.7962, 28.66313], [-17.79629, 28.66319], [-17.79634, 28.66323], [-17.79643, 28.66328], [-17.79647, 28.66331], [-17.79652, 28.66334], [-17.79661, 28.66339], [-17.79668, 28.66343], [-17.79678, 28.66348], [-17.79688, 28.66353], [-17.79692, 28.66354], [-17.79696, 28.66356], [-17.79705, 28.66361], [-17.79714, 28.66366], [-17.79722, 28.6637], [-17.7973, 28.66375], [-17.79733, 28.66376], [-17.79739, 28.66379], [-17.79742, 28.6638], [-17.79744, 28.66381], [-17.79752, 28.66386], [-17.79759, 28.66391], [-17.79767, 28.66396], [-17.79776, 28.66402], [-17.79782, 28.66406], [-17.79732, 28.66414], [-17.79655, 28.6641], [-17.79588, 28.66399], [-17.7951, 28.664], [-17.79473, 28.66403], [-17.79461, 28.66403], [-17.79438, 28.66409], [-17.79416, 28.66416], [-17.79407, 28.66423], [-17.79398, 28.66431], [-17.79396, 28.66441], [-17.79392, 28.66459], [-17.79387, 28.66471], [-17.7939, 28.66517], [-17.79389, 28.6654], [-17.79379, 28.66556], [-17.79347, 28.66566], [-17.79319, 28.66576], [-17.79295, 28.66601], [-17.79242, 28.66667], [-17.79196, 28.66843], [-17.79194, 28.66844], [-17.79188, 28.66845], [-17.79183, 28.66847], [-17.7918, 28.66847], [-17.79175, 28.66847], [-17.79173, 28.66847], [-17.79168, 28.66847], [-17.79161, 28.66847], [-17.79153, 28.66845], [-17.79145, 28.66843], [-17.79135, 28.66841], [-17.79132, 28.6684], [-17.79131, 28.6684], [-17.79126, 28.6684], [-17.79116, 28.66841], [-17.79109, 28.66841], [-17.79103, 28.6684], [-17.79101, 28.66839], [-17.791, 28.66839], [-17.79094, 28.66836], [-17.79089, 28.66833], [-17.79084, 28.66831], [-17.79076, 28.66828], [-17.7907, 28.66826], [-17.79069, 28.66826], [-17.79061, 28.66822], [-17.79056, 28.66821], [-17.79052, 28.6682], [-17.79046, 28.66821], [-17.7904, 28.66822], [-17.79037, 28.66823], [-17.79027, 28.66825], [-17.79016, 28.66828], [-17.79006, 28.6683], [-17.78998, 28.66833], [-17.78993, 28.66834], [-17.78988, 28.66835], [-17.78984, 28.66836], [-17.78983, 28.66836], [-17.78976, 28.66837], [-17.78975, 28.66837], [-17.78971, 28.66837], [-17.78967, 28.66837], [-17.78962, 28.66837], [-17.7896, 28.66836], [-17.78955, 28.66835], [-17.78951, 28.66833], [-17.78949, 28.66832], [-17.78945, 28.66828], [-17.7894, 28.66823], [-17.78932, 28.66818], [-17.78926, 28.66814], [-17.7892, 28.66812], [-17.78916, 28.66811], [-17.78909, 28.66812], [-17.78904, 28.66813], [-17.789, 28.66815], [-17.78895, 28.66819], [-17.78893, 28.66821], [-17.78889, 28.66822], [-17.78883, 28.66822], [-17.78882, 28.66822], [-17.78873, 28.66821], [-17.78868, 28.6682], [-17.78864, 28.66818], [-17.78859, 28.66816], [-17.78854, 28.66814], [-17.78849, 28.66813], [-17.78847, 28.66813], [-17.78843, 28.66813], [-17.78835, 28.66814], [-17.7883, 28.66814], [-17.78827, 28.66813], [-17.78823, 28.66811], [-17.78819, 28.66806], [-17.78816, 28.66801], [-17.78813, 28.66793], [-17.78811, 28.6679], [-17.78807, 28.66787], [-17.78805, 28.66787], [-17.78799, 28.66787], [-17.78795, 28.66788], [-17.78789, 28.66792], [-17.78787, 28.66793], [-17.78786, 28.66794], [-17.78783, 28.66791], [-17.78779, 28.66787], [-17.7877, 28.66781], [-17.78766, 28.66778], [-17.78764, 28.66777], [-17.78761, 28.66775], [-17.78751, 28.66769], [-17.78742, 28.66762], [-17.78735, 28.66756], [-17.78726, 28.66748], [-17.78721, 28.66742], [-17.78714, 28.66734], [-17.78711, 28.66731], [-17.78707, 28.66726], [-17.78705, 28.66722], [-17.78703, 28.66719], [-17.78703, 28.66716], [-17.78703, 28.66714], [-17.78702, 28.66709], [-17.78701, 28.66706], [-17.787, 28.66704], [-17.787, 28.66703], [-17.78698, 28.66699], [-17.78694, 28.66694], [-17.78691, 28.66688], [-17.78689, 28.66684], [-17.78687, 28.66679], [-17.78685, 28.66674], [-17.78685, 28.66673], [-17.78682, 28.66668], [-17.78677, 28.66663], [-17.7867, 28.66658], [-17.78665, 28.66654], [-17.78662, 28.66651], [-17.78662, 28.6665], [-17.7866, 28.66648], [-17.78658, 28.66646], [-17.78655, 28.66644], [-17.7865, 28.66641], [-17.78642, 28.66636], [-17.78638, 28.66634]]]}, "properties": {"cusec": "3800801001", "mun": "008", "nmun": "Breña Alta", "area_m2": 530918.6216633504, "perimeter_m": 3809.107267455386, "coords_system": "wgs84"}}, {"type": "Feature", "geometry": {"type": "Polygon", "coordinates": [[[376.56672727357886, -219.94526961112683], [373.6364130378684, -203.247269610968], [369.7293273902544, -175.41726961083512], [372.6596416259649, -158.71926961107178], [368.7525559780039, -100.8328696108903], [365.82224174229344, -49.625669610851446], [364.84547033038996, -28.47486961086119], [333.58878514843695, -30.701269610776905], [318.9372139691905, 31.637930389236004], [288.65730019914105, 97.31673038912248], [297.44824290661956, 170.78793038910945], [303.3088713780405, 204.18393038903162], [303.3088713780405, 219.7687303892326], [316.98367114538354, 229.7875303892488], [345.310042091626, 230.90073038920664], [323.821071029055, 244.2591303890964], [326.75138526476553, 273.2023303891872], [351.17067056339397, 329.97553038901526], [368.7525559780039, 367.8243303891644], [383.4041271572504, 397.880730389213], [390.2415270409219, 435.72953038896657], [423.45175504668185, 464.6727303890573], [431.2659263422568, 490.276330388879], [417.59112657526083, 533.6911303892128], [417.59112657526083, 533.6911303892128], [405.8698696320719, 532.577930389255], [394.1486126885359, 530.3515303889437], [385.35766998105737, 529.2383303889859], [378.5202700977329, 528.1251303890281], [376.56672727357886, 527.0119303890702], [373.6364130378684, 527.0119303890702], [362.89192750658293, 525.8987303891124], [359.9616132708724, 524.7855303891545], [356.05452762291145, 523.6723303891966], [345.310042091626, 522.5591303892388], [341.40295644366495, 521.4459303888855], [334.5655565603405, 520.3327303889275], [322.8442996168045, 518.1063303890119], [315.0301283215765, 515.8799303890962], [312.09981408551903, 514.7667303891383], [307.2159570260015, 513.6535303891804], [301.35532855423355, 512.5403303892226], [296.47147149471607, 511.4271303888693], [287.6805287872376, 510.3139303889114], [276.93604325560506, 510.3139303889114], [272.0521861960876, 509.2007303889535], [264.2380149005126, 505.86113038907996], [262.28447207670564, 504.7479303891221], [255.44707219303413, 501.40833038924853], [245.6793580736521, 498.0687303889795], [236.88841536617363, 494.7291303891059], [230.05101548250218, 491.38953038923233], [223.2136155991777, 488.0499303889633], [218.3297585393132, 485.82353038904756], [212.4691300675452, 481.37073038921613], [206.60850159612423, 476.91793038898925], [198.79433030054923, 471.35193038919994], [197.81755888864572, 471.35193038919994], [190.00338759307073, 465.78593038901516], [184.14275912130273, 461.33313038918374], [174.37504500192077, 454.6539303890411], [167.5376451185963, 446.86153038894065], [159.7234738230213, 439.0691303892356], [155.8163881750603, 434.6163303890087], [152.8860739393498, 431.27673038913514], [148.0022168794853, 425.71073038895037], [141.16481699616082, 416.80513038889205], [135.30418852439283, 411.23913038910274], [131.39710287677886, 407.8995303892292], [127.49001722881785, 405.67313038891797], [123.58293158120387, 403.44673038900225], [120.65261734514635, 400.10713038912866], [116.74553169753237, 397.880730389213], [110.88490322576438, 391.20153038907034], [109.90813181386088, 388.97513038915463], [106.0010461662469, 384.5223303889277], [106.0010461662469, 384.5223303889277], [105.0242747543434, 383.40913038896986], [100.1404176944789, 376.7299303892227], [94.27978922305792, 366.7111303892065], [89.39593216319341, 358.91873038910603], [88.41916075128992, 356.6923303891903], [82.55853227952193, 346.6735303891741], [77.67467522000445, 339.99433038903146], [74.74436098394693, 334.4283303892422], [70.83727533633295, 327.7491303890996], [66.93018968871895, 321.06993038895695], [62.04633262885446, 315.50393038916764], [61.069561216950966, 313.277530389252], [54.23216133327947, 305.48513038915144], [46.417990037704485, 297.692730389051], [43.487675801993994, 295.46633038913524], [36.6502759183225, 292.12673038886624], [31.766418858805018, 289.90033038895047], [27.859333210844014, 289.90033038895047], [18.091619091462032, 286.5607303890769], [8.32390497208005, 282.1079303892455], [-2.420580559205427, 278.76833038897644], [-11.211523266683912, 275.42873038910284], [-12.18829467858741, 275.42873038910284], [-17.07215173845191, 274.315530389145], [-27.816637269737388, 270.97593038887595], [-37.58435138911937, 267.6363303890024], [-43.44497986054035, 265.40993038908664], [-50.28237974421184, 263.183530389171], [-57.11977962788333, 262.0703303892131], [-59.07332245169032, 260.9571303892552], [-62.003636687747836, 260.9571303892552], [-71.77135080712982, 260.9571303892552], [-75.6784364547438, 259.84393038890187], [-77.63197927855079, 259.84393038890187], [-82.5158363384153, 260.9571303892552], [-85.44615057412578, 260.9571303892552], [-89.35323622173976, 260.9571303892552], [-97.16740751731476, 262.0703303892131], [-98.14417892921826, 262.0703303892131], [-102.05126457717925, 260.9571303892552], [-107.91189304894725, 258.73073038894404], [-114.74929293227173, 256.5043303890283], [-125.4937784635572, 252.0515303891969], [-137.2150354070932, 248.71193038892784], [-144.05243529041766, 246.48553038901213], [-150.88983517408917, 243.14593038913856], [-157.72723505776065, 238.69313038891164], [-164.56463494143216, 234.2403303890802], [-169.44849200094964, 232.0139303891645], [-176.28589188462112, 227.56113038893758], [-182.14652035638912, 224.22153038906401], [-191.9142344757711, 218.65553038887924], [-198.7516343590956, 215.31593038900567], [-200.7051771832496, 214.20273038904782], [-205.58903424276707, 213.08953038908996], [-210.47289130263158, 213.08953038908996], [-217.31029118595606, 213.08953038908996], [-230.00831954139554, 214.20273038904782], [-232.938633777106, 214.20273038904782], [-237.8224908369705, 214.20273038904782], [-247.5902049563525, 216.42913038896353], [-257.3579190757345, 218.65553038887924], [-268.10240460701993, 218.65553038887924], [-274.9398044906915, 217.54233038892139], [-281.7772043740159, 216.42913038896353], [-284.70751861007346, 216.42913038896353], [-291.54491849374494, 215.31593038900567], [-301.31263261312694, 213.08953038908996], [-312.05711814441236, 208.63673038925853], [-320.84806085189086, 205.29713038898947], [-329.6390035593693, 201.9575303891159], [-331.5925463831764, 200.84433038915805], [-337.45317485494434, 197.504730388889], [-344.29057473826884, 195.27833038897327], [-350.15120321003684, 193.05193038905756], [-356.0118316818048, 191.9387303890997], [-362.8492315651293, 190.82553038914185], [-372.6169456845113, 190.82553038914185], [-381.40788839198973, 190.82553038914185], [-388.24528827566127, 190.82553038914185], [-392.15237392362224, 191.9387303890997], [-396.05945957123623, 191.9387303890997], [-399.96654521885023, 191.9387303890997], [-403.8736308668112, 193.05193038905756], [-407.7807165144252, 194.16513038901542], [-416.5716592219037, 195.27833038897327], [-421.45551628176815, 197.504730388889], [-430.24645898924666, 200.84433038915805], [-439.03740169672517, 201.9575303891159], [-442.94448734433917, 201.9575303891159], [-445.8748015800497, 201.9575303891159], [-452.7122014637211, 201.9575303891159], [-465.41022981916063, 201.9575303891159], [-475.1779439385427, 201.9575303891159], [-487.875972293635, 200.84433038915805], [-490.8062865293455, 199.7311303892002], [-497.6436864130171, 199.7311303892002], [-507.41140053239906, 197.504730388889], [-514.2488004160705, 195.27833038897327], [-518.1558860636845, 193.05193038905756], [-523.039743123549, 189.712330389184], [-524.0165145354525, 188.59913038922613], [-531.8306858310275, 181.9199303890835], [-536.714542890545, 177.46713038925208], [-542.575171362313, 171.9011303890673], [-547.4590284218305, 167.44833038923588], [-552.3428854816949, 161.8823303890511], [-561.1338281891734, 154.08993038895062], [-562.110599601077, 152.97673038899276], [-568.9479994847485, 148.52393038916134], [-575.7853993684199, 141.8447303890187], [-582.6227992517444, 137.39193038918728], [-591.4137419592229, 130.71273038904465], [-596.2975990190873, 126.25993038921322], [-605.0885417265658, 120.69393038902845], [-608.9956273741799, 117.35433038915488], [-613.8794844340443, 114.01473038888582], [-622.6704271415229, 108.44873038909654], [-629.5078270248473, 103.99593038886962], [-639.2755411442292, 98.42993038908034], [-649.0432552639583, 92.86393038889557], [-652.9503409115723, 91.75073038893771], [-656.8574265591863, 89.524330389022], [-665.6483692666648, 83.95833038923271], [-674.4393119741433, 78.39233038904794], [-682.2534832697182, 73.93953038921651], [-690.0676545652933, 68.37353038903174], [-692.9979688010038, 67.26033038907389], [-698.8585972727717, 63.920730389200315], [-701.7889115084822, 62.80753038924246], [-703.7424543326363, 61.694330388889114], [-711.5566256278643, 56.12833038909983], [-718.3940255115357, 50.56233038891506], [-726.2081968071107, 44.996330389125774], [-734.9991395145892, 38.317130388983145], [-740.8597679863572, 33.86433038915172], [-692.0211973891002, 24.958730389093375], [-616.8097986697549, 29.411530388924803], [-551.3661140697915, 41.6567303892522], [-475.1779439385427, 40.54353038889886], [-439.03740169672517, 37.20393038902529], [-427.31614475318923, 37.20393038902529], [-404.85040227871474, 30.52473038888266], [-383.3614312161438, 22.732330389177662], [-374.5704885086653, 14.939930389077176], [-365.7795458011868, 6.034330389018834], [-363.8260029770328, -5.097669610955222], [-359.9189173294188, -25.13526961098762], [-355.03506026955426, -38.49366961087739], [-357.96537450561186, -89.70086961091624], [-356.9886030937083, -115.30446961113341], [-347.22088897432633, -133.1156696108546], [-315.96420379202635, -144.24766961082867], [-288.6146042576874, -155.37966961080272], [-265.1720903713095, -183.2096696109356], [-213.40320553834206, -256.68086961092257], [-168.47172058904613, -452.60406961101967], [-166.51817776523916, -453.7172696109775], [-160.65754929347113, -454.8304696109353], [-155.77369223395365, -457.0568696108511], [-152.84337799789617, -457.0568696108511], [-147.9595209383787, -457.0568696108511], [-146.0059781145717, -457.0568696108511], [-141.12212105470718, -457.0568696108511], [-134.2847211710357, -457.0568696108511], [-126.47054987580772, -454.8304696109353], [-118.65637858023273, -452.60406961101967], [-108.88866446085075, -450.3776696111039], [-105.95835022479324, -449.26446961075055], [-104.98157881288975, -449.26446961075055], [-100.09772175337227, -449.26446961075055], [-90.33000763399028, -450.3776696111039], [-83.4926077503188, -450.3776696111039], [-77.63197927855079, -449.26446961075055], [-75.6784364547438, -448.1512696107927], [-74.7016650428403, -448.1512696107927], [-68.84103657107231, -444.8116696109191], [-63.95717951155483, -441.4720696110456], [-59.07332245169032, -439.24566961112987], [-51.25915115611534, -435.9060696108608], [-45.398522684694356, -433.6796696109451], [-44.421751272790864, -433.6796696109451], [-36.60757997721587, -429.22686961111367], [-31.723722917351374, -428.1136696107603], [-27.816637269737388, -427.0004696108025], [-21.956008797969393, -428.1136696107603], [-16.095380326548412, -429.22686961111367], [-13.165066090490905, -430.3400696110715], [-3.3973519711089235, -432.56646961098727], [7.347133560176554, -435.9060696108608], [17.114847679558537, -438.1324696107765], [24.929018975133527, -441.4720696110456], [29.812876034998027, -442.58526961100347], [34.69673309451551, -443.6984696109613], [38.60381874212949, -444.8116696109191], [39.580590154380005, -444.8116696109191], [46.417990037704485, -445.924869610877], [47.39476144960798, -445.924869610877], [51.30184709756898, -445.924869610877], [55.20893274518297, -445.924869610877], [60.09278980504747, -445.924869610877], [62.04633262885446, -444.8116696109191], [66.93018968871895, -443.6984696109613], [70.83727533633295, -441.4720696110456], [72.79081816013993, -440.3588696110877], [76.69790380810095, -435.9060696108608], [81.58176086761843, -430.3400696110715], [89.39593216319341, -424.7740696108867], [95.25656063496142, -420.3212696110553], [101.11718910638238, -418.0948696107441], [105.0242747543434, -416.9816696107863], [111.86167463766786, -418.0948696107441], [116.74553169753237, -419.20806961109747], [120.65261734514635, -421.4344696110132], [125.53647440501085, -425.8872696108446], [127.49001722881785, -428.1136696107603], [131.39710287677886, -429.22686961111367], [137.25773134819983, -429.22686961111367], [138.2345027601033, -429.22686961111367], [147.02544546758182, -428.1136696107603], [151.9093025274463, -427.0004696108025], [155.8163881750603, -424.7740696108867], [160.7002452349248, -422.54766961097107], [165.5841022944423, -420.3212696110553], [170.46795935430677, -419.20806961109747], [172.42150217811377, -419.20806961109747], [176.32858782572777, -419.20806961109747], [184.14275912130273, -420.3212696110553], [189.02661618116724, -420.3212696110553], [191.95693041687773, -419.20806961109747], [195.86401606483875, -416.9816696107863], [199.77110171245272, -411.415669610997], [202.7014159481632, -405.8496696108122], [205.63173018422071, -396.9440696107539], [207.5852730080277, -393.6044696108803], [211.4923586556417, -390.2648696110067], [213.4459014797957, -390.2648696110067], [219.30652995121667, -390.2648696110067], [223.2136155991777, -391.3780696109646], [229.07424407059867, -395.830869610796], [231.02778689440566, -396.9440696107539], [232.00455830665618, -398.05726961110724], [234.9348725423667, -394.71766961083813], [238.8419581899807, -390.2648696110067], [247.63290089745917, -383.5856696108641], [251.53998654542013, -380.2460696109905], [253.49352936922713, -379.1328696110327], [256.42384360493764, -376.90646961111696], [266.1915577243196, -370.2272696109743], [274.9825004317981, -362.4348696108739], [281.81990031546957, -355.7556696111267], [290.6108430229481, -346.85006961106836], [295.49470008246556, -340.1708696109257], [302.33209996613704, -331.2652696108674], [305.2624142021946, -327.92566961099385], [309.1694998498086, -322.3596696108091], [311.1230426736155, -317.90686961097765], [313.07658549742257, -314.56726961110405], [313.07658549742257, -311.227669610835], [313.07658549742257, -309.0012696109193], [314.0533569096731, -303.43526961113], [315.0301283215765, -300.0956696108609], [316.00689973348, -297.86926961094525], [316.00689973348, -296.75606961098737], [317.960442557287, -292.3032696107605], [321.867528204901, -286.73726961097117], [324.7978424409585, -280.0580696108285], [326.75138526476553, -275.6052696109971], [328.70492808857244, -270.0392696108123], [330.6584709123795, -264.47326961102306], [330.6584709123795, -263.3600696110652], [333.58878514843695, -257.79406961088046], [338.4726422079545, -252.22806961109114], [345.310042091626, -246.66206961090637], [350.19389915114346, -242.20926961107494], [353.124213387201, -238.8696696108059], [353.124213387201, -237.75646961084803], [355.0777562110079, -235.53006961093232], [357.031299034815, -233.3036696110166], [359.9616132708724, -231.0772696111009], [364.84547033038996, -227.73766961083183], [372.6596416259649, -222.17166961104255], [376.56672727357886, -219.94526961112683]]]}, "properties": {"cusec": "3800801001", "mun": "008", "nmun": "Breña Alta", "area_m2": 530918.6216633504, "perimeter_m": 3809.107267455386, "coords_system": "local_m_enu"}}]}