{"type": "FeatureCollection", "crs": {"type": "name", "properties": {"name": "EPSG:32628_local_enu_m_section_centroid", "lng0": -17.790235218556465, "lat0": 28.66436420706422}}, "features": [{"type": "Feature", "geometry": {"type": "Polygon", "coordinates": [[[335.46719170938945, 645.0111303893489], [282.6091740852481, 645.0111303893489], [250.85624655705303, 619.5188503892462], [284.6525374102326, 589.3511303890831], [345.11468780938407, 633.0998903889692], [335.46719170938945, 645.0111303893489]]]}, "properties": {"name": "", "kind": "water", "category": "agua", "extrude": false}}, {"type": "Feature", "geometry": {"type": "Polygon", "coordinates": [[[293.3458029764167, 462.11237038919376], [293.4434801177111, 463.11425038903724], [292.8574172702914, 464.6727303890573], [291.8806458583879, 465.45197038906736], [291.0015515877789, 465.3406503889529], [288.2665916343103, 462.89161038920383], [288.3642687756047, 461.778410389246], [289.731748752339, 459.6633303890492], [291.0015515877789, 459.8859703888826], [293.3458029764167, 462.11237038919376]]]}, "properties": {"name": "", "kind": "water", "category": "agua", "extrude": false}}, {"type": "Feature", "geometry": {"type": "Polygon", "coordinates": [[[95.35423777590884, 426.7126103891893], [94.86585207013061, 429.6069303890006], [84.31672082108702, 443.85589038901486], [79.72589518510588, 438.6238503891734], [88.80986931612073, 421.4805703889523], [95.35423777590884, 426.7126103891893]]]}, "properties": {"name": "", "kind": "water", "category": "agua", "extrude": false}}, {"type": "Feature", "geometry": {"type": "Polygon", "coordinates": [[[-10.723137560558655, 417.80701038913094], [-9.648689007707722, 422.7050903890246], [-13.458097514027253, 423.48433038903465], [-14.337191784983313, 418.3636103889121], [-10.723137560558655, 417.80701038913094]]]}, "properties": {"name": "", "kind": "water", "category": "agua", "extrude": false}}, {"type": "Feature", "geometry": {"type": "Polygon", "coordinates": [[[-229.61761097656472, 356.24705038912805], [-228.73851670595573, 357.8055303891482], [-228.44548528207233, 359.6979703891161], [-228.64083956466123, 361.590410389084], [-229.51993383527028, 363.2602103892185], [-230.78973667105714, 364.59605038900975], [-232.54792521227523, 365.3752903890198], [-234.30611375384035, 365.7092503889676], [-236.16197943669985, 365.3752903890198], [-237.92016797791794, 364.37341038917634], [-239.28764795465227, 362.8149303891563], [-239.9713879430194, 361.03381038890734], [-240.06906508431385, 359.0300503892205], [-239.48300223724115, 357.1376103892526], [-238.31087654274876, 355.46781038911803], [-236.6503651424781, 354.4659303888791], [-234.69682231867114, 353.90933038909793], [-232.6456023535697, 354.13197038893134], [-230.98509095329905, 354.91121038894136], [-229.61761097656472, 356.24705038912805]]]}, "properties": {"name": "", "kind": "water", "category": "agua", "extrude": false}}, {"type": "Feature", "geometry": {"type": "Polygon", "coordinates": [[[-238.89693939016846, 361.3677703892506], [-239.28764795465227, 359.6979703891161], [-238.9946165311159, 357.91685038886715], [-238.31087654274876, 356.3583703892425], [-237.04107370730895, 355.1338503891702], [-235.47823944833274, 354.35461038916014], [-233.62237376547318, 354.13197038893134], [-231.86418522390804, 354.4659303888791], [-230.39902810622635, 355.3564903890036], [-229.22690241173393, 356.80365038890926], [-228.54316242336677, 358.4734503890438], [-228.54316242336677, 360.25457038889726], [-229.12922527043946, 362.0356903891462], [-230.20367382363742, 363.4828503890519], [-231.6688309416662, 364.37341038917634], [-233.32934234193684, 364.8186903892386], [-235.0875308835019, 364.7073703891242], [-236.74804228377255, 364.0394503892286], [-238.0178451192124, 362.92625038887525], [-238.89693939016846, 361.3677703892506]]]}, "properties": {"name": "", "kind": "water", "category": "agua", "extrude": false}}, {"type": "Feature", "geometry": {"type": "Polygon", "coordinates": [[[-15.411640338181265, 338.9924503891881], [-16.193057467495848, 344.6697703890918], [-21.956008797969393, 344.0018503891962], [-20.979237386065893, 338.4358503890114], [-15.411640338181265, 338.9924503891881]]]}, "properties": {"name": "", "kind": "water", "category": "agua", "extrude": false}}, {"type": "Feature", "geometry": {"type": "Polygon", "coordinates": [[[198.20826745347654, 300.25309038891453], [189.1242933224617, 306.4870103889949], [185.11953053320624, 302.36817038911124], [183.84972769776638, 301.03233038892455], [190.1010647343652, 294.90973038895856], [198.20826745347654, 300.25309038891453]]]}, "properties": {"name": "", "kind": "water", "category": "agua", "extrude": false}}, {"type": "Feature", "geometry": {"type": "Polygon", "coordinates": [[[-68.15729658270516, 41.21145038918996], [-74.60398790154585, 54.56985038907973], [-84.17634773868593, 49.89441038901944], [-78.02268784338159, 36.98129038919191], [-68.15729658270516, 41.21145038918996]]]}, "properties": {"name": "", "kind": "water", "category": "agua", "extrude": false}}, {"type": "Feature", "geometry": {"type": "Polygon", "coordinates": [[[99.26132342386985, -86.91786961082386], [96.037977764276, -72.89154961103847], [89.68896358672976, -76.89906961080766], [91.83786069312566, -88.47634961084395], [99.26132342386985, -86.91786961082386]]]}, "properties": {"name": "", "kind": "water", "category": "agua", "extrude": false}}, {"type": "Feature", "geometry": {"type": "Polygon", "coordinates": [[[-285.5866128806825, -79.45942961106667], [-285.9773214455133, -80.57262961102452], [-285.9773214455133, -81.68582961098238], [-285.6842900219769, -82.79902961094024], [-285.0005500336098, -83.80090961078366], [-284.02377862170624, -84.46882961107477], [-282.9493300685083, -84.80278961102258], [-281.6795272330685, -84.69146961090814], [-280.60507867987053, -84.2461896108459], [-279.7259844092615, -83.46694961083585], [-279.1399215618418, -82.46506961099243], [-278.9445672795999, -81.24054961092014], [-279.1399215618418, -80.12734961096228], [-279.7259844092615, -79.01414961100443], [-280.60507867987053, -78.23490961099438], [-281.6795272330685, -77.78962961093214], [-282.8516529272139, -77.78962961093214], [-283.92610148041183, -78.01226961076551], [-284.9028728923154, -78.68018961105662], [-285.5866128806825, -79.45942961106667]]]}, "properties": {"name": "", "kind": "water", "category": "agua", "extrude": false}}, {"type": "Feature", "geometry": {"type": "Polygon", "coordinates": [[[-579.7901621573284, 73.71689038898765], [-574.3202422503912, 82.17721038898375], [-586.432207758411, 89.8582903889698], [-591.8044505240538, 81.3979703889737], [-579.7901621573284, 73.71689038898765]]]}, "properties": {"name": "", "kind": "water", "category": "agua", "extrude": false}}, {"type": "Feature", "geometry": {"type": "Polygon", "coordinates": [[[-473.22440111438857, -280.0580696108285], [-480.1594781393545, -264.2506296107942], [-488.55971228200224, -268.03550961112546], [-481.72231239833076, -283.7316296110454], [-473.22440111438857, -280.0580696108285]]]}, "properties": {"name": "", "kind": "water", "category": "agua", "extrude": false}}, {"type": "Feature", "geometry": {"type": "Polygon", "coordinates": [[[-135.8475554303589, -204.13782961109249], [-140.7314124898764, -198.2378696109599], [-143.17334101980865, -200.3529496107612], [-138.38716110123858, -206.25290961089377], [-135.8475554303589, -204.13782961109249]]]}, "properties": {"name": "", "kind": "water", "category": "agua", "extrude": false}}, {"type": "Feature", "geometry": {"type": "Polygon", "coordinates": [[[-164.17392637660134, -232.9697096110688], [-170.91364911897838, -216.82830961108664], [-181.26742608543307, -221.3924296110325], [-173.74628621374143, -236.97722961083798], [-164.17392637660134, -232.9697096110688]]]}, "properties": {"name": "", "kind": "water", "category": "agua", "extrude": false}}, {"type": "Feature", "geometry": {"type": "Polygon", "coordinates": [[[-238.89693939016846, -241.20738961083603], [-246.80878782669092, -233.41498961113103], [-250.52051919206298, -237.42250961090022], [-244.46453643805307, -245.99414961101076], [-238.89693939016846, -241.20738961083603]]]}, "properties": {"name": "", "kind": "water", "category": "agua", "extrude": false}}, {"type": "Feature", "geometry": {"type": "Polygon", "coordinates": [[[-257.9439819228072, -314.3446296108752], [-256.28347052253656, -307.776749610847], [-259.40913904083595, -306.9975096108369], [-260.9719732998121, -313.56538961086517], [-257.9439819228072, -314.3446296108752]]]}, "properties": {"name": "", "kind": "water", "category": "agua", "extrude": false}}, {"type": "Feature", "geometry": {"type": "Polygon", "coordinates": [[[-262.73016184137725, -387.25922961108097], [-266.93027891252757, -376.2385496108259], [-282.9493300685083, -382.3611496107918], [-278.749212997011, -393.2705096109325], [-262.73016184137725, -387.25922961108097]]]}, "properties": {"name": "", "kind": "water", "category": "agua", "extrude": false}}, {"type": "Feature", "geometry": {"type": "Polygon", "coordinates": [[[-18.928017420964448, -399.3931096108985], [-15.802348902665047, -394.6063496111192], [-15.118608914297898, -388.81770961110107], [-19.611757409331595, -388.48374961075774], [-20.19782025640429, -392.1573096109746], [-21.956008797969393, -394.3837096108904], [-24.69096875143799, -397.1667096109827], [-18.928017420964448, -399.3931096108985]]]}, "properties": {"name": "", "kind": "water", "category": "agua", "extrude": false}}, {"type": "Feature", "geometry": {"type": "Polygon", "coordinates": [[[-413.73902212748766, -518.2828696109061], [-412.8599278565316, -499.469789610946], [-413.05528213912055, -491.3434296108977], [-414.32508497456035, -478.764269611018], [-434.44657606039704, -479.32086961079915], [-431.41858468339206, -518.9507896108017], [-413.73902212748766, -518.2828696109061]]]}, "properties": {"name": "", "kind": "water", "category": "agua", "extrude": false}}, {"type": "Feature", "geometry": {"type": "Polygon", "coordinates": [[[-786.865701488504, -502.2527896110384], [-785.2051900882334, -500.2490296109561], [-789.3076300184363, -497.9113096109259], [-790.6751099951706, -500.2490296109561], [-786.865701488504, -502.2527896110384]]]}, "properties": {"name": "", "kind": "water", "category": "agua", "extrude": false}}, {"type": "Feature", "geometry": {"type": "Polygon", "coordinates": [[[-785.3028672295279, -503.92258961077744], [-783.4470015466683, -502.2527896110384], [-785.2051900882334, -500.2490296109561], [-786.865701488504, -502.2527896110384], [-785.3028672295279, -503.92258961077744]]]}, "properties": {"name": "", "kind": "water", "category": "agua", "extrude": false}}, {"type": "Feature", "geometry": {"type": "Polygon", "coordinates": [[[263.0658892063672, 575.4361303890166], [259.15880355840625, 584.341730389075], [252.80978938085997, 582.1153303891593], [256.3261664639902, 571.5399303889665], [263.0658892063672, 575.4361303890166]]]}, "properties": {"name": "", "kind": "water", "category": "agua", "extrude": false}}, {"type": "Feature", "geometry": {"type": "Polygon", "coordinates": [[[104.92659761304894, 575.7700903889645], [83.14459512694164, 579.3323303890669], [79.33518662027508, 554.6192903889743], [104.92659761304894, 575.7700903889645]]]}, "properties": {"name": "", "kind": "water", "category": "agua", "extrude": false}}, {"type": "Feature", "geometry": {"type": "Polygon", "coordinates": [[[-272.1071673959284, 554.953250388922], [-272.20484453722287, 553.1721303890686], [-271.7164588310976, 551.6136503890484], [-270.7396874191941, 550.1664903891428], [-269.3722074424598, 549.1646103889038], [-267.71169604218915, 548.6080103891227], [-265.8558303596766, 548.6080103891227], [-264.19531895940594, 549.2759303890183], [-262.8278389826717, 550.3891303889761], [-261.9487447117156, 551.9476103889963], [-261.5580361468848, 553.7287303892452], [-261.8510675707682, 555.5098503890987], [-262.73016184137725, 557.0683303891188], [-263.9999646768171, 558.2928503891911], [-265.5627989361403, 558.9607703890867], [-267.3209874773584, 559.0720903892011], [-268.981498877629, 558.7381303892533], [-270.3489788543633, 557.8475703891288], [-271.5211045488557, 556.5117303889422], [-272.1071673959284, 554.953250388922]]]}, "properties": {"name": "", "kind": "water", "category": "agua", "extrude": false}}]}