{"type": "FeatureCollection", "crs": {"type": "name", "properties": {"name": "EPSG:32628_local_enu_m_section_centroid", "lng0": -16.504512019144745, "lat0": 28.39831514656883}}, "features": [{"type": "Feature", "geometry": {"type": "Point", "coordinates": [-549.4498915249482, 1264.2775560421828]}, "properties": {"osm_id": null, "category": "restauracion", "name": "Ruta del Teide", "extrude": false}}, {"type": "Feature", "geometry": {"type": "Point", "coordinates": [-492.2622544739375, 1146.8349560420809]}, "properties": {"osm_id": null, "category": "restauracion", "name": "Gran Tarajal", "extrude": false}}, {"type": "Feature", "geometry": {"type": "Point", "coordinates": [-420.3860120158476, 1120.1181560423013]}, "properties": {"osm_id": null, "category": "restauracion", "name": "Bodegon Matiás", "extrude": false}}, {"type": "Feature", "geometry": {"type": "Point", "coordinates": [-697.4131099909232, 1084.829716042016]}, "properties": {"osm_id": null, "category": "restauracion", "name": "Juncar Drago", "extrude": false}}, {"type": "Feature", "geometry": {"type": "Point", "coordinates": [307.7771200240242, 414.57199604235586]}, "properties": {"osm_id": null, "category": "restauracion", "name": "Cuanchinche El Bullicio", "extrude": false}}, {"type": "Feature", "geometry": {"type": "Point", "coordinates": [-300.72283996745887, 394.0891160422612]}, "properties": {"osm_id": null, "category": "restauracion", "name": "Los Gómez", "extrude": false}}, {"type": "Feature", "geometry": {"type": "Point", "coordinates": [-308.8505349593042, 290.8954760421734]}, "properties": {"osm_id": null, "category": "restauracion", "name": "Guachinche el Reposo", "extrude": false}}, {"type": "Feature", "geometry": {"type": "Point", "coordinates": [-274.8708944511104, 249.4844360423174]}, "properties": {"osm_id": null, "category": "restauracion", "name": "Guachinche Los Gómez", "extrude": false}}, {"type": "Feature", "geometry": {"type": "Point", "coordinates": [28.203997111911708, 232.45247604221078]}, "properties": {"osm_id": null, "category": "restauracion", "name": "Guachinche El Cubano", "extrude": false}}, {"type": "Feature", "geometry": {"type": "Point", "coordinates": [-307.3816744184919, -393.83384395772964]}, "properties": {"osm_id": null, "category": "restauracion", "name": "Tasca Sansofé", "extrude": false}}, {"type": "Feature", "geometry": {"type": "Point", "coordinates": [-304.34602930106826, -399.7338039578622]}, "properties": {"osm_id": null, "category": "salud", "name": "Farmacia / Apotheke", "extrude": false}}, {"type": "Feature", "geometry": {"type": "Point", "coordinates": [347.7301267309184, -1096.3743639577494]}, "properties": {"osm_id": null, "category": "restauracion", "name": "Bodegón Las Vistas", "extrude": false}}]}