{"type": "FeatureCollection", "crs": {"type": "name", "properties": {"name": "EPSG:32628_local_enu_m_section_centroid", "lng0": -15.437366484018266, "lat0": 28.13096319634703}}, "features": [{"type": "Feature", "geometry": {"type": "Polygon", "coordinates": [[[-134.73991185372822, 199.06201735124142], [-133.95455174930194, 198.950697351127], [-133.46370168401373, 199.06201735124142], [-133.07102163171334, 199.72993735113704], [-132.9728516185511, 200.2865373513137], [-133.26736165786355, 200.8431373510949], [-133.59552229915317, 201.14155676785714], [-135.94235582633465, 200.18936611586696], [-134.73991185372822, 199.06201735124142]]]}, "properties": {"name": "", "kind": "garden", "category": "parque", "extrude": false}}, {"type": "Feature", "geometry": {"type": "Polygon", "coordinates": [[[-151.23247404807552, 107.44565735118996], [-144.949593212142, 114.01353735121816], [-157.908034936135, 126.3700573512645], [-164.19091577206854, 119.69085735112188], [-151.23247404807552, 107.44565735118996]]]}, "properties": {"name": "", "kind": "pitch", "category": "parque", "extrude": false}}, {"type": "Feature", "geometry": {"type": "Polygon", "coordinates": [[[-157.3190148578589, 79.83829735128595], [-143.67338304225308, 94.64385735108138], [-173.12438696076777, 121.91725735143308], [-186.77001877619918, 107.11169735124216], [-157.3190148578589, 79.83829735128595]]]}, "properties": {"name": "", "kind": "pitch", "category": "parque", "extrude": false}}, {"type": "Feature", "geometry": {"type": "Polygon", "coordinates": [[[-194.81995984730986, 97.872137351236], [-198.35408031748977, 101.10041735139063], [-199.46546569321418, 99.89552073259631], [-199.6302904872043, 96.09101735138253], [-199.6302904872043, 92.55913735138321], [-194.81995984730986, 97.872137351236]]]}, "properties": {"name": "", "kind": "garden", "category": "parque", "extrude": false}}, {"type": "Feature", "geometry": {"type": "Polygon", "coordinates": [[[-197.76506023903923, 43.65929735127139], [-187.55537888079988, 55.23657735130769], [-199.6302904872043, 65.87203837442814], [-199.6302904872043, 45.31973398665528], [-197.76506023903923, 43.65929735127139]]]}, "properties": {"name": "", "kind": "pitch", "category": "parque", "extrude": false}}, {"type": "Feature", "geometry": {"type": "Polygon", "coordinates": [[[-160.0677752236125, -35.93450264868153], [-159.96960521045023, -36.04582264879596], [-159.478755145162, -36.26846264862934], [-159.18424510602392, -36.26846264862934], [-158.79156505372356, -35.93450264868153], [-158.5952250275734, -35.711862648848154], [-158.5952250275734, -35.26658264878591], [-158.79156505372356, -34.932622648838105], [-199.6302904872043, 3.1296677623376468], [-199.6302904872043, 0.8962968949421679], [-160.0677752236125, -35.93450264868153]]]}, "properties": {"name": "", "kind": "garden", "category": "parque", "extrude": false}}, {"type": "Feature", "geometry": {"type": "Polygon", "coordinates": [[[-143.2807029901271, -15.228982648753515], [-129.8314112006715, -0.7573826489058888], [-155.25744458354367, 22.953777351343376], [-168.70673637299927, 8.593497351214694], [-143.2807029901271, -15.228982648753515]]]}, "properties": {"name": "", "kind": "pitch", "category": "parque", "extrude": false}}, {"type": "Feature", "geometry": {"type": "Polygon", "coordinates": [[[-133.7582117231518, 189.48849735128746], [-133.66004170998949, 189.15453735133966], [-133.46370168401373, 188.82057735139185], [-132.9728516185511, 188.82057735139185], [-128.94788108308293, 192.27149735137985], [-129.14422110923311, 194.9431773513578], [-131.79481146182445, 197.3922173511069], [-133.66004170998949, 195.61109735125342], [-133.7582117231518, 189.48849735128746]]]}, "properties": {"name": "", "kind": "garden", "category": "parque", "extrude": false}}, {"type": "Feature", "geometry": {"type": "Polygon", "coordinates": [[[-139.05939242850883, 92.08349735121786], [-125.51193062589094, 106.88905735140878], [-135.13259190602858, 115.57201735123826], [-148.58188369530978, 100.87777735116177], [-139.05939242850883, 92.08349735121786]]]}, "properties": {"name": "", "kind": "pitch", "category": "parque", "extrude": false}}, {"type": "Feature", "geometry": {"type": "Polygon", "coordinates": [[[-40.00584924943715, 78.27981735126585], [-47.66311026824748, 85.29297735135628], [-57.97096163982353, 74.0496573512678], [-50.3137006210132, 67.03649735117736], [-40.00584924943715, 78.27981735126585]]]}, "properties": {"name": "", "kind": "pitch", "category": "parque", "extrude": false}}, {"type": "Feature", "geometry": {"type": "Polygon", "coordinates": [[[-136.70331211488116, 62.91765735129374], [-131.89298147498673, 67.81573735118741], [-137.48867221948183, 73.27041735125775], [-142.2990028593763, 68.26101735124965], [-136.70331211488116, 62.91765735129374]]]}, "properties": {"name": "", "kind": "playground", "category": "parque", "extrude": false}}, {"type": "Feature", "geometry": {"type": "Polygon", "coordinates": [[[34.21068062486412, 24.623577351082417], [42.260621695974784, 33.19521735119295], [-11.143865409547356, 82.73261735109728], [-19.782826558934154, 91.08161735137443], [-32.05407819148875, 102.10229735123406], [-41.57656945846412, 91.86085735138448], [-32.44675824378909, 83.40053735138838], [-14.285305827426926, 66.47989735139618], [14.183997960336908, 40.20837735128339], [15.656548156201607, 41.766857351303486], [33.03264046813748, 25.736777351435762], [34.21068062486412, 24.623577351082417]]]}, "properties": {"name": "", "kind": "garden", "category": "parque", "extrude": false}}, {"type": "Feature", "geometry": {"type": "Polygon", "coordinates": [[[-1.4250341164218157, 35.866897351170905], [7.410267059115151, 45.32909735140592], [-11.63471547483559, 62.91765735129374], [-20.37184663721028, 53.56677735117316], [-1.4250341164218157, 35.866897351170905]]]}, "properties": {"name": "", "kind": "pitch", "category": "parque", "extrude": false}}, {"type": "Feature", "geometry": {"type": "Polygon", "coordinates": [[[-56.989261509072676, 13.714217351337226], [-25.869367368717505, 48.78001735139392], [-37.453428909833704, 59.0214573512435], [-68.47515303737536, 23.9556573511868], [-56.989261509072676, 13.714217351337226]]]}, "properties": {"name": "", "kind": "park", "category": "parque", "extrude": false}}, {"type": "Feature", "geometry": {"type": "Polygon", "coordinates": [[[12.613277751309932, 24.40093735124904], [19.288838639543794, 31.41409735133948], [8.686477229004065, 41.43289735135568], [2.1090863537580944, 34.53105735137967], [12.613277751309932, 24.40093735124904]]]}, "properties": {"name": "", "kind": "playground", "category": "parque", "extrude": false}}, {"type": "Feature", "geometry": {"type": "Polygon", "coordinates": [[[47.9544824534578, 27.29525735106037], [45.50023212701663, 29.632977351090517], [36.95944099061773, 20.61605735131323], [39.4136913170589, 18.278337351283085], [47.9544824534578, 27.29525735106037]]]}, "properties": {"name": "", "kind": "garden", "category": "parque", "extrude": false}}, {"type": "Feature", "geometry": {"type": "Polygon", "coordinates": [[[-84.96771523154828, 12.823657351212745], [-82.70980493125728, 15.16137735124289], [-89.18902579334097, 21.172657351094415], [-91.44693609363198, 18.723617351345325], [-84.96771523154828, 12.823657351212745]]]}, "properties": {"name": "", "kind": "garden", "category": "parque", "extrude": false}}, {"type": "Feature", "geometry": {"type": "Polygon", "coordinates": [[[24.590019344900853, 19.502857351355374], [22.43027905759775, 21.617937351156655], [13.791317908036568, 12.378377351150505], [16.049228208501948, 10.263297351349223], [24.590019344900853, 19.502857351355374]]]}, "properties": {"name": "", "kind": "garden", "category": "parque", "extrude": false}}, {"type": "Feature", "geometry": {"type": "Polygon", "coordinates": [[[-17.03406619318054, -28.698702648757717], [-10.849355370234909, -22.019502648615088], [-2.5049042599861746, -12.89126264872337], [5.741376837100281, -3.985662648665027], [14.282167973499186, 5.253897351341124], [28.418649854218824, 20.727377351427663], [33.03264046813748, 25.736777351435762], [15.656548156201607, 41.766857351303486], [14.183997960336908, 40.20837735128339], [-14.285305827426926, 66.47989735139618], [-33.0357783222396, 65.47801735115726], [-32.937608309077326, 66.81385735134398], [-43.34362969364127, 66.92517735106293], [-50.3137006210132, 67.03649735117736], [-53.74965107803083, 63.14029735112712], [-60.3270419532768, 63.919537351137166], [-80.64823465694207, 40.876297351179005], [-83.2988250095334, 39.985737351054524], [-98.61334704715406, 22.063217351218896], [-29.796167891197758, -42.61370264882416], [-17.03406619318054, -28.698702648757717]]]}, "properties": {"name": "Plaza Juan del Río Ayala", "kind": "park", "category": "parque", "extrude": false}}, {"type": "Feature", "geometry": {"type": "Polygon", "coordinates": [[[-91.2505960674818, 5.253897351341124], [-88.50183570190258, 8.259537351266886], [-93.31216634179701, 12.712337351098313], [-96.06092670755062, 9.70669735117255], [-91.2505960674818, 5.253897351341124]]]}, "properties": {"name": "", "kind": "garden", "category": "parque", "extrude": false}}, {"type": "Feature", "geometry": {"type": "Polygon", "coordinates": [[[7.802947111415492, 0.9124173512286404], [9.962687398718595, 3.250137351258786], [7.410267059115151, 5.587857351288932], [5.250526771812049, 3.250137351258786], [7.802947111415492, 0.9124173512286404]]]}, "properties": {"name": "", "kind": "garden", "category": "parque", "extrude": false}}, {"type": "Feature", "geometry": {"type": "Polygon", "coordinates": [[[-64.25384247575705, -6.546022648924037], [-62.094102188279564, -4.208302648893891], [-64.64652252788301, -1.8705826488637456], [-66.80626281518612, -4.208302648893891], [-64.25384247575705, -6.546022648924037]]]}, "properties": {"name": "", "kind": "garden", "category": "parque", "extrude": false}}, {"type": "Feature", "geometry": {"type": "Polygon", "coordinates": [[[-0.6396740118211345, -8.104502648944134], [1.5200662754819685, -5.766782648913988], [-1.032354064121475, -3.4290626488838427], [-3.192094351424578, -5.766782648913988], [-0.6396740118211345, -8.104502648944134]]]}, "properties": {"name": "", "kind": "garden", "category": "parque", "extrude": false}}, {"type": "Feature", "geometry": {"type": "Polygon", "coordinates": [[[-70.73306333766637, -13.113902648556746], [-68.18064299806292, -10.330902648859848], [-80.64823465694207, 1.0237373513430725], [-83.2988250095334, -1.8705826488637456], [-70.73306333766637, -13.113902648556746]]]}, "properties": {"name": "", "kind": "garden", "category": "parque", "extrude": false}}, {"type": "Feature", "geometry": {"type": "Polygon", "coordinates": [[[-54.04416111734328, -15.896902648649132], [-51.88442082986579, -13.447862648900042], [-54.43684116946923, -11.110142648869896], [-56.59658145694672, -13.559182648618986], [-54.04416111734328, -15.896902648649132]]]}, "properties": {"name": "", "kind": "garden", "category": "parque", "extrude": false}}, {"type": "Feature", "geometry": {"type": "Polygon", "coordinates": [[[-8.787785095919698, -17.45538264866923], [-6.628044808616595, -15.006342648920139], [-9.180465148220039, -12.668622648889993], [-11.340205435523142, -15.117662648639083], [-8.787785095919698, -17.45538264866923]]]}, "properties": {"name": "", "kind": "garden", "category": "parque", "extrude": false}}, {"type": "Feature", "geometry": {"type": "Polygon", "coordinates": [[[-54.14233113033117, -28.921342648591093], [-51.58991079072773, -26.138342648894195], [-60.621551992414865, -17.90066264873147], [-63.17397233201831, -20.794982648938287], [-54.14233113033117, -28.921342648591093]]]}, "properties": {"name": "", "kind": "garden", "category": "parque", "extrude": false}}, {"type": "Feature", "geometry": {"type": "Polygon", "coordinates": [[[173.90660921126633, -78.90402264855766], [174.39745927655457, -34.5986626488903], [148.3824058152319, -34.26470264894249], [148.08789577609383, -68.1059826489269], [147.98972576293156, -77.56818264876642], [147.98972576293156, -78.57006264860985], [173.90660921126633, -78.90402264855766]]]}, "properties": {"name": "", "kind": "pitch", "category": "parque", "extrude": false}}, {"type": "Feature", "geometry": {"type": "Polygon", "coordinates": [[[190.59551143158941, -61.315462648669836], [195.30767205849594, -61.42678264878427], [195.20950204550806, -58.19850264862964], [195.11133203252018, -54.07966264874602], [190.59551143158941, -54.07966264874602], [190.59551143158941, -61.315462648669836]]]}, "properties": {"name": "", "kind": "garden", "category": "parque", "extrude": false}}, {"type": "Feature", "geometry": {"type": "Polygon", "coordinates": [[[190.59551143158941, -64.09846264876222], [190.59551143158941, -69.21918264888475], [192.26440165360427, -69.10786264877032], [194.12963190176933, -71.33426264868604], [193.7369518496434, -72.7814226485917], [212.68376437043182, -73.01882331146956], [212.68376437043182, -64.26411106961424], [202.67042303816822, -64.20978264887665], [202.67042303816822, -64.87770264877227], [202.67042303816822, -67.88334264869803], [199.62715263327655, -67.88334264869803], [195.20950204550806, -67.7720226485836], [195.30767205849594, -64.20978264887665], [190.59551143158941, -64.09846264876222]]]}, "properties": {"name": "", "kind": "garden", "category": "parque", "extrude": false}}, {"type": "Feature", "geometry": {"type": "Polygon", "coordinates": [[[112.45218103480791, -150.92806264863896], [125.01794270667496, -150.92806264863896], [125.11611271966284, -130.55650264865875], [112.5503510477958, -130.4451826489398], [112.45218103480791, -150.92806264863896]]]}, "properties": {"name": "", "kind": "pitch", "category": "parque", "extrude": false}}, {"type": "Feature", "geometry": {"type": "Polygon", "coordinates": [[[180.28766006018776, -179.75994264861527], [181.83871578754162, -185.14987931455664], [183.9304332540092, -183.0001095304577], [187.98990665424495, -177.92121181809364], [180.28766006018776, -179.75994264861527]]]}, "properties": {"name": "", "kind": "park", "category": "parque", "extrude": false}}, {"type": "Feature", "geometry": {"type": "Polygon", "coordinates": [[[103.2241998069706, -214.49178264872415], [102.92968976783253, -214.26914264889078], [102.73334974168236, -214.26914264889078], [102.4388397025443, -214.26914264889078], [102.24249967639413, -214.38046264860972], [100.91342873006634, -215.6049826490775], [102.34066968903325, -215.6049826490775], [102.34066968938203, -215.604982648682], [102.5370097155322, -215.49366264856758], [102.63517972869447, -215.49366264856758], [102.83151975484463, -215.49366264856758], [103.02785978082042, -215.604982648682], [103.0278597811692, -215.6049826490775], [104.36951662626711, -215.6049826490775], [103.2241998069706, -214.49178264872415]]]}, "properties": {"name": "", "kind": "garden", "category": "parque", "extrude": false}}, {"type": "Feature", "geometry": {"type": "Polygon", "coordinates": [[[-17.52491625846877, -26.472302648842003], [-15.36517597116567, -24.134582648811858], [-17.917596310769113, -21.796862648781712], [-20.077336598072215, -24.134582648811858], [-17.52491625846877, -26.472302648842003]]]}, "properties": {"name": "", "kind": "garden", "category": "parque", "extrude": false}}, {"type": "Feature", "geometry": {"type": "Polygon", "coordinates": [[[-29.108977799759355, -39.051462648721724], [-26.949237512281865, -36.602422648577146], [-33.33028836137767, -30.702462648840054], [-35.58819866166866, -33.151502648589144], [-29.108977799759355, -39.051462648721724]]]}, "properties": {"name": "", "kind": "garden", "category": "parque", "extrude": false}}, {"type": "Feature", "geometry": {"type": "Polygon", "coordinates": [[[-63.2721423450062, -42.72502264893859], [-37.74793894914615, -66.32486264867794], [-32.44675824378909, -60.64754264877422], [-57.97096163982353, -37.04770264863939], [-63.2721423450062, -42.72502264893859]]]}, "properties": {"name": "", "kind": "garden", "category": "parque", "extrude": false}}, {"type": "Feature", "geometry": {"type": "Polygon", "coordinates": [[[-39.51499918414891, -148.47902264888987], [-37.74793894914615, -146.6979026486409], [-142.39717287253856, -49.07026264873792], [-144.16423310754132, -50.96270264870583], [-39.51499918414891, -148.47902264888987]]]}, "properties": {"name": "", "kind": "garden", "category": "parque", "extrude": false}}, {"type": "Feature", "geometry": {"type": "Polygon", "coordinates": [[[-130.5186012921099, -126.10370264882732], [-129.53690116153345, -125.10182264858841], [-130.813111331248, -123.76598264879718], [-131.79481146182445, -124.7678626486406], [-130.5186012921099, -126.10370264882732]]]}, "properties": {"name": "", "kind": "garden", "category": "parque", "extrude": false}}, {"type": "Feature", "geometry": {"type": "Polygon", "coordinates": [[[-23.218777015951787, -160.72422264882178], [-24.789497224978764, -162.39402264856082], [32.32296357082902, -215.6049826490775], [35.78678001307433, -215.6049826490775], [-23.218777015951787, -160.72422264882178]]]}, "properties": {"name": "", "kind": "garden", "category": "parque", "extrude": false}}]}