{"type": "FeatureCollection", "crs": {"type": "name", "properties": {"name": "EPSG:32628_local_enu_m_section_centroid", "lng0": -15.437366484018266, "lat0": 28.13096319634703}}, "features": [{"type": "Feature", "geometry": {"type": "LineString", "coordinates": [[-127.6331746958207, 203.27782478325545], [-118.14917964639302, 194.16393735134776]]}, "properties": {"osm_id": null, "type": "residential", "width_m": 5, "extrude": false}}, {"type": "Feature", "geometry": {"type": "LineString", "coordinates": [[23.510149201162108, 205.96385735121743], [17.816288443679095, 204.07141735124952], [11.827917646883636, 203.9600973511351], [6.035886876238345, 205.62989735126962], [3.502467183888078, 207.41101735151858]]}, "properties": {"osm_id": null, "type": "residential", "width_m": 5, "extrude": false}}, {"type": "Feature", "geometry": {"type": "LineString", "coordinates": [[25.445048491348082, 207.41101735151858], [23.510149201162108, 205.96385735121743]]}, "properties": {"osm_id": null, "type": "residential", "width_m": 5, "extrude": false}}, {"type": "Feature", "geometry": {"type": "LineString", "coordinates": [[39.29575095397764, 207.41101735151858], [41.18075155223604, 203.51481735107285], [48.24899249259586, 194.2752573510667]]}, "properties": {"osm_id": null, "type": "residential", "width_m": 5, "extrude": false}}, {"type": "Feature", "geometry": {"type": "LineString", "coordinates": [[157.30864211436992, 196.13402643461512], [159.47561729123427, 187.3734173510907], [172.72856905453972, 157.76229735110434], [178.0297497597224, 138.2812973512486], [180.48400008633794, 124.14365735134879]]}, "properties": {"osm_id": null, "type": "footway", "width_m": 2, "extrude": false}}, {"type": "Feature", "geometry": {"type": "LineString", "coordinates": [[48.24899249259586, 194.2752573510667], [36.468590925329494, 200.73181735137595], [23.510149201162108, 205.96385735121743]]}, "properties": {"osm_id": null, "type": "residential", "width_m": 5, "extrude": false}}, {"type": "Feature", "geometry": {"type": "LineString", "coordinates": [[159.47561729123427, 187.3734173510907], [135.22762406508872, 203.51481735107285], [132.2049564439398, 205.517752156957]]}, "properties": {"osm_id": null, "type": "footway", "width_m": 2, "extrude": false}}, {"type": "Feature", "geometry": {"type": "LineString", "coordinates": [[92.13916916554376, 207.41101735151858], [91.93464830499246, 204.07141735124952], [95.9596188404606, 190.37905735141194], [112.84486108710824, 163.66225735123692], [128.3557231507047, 147.966137351317]]}, "properties": {"osm_id": null, "type": "footway", "width_m": 2, "extrude": false}}, {"type": "Feature", "geometry": {"type": "LineString", "coordinates": [[178.0297497597224, 138.2812973512486], [128.3557231507047, 147.966137351317]]}, "properties": {"osm_id": null, "type": "footway", "width_m": 2, "extrude": false}}, {"type": "Feature", "geometry": {"type": "LineString", "coordinates": [[128.3557231507047, 147.966137351317], [131.49716356875865, 140.7303373513932], [133.9514138951998, 135.7209373513851], [135.91481415652714, 141.7322173512366], [139.54710463969494, 133.2718973512405], [143.76841520131325, 129.37569735119027], [146.32083554091668, 125.70213735136889], [146.32083554091668, 122.13989735126646], [145.43730542332813, 117.46445735120616], [147.98972576293156, 114.23617735105154]]}, "properties": {"osm_id": null, "type": "footway", "width_m": 2, "extrude": false}}, {"type": "Feature", "geometry": {"type": "LineString", "coordinates": [[-107.43336098941408, 207.0782721082577], [-118.14917964639302, 194.16393735134776], [-121.78147012956083, 175.2395373512732]]}, "properties": {"osm_id": null, "type": "residential", "width_m": 5, "extrude": false}}, {"type": "Feature", "geometry": {"type": "LineString", "coordinates": [[48.24899249259586, 194.2752573510667], [79.27071661996314, 169.2282573514217], [86.14261753434717, 161.4358573513212], [88.98954791308869, 154.64533735106414], [90.65843813510355, 148.96801735116043], [89.97124804366514, 142.51145735124666], [88.49869784780044, 135.94357735121847], [81.23411688129046, 126.3700573512645], [76.71829628053408, 124.14365735134879], [73.28234582334207, 122.25121735138089], [61.30560422975114, 120.80405735107973], [49.623372675472666, 123.92101735111993], [40.199051421659576, 127.9285373512846], [-26.6547274731438, 156.31513735119867], [-43.34362969364127, 160.87925735114453], [-121.78147012956083, 175.2395373512732], [-156.04280468796995, 179.02441735120902], [-165.71401177878343, 180.11238128799206]]}, "properties": {"osm_id": null, "type": "residential", "width_m": 5, "extrude": false}}, {"type": "Feature", "geometry": {"type": "LineString", "coordinates": [[-191.39962958848406, 140.50846394233332], [-171.84817679087885, 138.39261735136304]]}, "properties": {"osm_id": null, "type": "pedestrian", "width_m": 4, "extrude": false}}, {"type": "Feature", "geometry": {"type": "LineString", "coordinates": [[-114.12420911092491, 116.68521735119612], [-114.51688916305085, 121.91725735143308], [-112.65165891488581, 124.4776173512966], [-108.03766830096716, 126.48137735137894], [-99.10419711244231, 134.4964173513128], [-93.60667638093507, 138.72657735131085], [-88.9926857671908, 143.2906973512567], [-87.22562553201365, 146.29633735118247]]}, "properties": {"osm_id": null, "type": "footway", "width_m": 2, "extrude": false}}, {"type": "Feature", "geometry": {"type": "LineString", "coordinates": [[128.3557231507047, 147.966137351317], [115.10277138739924, 142.51145735124666], [114.21924126981068, 141.50957735140324], [108.918060564628, 135.94357735121847], [107.64185039473908, 128.70777735129465], [112.15767099566985, 117.79841735115397], [147.98972576293156, 114.23617735105154], [179.9931500210497, 111.0078973512924], [180.48400008633794, 124.14365735134879]]}, "properties": {"osm_id": null, "type": "footway", "width_m": 2, "extrude": false}}, {"type": "Feature", "geometry": {"type": "LineString", "coordinates": [[91.83647829183019, 111.45317735135464], [76.71829628053408, 124.14365735134879]]}, "properties": {"osm_id": null, "type": "footway", "width_m": 2, "extrude": false}}, {"type": "Feature", "geometry": {"type": "LineString", "coordinates": [[195.20950204550806, 103.21549735119191], [198.35094246356203, 101.99097735111962], [198.93996254183816, 108.55885735114782], [197.7619223851115, 115.12673735117602], [197.36924233281118, 119.80217735123631], [198.84179252885025, 122.25121735138089], [200.608852763853, 122.47385735121426]]}, "properties": {"osm_id": null, "type": "footway", "width_m": 2, "extrude": false}}, {"type": "Feature", "geometry": {"type": "LineString", "coordinates": [[199.9216626724146, 126.25873735115007], [200.608852763853, 122.47385735121426], [205.91003346921008, 113.45693735143698], [207.57892369122496, 109.22677735143893], [207.48075367823705, 106.10981735139873], [212.2910843181315, 104.21737735143083], [212.33131191393028, 104.22636234640109]]}, "properties": {"osm_id": null, "type": "footway", "width_m": 2, "extrude": false}}, {"type": "Feature", "geometry": {"type": "LineString", "coordinates": [[24.884529384038917, 103.99473735120196], [35.38872078159075, 103.43813735142078], [52.07762300208822, 100.20985735126615], [61.40377424291342, 98.42873735141268], [70.82809549672652, 96.64761735116372], [75.9329361759334, 97.98345735135044], [79.66339667226347, 102.8815373512441]]}, "properties": {"osm_id": null, "type": "footway", "width_m": 2, "extrude": false}}, {"type": "Feature", "geometry": {"type": "LineString", "coordinates": [[179.9931500210497, 111.0078973512924], [185.6870107785327, 110.89657735117797], [191.28270152302784, 107.11169735124216], [195.20950204550806, 103.21549735119191], [191.77355158831605, 99.0966573513083], [196.58388222838488, 97.76081735112157], [198.05643242424955, 96.09101735138253], [196.28937218924682, 92.75141735111347], [198.25277245039976, 92.30613735105123], [201.09970282914125, 94.421217351248], [203.06310309046856, 95.08913735114362], [208.65879383496372, 93.64197735123795], [212.68376437043182, 91.76742806562359]]}, "properties": {"osm_id": null, "type": "footway", "width_m": 2, "extrude": false}}, {"type": "Feature", "geometry": {"type": "LineString", "coordinates": [[112.15767099566985, 117.79841735115397], [101.55530958495572, 118.35501735133064], [91.83647829183019, 111.45317735135464]]}, "properties": {"osm_id": null, "type": "footway", "width_m": 2, "extrude": false}}, {"type": "Feature", "geometry": {"type": "LineString", "coordinates": [[91.83647829183019, 111.45317735135464], [79.66339667226347, 102.8815373512441], [111.66682093020722, 83.06657735144057], [121.876502288621, 78.50245735109922], [136.99468430009148, 75.38549735105903], [147.30253567149316, 74.60625735104898], [152.40737635070005, 75.05153735111122], [154.0762665727149, 82.17601735131609], [145.92815548879074, 85.29297735135628], [117.75336174016498, 96.31365735121591], [91.83647829183019, 111.45317735135464]]}, "properties": {"osm_id": null, "type": "footway", "width_m": 2, "extrude": false}}, {"type": "Feature", "geometry": {"type": "LineString", "coordinates": [[190.7918514577396, 87.29673735143862], [186.47237088313338, 86.40617735131414], [183.4291004780673, 85.84957735113747], [178.71693985116076, 89.85709735130214], [173.71026918511615, 95.64573735132029]]}, "properties": {"osm_id": null, "type": "footway", "width_m": 2, "extrude": false}}, {"type": "Feature", "geometry": {"type": "LineString", "coordinates": [[-152.60685423095234, 151.19441735107614], [-99.10419711244231, 148.18877735115038], [-94.29386647237348, 148.74537735132705], [-90.26889593690534, 147.6321773513692], [-87.22562553201365, 146.29633735118247], [-76.62326412147392, 141.7322173512366], [-56.79292148292251, 138.61525735119642], [-46.583240124683115, 137.16809735129075], [-38.82780909271051, 134.27377735108394], [-25.869367368717505, 121.91725735143308], [-11.242035422535249, 112.00977735113582], [-1.9158841817100487, 109.22677735143893], [14.576678012637249, 104.55133735137863], [24.884529384038917, 103.99473735120196], [28.124139815080763, 106.88905735140878], [40.199051421659576, 127.9285373512846]]}, "properties": {"osm_id": null, "type": "footway", "width_m": 2, "extrude": false}}, {"type": "Feature", "geometry": {"type": "LineString", "coordinates": [[-171.84817679087885, 138.39261735136304], [-198.58674871687748, 111.36595455980171]]}, "properties": {"osm_id": null, "type": "residential", "width_m": 5, "extrude": false}}, {"type": "Feature", "geometry": {"type": "LineString", "coordinates": [[-155.94463467498207, 142.73409735108004], [-134.83808186671612, 128.03985735139904], [-118.73819972466916, 119.80217735123631], [-114.12420911092491, 116.68521735119612], [-107.44864822269103, 112.23241735136469], [-93.50850636794718, 99.76457735120391], [-82.21895486596905, 91.30425735120781], [-72.89280362514384, 75.16285735122565], [-68.2788130112252, 66.92517735106293], [-64.94103256702107, 62.36105735111707]]}, "properties": {"osm_id": null, "type": "footway", "width_m": 2, "extrude": false}}, {"type": "Feature", "geometry": {"type": "LineString", "coordinates": [[-104.7980578700997, 20.61605735131323], [-199.27018689379946, 104.40296669687797]]}, "properties": {"osm_id": null, "type": "pedestrian", "width_m": 4, "extrude": false}}, {"type": "Feature", "geometry": {"type": "LineString", "coordinates": [[-104.7980578700997, 20.61605735131323], [-91.34876608064408, 34.75369735121305], [-64.94103256702107, 62.36105735111707], [-59.34534182252595, 68.26101735124965]]}, "properties": {"osm_id": null, "type": "residential", "width_m": 4, "extrude": false}}, {"type": "Feature", "geometry": {"type": "LineString", "coordinates": [[178.71693985116076, 89.85709735130214], [173.6120991719539, 88.07597735105318], [167.52555836217056, 87.96465735133424], [162.7152277222761, 92.75141735111347], [158.4939171604834, 90.52501735119776]]}, "properties": {"osm_id": null, "type": "footway", "width_m": 2, "extrude": false}}, {"type": "Feature", "geometry": {"type": "LineString", "coordinates": [[196.28937218924682, 92.75141735111347], [194.03146188878145, 88.07597735105318], [190.7918514577396, 87.29673735143862], [193.7369518496434, 83.06657735144057], [196.58388222838488, 81.06281735135823]]}, "properties": {"osm_id": null, "type": "footway", "width_m": 2, "extrude": false}}, {"type": "Feature", "geometry": {"type": "LineString", "coordinates": [[208.06977375651317, 76.61001735113132], [210.42585406996645, 79.50433735133814], [212.58559435744394, 82.62129735137833], [212.68376437043182, 83.17789735115952]]}, "properties": {"osm_id": null, "type": "footway", "width_m": 2, "extrude": false}}, {"type": "Feature", "geometry": {"type": "LineString", "coordinates": [[212.68376437043182, 86.22282676307648], [209.83683399169033, 87.74201735110537], [204.43748327334538, 89.74577735118771], [201.68872290759177, 91.86085735138448], [203.06310309046856, 95.08913735114362]]}, "properties": {"osm_id": null, "type": "footway", "width_m": 2, "extrude": false}}, {"type": "Feature", "geometry": {"type": "LineString", "coordinates": [[145.92815548879074, 85.29297735135628], [158.4939171604834, 90.52501735119776], [167.1328783100446, 84.068457351284], [177.24438965529606, 81.84205735136828], [187.8467510658358, 80.84017735112937], [196.58388222838488, 81.06281735135823], [200.1180026985648, 81.95337735108723], [201.3942128684537, 81.06281735135823], [202.96493307730628, 78.27981735126585], [205.7136934430599, 76.94397735107913], [208.06977375651317, 76.61001735113132], [210.22951404381627, 75.49681735117346], [212.09474429198133, 72.71381735108108], [212.68376437043182, 71.73762658206371]]}, "properties": {"osm_id": null, "type": "footway", "width_m": 2, "extrude": false}}, {"type": "Feature", "geometry": {"type": "LineString", "coordinates": [[-3.8792844428629816, 85.6269373513041], [48.83801257104637, 39.54045735138777], [50.40873278007335, 38.09329735108662], [73.57685586248013, 17.833057351220845], [74.65672600621888, 16.942497351096364], [83.68836720773162, 9.038777351276934]]}, "properties": {"osm_id": null, "type": "residential", "width_m": 5, "extrude": false}}, {"type": "Feature", "geometry": {"type": "LineString", "coordinates": [[34.701530690152346, 20.95001735126104], [50.40873278007335, 38.09329735108662]]}, "properties": {"osm_id": null, "type": "pedestrian", "width_m": 4, "extrude": false}}, {"type": "Feature", "geometry": {"type": "LineString", "coordinates": [[83.68836720773162, 9.038777351276934], [95.2724287490222, 3.8067373514354585], [111.37231089106916, -1.3139826486870732]]}, "properties": {"osm_id": null, "type": "residential", "width_m": 5, "extrude": false}}, {"type": "Feature", "geometry": {"type": "LineString", "coordinates": [[100.67177946736716, -11.555422648932137], [97.53033904948758, -9.106382648787559], [83.68836720773162, 9.038777351276934]]}, "properties": {"osm_id": null, "type": "residential", "width_m": 5, "extrude": false}}, {"type": "Feature", "geometry": {"type": "LineString", "coordinates": [[91.14928820039178, 2.5822173513631697], [91.24745821355405, 2.025617351186497], [91.93464830499246, 1.5803373511242569], [100.27909941524119, -5.321502648851748], [100.9662895066796, -5.766782648913988], [101.8498196240938, -6.100742648861797], [102.34066968938203, -5.878102648632932], [104.89309002898547, -2.9837826488216024], [104.99126004214774, -2.538502648759362], [104.89309002898547, -1.8705826488637456], [104.10772992455917, -1.3139826486870732], [92.13098833114263, 3.02749735142541], [91.54196825269213, 3.02749735142541], [91.14928820039178, 2.5822173513631697]]}, "properties": {"osm_id": null, "type": "pedestrian", "width_m": 4, "extrude": false}}, {"type": "Feature", "geometry": {"type": "LineString", "coordinates": [[111.37231089106916, -1.3139826486870732], [212.68376437043182, -1.8554543219013908]]}, "properties": {"osm_id": null, "type": "residential", "width_m": 5, "extrude": false}}, {"type": "Feature", "geometry": {"type": "LineString", "coordinates": [[-92.82131627650878, 35.97821735128534], [-91.34876608064408, 34.75369735121305]]}, "properties": {"osm_id": null, "type": "service", "width_m": 3.5, "extrude": false}}, {"type": "Feature", "geometry": {"type": "LineString", "coordinates": [[-199.6302904872043, 8.474192372277543], [-145.63678330358042, -40.60994264874182]]}, "properties": {"osm_id": null, "type": "tertiary", "width_m": 7, "extrude": false}}, {"type": "Feature", "geometry": {"type": "LineString", "coordinates": [[-104.7980578700997, 20.61605735131323], [-105.48524796136371, 1.691657351238689], [-115.5967593067896, -10.330902648859848], [-123.548530364738, -18.568582648627086]]}, "properties": {"osm_id": null, "type": "residential", "width_m": 5, "extrude": false}}, {"type": "Feature", "geometry": {"type": "LineString", "coordinates": [[-103.12916764791045, -5.878102648632932], [-107.35047820952876, -10.330902648859848], [-98.4170070210039, -18.679902648741518], [-97.82798694272778, -19.681782648584942], [-98.4170070210039, -20.683662648823855], [-99.2023671254302, -21.017622648771663], [-99.98772723003087, -20.572342648709423], [-109.51021849700625, -11.332782648703272], [-110.29557860143254, -8.438462648891942], [-101.55844743905786, 1.4690173514053129], [-100.576747308307, 1.5803373511242569], [-99.49687716474264, 1.2463773511764487], [-98.80968707330423, 0.8010973511142083], [-97.92615695571567, -0.20078264872921636], [-103.12916764791045, -5.878102648632932]]}, "properties": {"osm_id": null, "type": "pedestrian", "width_m": 4, "extrude": false}}, {"type": "Feature", "geometry": {"type": "LineString", "coordinates": [[-110.78642866672078, 3.9180573511544026], [-131.59847143584867, -20.127062648647183], [-132.87468160556318, -28.142102648581044]]}, "properties": {"osm_id": null, "type": "service", "width_m": 3.5, "extrude": false}}, {"type": "Feature", "geometry": {"type": "LineString", "coordinates": [[-113.43701901948648, -86.69642264865814], [-141.12096270264965, -60.870182648607596], [-146.3239733950188, -55.860782648599496], [-153.6867243745167, -49.07026264873792], [-179.50543780968917, -24.468542648759666], [-199.6302904872043, -5.562155593773213]]}, "properties": {"osm_id": null, "type": "tertiary", "width_m": 7, "extrude": false}}, {"type": "Feature", "geometry": {"type": "LineString", "coordinates": [[-123.548530364738, -18.568582648627086], [-132.87468160556318, -28.142102648581044], [-136.4088020757431, -31.70434264868348], [-140.33560259822335, -35.48922264861929], [-145.63678330358042, -40.60994264874182]]}, "properties": {"osm_id": null, "type": "residential", "width_m": 5, "extrude": false}}, {"type": "Feature", "geometry": {"type": "LineString", "coordinates": [[-56.59658145694672, -30.257182648777814], [-72.5982935858314, -49.07026264873792]]}, "properties": {"osm_id": null, "type": "footway", "width_m": 2, "extrude": false}}, {"type": "Feature", "geometry": {"type": "LineString", "coordinates": [[-199.6302904872043, -40.21778275325374], [-188.43890899821406, -31.481702648850103], [-184.31576844975802, -28.253422648695476], [-179.50543780968917, -24.468542648759666]]}, "properties": {"osm_id": null, "type": "residential", "width_m": 5, "extrude": false}}, {"type": "Feature", "geometry": {"type": "LineString", "coordinates": [[1.6182362884698611, -118.42262264884127], [-43.53996971979144, -75.34178264885071], [-72.5982935858314, -49.07026264873792], [-115.5967593067896, -10.330902648859848]]}, "properties": {"osm_id": null, "type": "residential", "width_m": 5, "extrude": false}}, {"type": "Feature", "geometry": {"type": "LineString", "coordinates": [[-145.63678330358042, -40.60994264874182], [-153.6867243745167, -49.07026264873792], [-159.3805851321741, -54.970222648870504], [-162.52202555005368, -57.7532226485674], [-170.27745658202628, -65.54562264866789], [-199.6302904872043, -95.21240264851372]]}, "properties": {"osm_id": null, "type": "residential", "width_m": 5, "extrude": false}}, {"type": "Feature", "geometry": {"type": "LineString", "coordinates": [[-36.76623881856968, -158.2751826486772], [-44.227159811229846, -151.3733426487012], [-51.197230738427386, -144.805462648673], [-71.42025342910476, -125.99238264871289], [-113.43701901948648, -86.69642264865814]]}, "properties": {"osm_id": null, "type": "tertiary", "width_m": 7, "extrude": false}}, {"type": "Feature", "geometry": {"type": "LineString", "coordinates": [[-176.4621674047975, -124.21126264885942], [-163.40555566764223, -136.79042264873914]]}, "properties": {"osm_id": null, "type": "service", "width_m": 3.5, "extrude": false}}, {"type": "Feature", "geometry": {"type": "LineString", "coordinates": [[-113.43701901948648, -86.69642264865814], [-121.58513010358507, -95.26806264876868], [-131.20579138354833, -105.39818264889931], [-163.40555566764223, -136.79042264873914], [-186.59053272350226, -159.50025136315858]]}, "properties": {"osm_id": null, "type": "residential", "width_m": 5, "extrude": false}}, {"type": "Feature", "geometry": {"type": "LineString", "coordinates": [[100.67177946736716, -11.555422648932137], [111.37231089106916, -1.3139826486870732]]}, "properties": {"osm_id": null, "type": "residential", "width_m": 5, "extrude": false}}, {"type": "Feature", "geometry": {"type": "LineString", "coordinates": [[34.701530690152346, 20.95001735126104], [-31.170548074074564, -53.300422648735974]]}, "properties": {"osm_id": null, "type": "residential", "width_m": 5, "extrude": false}}, {"type": "Feature", "geometry": {"type": "LineString", "coordinates": [[-8.689615082931805, -73.115382648935], [73.57685586248013, 17.833057351220845]]}, "properties": {"osm_id": null, "type": "pedestrian", "width_m": 4, "extrude": false}}, {"type": "Feature", "geometry": {"type": "LineString", "coordinates": [[-47.564940255259586, -32.26094264886015], [-32.15224820465103, -46.28726264864554], [-32.05407819148875, -52.521182648725926]]}, "properties": {"osm_id": null, "type": "service", "width_m": 3.5, "extrude": false}}, {"type": "Feature", "geometry": {"type": "LineString", "coordinates": [[-27.047407525444143, -56.97398264855735], [-43.53996971979144, -75.34178264885071]]}, "properties": {"osm_id": null, "type": "footway", "width_m": 2, "extrude": false}}, {"type": "Feature", "geometry": {"type": "LineString", "coordinates": [[-28.51995772130884, -149.4809026487333], [-21.746226820087085, -142.0224626485806], [1.6182362884698611, -118.42262264884127], [19.58334867868186, -99.83218264871454], [27.633289749792528, -91.03790264877063], [75.83476616294551, -38.49486264894054], [100.67177946736716, -11.555422648932137]]}, "properties": {"osm_id": null, "type": "residential", "width_m": 5, "extrude": false}}, {"type": "Feature", "geometry": {"type": "LineString", "coordinates": [[7.508437072103044, -97.71710264891325], [8.195627163541447, -98.71898264875668], [8.588307215841787, -99.94350264882897], [8.490137202853896, -101.39066264873463], [7.999287137565663, -102.39254264857806], [0.04751607944288396, -111.18682264891746], [-0.7378440249834122, -111.40946264875083], [-1.3268641032595379, -111.40946264875083], [-1.9158841817100487, -111.18682264891746], [-12.518245592249778, -101.39066264873463], [-13.009095657712397, -100.72274264883902], [-13.009095657712397, -100.0548226489434], [-12.616415605412056, -99.49822264876673], [-12.027395526961545, -99.27558264893335], [-11.340205435523142, -99.3869026486523], [-10.751185357247016, -99.94350264882897], [-2.2103942208481118, -107.95854264876283], [2.3054263799082646, -103.39442264881697], [7.508437072103044, -97.71710264891325]]}, "properties": {"osm_id": null, "type": "pedestrian", "width_m": 4, "extrude": false}}, {"type": "Feature", "geometry": {"type": "LineString", "coordinates": [[138.4759470824589, -212.0997176866672], [100.9662895066796, -178.98070264860522], [27.8296297759427, -107.95854264876283], [24.29550930576279, -104.3963026486604], [23.019299135873876, -103.1717826485881], [19.58334867868186, -99.83218264871454], [-8.689615082931805, -73.115382648935], [-27.047407525444143, -56.97398264855735], [-31.170548074074564, -53.300422648735974], [-32.05407819148875, -52.521182648725926], [-56.59658145694672, -30.257182648777814], [-69.06417311565149, -18.902542648574894], [-100.47857729531911, 9.595377351058119], [-104.7980578700997, 20.61605735131323]]}, "properties": {"osm_id": null, "type": "residential", "width_m": 5, "extrude": false}}, {"type": "Feature", "geometry": {"type": "LineString", "coordinates": [[-145.63678330358042, -40.60994264874182], [-137.7831822586199, -47.62310264883226], [-43.44179970662916, -135.67722264878128], [-28.51995772130884, -149.4809026487333], [-25.084007264116824, -152.70918264888792], [42.57341507697902, -215.6049826490775]]}, "properties": {"osm_id": null, "type": "tertiary", "width_m": 7, "extrude": false}}, {"type": "Feature", "geometry": {"type": "LineString", "coordinates": [[-36.76623881856968, -158.2751826486772], [-28.51995772130884, -149.4809026487333]]}, "properties": {"osm_id": null, "type": "residential", "width_m": 5, "extrude": false}}, {"type": "Feature", "geometry": {"type": "LineString", "coordinates": [[-148.0768175656906, -202.22970071341578], [-79.17568446107737, -133.78478264881338], [-75.15071392543484, -129.7772626486487], [-71.42025342910476, -125.99238264871289]]}, "properties": {"osm_id": null, "type": "residential", "width_m": 5, "extrude": false}}, {"type": "Feature", "geometry": {"type": "LineString", "coordinates": [[-42.263759549902524, -174.3052626489404], [-44.227159811229846, -172.30150264885808], [-40.00584924943715, -168.18266264857897], [-38.53329905357245, -167.62606264879778], [-36.569898792419515, -167.51474264868335], [-34.50832851810431, -167.9600226487456], [-32.83943829608943, -168.6279426486412], [1.6182362884698611, -200.5767826486577], [2.5999364190463274, -202.1352626486778], [2.7962764451964977, -203.80506264881234], [2.5999364190463274, -205.5861826486658], [2.1090863537580944, -207.03334264857148], [1.0292162101937352, -208.92578264893487], [-2.0140541946979416, -211.70878264863177], [-8.002424991493402, -210.81822264890278], [-8.296935030631465, -199.9088626487621], [-20.666356676348343, -188.22026264861137], [-35.78453868781883, -173.85998264887817], [-42.263759549902524, -174.3052626489404]]}, "properties": {"osm_id": null, "type": "pedestrian", "width_m": 4, "extrude": false}}, {"type": "Feature", "geometry": {"type": "LineString", "coordinates": [[100.9662895066796, -178.98070264860522], [68.15020653036076, -215.6049826490775]]}, "properties": {"osm_id": null, "type": "residential", "width_m": 5, "extrude": false}}, {"type": "Feature", "geometry": {"type": "LineString", "coordinates": [[-88.34454369252397, -215.6049826490775], [-33.526628387527836, -161.28082264860296], [-25.084007264116824, -152.70918264888792], [23.019299135873876, -103.1717826485881], [104.79492001599758, -13.113902648556746], [111.175970864919, -8.438462648891942], [120.69846213189435, -5.544142648685124], [212.68376437043182, -6.363520810550511]]}, "properties": {"osm_id": null, "type": "footway", "width_m": 2, "extrude": false}}, {"type": "Feature", "geometry": {"type": "LineString", "coordinates": [[1.7422405151449476, -215.6049826490775], [5.839546850088174, -211.26350264856953], [7.115757019977089, -210.37294264884054], [8.293797176703725, -210.03898264889273], [9.766347372568426, -210.15030264861167], [11.533407607745572, -210.70690264878834], [13.496807868898506, -211.70878264863177], [17.694642993155355, -215.6049826490775]]}, "properties": {"osm_id": null, "type": "pedestrian", "width_m": 4, "extrude": false}}, {"type": "Feature", "geometry": {"type": "LineString", "coordinates": [[25.47689271401509, -215.6049826490775], [11.042557542457338, -201.80130264873], [-22.62975693767566, -171.18830264890022], [-33.526628387527836, -161.28082264860296], [-36.76623881856968, -158.2751826486772]]}, "properties": {"osm_id": null, "type": "tertiary", "width_m": 7, "extrude": false}}, {"type": "Feature", "geometry": {"type": "LineString", "coordinates": [[-93.07054093862438, -215.6049826490775], [-47.172260202959244, -168.40530264880783], [-36.76623881856968, -158.2751826486772]]}, "properties": {"osm_id": null, "type": "residential", "width_m": 5, "extrude": false}}, {"type": "Feature", "geometry": {"type": "LineString", "coordinates": [[11.042557542457338, -201.80130264873], [3.3852965236470083, -209.48238264871605], [-2.754152112861936, -215.6049826490775]]}, "properties": {"osm_id": null, "type": "residential", "width_m": 5, "extrude": false}}]}