{"type": "FeatureCollection", "crs": {"type": "name", "properties": {"name": "EPSG:32628_local_enu_m_section_centroid", "lng0": -17.763121319517957, "lat0": 28.69239905522141}}, "features": [{"type": "Feature", "geometry": {"type": "Point", "coordinates": [182.73622592932207, 574.9739472475068]}, "properties": {"osm_id": null, "category": "restauracion", "name": "Café Melchor", "extrude": false}}, {"type": "Feature", "geometry": {"type": "Point", "coordinates": [86.84294199743587, 572.0796272476955]}, "properties": {"osm_id": null, "category": "publico", "name": "Museo Insular de Bellas Artes, Ciencias Naturales y Etnografía", "extrude": false}}, {"type": "Feature", "geometry": {"type": "Point", "coordinates": [316.7134006283815, 551.0401472474241]}, "properties": {"osm_id": null, "category": "alojamiento", "name": "Aparthotel Castillete", "extrude": false}}, {"type": "Feature", "geometry": {"type": "Point", "coordinates": [200.50870828724376, 550.7061872474764]}, "properties": {"osm_id": null, "category": "publico", "name": "Iglesia Evangélica Bautista", "extrude": false}}, {"type": "Feature", "geometry": {"type": "Point", "coordinates": [323.54897076617715, 549.3703472476851]}, "properties": {"osm_id": null, "category": "restauracion", "name": "Hotel Castillete", "extrude": false}}, {"type": "Feature", "geometry": {"type": "Point", "coordinates": [327.9432658547105, 513.0800272475561]}, "properties": {"osm_id": null, "category": "salud", "name": "Asepeyo", "extrude": false}}, {"type": "Feature", "geometry": {"type": "Point", "coordinates": [225.11676078330797, 491.26130724767023]}, "properties": {"osm_id": null, "category": "publico", "name": "Policia Nacional", "extrude": false}}, {"type": "Feature", "geometry": {"type": "Point", "coordinates": [-242.53388763808215, 439.60882724756914]}, "properties": {"osm_id": null, "category": "restauracion", "name": "Velachero", "extrude": false}}, {"type": "Feature", "geometry": {"type": "Point", "coordinates": [-262.16173903355417, 422.2429072475147]}, "properties": {"osm_id": null, "category": "salud", "name": "Atensa", "extrude": false}}, {"type": "Feature", "geometry": {"type": "Point", "coordinates": [-31.41242138469368, 394.6355472476107]}, "properties": {"osm_id": null, "category": "restauracion", "name": "Kingame", "extrude": false}}, {"type": "Feature", "geometry": {"type": "Point", "coordinates": [79.61676785206359, 317.82474724735465]}, "properties": {"osm_id": null, "category": "publico", "name": "Parroquia de Nuestra Señora de la Encarnación", "extrude": false}}, {"type": "Feature", "geometry": {"type": "Point", "coordinates": [-444.67146171026866, 297.7871472477177]}, "properties": {"osm_id": null, "category": "salud", "name": "Benahoare", "extrude": false}}, {"type": "Feature", "geometry": {"type": "Point", "coordinates": [264.86071858389636, 225.98574724746982]}, "properties": {"osm_id": null, "category": "publico", "name": "Hemeroteca Juan Régulo Pérez", "extrude": false}}, {"type": "Feature", "geometry": {"type": "Point", "coordinates": [-643.781854721481, 64.3491072474194]}, "properties": {"osm_id": null, "category": "publico", "name": "Santo Cristo del Planto", "extrude": false}}, {"type": "Feature", "geometry": {"type": "Point", "coordinates": [-669.854672246825, -320.929412752351]}, "properties": {"osm_id": null, "category": "publico", "name": "Unidad Docente de Enfermería de la ULL en La Palma", "extrude": false}}, {"type": "Feature", "geometry": {"type": "Point", "coordinates": [213.20333854319946, -626.1688527525018]}, "properties": {"osm_id": null, "category": "publico", "name": "CEP El Roque", "extrude": false}}, {"type": "Feature", "geometry": {"type": "Point", "coordinates": [238.29964604856104, -676.1515327524684]}, "properties": {"osm_id": null, "category": "restauracion", "name": "Kiosko Tagoja", "extrude": false}}]}