{"type": "FeatureCollection", "crs": {"type": "name", "properties": {"name": "EPSG:32628_local_enu_m_section_centroid", "lng0": -16.315144291018015, "lat0": 28.485284298242835}}, "features": [{"type": "Feature", "geometry": {"type": "LineString", "coordinates": [[123.50704729925116, 169.46224039252897], [130.3560965182265, 178.03388039224401], [134.4655260492641, 188.38664039220802], [138.46768459511122, 208.0123453098058]]}, "properties": {"osm_id": null, "type": "secondary", "width_m": 9, "extrude": false}}, {"type": "Feature", "geometry": {"type": "LineString", "coordinates": [[145.7926942929961, 205.38142930033686], [141.99948019013698, 186.71684039246898], [141.99948019013698, 168.68300039251892], [142.39085443127095, 163.22832039244858]]}, "properties": {"osm_id": null, "type": "secondary", "width_m": 9, "extrude": false}}, {"type": "Feature", "geometry": {"type": "LineString", "coordinates": [[118.71271284596841, 171.24336039238244], [119.29977420749555, 174.36032039242264], [119.98467912939309, 177.6999203922962], [121.74586321432211, 185.04704039233445], [121.8437067746925, 185.4923203923967], [126.71183198084312, 210.7447377474668]]}, "properties": {"osm_id": null, "type": "footway", "width_m": 2, "extrude": false}}, {"type": "Feature", "geometry": {"type": "LineString", "coordinates": [[133.07042511430654, 209.55049772127424], [132.70434196468267, 207.7563203923448], [130.55178363861967, 197.84884039244304], [129.3776609155654, 191.1696403923004], [129.18197379482461, 189.6111603922803], [128.59491243329745, 185.15836039244888], [128.49706887292706, 184.6017603922722], [128.1056946317931, 183.82252039226216], [127.127259029132, 182.3753603923565], [124.87685714304622, 179.03576039248293], [123.89842154038512, 177.81124039241064], [118.71271284596841, 171.24336039238244], [118.61486928559802, 171.132040392268], [108.3412954574826, 132.83796039245217], [106.67795493292397, 126.60404039237179], [102.95989964267272, 113.69092039254426], [99.04615723168068, 98.88536039235333], [98.75262655091711, 98.10612039234329], [98.26340874976037, 97.43820039244767], [97.57850382786283, 96.881600392271], [96.79575534559491, 96.65896039243762], [96.40438110446094, 96.65896039243762], [95.23025838105904, 96.54764039232319], [92.78416937458009, 96.881600392271], [86.52218151713188, 97.10424039249986], [75.95507700790529, 97.66084039228105], [66.07287742092385, 98.10612039234329], [64.99659825789234, 98.10612039234329], [63.528944853726884, 98.21744039245772], [62.3548221306726, 98.66272039251996], [62.061291449909035, 99.55328039224895], [62.061291449909035, 101.22308039238348], [63.23541417296332, 106.67776039245382], [64.80091113715156, 117.2531603922512], [69.00818422890717, 140.18508039249042], [70.96505543422937, 148.42276039225766], [72.23702171765405, 155.88120039241034], [75.17232852598498, 173.3584403925792], [79.28175805737018, 197.069600392433], [81.92283027402615, 211.98648039234286]]}, "properties": {"osm_id": null, "type": "footway", "width_m": 2, "extrude": false}}, {"type": "Feature", "geometry": {"type": "LineString", "coordinates": [[129.279817355195, 89.75712039246162], [129.86687871672214, 91.31560039248171], [130.06256583711533, 92.42880039243957], [130.64962719899006, 95.10048039241752], [132.2151241631783, 101.33440039249791], [133.1935597658394, 105.00796039231929], [134.07415180847775, 108.7928403922551], [135.4439616522728, 113.57960039242982], [136.03102301379994, 116.36260039252221], [136.7159279356975, 119.14560039221911], [138.6727991410197, 127.2719603922674], [141.02104458747587, 137.51340039251247], [146.0110661611518, 158.3302403925549], [146.30459684191536, 159.33212039239834], [146.59812752302653, 160.33400039224176], [147.0873453241833, 162.44908039243853], [147.47871956531725, 164.67548039235425], [147.87009380645122, 167.68112039228], [148.2614680475852, 170.01884039231015], [148.84852940911233, 171.91128039227806], [149.14206008987588, 173.3584403925792], [149.23990365024628, 174.69428039237044], [149.23990365024628, 176.69804039245278], [149.23990365024628, 178.47916039230626], [148.2614680475852, 182.48668039247093], [147.77225024608083, 183.37724039219992], [147.38087600494686, 183.9338403923766], [146.89165820379012, 184.82440039250108], [146.79381464341972, 185.60364039251112], [146.79381464341972, 185.8262803923445], [146.89165820379012, 186.93948039230236], [147.38087600494686, 188.27532039248908], [150.90324417480494, 201.41108039254547], [151.22991894817602, 203.0570439021254]]}, "properties": {"osm_id": null, "type": "footway", "width_m": 2, "extrude": false}}, {"type": "Feature", "geometry": {"type": "LineString", "coordinates": [[149.14206008987588, 173.3584403925792], [149.53343433100986, 174.13768039219377], [150.21833925290738, 175.58484039249493], [150.80540061443455, 178.03388039224401], [152.66442825973397, 186.27156039240674], [153.83855098278823, 191.28096039241484], [156.1233140082467, 200.42386705653357]]}, "properties": {"osm_id": null, "type": "footway", "width_m": 2, "extrude": false}}, {"type": "Feature", "geometry": {"type": "LineString", "coordinates": [[41.024925991826244, 29.19904039230218], [43.079640757518845, 36.546160392340425], [46.01494756550216, 51.129080392302484], [53.54890170637505, 88.7552403922227], [53.74458882676822, 89.42316039251381], [55.0165551101929, 94.4325603925219], [56.28852139396518, 101.22308039238348], [64.99659825789234, 150.87180039240224], [75.31421930726441, 211.98648039234286]]}, "properties": {"osm_id": null, "type": "residential", "width_m": 5, "extrude": false}}, {"type": "Feature", "geometry": {"type": "LineString", "coordinates": [[134.4655260492641, 188.38664039220802], [129.18197379482461, 189.6111603922803]]}, "properties": {"osm_id": null, "type": "footway", "width_m": 2, "extrude": false}}, {"type": "Feature", "geometry": {"type": "LineString", "coordinates": [[141.99948019013698, 186.71684039246898], [134.4655260492641, 188.38664039220802]]}, "properties": {"osm_id": null, "type": "footway", "width_m": 2, "extrude": false}}, {"type": "Feature", "geometry": {"type": "LineString", "coordinates": [[141.99948019013698, 186.71684039246898], [146.79381464341972, 185.60364039251112]]}, "properties": {"osm_id": null, "type": "footway", "width_m": 2, "extrude": false}}, {"type": "Feature", "geometry": {"type": "LineString", "coordinates": [[-23.46771720285569, 211.98648039234286], [-3.298206810425116, 152.6529203922557], [17.34678440652371, 96.21368039237538], [39.655116148031176, 35.32164039226814], [41.024925991826244, 29.19904039230218]]}, "properties": {"osm_id": null, "type": "residential", "width_m": 5, "extrude": false}}, {"type": "Feature", "geometry": {"type": "LineString", "coordinates": [[-196.19459106348344, 161.02527153892098], [-195.07158493930157, 157.77364039237824], [-176.9705262895497, 104.22872039230924], [-162.2939922489379, 63.15164039240102]]}, "properties": {"osm_id": null, "type": "secondary", "width_m": 9, "extrude": false}}, {"type": "Feature", "geometry": {"type": "LineString", "coordinates": [[64.99659825789234, 150.87180039240224], [-3.298206810425116, 152.6529203922557], [-134.40857757187976, 158.5528803923883], [-195.07158493930157, 157.77364039237824]]}, "properties": {"osm_id": null, "type": "residential", "width_m": 5, "extrude": false}}, {"type": "Feature", "geometry": {"type": "LineString", "coordinates": [[-173.937375921196, 58.47620039234073], [-189.98371980525525, 106.56644039233939], [-203.46857550227824, 145.63434044229126]]}, "properties": {"osm_id": null, "type": "secondary", "width_m": 9, "extrude": false}}, {"type": "Feature", "geometry": {"type": "LineString", "coordinates": [[128.1056946317931, 183.82252039226216], [121.8437067746925, 185.4923203923967]]}, "properties": {"osm_id": null, "type": "footway", "width_m": 2, "extrude": false}}, {"type": "Feature", "geometry": {"type": "LineString", "coordinates": [[210.7127743079627, 102.30449597426542], [209.21800609542294, 100.22120039254006], [205.69563792591248, 94.65520039235528], [199.04227582733031, 82.96660039220455], [195.0306898563155, 76.39872039257185], [181.23474785834202, 54.0234003925093], [177.51669256809078, 48.234760392491154], [171.25470471099018, 37.325400392350474], [160.49191308137043, 18.846280392338173], [157.26307559227592, 13.280280392548889], [156.28463998961482, 12.723680392372216], [155.01267370619013, 12.612360392257784], [154.71914302542658, 12.723680392372216], [153.4471767416543, 13.280280392548889], [149.0442165295055, 15.729320392297979], [140.7275139067123, 21.072680392253886], [135.83533589305915, 24.18964039229408], [135.4439616522728, 24.52360039224189], [133.487090446603, 26.082080392261986], [132.1172806028079, 31.75940039256119], [131.1388450001468, 36.100880392278185], [129.86687871672214, 41.44424039223409], [129.76903515635175, 42.1121603925252], [128.59491243329745, 49.57060039228239], [128.39922531255667, 50.795120392354676]]}, "properties": {"osm_id": null, "type": "footway", "width_m": 2, "extrude": false}}, {"type": "Feature", "geometry": {"type": "LineString", "coordinates": [[123.50704729925116, 169.46224039252897], [127.2251025895024, 170.57544039248683], [132.60649840431228, 170.68676039220577], [136.6180843753271, 169.46224039252897], [138.96632982178326, 167.79244039239444], [142.39085443127095, 163.22832039244858]]}, "properties": {"osm_id": null, "type": "service", "width_m": 3.5, "extrude": false}}, {"type": "Feature", "geometry": {"type": "LineString", "coordinates": [[142.39085443127095, 163.22832039244858], [136.8137714960679, 155.4359203923481], [131.43237568091038, 134.8417203925345]]}, "properties": {"osm_id": null, "type": "service", "width_m": 3.5, "extrude": false}}, {"type": "Feature", "geometry": {"type": "LineString", "coordinates": [[108.3412954574826, 132.83796039245217], [111.57013294622949, 132.05872039244213], [115.6795624776147, 131.0568403922032]]}, "properties": {"osm_id": null, "type": "footway", "width_m": 2, "extrude": false}}, {"type": "Feature", "geometry": {"type": "LineString", "coordinates": [[134.95474385076847, 128.05120039227745], [130.25825295785612, 129.05308039251636]]}, "properties": {"osm_id": null, "type": "footway", "width_m": 2, "extrude": false}}, {"type": "Feature", "geometry": {"type": "LineString", "coordinates": [[134.95474385076847, 128.05120039227745], [138.6727991410197, 127.2719603922674]]}, "properties": {"osm_id": null, "type": "footway", "width_m": 2, "extrude": false}}, {"type": "Feature", "geometry": {"type": "LineString", "coordinates": [[208.19030490788387, 125.62317979968938], [193.66088001252044, 133.72852039257666]]}, "properties": {"osm_id": null, "type": "footway", "width_m": 2, "extrude": false}}, {"type": "Feature", "geometry": {"type": "LineString", "coordinates": [[60.30010736498, 146.19636039234194], [60.39795092535039, 146.86428039223756], [60.30010736498, 147.3095603922998], [59.71304600345286, 147.86616039247647], [58.83245396081453, 148.42276039225766], [56.67989563475154, 148.5340803923721], [49.341628614619445, 148.8680403923199], [40.4378646302991, 149.09068039254876], [7.366741258824259, 149.53596039221551], [4.920652252345301, 149.53596039221551], [3.5508424085502313, 147.75484039236204], [4.529278011211336, 145.19448039249852], [6.094774975399583, 140.85300039238604], [10.302048067155186, 127.9398803925585], [13.139511314768107, 119.81352039251021], [16.75972304499657, 108.57020039242173], [19.89071697337306, 101.11176039226905]]}, "properties": {"osm_id": null, "type": "footway", "width_m": 2, "extrude": false}}, {"type": "Feature", "geometry": {"type": "LineString", "coordinates": [[19.89071697337306, 101.11176039226905], [20.282091214507023, 100.44384039237343], [21.358370377538524, 100.10988039242562], [23.21739802249034, 100.10988039242562], [33.68665897134654, 99.88724039219676], [47.48260096966763, 99.10800039218671], [49.04809793385587, 99.10800039218671], [50.320064217280546, 99.10800039218671], [51.10281269954848, 99.44196039253], [51.78771762144601, 100.332520392259], [52.374778982973154, 102.11364039250796], [52.863996784477514, 104.89664039220486], [54.62518086940654, 113.57960039242982], [60.30010736498, 146.19636039234194]]}, "properties": {"osm_id": null, "type": "footway", "width_m": 2, "extrude": false}}, {"type": "Feature", "geometry": {"type": "LineString", "coordinates": [[142.39085443127095, 163.22832039244858], [142.29301087090056, 158.5528803923883], [141.41241882860984, 153.3208403925468], [134.95474385076847, 128.05120039227745], [126.24666698684129, 93.31936039256405], [122.33292457584926, 77.62324039224865]]}, "properties": {"osm_id": null, "type": "secondary", "width_m": 9, "extrude": false}}, {"type": "Feature", "geometry": {"type": "LineString", "coordinates": [[121.64801965395172, 94.32124039240747], [126.24666698684129, 93.31936039256405], [130.06256583711533, 92.42880039243957]]}, "properties": {"osm_id": null, "type": "footway", "width_m": 2, "extrude": false}}, {"type": "Feature", "geometry": {"type": "LineString", "coordinates": [[82.41275198574668, 16.17460039236022], [90.43592392812391, 48.234760392491154], [99.43753147281465, 84.0798003925579], [101.19871555774368, 90.9816403925339], [111.57013294622949, 132.05872039244213], [118.90839996636159, 161.22456039236624], [123.50704729925116, 169.46224039252897]]}, "properties": {"osm_id": null, "type": "secondary", "width_m": 9, "extrude": false}}, {"type": "Feature", "geometry": {"type": "LineString", "coordinates": [[95.32810194142944, 86.30620039247361], [96.01300686332698, 91.42692039220066], [96.79575534559491, 96.65896039243762]]}, "properties": {"osm_id": null, "type": "footway", "width_m": 2, "extrude": false}}, {"type": "Feature", "geometry": {"type": "LineString", "coordinates": [[124.48548290191225, 159.33212039239834], [125.26823138418018, 161.1132403922518], [126.63804122797525, 162.44908039243853], [128.39922531255667, 163.339640392563], [130.3560965182265, 163.5622803923964], [132.2151241631783, 163.11700039233415], [133.87846468773697, 162.0038003923763], [134.95474385076847, 160.4453203923562], [135.5418052122956, 158.66420039250272], [135.4439616522728, 156.66044039242038], [128.49706887292706, 129.1644003922353], [119.8868355693703, 95.3231203922509], [106.97148561368753, 44.33856039244091], [100.90518487698012, 20.738720392306078], [100.51381063584616, 19.068920392567037], [99.43753147281465, 17.51044039254694], [97.9698780686492, 16.508560392308027], [96.30653754409055, 16.063280392245787], [94.44750989913874, 16.063280392245787], [92.78416937458009, 16.73120039253689], [91.5122030908078, 17.955720392213692], [90.63161104851709, 19.51420039223379], [90.24023680738313, 21.29532039248275], [90.5337674881467, 23.076440392336224], [96.40438110446094, 46.564960392356625], [105.40598864915168, 82.63264039225675], [117.34290300217334, 130.3889203923076], [124.48548290191225, 159.33212039239834]]}, "properties": {"osm_id": null, "type": "pedestrian", "width_m": 4, "extrude": false}}, {"type": "Feature", "geometry": {"type": "LineString", "coordinates": [[98.16556518938998, 14.727440392454554], [96.99144246598809, 14.50480039222569], [95.32810194142944, 14.282160392392313], [93.7626049772412, 14.50480039222569], [91.6100466511782, 15.172720392516794], [90.63161104851709, 15.951960392526843], [89.653175445856, 17.176480392203644], [88.77258340356528, 18.73496039222374], [88.38120916243132, 20.516080392472702], [88.38120916243132, 22.0745603924928], [88.67473984319489, 23.855680392346272], [91.6100466511782, 36.100880392278185], [94.54535345950913, 47.1215603925333], [96.69791178522452, 55.2479203921861], [100.80734131660972, 71.8346003922305], [103.64480456457025, 83.07792039231899], [106.48226781218318, 94.20992039229304], [110.68954090393878, 111.35320039251411], [114.5054397542128, 126.04744039219511], [115.6795624776147, 131.0568403922032], [119.39761776786594, 145.97372039250857], [123.01782949774679, 160.22268039252282], [123.40920373888076, 161.33588039248068], [124.09410866077829, 162.3377603923241], [125.17038782380979, 163.45096039228196], [126.1488234264709, 164.230200392292], [127.71432039065914, 164.89812039218762], [128.98628667443143, 165.23208039253092], [130.74747075901286, 165.12076039241649], [132.99787264544625, 164.67548039235425], [134.66121317000488, 163.5622803923964]]}, "properties": {"osm_id": null, "type": "footway", "width_m": 2, "extrude": false}}, {"type": "Feature", "geometry": {"type": "LineString", "coordinates": [[62.94188349219974, 89.089200392566], [53.74458882676822, 89.42316039251381], [48.55888013269912, 89.64580039234718]]}, "properties": {"osm_id": null, "type": "footway", "width_m": 2, "extrude": false}}, {"type": "Feature", "geometry": {"type": "LineString", "coordinates": [[107.94992121634864, 41.77820039257739], [109.22188749977332, 46.231000392408816], [109.31973106014371, 46.564960392356625], [110.59169734356838, 50.683800392240244], [115.6795624776147, 70.72140039227264], [120.18036625013387, 88.97788039245157], [121.64801965395172, 94.32124039240747], [124.68117002230544, 104.67400039237148], [129.86687871672214, 127.04932039243403], [130.25825295785612, 129.05308039251636], [131.33453212088762, 133.5058803923478]]}, "properties": {"osm_id": null, "type": "footway", "width_m": 2, "extrude": false}}, {"type": "Feature", "geometry": {"type": "LineString", "coordinates": [[95.62163262219302, 84.97036039228689], [99.43753147281465, 84.0798003925579], [103.64480456457025, 83.07792039231899]]}, "properties": {"osm_id": null, "type": "footway", "width_m": 2, "extrude": false}}, {"type": "Feature", "geometry": {"type": "LineString", "coordinates": [[126.83372834836842, 78.17984039242532], [128.1056946317931, 84.85904039256795], [129.279817355195, 89.75712039246162]]}, "properties": {"osm_id": null, "type": "footway", "width_m": 2, "extrude": false}}, {"type": "Feature", "geometry": {"type": "LineString", "coordinates": [[126.54019766760486, 65.04408039236893], [126.24666698684129, 67.60444039223245], [126.1488234264709, 72.39120039240717], [126.83372834836842, 78.17984039242532]]}, "properties": {"osm_id": null, "type": "footway", "width_m": 2, "extrude": false}}, {"type": "Feature", "geometry": {"type": "LineString", "coordinates": [[24.58720786628541, 90.53636039247166], [26.446235511584838, 86.30620039247361], [28.892324518411407, 79.18172039226874], [34.27372033322129, 64.0422003925255], [39.068054786504035, 50.46116039240687], [39.26374190689721, 50.01588039234463], [39.85080326842435, 49.68192039239682], [40.34002106992871, 49.68192039239682], [40.73139531106267, 49.904560392230195], [40.92708243145585, 50.683800392240244], [41.22061311221942, 52.1309603925414], [41.90551803411695, 56.36112039253945], [43.96023279980956, 66.71388039250346], [46.308478246265736, 78.7364403922065], [47.87397521080159, 86.19488039235918], [48.55888013269912, 89.64580039234718], [48.65672369272191, 90.09108039240942], [48.65672369272191, 90.64768039219061], [48.16750589156516, 91.20428039236728], [46.308478246265736, 91.31560039248171], [28.794480958041014, 91.98352039237733], [26.348391951214445, 92.09484039249176], [25.369956348553337, 92.09484039249176], [24.88073854739659, 91.76088039254395], [24.58720786628541, 90.53636039247166]]}, "properties": {"osm_id": null, "type": "footway", "width_m": 2, "extrude": false}}, {"type": "Feature", "geometry": {"type": "LineString", "coordinates": [[158.53504187570059, 11.499160392299927], [162.8401585278266, 18.512320392390365], [210.7835030599588, 96.43632039299973]]}, "properties": {"osm_id": null, "type": "residential", "width_m": 5, "extrude": false}}, {"type": "Feature", "geometry": {"type": "LineString", "coordinates": [[128.39922531255667, 50.795120392354676], [126.54019766760486, 65.04408039236893]]}, "properties": {"osm_id": null, "type": "footway", "width_m": 2, "extrude": false}}, {"type": "Feature", "geometry": {"type": "LineString", "coordinates": [[128.59491243329745, 49.57060039228239], [145.52184835999503, 57.029040392435064], [152.0773668978592, 64.0422003925255]]}, "properties": {"osm_id": null, "type": "pedestrian", "width_m": 4, "extrude": false}}, {"type": "Feature", "geometry": {"type": "LineString", "coordinates": [[122.33292457584926, 77.62324039224865], [122.62645525661283, 66.49124039227459], [122.72429881698322, 53.689440392561494], [123.21351661848757, 47.1215603925333], [124.58332646228266, 40.88764039245291], [125.95313630607772, 34.31976039242471], [129.3776609155654, 24.63492039235632]]}, "properties": {"osm_id": null, "type": "tertiary", "width_m": 7, "extrude": false}}, {"type": "Feature", "geometry": {"type": "LineString", "coordinates": [[41.22061311221942, 52.1309603925414], [46.01494756550216, 51.129080392302484], [54.038119507531796, 49.45928039256344]]}, "properties": {"osm_id": null, "type": "footway", "width_m": 2, "extrude": false}}, {"type": "Feature", "geometry": {"type": "LineString", "coordinates": [[-211.65830121474664, 106.27969713251161], [-189.98371980525525, 106.56644039233939]]}, "properties": {"osm_id": null, "type": "residential", "width_m": 5, "extrude": false}}, {"type": "Feature", "geometry": {"type": "LineString", "coordinates": [[-176.9705262895497, 104.22872039230924], [-169.24088502793603, 104.11740039219481], [-122.5695067792285, 102.78156039240358], [-113.56789923453776, 102.67024039228914], [-106.81669357593282, 102.5589203925702], [-7.114105661046754, 98.55140039240553], [11.671857910950255, 97.77216039239548], [17.34678440652371, 96.21368039237538], [23.902302944387877, 95.10048039241752], [48.95025437348548, 94.0986003925741], [55.0165551101929, 94.4325603925219], [60.30010736498, 94.4325603925219], [96.01300686332698, 91.42692039220066], [101.19871555774368, 90.9816403925339]]}, "properties": {"osm_id": null, "type": "residential", "width_m": 5, "extrude": false}}, {"type": "Feature", "geometry": {"type": "LineString", "coordinates": [[-191.94059101057746, 75.39684039233293], [-196.24570766270347, 95.21180039253196]]}, "properties": {"osm_id": null, "type": "service", "width_m": 3.5, "extrude": false}}, {"type": "Feature", "geometry": {"type": "LineString", "coordinates": [[-211.90067730597636, 68.04160800342544], [-191.94059101057746, 75.39684039233293], [-188.80959708220098, 66.15728039232678], [-211.90067730597636, 58.48599655236029]]}, "properties": {"osm_id": null, "type": "service", "width_m": 3.5, "extrude": false}}, {"type": "Feature", "geometry": {"type": "LineString", "coordinates": [[-7.407636341810324, -191.10323960754428], [-65.82024182279874, -27.574159607525957], [-69.04907931189322, -19.447799607477663], [-70.3210455953179, -15.885559607770716], [-73.74557020480557, -8.204479607784663], [-113.56789923453776, 102.67024039228914], [-134.40857757187976, 158.5528803923883], [-150.44873788076717, 203.9407982882807]]}, "properties": {"osm_id": null, "type": "pedestrian", "width_m": 4, "extrude": false}}, {"type": "Feature", "geometry": {"type": "LineString", "coordinates": [[87.20708643902942, 49.12532039222015], [90.43592392812391, 48.234760392491154], [94.54535345950913, 47.1215603925333]]}, "properties": {"osm_id": null, "type": "footway", "width_m": 2, "extrude": false}}, {"type": "Feature", "geometry": {"type": "LineString", "coordinates": [[113.13562991076535, 42.891400392535246], [109.22188749977332, 46.231000392408816]]}, "properties": {"osm_id": null, "type": "footway", "width_m": 2, "extrude": false}}, {"type": "Feature", "geometry": {"type": "LineString", "coordinates": [[122.33292457584926, 77.62324039224865], [118.41918216520483, 67.27048039228464], [114.21190907344923, 47.1215603925333], [113.13562991076535, 42.891400392535246], [107.3628598548215, 20.293440392243838], [104.134022365727, 14.727440392454554], [99.82890571394861, 10.052000392394262]]}, "properties": {"osm_id": null, "type": "secondary", "width_m": 9, "extrude": false}}, {"type": "Feature", "geometry": {"type": "LineString", "coordinates": [[124.58332646228266, 40.88764039245291], [129.76903515635175, 42.1121603925252]]}, "properties": {"osm_id": null, "type": "footway", "width_m": 2, "extrude": false}}, {"type": "Feature", "geometry": {"type": "LineString", "coordinates": [[113.13562991076535, 42.891400392535246], [116.56015451990541, 38.88388039237057], [124.58332646228266, 40.88764039245291]]}, "properties": {"osm_id": null, "type": "footway", "width_m": 2, "extrude": false}}, {"type": "Feature", "geometry": {"type": "LineString", "coordinates": [[95.71947618256341, 84.0798003925579], [87.89199136092695, 52.24228039226034], [87.20708643902942, 49.12532039222015], [80.55372434079486, 18.623640392504797], [78.10763533396829, 7.936920392197493], [72.13917815763126, -10.096919607752568], [71.64996035612691, -11.76671960749161], [71.35642967536334, -12.545959607501658], [70.86721187420659, -12.991239607563898], [69.88877627119787, -13.770479607573947], [68.91034066853678, -13.99311960780281], [65.87719030018306, -13.881799607688379], [62.3548221306726, -13.659159607459515], [61.082855846900316, -11.878039607606041], [60.104420244239215, -9.31767960774252], [55.31008579130408, 3.0388403923038254], [52.47262254334355, 10.608600392570935], [50.12437709688737, 17.0651603924847], [49.43947217498984, 20.85004039242051], [49.8308464161238, 28.642440392520996], [54.038119507531796, 49.45928039256344], [59.12598464157811, 74.50628039220845], [60.39795092535039, 80.85152039240327], [60.88716872650714, 85.74960039229694], [60.985012286877534, 88.19864039244152], [62.94188349219974, 89.089200392566], [64.70306757712878, 88.97788039245157], [67.24700014397813, 88.86656039233713], [75.07448496561459, 88.19864039244152], [94.54535345950913, 86.97412039236923], [95.32810194142944, 86.30620039247361], [95.62163262219302, 85.41564039234913], [95.62163262219302, 84.97036039228689], [95.71947618256341, 84.0798003925579]]}, "properties": {"osm_id": null, "type": "footway", "width_m": 2, "extrude": false}}, {"type": "Feature", "geometry": {"type": "LineString", "coordinates": [[107.75423409560786, 40.99896039256734], [101.78577691927083, 17.621760392265884], [99.82890571394861, 10.052000392394262]]}, "properties": {"osm_id": null, "type": "service", "width_m": 3.5, "extrude": false}}, {"type": "Feature", "geometry": {"type": "LineString", "coordinates": [[-162.2939922489379, 63.15164039240102], [-166.20773465958231, 61.37052039254755], [-169.33872858830642, 60.2573203921942], [-173.937375921196, 58.47620039234073]]}, "properties": {"osm_id": null, "type": "residential", "width_m": 5, "extrude": false}}, {"type": "Feature", "geometry": {"type": "LineString", "coordinates": [[-173.937375921196, 58.47620039234073], [-211.90067730597636, 45.57718428352061]]}, "properties": {"osm_id": null, "type": "residential", "width_m": 5, "extrude": false}}, {"type": "Feature", "geometry": {"type": "LineString", "coordinates": [[-169.63225926907, 45.5630803925132], [-164.74008125576447, 47.1215603925333], [-161.3155566462768, 48.3460803922101], [-156.42337863262367, 49.904560392230195]]}, "properties": {"osm_id": null, "type": "footway", "width_m": 2, "extrude": false}}, {"type": "Feature", "geometry": {"type": "LineString", "coordinates": [[-7.114105661046754, 98.55140039240553], [-33.531866933939426, -22.78739960774672]]}, "properties": {"osm_id": null, "type": "residential", "width_m": 5, "extrude": false}}, {"type": "Feature", "geometry": {"type": "LineString", "coordinates": [[-151.9225748604521, -5.644119607525653], [-169.63225926907, 45.5630803925132], [-171.784817595133, 52.35360039237477], [-173.937375921196, 58.47620039234073]]}, "properties": {"osm_id": null, "type": "secondary", "width_m": 9, "extrude": false}}, {"type": "Feature", "geometry": {"type": "LineString", "coordinates": [[191.41047812643464, 15.506680392464602], [179.1800330926494, 15.618000392579034], [178.78865885151546, 16.397240392193595], [172.2331403136513, 28.75376039223994]]}, "properties": {"osm_id": null, "type": "footway", "width_m": 2, "extrude": false}}, {"type": "Feature", "geometry": {"type": "LineString", "coordinates": [[47.189070288904055, 10.052000392394262], [41.024925991826244, 29.19904039230218]]}, "properties": {"osm_id": null, "type": "residential", "width_m": 5, "extrude": false}}, {"type": "Feature", "geometry": {"type": "LineString", "coordinates": [[137.30298929722463, 12.278400392309976], [136.03102301379994, 20.85004039242051], [135.4439616522728, 24.52360039224189]]}, "properties": {"osm_id": null, "type": "footway", "width_m": 2, "extrude": false}}, {"type": "Feature", "geometry": {"type": "LineString", "coordinates": [[195.12853341668588, 12.946320392205592], [195.12853341668588, 15.506680392464602], [195.32422053707907, 23.521720392398464]]}, "properties": {"osm_id": null, "type": "service", "width_m": 3.5, "extrude": false}}, {"type": "Feature", "geometry": {"type": "LineString", "coordinates": [[129.3776609155654, 24.63492039235632], [136.03102301379994, 20.85004039242051], [153.74070742241784, 10.942560392518743], [158.53504187570059, 11.499160392299927]]}, "properties": {"osm_id": null, "type": "residential", "width_m": 5, "extrude": false}}, {"type": "Feature", "geometry": {"type": "LineString", "coordinates": [[160.49191308137043, 18.846280392338173], [162.8401585278266, 18.512320392390365], [178.78865885151546, 16.397240392193595]]}, "properties": {"osm_id": null, "type": "footway", "width_m": 2, "extrude": false}}, {"type": "Feature", "geometry": {"type": "LineString", "coordinates": [[198.94443226730752, 15.506680392464602], [195.12853341668588, 15.506680392464602], [191.41047812643464, 15.506680392464602]]}, "properties": {"osm_id": null, "type": "footway", "width_m": 2, "extrude": false}}, {"type": "Feature", "geometry": {"type": "LineString", "coordinates": [[99.82890571394861, 10.052000392394262], [95.42594550179983, 9.050120392550838], [90.5337674881467, 10.38596039234207], [85.15237167333682, 14.170840392277881], [82.41275198574668, 16.17460039236022]]}, "properties": {"osm_id": null, "type": "service", "width_m": 3.5, "extrude": false}}, {"type": "Feature", "geometry": {"type": "LineString", "coordinates": [[210.7835030599588, 15.539375777008502], [202.56464399718837, 15.506680392464602], [200.80345991225934, 15.506680392464602], [198.94443226730752, 15.506680392464602]]}, "properties": {"osm_id": null, "type": "footway", "width_m": 2, "extrude": false}}, {"type": "Feature", "geometry": {"type": "LineString", "coordinates": [[150.90324417480494, 5.821840392396211], [153.74070742241784, 10.942560392518743], [154.71914302542658, 12.723680392372216]]}, "properties": {"osm_id": null, "type": "footway", "width_m": 2, "extrude": false}}, {"type": "Feature", "geometry": {"type": "LineString", "coordinates": [[139.25986050254684, 2.0369603924604007], [139.5533911833104, 0.5898003925547357], [140.23829610520795, -0.8573596077464174], [141.51026238898024, -1.859239607589842], [143.36929003393206, -2.5271596074854585], [145.1304741188611, -2.5271596074854585], [146.79381464341972, -2.081879607423218], [147.96793736682162, -1.3026396078086577], [149.23990365024628, 0.5898003925547357], [150.70755705406415, 3.2614803925326896], [150.90324417480494, 3.818080392313874], [151.1967748555685, 4.263360392376114], [151.00108773517533, 5.487880392448403], [150.90324417480494, 5.821840392396211], [150.31618281327778, 6.823720392239636], [147.96793736682162, 8.382200392259733], [142.29301087090056, 11.721800392528792], [139.94476542444437, 12.946320392205592], [138.7706427013901, 13.168960392434457], [137.89005065875176, 12.946320392205592], [137.30298929722463, 12.278400392309976], [137.49867641761782, 10.608600392570935], [138.18358133951534, 7.157680392187444], [139.25986050254684, 2.0369603924604007]]}, "properties": {"osm_id": null, "type": "footway", "width_m": 2, "extrude": false}}, {"type": "Feature", "geometry": {"type": "LineString", "coordinates": [[46.699852487399696, -0.41207960768417706], [47.38475740929724, 4.040720392542738], [47.189070288904055, 10.052000392394262]]}, "properties": {"osm_id": null, "type": "residential", "width_m": 5, "extrude": false}}, {"type": "Feature", "geometry": {"type": "LineString", "coordinates": [[150.90324417480494, 3.818080392313874], [153.4471767416543, 2.370920392408209], [155.89326574848084, 1.035080392221488]]}, "properties": {"osm_id": null, "type": "footway", "width_m": 2, "extrude": false}}, {"type": "Feature", "geometry": {"type": "LineString", "coordinates": [[129.3776609155654, 24.63492039235632], [138.08573777949255, -5.087519607744468], [140.7275139067123, -20.56099960743552]]}, "properties": {"osm_id": null, "type": "tertiary", "width_m": 7, "extrude": false}}, {"type": "Feature", "geometry": {"type": "LineString", "coordinates": [[73.31330088068555, -14.438399607469563], [76.44429480940966, -7.425239607774614], [82.41275198574668, 16.17460039236022]]}, "properties": {"osm_id": null, "type": "secondary", "width_m": 9, "extrude": false}}, {"type": "Feature", "geometry": {"type": "LineString", "coordinates": [[47.189070288904055, 10.052000392394262], [50.809282018784906, 5.153920392500595], [57.1691134362559, -10.54219960741932], [61.66991720877507, -16.108199607604092]]}, "properties": {"osm_id": null, "type": "residential", "width_m": 5, "extrude": false}}, {"type": "Feature", "geometry": {"type": "LineString", "coordinates": [[99.82890571394861, 10.052000392394262], [92.6863258142097, 2.259600392293777], [81.140785702322, -13.10255960767833], [76.54213836978005, -17.889319607457566]]}, "properties": {"osm_id": null, "type": "secondary", "width_m": 9, "extrude": false}}, {"type": "Feature", "geometry": {"type": "LineString", "coordinates": [[158.53504187570059, 11.499160392299927], [153.4471767416543, 2.370920392408209], [143.760664275066, -15.106319607760668], [140.7275139067123, -20.56099960743552]]}, "properties": {"osm_id": null, "type": "residential", "width_m": 5, "extrude": false}}, {"type": "Feature", "geometry": {"type": "LineString", "coordinates": [[59.12598464157811, -21.78551960750781], [52.57046610371394, -17.77799960773862], [48.754567253092304, -6.6459996077645656], [46.699852487399696, -0.41207960768417706]]}, "properties": {"osm_id": null, "type": "residential", "width_m": 5, "extrude": false}}, {"type": "Feature", "geometry": {"type": "LineString", "coordinates": [[145.42400479962464, -21.78551960750781], [143.760664275066, -15.106319607760668], [140.23829610520795, -0.8573596077464174]]}, "properties": {"osm_id": null, "type": "footway", "width_m": 2, "extrude": false}}, {"type": "Feature", "geometry": {"type": "LineString", "coordinates": [[73.31330088068555, -14.438399607469563], [75.17232852598498, -15.99687960748966], [76.54213836978005, -17.889319607457566]]}, "properties": {"osm_id": null, "type": "secondary", "width_m": 9, "extrude": false}}, {"type": "Feature", "geometry": {"type": "LineString", "coordinates": [[37.20902714120461, -32.80619960776292], [41.70983091372378, -29.243959607660486], [45.03651196284106, -11.432759607543801], [46.699852487399696, -0.41207960768417706]]}, "properties": {"osm_id": null, "type": "residential", "width_m": 5, "extrude": false}}, {"type": "Feature", "geometry": {"type": "LineString", "coordinates": [[62.061291449909035, -29.243959607660486], [59.71304600345286, -25.904359607786915], [59.12598464157811, -21.78551960750781], [59.908733123846034, -18.668559607467614], [61.66991720877507, -16.108199607604092], [65.09444181826274, -13.770479607573947], [69.30171490967074, -13.213879607792762], [73.31330088068555, -14.438399607469563]]}, "properties": {"osm_id": null, "type": "secondary", "width_m": 9, "extrude": false}}, {"type": "Feature", "geometry": {"type": "LineString", "coordinates": [[76.54213836978005, -17.889319607457566], [77.81410465320472, -22.008159607736673], [76.93351261091401, -26.238319607734724], [74.29173648334665, -29.689239607722726], [70.37799407270224, -31.58167960769063]]}, "properties": {"osm_id": null, "type": "secondary", "width_m": 9, "extrude": false}}, {"type": "Feature", "geometry": {"type": "LineString", "coordinates": [[41.70983091372378, -29.243959607660486], [50.71143845841451, -22.898719607465665], [59.12598464157811, -21.78551960750781]]}, "properties": {"osm_id": null, "type": "residential", "width_m": 5, "extrude": false}}, {"type": "Feature", "geometry": {"type": "LineString", "coordinates": [[66.17072098094663, -31.58167960769063], [62.061291449909035, -29.243959607660486]]}, "properties": {"osm_id": null, "type": "secondary", "width_m": 9, "extrude": false}}, {"type": "Feature", "geometry": {"type": "LineString", "coordinates": [[70.37799407270224, -31.58167960769063], [66.17072098094663, -31.58167960769063]]}, "properties": {"osm_id": null, "type": "secondary", "width_m": 9, "extrude": false}}, {"type": "Feature", "geometry": {"type": "LineString", "coordinates": [[30.35997792222926, -38.70615960750001], [26.641922631978016, -39.708039607738925], [20.67346545564099, -40.487279607748974], [-38.81541918837892, -26.349639607453668], [-63.37415281597217, -20.56099960743552], [-69.04907931189322, -19.447799607477663], [-77.65931261545, -17.77799960773862], [-129.41855599820386, -8.983719607794711], [-137.34388438021068, -7.870519607441366], [-140.3770347485644, -7.425239607774614], [-146.93255328642857, -6.423359607535701], [-151.9225748604521, -5.644119607525653]]}, "properties": {"osm_id": null, "type": "tertiary", "width_m": 7, "extrude": false}}, {"type": "Feature", "geometry": {"type": "LineString", "coordinates": [[-70.3210455953179, -15.885559607770716], [-64.93964978050802, -15.217639607479612], [-37.34776578421346, -21.89683960762224], [-33.531866933939426, -22.78739960774672], [22.6303366609632, -36.25711960775092], [26.73976619234841, -36.70239960781316], [32.61037980866265, -34.9212796075642], [37.20902714120461, -32.80619960776292]]}, "properties": {"osm_id": null, "type": "tertiary", "width_m": 7, "extrude": false}}, {"type": "Feature", "geometry": {"type": "LineString", "coordinates": [[-131.47327076389647, -33.028839607596296], [-129.02718175706988, -32.138279607471816]]}, "properties": {"osm_id": null, "type": "footway", "width_m": 2, "extrude": false}}, {"type": "Feature", "geometry": {"type": "LineString", "coordinates": [[-137.2460408198403, -34.9212796075642], [-134.50642113225015, -34.03071960743972], [-131.47327076389647, -33.028839607596296]]}, "properties": {"osm_id": null, "type": "footway", "width_m": 2, "extrude": false}}, {"type": "Feature", "geometry": {"type": "LineString", "coordinates": [[-141.6490010319891, -36.4797596075843], [-137.2460408198403, -34.9212796075642]]}, "properties": {"osm_id": null, "type": "footway", "width_m": 2, "extrude": false}}, {"type": "Feature", "geometry": {"type": "LineString", "coordinates": [[-162.2939922489379, 63.15164039240102], [-156.42337863262367, 49.904560392230195], [-137.34388438021068, -7.870519607441366], [-129.02718175706988, -32.138279607471816], [-111.02396666768841, -84.34735960774958], [-87.73719932317223, -152.14123960743734]]}, "properties": {"osm_id": null, "type": "secondary", "width_m": 9, "extrude": false}}, {"type": "Feature", "geometry": {"type": "LineString", "coordinates": [[-194.38668001740405, -45.27403960752821], [-211.90067730597636, -50.050184040662344]]}, "properties": {"osm_id": null, "type": "residential", "width_m": 5, "extrude": false}}, {"type": "Feature", "geometry": {"type": "LineString", "coordinates": [[62.061291449909035, -29.243959607660486], [50.809282018784906, -33.808079607606345], [30.35997792222926, -38.70615960750001]]}, "properties": {"osm_id": null, "type": "tertiary", "width_m": 7, "extrude": false}}, {"type": "Feature", "geometry": {"type": "LineString", "coordinates": [[158.53504187570059, 11.499160392299927], [165.8733088961803, 12.946320392205592], [195.12853341668588, 12.946320392205592], [210.7835030599588, 12.859010588527724]]}, "properties": {"osm_id": null, "type": "residential", "width_m": 5, "extrude": false}}, {"type": "Feature", "geometry": {"type": "LineString", "coordinates": [[140.7275139067123, -20.56099960743552], [146.89165820379012, -67.64935960759075]]}, "properties": {"osm_id": null, "type": "tertiary", "width_m": 7, "extrude": false}}, {"type": "Feature", "geometry": {"type": "LineString", "coordinates": [[168.41724146302965, 7.602960392249685], [161.3725051236611, 7.491640392530741], [160.49191308137043, 7.3803203924163086], [159.31779035796853, 6.935040392354068], [158.43719831567782, 5.710520392281779], [155.89326574848084, 1.035080392221488], [155.69757862808768, 0.5898003925547357], [151.00108773517533, -8.427119607618039], [149.33774721026907, -11.544079607658233], [145.42400479962464, -21.78551960750781], [144.7390998777271, -23.455319607642338], [144.7390998777271, -25.459079607724675], [146.50028396265614, -42.26839960760245], [151.49030553633207, -75.55307960780567], [152.95795894049752, -86.12847960760305], [153.4471767416543, -89.46807960747662], [155.4040479473241, -103.27175960742863], [155.99110930885124, -106.83399960753107], [158.82857255646417, -108.5037996076656], [162.93800208784938, -108.61511960778003], [165.48193465504633, -108.72643960749897], [173.40726303670556, -109.06039960744678], [188.8665455595853, -109.50567960750902], [210.00075457769088, -110.28491960751907], [210.7835030599588, -110.31562857286332]]}, "properties": {"osm_id": null, "type": "footway", "width_m": 2, "extrude": false}}, {"type": "Feature", "geometry": {"type": "LineString", "coordinates": [[210.7835030599588, 7.6930567662287785], [168.41724146302965, 7.602960392249685]]}, "properties": {"osm_id": null, "type": "footway", "width_m": 2, "extrude": false}}, {"type": "Feature", "geometry": {"type": "LineString", "coordinates": [[87.59846068016338, -73.54931960772333], [87.10924287900664, -71.65687960775543], [81.43431638308557, -50.28343960753631], [77.91194821357512, -43.381599607560304], [73.31330088068555, -38.59483960778107], [70.37799407270224, -31.58167960769063]]}, "properties": {"osm_id": null, "type": "residential", "width_m": 5, "extrude": false}}, {"type": "Feature", "geometry": {"type": "LineString", "coordinates": [[87.59846068016338, -73.54931960772333], [90.5337674881467, -73.32667960749447], [143.17360291353887, -67.98331960753856], [146.89165820379012, -67.64935960759075]]}, "properties": {"osm_id": null, "type": "pedestrian", "width_m": 4, "extrude": false}}, {"type": "Feature", "geometry": {"type": "LineString", "coordinates": [[49.43947217498984, -78.11343960766919], [84.95668455294364, -72.10215960742218]]}, "properties": {"osm_id": null, "type": "pedestrian", "width_m": 4, "extrude": false}}, {"type": "Feature", "geometry": {"type": "LineString", "coordinates": [[-135.68054385565205, -54.17963960758655], [-184.3087933096818, -71.43423960752656], [-189.6901891244917, -75.21911960746237]]}, "properties": {"osm_id": null, "type": "residential", "width_m": 5, "extrude": false}}, {"type": "Feature", "geometry": {"type": "LineString", "coordinates": [[-211.90067730597636, 24.521219216608472], [-194.38668001740405, -45.27403960752821], [-189.3966584437281, -66.31351960779952], [-189.6901891244917, -75.21911960746237], [-189.7880326848621, -79.56059960757486], [-197.22414326536457, -109.72831960773789], [-211.90067730597636, -175.8850696094096]]}, "properties": {"osm_id": null, "type": "residential", "width_m": 5, "extrude": false}}, {"type": "Feature", "geometry": {"type": "LineString", "coordinates": [[-100.55470571883221, -156.03743960748758], [-123.64578594226, -88.80015960758101], [-126.48324919022053, -80.78511960764715], [-135.68054385565205, -54.17963960758655], [-141.6490010319891, -36.4797596075843], [-150.16139077552307, -10.54219960741932], [-151.9225748604521, -5.644119607525653]]}, "properties": {"osm_id": null, "type": "secondary", "width_m": 9, "extrude": false}}, {"type": "Feature", "geometry": {"type": "LineString", "coordinates": [[-113.56789923453776, -85.23791960747857], [-111.02396666768841, -84.34735960774958]]}, "properties": {"osm_id": null, "type": "footway", "width_m": 2, "extrude": false}}, {"type": "Feature", "geometry": {"type": "LineString", "coordinates": [[-119.53635641087479, -87.35299960767534], [-116.60104960289148, -86.35111960743643], [-113.56789923453776, -85.23791960747857]]}, "properties": {"osm_id": null, "type": "footway", "width_m": 2, "extrude": false}}, {"type": "Feature", "geometry": {"type": "LineString", "coordinates": [[-123.64578594226, -88.80015960758101], [-119.53635641087479, -87.35299960767534]]}, "properties": {"osm_id": null, "type": "footway", "width_m": 2, "extrude": false}}, {"type": "Feature", "geometry": {"type": "LineString", "coordinates": [[161.7638793647951, -198.6729996078114], [159.12210323757535, -202.23523960751834], [158.73072899644137, -202.90315960780944], [153.74070742241784, -203.3484396074762], [133.3892468865802, -205.12955960772516], [127.51863327026597, -205.46351960767296], [126.24666698684129, -205.35219960755853], [125.46391850457336, -204.79559960777735], [125.26823138418018, -204.46163960743405], [124.77901358267583, -203.79371960753843], [124.48548290191225, -202.34655960763277], [123.01782949774679, -195.5560396077712], [120.767427611661, -185.31459960752613], [117.92996436370048, -173.06939960759422], [115.28818823648074, -163.2732396078069], [115.09250111608756, -162.49399960779684], [114.6032833145832, -162.16003960745354], [113.7226912722925, -162.0487196077346], [112.5485685488906, -161.93739960762016], [112.15719430775663, -161.7147596077868], [111.76582006697028, -161.15815960761012], [111.4722893858591, -160.04495960765226], [109.90679242167084, -152.80915960772845], [107.16717273408071, -141.0092396074633], [103.25343032343629, -123.08671960762766], [100.12243639471218, -109.95095960757126], [99.33968791244426, -106.72267960781213], [94.8388841402727, -89.13411960752882], [90.5337674881467, -73.32667960749447], [89.653175445856, -69.9870796076209], [85.54374591447078, -54.51359960753436], [84.07609251030532, -48.836279607630644], [82.70628266685786, -43.60423960778917], [80.84725502155842, -37.03635960776097], [81.140785702322, -27.574159607525957], [84.56531031180967, -17.555359607509757], [86.62002507750228, -12.545959607501658], [92.5884822538393, -4.530919607567796], [102.37283828079796, 7.714280392364117], [110.49385378319799, 18.067040392328124], [111.76582006697028, 23.521720392398464], [115.19034467611034, 37.65936039229828], [115.48387535722152, 38.3272803921939], [115.87524959800787, 38.77256039225614], [116.56015451990541, 38.88388039237057], [117.34290300217334, 38.77256039225614], [117.92996436370048, 38.54992039242276], [118.41918216520483, 37.88200039252715], [119.00624352673198, 35.98956039255924], [120.08252268976348, 32.87260039251905], [131.53021924128078, 0.5898003925547357], [133.78062112736657, -4.530919607567796], [136.22671013419313, -20.67231960754995], [140.43398322594874, -49.50419960752626], [143.17360291353887, -67.98331960753856], [143.9563513954592, -73.32667960749447], [147.67440668571044, -98.26235960742054], [148.45715516797836, -103.38307960754307], [148.55499872834875, -104.16231960755312], [150.70755705406415, -118.74523960751517], [161.7638793647951, -198.6729996078114]]}, "properties": {"osm_id": null, "type": "footway", "width_m": 2, "extrude": false}}, {"type": "Feature", "geometry": {"type": "LineString", "coordinates": [[151.39246197596168, -67.76067960770519], [153.83855098278823, -86.12847960760305], [156.48032711000798, -106.50003960758326], [158.73072899644137, -108.28115960743673], [173.99432439858032, -108.8377596076134], [174.77707288050064, -89.24543960764325], [174.38569863936667, -87.01903960772754], [174.0921679586031, -85.23791960747857], [174.2878550793439, -80.11719960775153], [174.48354219973706, -71.99083960770324], [174.67922932047784, -66.5361596076329], [166.36252669733705, -66.98143960769514], [151.39246197596168, -67.76067960770519]]}, "properties": {"osm_id": null, "type": "pedestrian", "width_m": 4, "extrude": false}}, {"type": "Feature", "geometry": {"type": "LineString", "coordinates": [[152.95795894049752, -86.12847960760305], [153.83855098278823, -86.12847960760305], [174.38569863936667, -87.01903960772754], [210.7835030599588, -88.59660303625958]]}, "properties": {"osm_id": null, "type": "footway", "width_m": 2, "extrude": false}}, {"type": "Feature", "geometry": {"type": "LineString", "coordinates": [[155.4040479473241, -103.27175960742863], [152.86011538012713, -103.60571960777193], [148.55499872834875, -104.16231960755312]]}, "properties": {"osm_id": null, "type": "footway", "width_m": 2, "extrude": false}}, {"type": "Feature", "geometry": {"type": "LineString", "coordinates": [[100.12243639471218, -109.95095960757126], [124.87685714304622, -106.27739960774989], [147.77225024608083, -103.4943996076575], [148.45715516797836, -103.38307960754307]]}, "properties": {"osm_id": null, "type": "pedestrian", "width_m": 4, "extrude": false}}, {"type": "Feature", "geometry": {"type": "LineString", "coordinates": [[100.12243639471218, -109.95095960757126], [97.08928602635848, -110.61887960746688], [94.8388841402727, -111.17547960764355]]}, "properties": {"osm_id": null, "type": "footway", "width_m": 2, "extrude": false}}, {"type": "Feature", "geometry": {"type": "LineString", "coordinates": [[153.83855098278823, -111.84339960753917], [161.5681922440543, -111.9547196076536], [187.88810995657659, -112.28867960760141], [210.7835030599588, -113.00502380754878]]}, "properties": {"osm_id": null, "type": "residential", "width_m": 5, "extrude": false}}, {"type": "Feature", "geometry": {"type": "LineString", "coordinates": [[162.93800208784938, -108.61511960778003], [161.5681922440543, -111.9547196076536], [159.41563391833893, -116.9641196076617]]}, "properties": {"osm_id": null, "type": "footway", "width_m": 2, "extrude": false}}, {"type": "Feature", "geometry": {"type": "LineString", "coordinates": [[189.8449811622464, -155.92611960776864], [187.98595351694698, -115.96223960742279]]}, "properties": {"osm_id": null, "type": "footway", "width_m": 2, "extrude": false}}, {"type": "Feature", "geometry": {"type": "LineString", "coordinates": [[146.89165820379012, -67.64935960759075], [149.72912145140305, -86.01715960748862], [152.37089757897039, -100.82271960767955], [152.86011538012713, -103.60571960777193], [153.83855098278823, -111.84339960753917], [160.00269527986606, -154.81291960781078], [165.28624753430555, -201.7899596074561], [165.97115245620307, -207.8012396077031]]}, "properties": {"osm_id": null, "type": "tertiary", "width_m": 7, "extrude": false}}, {"type": "Feature", "geometry": {"type": "LineString", "coordinates": [[121.74586321432211, -210.80687960762887], [120.37605337052705, -205.46351960767296], [108.92835681900975, -162.27135960756797], [97.08928602635848, -110.61887960746688], [87.59846068016338, -73.54931960772333]]}, "properties": {"osm_id": null, "type": "residential", "width_m": 5, "extrude": false}}, {"type": "Feature", "geometry": {"type": "LineString", "coordinates": [[162.6444714070858, -154.92423960752973], [189.8449811622464, -155.92611960776864], [191.41047812643464, -156.03743960748758], [210.7835030599588, -157.0787637022272]]}, "properties": {"osm_id": null, "type": "pedestrian", "width_m": 4, "extrude": false}}, {"type": "Feature", "geometry": {"type": "LineString", "coordinates": [[175.85335204353214, -201.2333596076749], [171.25470471099018, -201.4559996075083], [170.17842554795868, -201.34467960778935], [169.39567706569076, -200.8993996077271], [169.29783350532037, -199.56355960754038], [167.73233654113213, -189.99003960758643], [165.8733088961803, -179.19199960756018], [164.01428125088088, -166.61283960768046], [162.93800208784938, -157.0393196077265], [162.6444714070858, -154.92423960752973], [161.3725051236611, -145.4620396076902], [158.43719831567782, -124.42255960741889], [157.65444983340987, -119.07919960746298], [159.41563391833893, -116.9641196076617], [160.98113088252717, -115.0716796076938], [187.98595351694698, -115.96223960742279], [189.06223267997848, -115.96223960742279]]}, "properties": {"osm_id": null, "type": "footway", "width_m": 2, "extrude": false}}, {"type": "Feature", "geometry": {"type": "LineString", "coordinates": [[189.06223267997848, -115.96223960742279], [199.72718074922784, -116.40751960748503], [210.7835030599588, -116.95443960763455]]}, "properties": {"osm_id": null, "type": "footway", "width_m": 2, "extrude": false}}, {"type": "Feature", "geometry": {"type": "LineString", "coordinates": [[210.3172487089157, -200.67675960749824], [209.8050674572977, -200.67675960749824], [188.37732775808095, -200.8993996077271], [179.1800330926494, -201.12203960756048], [175.85335204353214, -201.2333596076749]]}, "properties": {"osm_id": null, "type": "footway", "width_m": 2, "extrude": false}}, {"type": "Feature", "geometry": {"type": "LineString", "coordinates": [[210.7835030599588, -175.02306560748664], [206.47838640818043, -174.96183960756213], [206.47838640818043, -173.9599596077187], [198.55305802617357, -173.9599596077187], [198.55305802617357, -176.18635960763442], [193.85656713326122, -176.52031960758222], [191.41047812643464, -156.03743960748758], [210.7835030599588, -157.0787637022272]]}, "properties": {"osm_id": null, "type": "pedestrian", "width_m": 4, "extrude": false}}, {"type": "Feature", "geometry": {"type": "LineString", "coordinates": [[23.7066158239947, -177.4108796077067], [55.50577291169726, -163.16191960769245]]}, "properties": {"osm_id": null, "type": "service", "width_m": 3.5, "extrude": false}}, {"type": "Feature", "geometry": {"type": "LineString", "coordinates": [[-53.981171030147465, -226.39167960743436], [-7.407636341810324, -191.10323960754428], [6.583992776903941, -161.60343960767236], [45.721416884738595, -78.78135960756481], [66.17072098094663, -31.58167960769063]]}, "properties": {"osm_id": null, "type": "tertiary", "width_m": 7, "extrude": false}}, {"type": "Feature", "geometry": {"type": "LineString", "coordinates": [[-211.90067730597636, -113.2391811461882], [-197.22414326536457, -109.72831960773789]]}, "properties": {"osm_id": null, "type": "residential", "width_m": 5, "extrude": false}}, {"type": "Feature", "geometry": {"type": "LineString", "coordinates": [[-100.55470571883221, -156.03743960748758], [-87.73719932317223, -152.14123960743734]]}, "properties": {"osm_id": null, "type": "residential", "width_m": 5, "extrude": false}}, {"type": "Feature", "geometry": {"type": "LineString", "coordinates": [[-211.89864247329874, -189.92584454056953], [-203.58397468283556, -187.54099960744185], [-100.55470571883221, -156.03743960748758]]}, "properties": {"osm_id": null, "type": "residential", "width_m": 5, "extrude": false}}, {"type": "Feature", "geometry": {"type": "LineString", "coordinates": [[-87.73719932317223, -152.14123960743734], [-65.1353369009012, -217.70871960760488], [-62.004342972524704, -221.71623960776955], [-58.28628768227346, -223.94263960768527], [-53.981171030147465, -226.39167960743436]]}, "properties": {"osm_id": null, "type": "secondary", "width_m": 9, "extrude": false}}, {"type": "Feature", "geometry": {"type": "LineString", "coordinates": [[-72.08222968024694, -239.86139960743856], [-76.48518989239572, -223.60867960773746], [-84.80189251518891, -200.12015960771706], [-100.55470571883221, -156.03743960748758]]}, "properties": {"osm_id": null, "type": "secondary", "width_m": 9, "extrude": false}}, {"type": "Feature", "geometry": {"type": "LineString", "coordinates": [[-65.1353369009012, -217.70871960760488], [-69.24476643228641, -221.93887960760293], [-74.72400580746668, -223.16339960767522], [-76.48518989239572, -223.60867960773746]]}, "properties": {"osm_id": null, "type": "service", "width_m": 3.5, "extrude": false}}, {"type": "Feature", "geometry": {"type": "LineString", "coordinates": [[29.57722944030894, -188.20891960773295], [44.74298128207749, -182.4202796077148]]}, "properties": {"osm_id": null, "type": "service", "width_m": 3.5, "extrude": false}}, {"type": "Feature", "geometry": {"type": "LineString", "coordinates": [[6.583992776903941, -161.60343960767236], [8.443020421855758, -162.9392796074636], [10.399891627177968, -164.38643960776474], [20.771309016011383, -172.0675196077508], [23.7066158239947, -177.4108796077067], [29.57722944030894, -188.20891960773295], [35.34999949625279, -199.0069596077592], [48.46103657232873, -223.16339960767522], [60.69148160611396, -220.15775960774945], [55.50577291169726, -202.68051960758058]]}, "properties": {"osm_id": null, "type": "service", "width_m": 3.5, "extrude": false}}, {"type": "Feature", "geometry": {"type": "LineString", "coordinates": [[35.34999949625279, -199.0069596077592], [59.419515322341674, -190.32399960753423]]}, "properties": {"osm_id": null, "type": "service", "width_m": 3.5, "extrude": false}}, {"type": "Feature", "geometry": {"type": "LineString", "coordinates": [[159.12210323757535, -202.23523960751834], [165.28624753430555, -201.7899596074561], [170.17842554795868, -201.34467960778935]]}, "properties": {"osm_id": null, "type": "footway", "width_m": 2, "extrude": false}}, {"type": "Feature", "geometry": {"type": "LineString", "coordinates": [[209.8354093118453, -204.44818825515924], [209.7072238969273, -204.46163960743405], [199.62933718920507, -205.5748396077874]]}, "properties": {"osm_id": null, "type": "residential", "width_m": 5, "extrude": false}}, {"type": "Feature", "geometry": {"type": "LineString", "coordinates": [[125.26823138418018, -204.46163960743405], [120.37605337052705, -205.46351960767296], [116.46231095988263, -206.242759607683]]}, "properties": {"osm_id": null, "type": "footway", "width_m": 2, "extrude": false}}, {"type": "Feature", "geometry": {"type": "LineString", "coordinates": [[199.62933718920507, -205.5748396077874], [197.0854046220081, -205.79747960762077], [172.52667099441487, -207.68991960758868], [167.43880586036855, -207.68991960758868], [165.97115245620307, -207.8012396077031]]}, "properties": {"osm_id": null, "type": "residential", "width_m": 5, "extrude": false}}, {"type": "Feature", "geometry": {"type": "LineString", "coordinates": [[165.97115245620307, -207.8012396077031], [127.81216395102953, -210.47291960768106], [121.74586321432211, -210.80687960762887]]}, "properties": {"osm_id": null, "type": "tertiary", "width_m": 7, "extrude": false}}, {"type": "Feature", "geometry": {"type": "LineString", "coordinates": [[121.74586321432211, -210.80687960762887], [125.65960562531414, -228.50675960763112]]}, "properties": {"osm_id": null, "type": "tertiary", "width_m": 7, "extrude": false}}, {"type": "Feature", "geometry": {"type": "LineString", "coordinates": [[45.721416884738595, -86.12847960760305], [43.47101499865281, -90.80391960766335], [30.262134362206474, -117.85467960778618], [19.79287341335028, -140.1186796077343], [17.444627966894103, -144.57147960756572], [8.443020421855758, -162.9392796074636], [-0.0693693216782296, -180.1938796077991], [-4.961547334983756, -190.8805996077109], [-5.548608696510898, -191.88247960755433], [-6.722731419912789, -193.10699960762662], [-7.799010582944288, -194.10887960747004], [-10.734317390927604, -195.889999607719], [-23.747510906980764, -206.242759607683], [-68.3641743899957, -240.6406396074486], [-68.95123575152283, -241.19723960762528], [-69.3426099926568, -242.08779960774976], [-69.24476643228641, -243.423639607541], [-68.55986151038887, -245.53871960773776], [-65.91808538316913, -253.33111960744276], [-50.41262949507677, -301.19871960760804]]}, "properties": {"osm_id": null, "type": "footway", "width_m": 2, "extrude": false}}, {"type": "Feature", "geometry": {"type": "LineString", "coordinates": [[137.96978751065714, -297.36647905582373], [136.8137714960679, -292.40443960766413], [133.97630824810736, -280.93847960774224], [125.75744918533694, -248.32171960743466], [121.64801965395172, -229.50863960747455], [116.46231095988263, -206.4653996075164], [116.46231095988263, -206.242759607683], [94.8388841402727, -111.17547960764355], [94.64319701953191, -110.0622796076857], [89.16395764435163, -90.0246796076533], [84.95668455294364, -72.10215960742218], [79.86881941889733, -50.84003960771298], [78.0097917735979, -47.94571960750616], [76.73782549017322, -46.16459960765269], [75.07448496561459, -44.04951960745592], [73.9003622425603, -42.82499960777912], [71.8456474768677, -41.26651960775902], [69.88877627119787, -40.26463960752011], [68.6168099877732, -39.81935960745787], [67.83406150585289, -40.04199960768673], [66.95346946321456, -40.70991960758235], [66.26856454131702, -42.04575960776907], [49.43947217498984, -78.11343960766919], [45.721416884738595, -86.12847960760305]]}, "properties": {"osm_id": null, "type": "footway", "width_m": 2, "extrude": false}}, {"type": "Feature", "geometry": {"type": "LineString", "coordinates": [[199.62933718920507, -205.5748396077874], [197.05233941083497, -246.48872170063484]]}, "properties": {"osm_id": null, "type": "residential", "width_m": 5, "extrude": false}}, {"type": "Feature", "geometry": {"type": "LineString", "coordinates": [[125.65960562531414, -228.50675960763112], [127.2251025895024, -235.51991960772156], [137.30298929722463, -279.71395960766995], [139.25986050254684, -288.2855996077805]]}, "properties": {"osm_id": null, "type": "tertiary", "width_m": 7, "extrude": false}}, {"type": "Feature", "geometry": {"type": "LineString", "coordinates": [[164.3534857365703, -284.4464970869521], [145.42400479962464, -287.5063596077705], [139.25986050254684, -288.2855996077805]]}, "properties": {"osm_id": null, "type": "residential", "width_m": 5, "extrude": false}}, {"type": "Feature", "geometry": {"type": "LineString", "coordinates": [[76.78674727018462, -301.19871960760804], [133.97630824810736, -280.93847960774224], [137.30298929722463, -279.71395960766995]]}, "properties": {"osm_id": null, "type": "pedestrian", "width_m": 4, "extrude": false}}, {"type": "Feature", "geometry": {"type": "LineString", "coordinates": [[-203.58397468283556, -187.54099960744185], [-174.13306304158917, -255.78015960758734]]}, "properties": {"osm_id": null, "type": "pedestrian", "width_m": 4, "extrude": false}}, {"type": "Feature", "geometry": {"type": "LineString", "coordinates": [[-72.08222968024694, -239.86139960743856], [-53.981171030147465, -226.39167960743436]]}, "properties": {"osm_id": null, "type": "tertiary", "width_m": 7, "extrude": false}}, {"type": "Feature", "geometry": {"type": "LineString", "coordinates": [[-169.7301028294404, -266.0215996074369], [-159.63681965837122, -288.346620282946]]}, "properties": {"osm_id": null, "type": "pedestrian", "width_m": 4, "extrude": false}}, {"type": "Feature", "geometry": {"type": "LineString", "coordinates": [[-72.08222968024694, -239.86139960743856], [-146.03607872759196, -294.9493778054666]]}, "properties": {"osm_id": null, "type": "pedestrian", "width_m": 4, "extrude": false}}, {"type": "Feature", "geometry": {"type": "LineString", "coordinates": [[125.65960562531414, -228.50675960763112], [121.64801965395172, -229.50863960747455], [54.038119507531796, -246.98587960764343], [19.40149917221631, -267.69139960757144], [-34.107903669420864, -301.19871960760804]]}, "properties": {"osm_id": null, "type": "pedestrian", "width_m": 4, "extrude": false}}, {"type": "Feature", "geometry": {"type": "LineString", "coordinates": [[30.949536451496925, -301.19871960760804], [19.40149917221631, -267.69139960757144], [-6.722731419912789, -193.10699960762662], [-7.407636341810324, -191.10323960754428]]}, "properties": {"osm_id": null, "type": "pedestrian", "width_m": 4, "extrude": false}}, {"type": "Feature", "geometry": {"type": "LineString", "coordinates": [[139.25986050254684, -288.2855996077805], [141.2149531907533, -296.44164684512504]]}, "properties": {"osm_id": null, "type": "tertiary", "width_m": 7, "extrude": false}}, {"type": "Feature", "geometry": {"type": "LineString", "coordinates": [[-51.960817073945506, -301.19871960760804], [-72.08222968024694, -239.86139960743856]]}, "properties": {"osm_id": null, "type": "residential", "width_m": 5, "extrude": false}}]}