{"type": "FeatureCollection", "crs": {"type": "name", "properties": {"name": "EPSG:32628_local_enu_m_section_centroid", "lng0": -15.434908487337438, "lat0": 28.139686755646814}}, "features": [{"type": "Feature", "geometry": {"type": "Point", "coordinates": [-151.41615985198376, 229.84859860326878]}, "properties": {"osm_id": null, "category": "restauracion", "name": "Ons", "extrude": false}}, {"type": "Feature", "geometry": {"type": "Point", "coordinates": [89.57160087028457, 226.39767860328078]}, "properties": {"osm_id": null, "category": "restauracion", "name": "Allende Puerto", "extrude": false}}, {"type": "Feature", "geometry": {"type": "Point", "coordinates": [13.692358899584738, 226.06371860333297]}, "properties": {"osm_id": null, "category": "restauracion", "name": "Trastero 16", "extrude": false}}, {"type": "Feature", "geometry": {"type": "Point", "coordinates": [-176.93828522387815, 224.83919860326068]}, "properties": {"osm_id": null, "category": "salud", "name": "Zensaciones Masajes Orientales", "extrude": false}}, {"type": "Feature", "geometry": {"type": "Point", "coordinates": [-60.0273186167982, 221.4995986033871]}, "properties": {"osm_id": null, "category": "restauracion", "name": "Bar Tetería Aicha", "extrude": false}}, {"type": "Feature", "geometry": {"type": "Point", "coordinates": [45.98766369688936, 219.82979860325258]}, "properties": {"osm_id": null, "category": "restauracion", "name": "Un Lugar", "extrude": false}}, {"type": "Feature", "geometry": {"type": "Point", "coordinates": [-60.32180467873465, 216.93547860344125]}, "properties": {"osm_id": null, "category": "restauracion", "name": "Bochinche El Chato", "extrude": false}}, {"type": "Feature", "geometry": {"type": "Point", "coordinates": [75.82891797776628, 215.1543586031923]}, "properties": {"osm_id": null, "category": "restauracion", "name": "Taberna El Algarrobo", "extrude": false}}, {"type": "Feature", "geometry": {"type": "Point", "coordinates": [28.711148060610558, 212.14871860326653]}, "properties": {"osm_id": null, "category": "restauracion", "name": "Citrus", "extrude": false}}, {"type": "Feature", "geometry": {"type": "Point", "coordinates": [75.43626989524248, 207.80723860315405]}, "properties": {"osm_id": null, "category": "restauracion", "name": "El Viajero Las Palmas", "extrude": false}}, {"type": "Feature", "geometry": {"type": "Point", "coordinates": [33.03027696976744, 200.7940786034591]}, "properties": {"osm_id": null, "category": "restauracion", "name": "Taberna Kazurra TK31", "extrude": false}}, {"type": "Feature", "geometry": {"type": "Point", "coordinates": [-72.78838130274539, 200.4601186031158]}, "properties": {"osm_id": null, "category": "restauracion", "name": "Taberna Capacho", "extrude": false}}, {"type": "Feature", "geometry": {"type": "Point", "coordinates": [-140.32385151724228, 197.45447860319004]}, "properties": {"osm_id": null, "category": "restauracion", "name": "El Novillo Precoz", "extrude": false}}, {"type": "Feature", "geometry": {"type": "Point", "coordinates": [85.15430994054032, 194.11487860331647]}, "properties": {"osm_id": null, "category": "restauracion", "name": "El Conejo Alegre", "extrude": false}}, {"type": "Feature", "geometry": {"type": "Point", "coordinates": [-74.75162171588757, 186.21115860349704]}, "properties": {"osm_id": null, "category": "restauracion", "name": "Bar Cafetería El Porrón", "extrude": false}}, {"type": "Feature", "geometry": {"type": "Point", "coordinates": [144.83681850229414, 186.0998386033826]}, "properties": {"osm_id": null, "category": "restauracion", "name": "La Emperatriz", "extrude": false}}, {"type": "Feature", "geometry": {"type": "Point", "coordinates": [-57.9659161828943, 183.76211860335246]}, "properties": {"osm_id": null, "category": "restauracion", "name": "El Bodegón Roberto Yeni", "extrude": false}}, {"type": "Feature", "geometry": {"type": "Point", "coordinates": [85.44879600265114, 182.87155860322798]}, "properties": {"osm_id": null, "category": "restauracion", "name": "La Terminal", "extrude": false}}, {"type": "Feature", "geometry": {"type": "Point", "coordinates": [-0.14848601369527564, 180.31119860336446]}, "properties": {"osm_id": null, "category": "restauracion", "name": "La Cabaña Criolla", "extrude": false}}, {"type": "Feature", "geometry": {"type": "Point", "coordinates": [-88.49430460840586, 179.5319586033544]}, "properties": {"osm_id": null, "category": "restauracion", "name": "Bodegón Pachichi", "extrude": false}}, {"type": "Feature", "geometry": {"type": "Point", "coordinates": [29.496444225832548, 178.97535860317774]}, "properties": {"osm_id": null, "category": "restauracion", "name": "Malasaña Las Palmas", "extrude": false}}, {"type": "Feature", "geometry": {"type": "Point", "coordinates": [-144.0540083023519, 177.08291860320983]}, "properties": {"osm_id": null, "category": "restauracion", "name": "La Guarida del Blues", "extrude": false}}, {"type": "Feature", "geometry": {"type": "Point", "coordinates": [-187.53978345515972, 176.74895860326203]}, "properties": {"osm_id": null, "category": "restauracion", "name": "Peña La Vieja Helados", "extrude": false}}, {"type": "Feature", "geometry": {"type": "Point", "coordinates": [157.3033951263049, 175.85839860313754]}, "properties": {"osm_id": null, "category": "publico", "name": "Centro Privado de Educación Infantil Tu Jardín", "extrude": false}}, {"type": "Feature", "geometry": {"type": "Point", "coordinates": [-22.333102683003872, 170.62635860329607]}, "properties": {"osm_id": null, "category": "restauracion", "name": "Cervecería Coriasso's", "extrude": false}}, {"type": "Feature", "geometry": {"type": "Point", "coordinates": [49.325172399475164, 163.8358386034345]}, "properties": {"osm_id": null, "category": "restauracion", "name": "Don Quixote", "extrude": false}}, {"type": "Feature", "geometry": {"type": "Point", "coordinates": [208.34764586991932, 159.04907860325977]}, "properties": {"osm_id": null, "category": "salud", "name": "Centro Estética Amalia Blanco Roca", "extrude": false}}, {"type": "Feature", "geometry": {"type": "Point", "coordinates": [239.17052035736734, 134.00207860321927]}, "properties": {"osm_id": null, "category": "restauracion", "name": "Sushi Food Kobe", "extrude": false}}, {"type": "Feature", "geometry": {"type": "Point", "coordinates": [29.88909230853073, 156.37739860328182]}, "properties": {"osm_id": null, "category": "restauracion", "name": "Los Berrazales", "extrude": false}}, {"type": "Feature", "geometry": {"type": "Point", "coordinates": [-182.3371963601935, 156.37739860328182]}, "properties": {"osm_id": null, "category": "restauracion", "name": "Piemonte", "extrude": false}}, {"type": "Feature", "geometry": {"type": "Point", "coordinates": [92.51646149017219, 152.70383860346044]}, "properties": {"osm_id": null, "category": "restauracion", "name": "Bierhaus Cervecería Alemana", "extrude": false}}, {"type": "Feature", "geometry": {"type": "Point", "coordinates": [129.42538125857016, 152.48119860323158]}, "properties": {"osm_id": null, "category": "salud", "name": "Centro Internacional de Láser", "extrude": false}}, {"type": "Feature", "geometry": {"type": "Point", "coordinates": [29.79093028794337, 150.3661186034303]}, "properties": {"osm_id": null, "category": "restauracion", "name": "La Torre de los Taxistas", "extrude": false}}, {"type": "Feature", "geometry": {"type": "Point", "coordinates": [82.7002594241126, 145.69067860337]}, "properties": {"osm_id": null, "category": "restauracion", "name": "Saxo Club Cervecería", "extrude": false}}, {"type": "Feature", "geometry": {"type": "Point", "coordinates": [82.20944932082706, 140.23599860329966]}, "properties": {"osm_id": null, "category": "restauracion", "name": "LUWAK", "extrude": false}}, {"type": "Feature", "geometry": {"type": "Point", "coordinates": [112.73783774633861, 129.88323860333566]}, "properties": {"osm_id": null, "category": "restauracion", "name": "Nákar", "extrude": false}}, {"type": "Feature", "geometry": {"type": "Point", "coordinates": [28.809310081197918, 129.77191860322122]}, "properties": {"osm_id": null, "category": "restauracion", "name": "Bar Cafetería Li", "extrude": false}}, {"type": "Feature", "geometry": {"type": "Point", "coordinates": [-22.922074807051143, 122.2021586033496]}, "properties": {"osm_id": null, "category": "restauracion", "name": "79 Bar", "extrude": false}}, {"type": "Feature", "geometry": {"type": "Point", "coordinates": [-39.60961831928268, 118.30595860329936]}, "properties": {"osm_id": null, "category": "restauracion", "name": "Restaurante Limoncito con Ron", "extrude": false}}, {"type": "Feature", "geometry": {"type": "Point", "coordinates": [-23.412884910336686, 117.63803860340374]}, "properties": {"osm_id": null, "category": "restauracion", "name": "Abuela Bar", "extrude": false}}, {"type": "Feature", "geometry": {"type": "Point", "coordinates": [0.6368101517010879, 116.30219860321702]}, "properties": {"osm_id": null, "category": "restauracion", "name": "Tasca Casa Cynthia", "extrude": false}}, {"type": "Feature", "geometry": {"type": "Point", "coordinates": [147.87984114294352, 114.63239860347798]}, "properties": {"osm_id": null, "category": "restauracion", "name": "Toro Burger", "extrude": false}}, {"type": "Feature", "geometry": {"type": "Point", "coordinates": [-167.80921730227882, 114.29843860313468]}, "properties": {"osm_id": null, "category": "restauracion", "name": "Los Cedros", "extrude": false}}, {"type": "Feature", "geometry": {"type": "Point", "coordinates": [-66.21152591833552, 106.28339860320082]}, "properties": {"osm_id": null, "category": "restauracion", "name": "Panadería Pulido", "extrude": false}}, {"type": "Feature", "geometry": {"type": "Point", "coordinates": [86.43041620922222, 97.04383860319467]}, "properties": {"osm_id": null, "category": "restauracion", "name": "La trece catorce", "extrude": false}}, {"type": "Feature", "geometry": {"type": "Point", "coordinates": [-108.81384288515964, 96.26459860318462]}, "properties": {"osm_id": null, "category": "restauracion", "name": "Sabor Restaurante Sueco", "extrude": false}}, {"type": "Feature", "geometry": {"type": "Point", "coordinates": [-110.97340733965089, 95.48535860317457]}, "properties": {"osm_id": null, "category": "restauracion", "name": "Kafema", "extrude": false}}, {"type": "Feature", "geometry": {"type": "Point", "coordinates": [-79.75788476950471, 92.92499860331105]}, "properties": {"osm_id": null, "category": "publico", "name": "Gran Canaria School of Languages", "extrude": false}}, {"type": "Feature", "geometry": {"type": "Point", "coordinates": [-168.10370336438965, 88.24955860325076]}, "properties": {"osm_id": null, "category": "restauracion", "name": "Hygge Brunch & Gastrobar", "extrude": false}}, {"type": "Feature", "geometry": {"type": "Point", "coordinates": [125.20441437017499, 85.35523860343943]}, "properties": {"osm_id": null, "category": "publico", "name": "ICSE", "extrude": false}}, {"type": "Feature", "geometry": {"type": "Point", "coordinates": [-81.13215305877398, 80.12319860320247]}, "properties": {"osm_id": null, "category": "restauracion", "name": "Cafe de Vita", "extrude": false}}, {"type": "Feature", "geometry": {"type": "Point", "coordinates": [-137.08450483559255, 77.22887860339114]}, "properties": {"osm_id": null, "category": "restauracion", "name": "Bodega Extremeña", "extrude": false}}, {"type": "Feature", "geometry": {"type": "Point", "coordinates": [-166.82759709570774, 74.22323860346538]}, "properties": {"osm_id": null, "category": "restauracion", "name": "Guirlache La Praliné", "extrude": false}}, {"type": "Feature", "geometry": {"type": "Point", "coordinates": [-69.15638653822315, 70.88363860319632]}, "properties": {"osm_id": null, "category": "restauracion", "name": "Mowtown Bar Cervecería", "extrude": false}}, {"type": "Feature", "geometry": {"type": "Point", "coordinates": [-154.06653440976055, 64.09311860333474]}, "properties": {"osm_id": null, "category": "restauracion", "name": "Beer Para Creer", "extrude": false}}, {"type": "Feature", "geometry": {"type": "Point", "coordinates": [98.50434475053478, 59.30635860316002]}, "properties": {"osm_id": null, "category": "restauracion", "name": "Sidrería Asturias", "extrude": false}}, {"type": "Feature", "geometry": {"type": "Point", "coordinates": [122.55403981239819, 57.413918603192116]}, "properties": {"osm_id": null, "category": "publico", "name": "ICSE Nuevo", "extrude": false}}, {"type": "Feature", "geometry": {"type": "Point", "coordinates": [-151.9069699552693, 57.30259860347317]}, "properties": {"osm_id": null, "category": "restauracion", "name": "Mamma Rosetta", "extrude": false}}, {"type": "Feature", "geometry": {"type": "Point", "coordinates": [196.47004136995585, 85.57787860327281]}, "properties": {"osm_id": null, "category": "restauracion", "name": "Cervecería The Situation", "extrude": false}}, {"type": "Feature", "geometry": {"type": "Point", "coordinates": [235.73484963436854, 56.30071860323426]}, "properties": {"osm_id": null, "category": "restauracion", "name": "Euro 2000", "extrude": false}}, {"type": "Feature", "geometry": {"type": "Point", "coordinates": [214.531853171631, 53.51771860314187]}, "properties": {"osm_id": null, "category": "restauracion", "name": "Maday tasca", "extrude": false}}, {"type": "Feature", "geometry": {"type": "Point", "coordinates": [-152.20145601720574, 56.7459986032965]}, "properties": {"osm_id": null, "category": "restauracion", "name": "Mama Rosetta", "extrude": false}}, {"type": "Feature", "geometry": {"type": "Point", "coordinates": [23.606722986231677, 54.18563860343298]}, "properties": {"osm_id": null, "category": "restauracion", "name": "Bar Dominican Republic", "extrude": false}}, {"type": "Feature", "geometry": {"type": "Point", "coordinates": [-106.16346832738284, 51.84791860340283]}, "properties": {"osm_id": null, "category": "alojamiento", "name": "Crisol Faycán", "extrude": false}}, {"type": "Feature", "geometry": {"type": "Point", "coordinates": [-85.64760600927995, 51.51395860345502]}, "properties": {"osm_id": null, "category": "restauracion", "name": "Ristorante Pizzeria Boccaccio", "extrude": false}}, {"type": "Feature", "geometry": {"type": "Point", "coordinates": [22.821426821009684, 45.83663860315582]}, "properties": {"osm_id": null, "category": "salud", "name": "Farmacia Pedro y Carlos Manrique de Lara", "extrude": false}}, {"type": "Feature", "geometry": {"type": "Point", "coordinates": [-12.026090513658751, 44.94607860342683]}, "properties": {"osm_id": null, "category": "alojamiento", "name": "Hotel Idafe", "extrude": false}}, {"type": "Feature", "geometry": {"type": "Point", "coordinates": [97.22823848185288, 37.59895860338858]}, "properties": {"osm_id": null, "category": "alojamiento", "name": "Pensión Sea of Clouds", "extrude": false}}, {"type": "Feature", "geometry": {"type": "Point", "coordinates": [-143.46503617847898, 34.815958603296195]}, "properties": {"osm_id": null, "category": "alojamiento", "name": "Apartamentos Presidente Playa", "extrude": false}}, {"type": "Feature", "geometry": {"type": "Point", "coordinates": [-83.68436559596341, 34.370678603233955]}, "properties": {"osm_id": null, "category": "restauracion", "name": "Casa Alosi", "extrude": false}}, {"type": "Feature", "geometry": {"type": "Point", "coordinates": [-11.437118389611479, 31.365038603308193]}, "properties": {"osm_id": null, "category": "restauracion", "name": "El Beso pub", "extrude": false}}, {"type": "Feature", "geometry": {"type": "Point", "coordinates": [2.894536626779706, 30.36315860346477]}, "properties": {"osm_id": null, "category": "restauracion", "name": "Ginza", "extrude": false}}, {"type": "Feature", "geometry": {"type": "Point", "coordinates": [-84.46966176135979, 20.455678603167513]}, "properties": {"osm_id": null, "category": "restauracion", "name": "Mesón Libanés Grill Restaurante", "extrude": false}}, {"type": "Feature", "geometry": {"type": "Point", "coordinates": [-144.250332343701, 20.34435860344857]}, "properties": {"osm_id": null, "category": "restauracion", "name": "Sala Quijote, Tasca Dulcinea", "extrude": false}}, {"type": "Feature", "geometry": {"type": "Point", "coordinates": [-71.70859907541258, 15.78023860350271]}, "properties": {"osm_id": null, "category": "alojamiento", "name": "Ok Las Canteras Beach by CanariasGetaway", "extrude": false}}, {"type": "Feature", "geometry": {"type": "Point", "coordinates": [-85.05863388523268, 10.77083860349461]}, "properties": {"osm_id": null, "category": "restauracion", "name": "Deja Vu las Palmas", "extrude": false}}, {"type": "Feature", "geometry": {"type": "Point", "coordinates": [-73.18102938526921, 7.208598603392176]}, "properties": {"osm_id": null, "category": "publico", "name": "Lantinoba Canarias", "extrude": false}}, {"type": "Feature", "geometry": {"type": "Point", "coordinates": [-73.67183948855475, 0.9746786033117871]}, "properties": {"osm_id": null, "category": "publico", "name": "Escuela de Hostelería Las Palmas", "extrude": false}}, {"type": "Feature", "geometry": {"type": "Point", "coordinates": [-138.26244908351273, -3.589441396634072]}, "properties": {"osm_id": null, "category": "restauracion", "name": "Toma Pan y Moja", "extrude": false}}, {"type": "Feature", "geometry": {"type": "Point", "coordinates": [-85.84393005062906, -4.480001396758553]}, "properties": {"osm_id": null, "category": "restauracion", "name": "Colorado Canteras", "extrude": false}}, {"type": "Feature", "geometry": {"type": "Point", "coordinates": [19.876566201122063, -5.259241396768601]}, "properties": {"osm_id": null, "category": "restauracion", "name": "Peccôu de Gôa", "extrude": false}}, {"type": "Feature", "geometry": {"type": "Point", "coordinates": [191.16929225422786, -14.053521396712512]}, "properties": {"osm_id": null, "category": "restauracion", "name": "La Vieja Comisaría", "extrude": false}}, {"type": "Feature", "geometry": {"type": "Point", "coordinates": [18.404135891265437, -13.274281396702463]}, "properties": {"osm_id": null, "category": "restauracion", "name": "Sancho Panza", "extrude": false}}, {"type": "Feature", "geometry": {"type": "Point", "coordinates": [-34.99600334818934, -31.642081396600332]}, "properties": {"osm_id": null, "category": "restauracion", "name": "Da Eriselda Pizzería", "extrude": false}}, {"type": "Feature", "geometry": {"type": "Point", "coordinates": [-23.90369501362223, -32.75528139655819]}, "properties": {"osm_id": null, "category": "restauracion", "name": "Black Door Bar", "extrude": false}}, {"type": "Feature", "geometry": {"type": "Point", "coordinates": [-67.58579420760479, -38.43260139685739]}, "properties": {"osm_id": null, "category": "restauracion", "name": "Aguaviva", "extrude": false}}, {"type": "Feature", "geometry": {"type": "Point", "coordinates": [-70.03984472420687, -38.7665613968052]}, "properties": {"osm_id": null, "category": "restauracion", "name": "Pepita La Gourmet", "extrude": false}}, {"type": "Feature", "geometry": {"type": "Point", "coordinates": [-53.8431113150865, -39.87976139676306]}, "properties": {"osm_id": null, "category": "restauracion", "name": "El Carrito Siciliano", "extrude": false}}, {"type": "Feature", "geometry": {"type": "Point", "coordinates": [12.219928589553742, -44.44388139670892]}, "properties": {"osm_id": null, "category": "restauracion", "name": "La Aurora Piano Bar Karaoke", "extrude": false}}, {"type": "Feature", "geometry": {"type": "Point", "coordinates": [66.0127159117067, -46.892921396853495]}, "properties": {"osm_id": null, "category": "restauracion", "name": "Fresquito Brunch & Coffee", "extrude": false}}, {"type": "Feature", "geometry": {"type": "Point", "coordinates": [-74.35897363318938, -47.89480139669692]}, "properties": {"osm_id": null, "category": "restauracion", "name": "El Cucurucho", "extrude": false}}, {"type": "Feature", "geometry": {"type": "Point", "coordinates": [65.91455389111934, -50.3438413968415]}, "properties": {"osm_id": null, "category": "restauracion", "name": "", "extrude": false}}, {"type": "Feature", "geometry": {"type": "Point", "coordinates": [190.58032013035498, -22.40252139659418]}, "properties": {"osm_id": null, "category": "restauracion", "name": "El Garito", "extrude": false}}, {"type": "Feature", "geometry": {"type": "Point", "coordinates": [281.1838652003185, -27.634561396831145]}, "properties": {"osm_id": null, "category": "restauracion", "name": "Moo Moo Burgers", "extrude": false}}, {"type": "Feature", "geometry": {"type": "Point", "coordinates": [190.1876720476568, -30.3062413968091]}, "properties": {"osm_id": null, "category": "restauracion", "name": "Clandestino", "extrude": false}}, {"type": "Feature", "geometry": {"type": "Point", "coordinates": [179.09536371308968, -39.21184139686744]}, "properties": {"osm_id": null, "category": "restauracion", "name": "Taberna La Escapada", "extrude": false}}, {"type": "Feature", "geometry": {"type": "Point", "coordinates": [178.21190552710596, -54.46268139672512]}, "properties": {"osm_id": null, "category": "restauracion", "name": "Los Panfiles", "extrude": false}}, {"type": "Feature", "geometry": {"type": "Point", "coordinates": [215.21898731626564, 218.38263860334692]}, "properties": {"osm_id": null, "category": "restauracion", "name": "A KA Fresco", "extrude": false}}, {"type": "Feature", "geometry": {"type": "Point", "coordinates": [203.5377068574769, 176.41499860331422]}, "properties": {"osm_id": null, "category": "publico", "name": "Centro Privado de Educación Infantil Popy", "extrude": false}}, {"type": "Feature", "geometry": {"type": "Point", "coordinates": [239.46500641947813, 118.52859860313274]}, "properties": {"osm_id": null, "category": "restauracion", "name": "De Mala madre", "extrude": false}}, {"type": "Feature", "geometry": {"type": "Point", "coordinates": [257.4286562003916, 107.84187860322092]}, "properties": {"osm_id": null, "category": "finanzas", "name": "Caixabank", "extrude": false}}, {"type": "Feature", "geometry": {"type": "Point", "coordinates": [233.96793326240106, 107.73055860350198]}, "properties": {"osm_id": null, "category": "restauracion", "name": "The Hook - Food Culture", "extrude": false}}, {"type": "Feature", "geometry": {"type": "Point", "coordinates": [233.96793326240106, 107.73055860350198]}, "properties": {"osm_id": null, "category": "restauracion", "name": "The Hook - Food Culture", "extrude": false}}, {"type": "Feature", "geometry": {"type": "Point", "coordinates": [230.13961445670412, 107.1739586033253]}, "properties": {"osm_id": null, "category": "restauracion", "name": "Pizzeria La Focaccia", "extrude": false}}, {"type": "Feature", "geometry": {"type": "Point", "coordinates": [235.0477154897339, 44.27815860313572]}, "properties": {"osm_id": null, "category": "restauracion", "name": "Wong Solo Casaari", "extrude": false}}, {"type": "Feature", "geometry": {"type": "Point", "coordinates": [254.1893095185675, 26.355638603300093]}, "properties": {"osm_id": null, "category": "finanzas", "name": "Caja Rural", "extrude": false}}, {"type": "Feature", "geometry": {"type": "Point", "coordinates": [266.6558861424039, 25.35375860345667]}, "properties": {"osm_id": null, "category": "restauracion", "name": "Central", "extrude": false}}, {"type": "Feature", "geometry": {"type": "Point", "coordinates": [-74.55529767453848, -53.572121396600636]}, "properties": {"osm_id": null, "category": "restauracion", "name": "Costa Canaria", "extrude": false}}, {"type": "Feature", "geometry": {"type": "Point", "coordinates": [-77.99096839771164, -62.92300139672122]}, "properties": {"osm_id": null, "category": "restauracion", "name": "La Quilla", "extrude": false}}, {"type": "Feature", "geometry": {"type": "Point", "coordinates": [14.673979106155823, -69.60220139686385]}, "properties": {"osm_id": null, "category": "restauracion", "name": "Bar Aurora", "extrude": false}}, {"type": "Feature", "geometry": {"type": "Point", "coordinates": [-79.65972274891736, -82.62664139680581]}, "properties": {"osm_id": null, "category": "restauracion", "name": "Taberna Chica", "extrude": false}}, {"type": "Feature", "geometry": {"type": "Point", "coordinates": [141.59747182064444, -84.07380139671147]}, "properties": {"osm_id": null, "category": "restauracion", "name": "Black & White Shisha Club", "extrude": false}}, {"type": "Feature", "geometry": {"type": "Point", "coordinates": [161.72068605604915, -85.29832139678376]}, "properties": {"osm_id": null, "category": "alojamiento", "name": "Hotel Majorica", "extrude": false}}, {"type": "Feature", "geometry": {"type": "Point", "coordinates": [-39.216970236584494, -86.41152139674162]}, "properties": {"osm_id": null, "category": "restauracion", "name": "El Danubio Azul", "extrude": false}}, {"type": "Feature", "geometry": {"type": "Point", "coordinates": [-26.455907550811666, -86.85680139680386]}, "properties": {"osm_id": null, "category": "restauracion", "name": "El Garaje", "extrude": false}}, {"type": "Feature", "geometry": {"type": "Point", "coordinates": [-45.2048534969471, -96.87560139682006]}, "properties": {"osm_id": null, "category": "alojamiento", "name": "Big Fish Hostel", "extrude": false}}, {"type": "Feature", "geometry": {"type": "Point", "coordinates": [-36.173947596109514, -97.54352139671568]}, "properties": {"osm_id": null, "category": "restauracion", "name": "Garage 32", "extrude": false}}, {"type": "Feature", "geometry": {"type": "Point", "coordinates": [187.04648738659446, -67.04184139660484]}, "properties": {"osm_id": null, "category": "restauracion", "name": "La Bulla", "extrude": false}}, {"type": "Feature", "geometry": {"type": "Point", "coordinates": [225.23151342367433, -89.08320139671957]}, "properties": {"osm_id": null, "category": "restauracion", "name": "La Paleta", "extrude": false}}, {"type": "Feature", "geometry": {"type": "Point", "coordinates": [278.04268053908186, -90.97564139668748]}, "properties": {"osm_id": null, "category": "restauracion", "name": "La buena vida", "extrude": false}}, {"type": "Feature", "geometry": {"type": "Point", "coordinates": [273.23274152681375, -91.86620139681196]}, "properties": {"osm_id": null, "category": "restauracion", "name": "Bar Da Vinci", "extrude": false}}, {"type": "Feature", "geometry": {"type": "Point", "coordinates": [277.7481944771454, -96.76428139670563]}, "properties": {"osm_id": null, "category": "finanzas", "name": "La Caja Mediación", "extrude": false}}, {"type": "Feature", "geometry": {"type": "Point", "coordinates": [25.668125420135574, -100.88312139658925]}, "properties": {"osm_id": null, "category": "restauracion", "name": "La Esquinita de Tavi", "extrude": false}}, {"type": "Feature", "geometry": {"type": "Point", "coordinates": [46.380311779587544, -102.21896139677597]}, "properties": {"osm_id": null, "category": "restauracion", "name": "Texas Bar", "extrude": false}}, {"type": "Feature", "geometry": {"type": "Point", "coordinates": [13.594196878823007, -102.77556139655715]}, "properties": {"osm_id": null, "category": "alojamiento", "name": "Las Lanzas", "extrude": false}}, {"type": "Feature", "geometry": {"type": "Point", "coordinates": [67.2888221803886, -103.66612139668163]}, "properties": {"osm_id": null, "category": "restauracion", "name": "Camaleón", "extrude": false}}, {"type": "Feature", "geometry": {"type": "Point", "coordinates": [24.4901811722154, -106.89440139683626]}, "properties": {"osm_id": null, "category": "restauracion", "name": "Mojito House", "extrude": false}}, {"type": "Feature", "geometry": {"type": "Point", "coordinates": [24.19569511027895, -114.46416139670788]}, "properties": {"osm_id": null, "category": "restauracion", "name": "Manhattan Karaoke Bar", "extrude": false}}, {"type": "Feature", "geometry": {"type": "Point", "coordinates": [174.18726267988552, -116.80188139673803]}, "properties": {"osm_id": null, "category": "restauracion", "name": "Victor's Copas Show", "extrude": false}}, {"type": "Feature", "geometry": {"type": "Point", "coordinates": [-66.30968793909726, -117.13584139668583]}, "properties": {"osm_id": null, "category": "restauracion", "name": "El Gallo Feliz", "extrude": false}}, {"type": "Feature", "geometry": {"type": "Point", "coordinates": [124.22279416360391, -126.37540139669198]}, "properties": {"osm_id": null, "category": "salud", "name": "", "extrude": false}}, {"type": "Feature", "geometry": {"type": "Point", "coordinates": [-53.35230121180096, -126.59804139652536]}, "properties": {"osm_id": null, "category": "restauracion", "name": "La Orilla", "extrude": false}}, {"type": "Feature", "geometry": {"type": "Point", "coordinates": [236.42198377900314, -129.38104139661775]}, "properties": {"osm_id": null, "category": "alojamiento", "name": "Mannix Urban Apartments", "extrude": false}}, {"type": "Feature", "geometry": {"type": "Point", "coordinates": [263.7110255226906, -174.46564139669064]}, "properties": {"osm_id": null, "category": "restauracion", "name": "La Taberna de Don Manue", "extrude": false}}, {"type": "Feature", "geometry": {"type": "Point", "coordinates": [23.704885006993408, -132.0527213965957]}, "properties": {"osm_id": null, "category": "restauracion", "name": "Samurai II", "extrude": false}}, {"type": "Feature", "geometry": {"type": "Point", "coordinates": [10.845660300284477, -135.28100139675033]}, "properties": {"osm_id": null, "category": "restauracion", "name": "Bar Venecia", "extrude": false}}, {"type": "Feature", "geometry": {"type": "Point", "coordinates": [111.36356945706935, -139.95644139681062]}, "properties": {"osm_id": null, "category": "restauracion", "name": "Tentaciones", "extrude": false}}, {"type": "Feature", "geometry": {"type": "Point", "coordinates": [-35.977623554934794, -143.85264139686086]}, "properties": {"osm_id": null, "category": "restauracion", "name": "El Cerdo Que Ríe", "extrude": false}}, {"type": "Feature", "geometry": {"type": "Point", "coordinates": [11.041984341633567, -147.19224139673443]}, "properties": {"osm_id": null, "category": "restauracion", "name": "Karaoke Bar Bossanova", "extrude": false}}, {"type": "Feature", "geometry": {"type": "Point", "coordinates": [27.925851895388565, -158.88084139688516]}, "properties": {"osm_id": null, "category": "restauracion", "name": "The Fussion", "extrude": false}}, {"type": "Feature", "geometry": {"type": "Point", "coordinates": [45.98766369688936, -159.54876139678078]}, "properties": {"osm_id": null, "category": "finanzas", "name": "Caixabank", "extrude": false}}, {"type": "Feature", "geometry": {"type": "Point", "coordinates": [122.35771577104909, -159.66008139649972]}, "properties": {"osm_id": null, "category": "restauracion", "name": "Cafetería Casa Suecia", "extrude": false}}, {"type": "Feature", "geometry": {"type": "Point", "coordinates": [36.66227173411533, -159.66008139649972]}, "properties": {"osm_id": null, "category": "restauracion", "name": "Sin Fronteras", "extrude": false}}, {"type": "Feature", "geometry": {"type": "Point", "coordinates": [62.086235085248, -161.32988139663425]}, "properties": {"osm_id": null, "category": "restauracion", "name": "Hada Verde", "extrude": false}}, {"type": "Feature", "geometry": {"type": "Point", "coordinates": [252.71687920853648, -191.60892139651622]}, "properties": {"osm_id": null, "category": "restauracion", "name": "Nuevo Murias", "extrude": false}}, {"type": "Feature", "geometry": {"type": "Point", "coordinates": [259.88270671681926, -191.94288139685952]}, "properties": {"osm_id": null, "category": "restauracion", "name": "De Francesco", "extrude": false}}, {"type": "Feature", "geometry": {"type": "Point", "coordinates": [269.6007467622915, -206.08052139675934]}, "properties": {"osm_id": null, "category": "finanzas", "name": "Caixabank", "extrude": false}}, {"type": "Feature", "geometry": {"type": "Point", "coordinates": [218.1638479359789, -210.3106813967574]}, "properties": {"osm_id": null, "category": "publico", "name": "Colegio Nuestra Señora del Carmen", "extrude": false}}, {"type": "Feature", "geometry": {"type": "Point", "coordinates": [96.14845625469444, -163.89024139649777]}, "properties": {"osm_id": null, "category": "restauracion", "name": "La Bellota Extremeña", "extrude": false}}, {"type": "Feature", "geometry": {"type": "Point", "coordinates": [64.73660964319917, -180.2542813967088]}, "properties": {"osm_id": null, "category": "restauracion", "name": "Corazón de Venezuela", "extrude": false}}, {"type": "Feature", "geometry": {"type": "Point", "coordinates": [151.11918782459318, -184.48444139670684]}, "properties": {"osm_id": null, "category": "restauracion", "name": "La Paca", "extrude": false}}, {"type": "Feature", "geometry": {"type": "Point", "coordinates": [0.047838027653815236, -185.04104139688351]}, "properties": {"osm_id": null, "category": "restauracion", "name": "Casa Roja", "extrude": false}}, {"type": "Feature", "geometry": {"type": "Point", "coordinates": [167.11959719236447, -209.75408139658072]}, "properties": {"osm_id": null, "category": "restauracion", "name": "Astor Irish Coffee", "extrude": false}}]}