{"type": "FeatureCollection", "crs": {"type": "name", "properties": {"name": "EPSG:32628_local_enu_m_section_centroid", "lng0": -15.434908487337438, "lat0": 28.139686755646814}}, "features": [{"type": "Feature", "geometry": {"type": "LineString", "coordinates": [[39.21448427130477, 207.80723860315405], [39.60713235400295, 215.93359860320234], [40.19610447787585, 224.05995860325064], [40.693019184530215, 232.29763860341336]]}, "properties": {"osm_id": null, "type": "residential", "width_m": 5, "extrude": false}}, {"type": "Feature", "geometry": {"type": "LineString", "coordinates": [[-20.809483589218164, 232.29763860341336], [-51.978032922531696, 181.53571860343675], [-54.23575939778468, 177.75083860350094]]}, "properties": {"osm_id": null, "type": "residential", "width_m": 5, "extrude": false}}, {"type": "Feature", "geometry": {"type": "LineString", "coordinates": [[141.2687431933138, 232.29763860341336], [141.0084996965972, 228.0674786034153], [140.12504151061344, 179.30931860312555], [139.63423140732792, 170.62635860329607], [137.08201887013846, 133.66811860327147], [136.9838568495511, 124.09459860331751], [135.7077505808692, 117.74935860312269]]}, "properties": {"osm_id": null, "type": "residential", "width_m": 5, "extrude": false}}, {"type": "Feature", "geometry": {"type": "LineString", "coordinates": [[78.38113051495571, 171.6282386031395], [81.4241531554307, 231.7410386032367], [81.45788954826678, 232.29763860341336]]}, "properties": {"osm_id": null, "type": "pedestrian", "width_m": 4, "extrude": false}}, {"type": "Feature", "geometry": {"type": "LineString", "coordinates": [[81.4241531554307, 231.7410386032367], [132.95921400233067, 228.6240786031965], [137.3765049320749, 228.2901186032487], [141.0084996965972, 228.0674786034153], [149.05778539086367, 227.62219860335307], [201.27998038239826, 224.39391860319844], [226.77626523501243, 222.820742288023]]}, "properties": {"osm_id": null, "type": "residential", "width_m": 5, "extrude": false}}, {"type": "Feature", "geometry": {"type": "LineString", "coordinates": [[58.94505042418565, 172.2961586034306], [47.65641804809508, 183.2055186031758], [39.21448427130477, 207.80723860315405]]}, "properties": {"osm_id": null, "type": "tertiary", "width_m": 7, "extrude": false}}, {"type": "Feature", "geometry": {"type": "LineString", "coordinates": [[78.38113051495571, 171.6282386031395], [58.94505042418565, 172.2961586034306]]}, "properties": {"osm_id": null, "type": "tertiary", "width_m": 7, "extrude": false}}, {"type": "Feature", "geometry": {"type": "LineString", "coordinates": [[278.46974772677464, 162.18691513050246], [250.2628286921088, 163.94715860315344], [197.74614763863775, 167.2867586034225], [143.3643881924375, 170.84899860312944], [139.63423140732792, 170.62635860329607], [94.97051200659989, 173.74331860333626], [78.38113051495571, 171.6282386031395]]}, "properties": {"osm_id": null, "type": "residential", "width_m": 5, "extrude": false}}, {"type": "Feature", "geometry": {"type": "LineString", "coordinates": [[201.27998038239826, 224.39391860319844], [200.8873322997001, 218.15999860311805], [198.2369577419233, 174.5225586033463], [197.74614763863775, 167.2867586034225], [197.35349955593958, 161.16415860345654], [193.52518075006824, 107.06263860321087], [195.58658318397212, 99.93815860340149]]}, "properties": {"osm_id": null, "type": "residential", "width_m": 5, "extrude": false}}, {"type": "Feature", "geometry": {"type": "LineString", "coordinates": [[135.7077505808692, 117.74935860312269], [125.00809032882592, 126.76627860329546], [90.45505905626828, 160.27359860333206], [78.38113051495571, 171.6282386031395]]}, "properties": {"osm_id": null, "type": "tertiary", "width_m": 7, "extrude": false}}, {"type": "Feature", "geometry": {"type": "LineString", "coordinates": [[195.58658318397212, 99.93815860340149], [200.49468421700192, 96.8211986033613], [244.9620795763808, 93.92687860315448], [253.40401335317114, 93.25895860325886], [285.5029941093011, 90.99898982290853]]}, "properties": {"osm_id": null, "type": "tertiary", "width_m": 7, "extrude": false}}, {"type": "Feature", "geometry": {"type": "LineString", "coordinates": [[240.54478864663656, 17.78399860318956], [285.5029941093011, 13.878349079331542]]}, "properties": {"osm_id": null, "type": "residential", "width_m": 5, "extrude": false}}, {"type": "Feature", "geometry": {"type": "LineString", "coordinates": [[240.54478864663656, 17.78399860318956], [232.78998901448088, 23.016038603426523], [217.7711998534551, 38.155558603169766], [180.27330796100986, 74.44587860329875], [172.42034630809243, 82.23827860339924], [152.88610419656067, 101.16267860347378]]}, "properties": {"osm_id": null, "type": "tertiary", "width_m": 7, "extrude": false}}, {"type": "Feature", "geometry": {"type": "LineString", "coordinates": [[161.2298759527636, 101.16267860347378], [183.90530272535773, 78.56471860318237], [240.54478864663656, 22.79339860319766], [285.5029941093011, 19.330296414917854]]}, "properties": {"osm_id": null, "type": "footway", "width_m": 2, "extrude": false}}, {"type": "Feature", "geometry": {"type": "LineString", "coordinates": [[-77.59832031501345, 42.27439860344887], [-25.081639261542403, 38.2668786032842], [23.017750862358774, 34.48199860334839], [28.024013915975925, 34.14803860340058], [70.7244929033874, 30.80843860313152]]}, "properties": {"osm_id": null, "type": "residential", "width_m": 5, "extrude": false}}, {"type": "Feature", "geometry": {"type": "LineString", "coordinates": [[70.7244929033874, 30.80843860313152], [128.7382471139355, 25.910358603237853], [187.83178355181644, 22.236798603416474], [240.54478864663656, 17.78399860318956]]}, "properties": {"osm_id": null, "type": "residential", "width_m": 5, "extrude": false}}, {"type": "Feature", "geometry": {"type": "LineString", "coordinates": [[66.60168803575398, -43.887281396532245], [70.7244929033874, 30.80843860313152]]}, "properties": {"osm_id": null, "type": "pedestrian", "width_m": 4, "extrude": false}}, {"type": "Feature", "geometry": {"type": "LineString", "coordinates": [[134.0389962296635, 101.60795860314053], [133.0573760230924, 90.58727860328091], [130.9959735891885, 64.31575860316812], [128.7382471139355, 25.910358603237853], [124.41911820495301, -48.117441396530296], [122.35771577104909, -77.83988139663109], [120.98344748177982, -101.9963213965471], [116.86064261397203, -168.3430413967247], [116.76248059338468, -170.01284139685922], [116.66431857279733, -174.68828139652402]]}, "properties": {"osm_id": null, "type": "residential", "width_m": 5, "extrude": false}}, {"type": "Feature", "geometry": {"type": "LineString", "coordinates": [[124.41911820495301, -48.117441396530296], [66.60168803575398, -43.887281396532245], [23.214074903533493, -41.10428139683535]]}, "properties": {"osm_id": null, "type": "pedestrian", "width_m": 4, "extrude": false}}, {"type": "Feature", "geometry": {"type": "LineString", "coordinates": [[19.68024215977297, -95.0944813965711], [23.214074903533493, -41.10428139683535]]}, "properties": {"osm_id": null, "type": "residential", "width_m": 5, "extrude": false}}, {"type": "Feature", "geometry": {"type": "LineString", "coordinates": [[174.87439682452015, -178.58448139657426], [181.64757625010478, -81.51344139684795], [187.83178355181644, 22.236798603416474]]}, "properties": {"osm_id": null, "type": "pedestrian", "width_m": 4, "extrude": false}}, {"type": "Feature", "geometry": {"type": "LineString", "coordinates": [[285.5029941093011, -88.17594339679545], [284.2268878407935, -88.08132139687615], [233.3789611383538, -84.85304139672152], [181.64757625010478, -81.51344139684795], [122.35771577104909, -77.83988139663109]]}, "properties": {"osm_id": null, "type": "pedestrian", "width_m": 4, "extrude": false}}, {"type": "Feature", "geometry": {"type": "LineString", "coordinates": [[-125.9921965008511, 148.69631860329577], [-165.77442656717614, 232.29763860341336]]}, "properties": {"osm_id": null, "type": "residential", "width_m": 5, "extrude": false}}, {"type": "Feature", "geometry": {"type": "LineString", "coordinates": [[-162.6652190573615, 232.29763860341336], [-121.0840954678213, 151.70195860322153]]}, "properties": {"osm_id": null, "type": "footway", "width_m": 2, "extrude": false}}, {"type": "Feature", "geometry": {"type": "LineString", "coordinates": [[92.123813407474, 167.95467860331811], [78.38113051495571, 171.6282386031395], [58.748726382836566, 178.30743860328212], [52.85900514323569, 187.76963860312165], [43.23912711835083, 211.59211860348535], [39.60713235400295, 215.93359860320234], [24.220054727148902, 232.29763860341336]]}, "properties": {"osm_id": null, "type": "footway", "width_m": 2, "extrude": false}}, {"type": "Feature", "geometry": {"type": "LineString", "coordinates": [[39.21448427130477, 207.80723860315405], [15.066627188854005, 232.29763860341336]]}, "properties": {"osm_id": null, "type": "tertiary", "width_m": 7, "extrude": false}}, {"type": "Feature", "geometry": {"type": "LineString", "coordinates": [[-121.11327877131927, 232.29763860341336], [-115.09621220745868, 220.27507860331482]]}, "properties": {"osm_id": null, "type": "residential", "width_m": 5, "extrude": false}}, {"type": "Feature", "geometry": {"type": "LineString", "coordinates": [[-115.09621220745868, 220.27507860331482], [-89.47992236303077, 232.29763860341336]]}, "properties": {"osm_id": null, "type": "residential", "width_m": 5, "extrude": false}}, {"type": "Feature", "geometry": {"type": "LineString", "coordinates": [[-174.89554739955818, 232.29763860341336], [-201.6751144303762, 219.94111860336702]]}, "properties": {"osm_id": null, "type": "pedestrian", "width_m": 4, "extrude": false}}, {"type": "Feature", "geometry": {"type": "LineString", "coordinates": [[-211.09866841373758, 209.92231860335082], [-203.24570676082016, 214.48643860329668], [-201.6751144303762, 219.94111860336702]]}, "properties": {"osm_id": null, "type": "footway", "width_m": 2, "extrude": false}}, {"type": "Feature", "geometry": {"type": "LineString", "coordinates": [[-90.8501931042462, 171.9621986034828], [-115.09621220745868, 220.27507860331482]]}, "properties": {"osm_id": null, "type": "residential", "width_m": 5, "extrude": false}}, {"type": "Feature", "geometry": {"type": "LineString", "coordinates": [[58.94505042418565, 172.2961586034306], [36.56410971352797, 173.29803860327402], [31.165198577212635, 173.5206786035029], [-14.18565496815001, 175.85839860313754], [-16.83602952592681, 175.85839860313754], [-54.23575939778468, 177.75083860350094], [-64.5427715671298, 178.1961186031677], [-67.58579420760479, 178.30743860328212], [-80.24869487296462, 179.08667860329217], [-90.8501931042462, 171.9621986034828], [-121.0840954678213, 151.70195860322153], [-125.9921965008511, 148.69631860329577]]}, "properties": {"osm_id": null, "type": "residential", "width_m": 5, "extrude": false}}, {"type": "Feature", "geometry": {"type": "LineString", "coordinates": [[-63.5885579100625, 232.29763860341336], [-67.09498410431925, 183.8734386034669], [-67.58579420760479, 178.30743860328212], [-72.49389524063457, 115.3003186033736], [-77.59832031501345, 42.27439860344887]]}, "properties": {"osm_id": null, "type": "residential", "width_m": 5, "extrude": false}}, {"type": "Feature", "geometry": {"type": "LineString", "coordinates": [[-125.9921965008511, 148.69631860329577], [-170.75407792216646, 117.74935860312269], [-186.16551516589047, 107.28527860343974]]}, "properties": {"osm_id": null, "type": "pedestrian", "width_m": 4, "extrude": false}}, {"type": "Feature", "geometry": {"type": "LineString", "coordinates": [[-72.49389524063457, 115.3003186033736], [-87.31636036048567, 116.41351860333145], [-160.64338979417042, 70.32703860341513], [-171.0485639841029, 62.97991860337689]]}, "properties": {"osm_id": null, "type": "pedestrian", "width_m": 4, "extrude": false}}, {"type": "Feature", "geometry": {"type": "LineString", "coordinates": [[226.31129565083276, -182.4806813966245], [233.3789611383538, -84.85304139672152], [240.15214056411278, 13.442518603472564], [240.54478864663656, 17.78399860318956], [240.54478864663656, 22.79339860319766], [244.07862139039713, 83.3514786033571], [244.56943149385702, 90.03067860349972], [244.9620795763808, 93.92687860315448], [249.47753252688682, 120.19839860326726], [249.67385656806155, 157.49059860323968], [250.2628286921088, 163.94715860315344], [250.94996283674345, 172.18483860331617], [252.9498792508399, 203.60073027935925]]}, "properties": {"osm_id": null, "type": "residential", "width_m": 5, "extrude": false}}, {"type": "Feature", "geometry": {"type": "LineString", "coordinates": [[92.123813407474, 167.95467860331811], [136.9838568495511, 124.09459860331751], [161.2298759527636, 101.16267860347378]]}, "properties": {"osm_id": null, "type": "footway", "width_m": 2, "extrude": false}}, {"type": "Feature", "geometry": {"type": "LineString", "coordinates": [[135.7077505808692, 117.74935860312269], [134.0389962296635, 101.60795860314053]]}, "properties": {"osm_id": null, "type": "residential", "width_m": 5, "extrude": false}}, {"type": "Feature", "geometry": {"type": "LineString", "coordinates": [[152.88610419656067, 101.16267860347378], [150.13756761802213, 104.05699860328511], [139.92871746926437, 114.40975860324912], [135.7077505808692, 117.74935860312269]]}, "properties": {"osm_id": null, "type": "tertiary", "width_m": 7, "extrude": false}}, {"type": "Feature", "geometry": {"type": "LineString", "coordinates": [[-72.49389524063457, 115.3003186033736], [-20.173538228512612, 111.73807860327116], [31.65600868049818, 108.17583860316873], [33.03027696976744, 108.17583860316873], [74.6509737298461, 105.2815186033574], [125.59706245287317, 101.71927860325496], [130.50516348590298, 101.38531860330716], [131.19229763053758, 101.38531860330716], [134.0389962296635, 101.60795860314053]]}, "properties": {"osm_id": null, "type": "residential", "width_m": 5, "extrude": false}}, {"type": "Feature", "geometry": {"type": "LineString", "coordinates": [[152.88610419656067, 101.16267860347378], [134.0389962296635, 101.60795860314053]]}, "properties": {"osm_id": null, "type": "footway", "width_m": 2, "extrude": false}}, {"type": "Feature", "geometry": {"type": "LineString", "coordinates": [[70.7244929033874, 30.80843860313152], [72.68773331670394, 68.99119860322841], [74.6509737298461, 105.2815186033574], [78.38113051495571, 171.6282386031395]]}, "properties": {"osm_id": null, "type": "pedestrian", "width_m": 4, "extrude": false}}, {"type": "Feature", "geometry": {"type": "LineString", "coordinates": [[195.58658318397212, 99.93815860340149], [161.2298759527636, 101.16267860347378], [152.88610419656067, 101.16267860347378]]}, "properties": {"osm_id": null, "type": "pedestrian", "width_m": 4, "extrude": false}}, {"type": "Feature", "geometry": {"type": "LineString", "coordinates": [[23.214074903533493, -41.10428139683535], [28.024013915975925, 34.14803860340058], [33.03027696976744, 108.17583860316873], [36.07329961024242, 166.6188386031314], [36.56410971352797, 173.29803860327402], [47.65641804809508, 183.2055186031758]]}, "properties": {"osm_id": null, "type": "residential", "width_m": 5, "extrude": false}}, {"type": "Feature", "geometry": {"type": "LineString", "coordinates": [[72.68773331670394, 68.99119860322841], [130.9959735891885, 64.31575860316812]]}, "properties": {"osm_id": null, "type": "pedestrian", "width_m": 4, "extrude": false}}, {"type": "Feature", "geometry": {"type": "LineString", "coordinates": [[-29.69525423263574, -37.43072139661848], [-25.081639261542403, 38.2668786032842], [-20.173538228512612, 111.73807860327116], [-16.83602952592681, 175.85839860313754]]}, "properties": {"osm_id": null, "type": "pedestrian", "width_m": 4, "extrude": false}}, {"type": "Feature", "geometry": {"type": "LineString", "coordinates": [[-166.04230093048577, 49.17623860342488], [-153.1830762239512, 48.174358603185965], [-77.59832031501345, 42.27439860344887]]}, "properties": {"osm_id": null, "type": "pedestrian", "width_m": 4, "extrude": false}}, {"type": "Feature", "geometry": {"type": "LineString", "coordinates": [[-77.59832031501345, 42.27439860344887], [-82.2119352861068, -24.07232139672871], [-82.60458336880498, -33.7571613967971]]}, "properties": {"osm_id": null, "type": "pedestrian", "width_m": 4, "extrude": false}}, {"type": "Feature", "geometry": {"type": "LineString", "coordinates": [[-82.2119352861068, -24.07232139672871], [-84.76414782329624, -23.96100139661428], [-110.58075925712708, -22.513841396708614]]}, "properties": {"osm_id": null, "type": "pedestrian", "width_m": 4, "extrude": false}}, {"type": "Feature", "geometry": {"type": "LineString", "coordinates": [[-95.46380807533954, -33.20056139662043], [-84.76414782329624, -23.96100139661428]]}, "properties": {"osm_id": null, "type": "pedestrian", "width_m": 4, "extrude": false}}, {"type": "Feature", "geometry": {"type": "LineString", "coordinates": [[23.214074903533493, -41.10428139683535], [-29.69525423263574, -37.43072139661848], [-82.60458336880498, -33.7571613967971]]}, "properties": {"osm_id": null, "type": "pedestrian", "width_m": 4, "extrude": false}}, {"type": "Feature", "geometry": {"type": "LineString", "coordinates": [[-102.82595962479704, -39.323161396586386], [-100.47007112895669, -37.208081396785104]]}, "properties": {"osm_id": null, "type": "footway", "width_m": 2, "extrude": false}}, {"type": "Feature", "geometry": {"type": "LineString", "coordinates": [[-101.84433941822596, -41.32692139666872], [-102.82595962479704, -39.323161396586386], [-104.49471397617712, -37.98732139679515]]}, "properties": {"osm_id": null, "type": "footway", "width_m": 2, "extrude": false}}, {"type": "Feature", "geometry": {"type": "LineString", "coordinates": [[-82.60458336880498, -33.7571613967971], [-84.8623098438836, -68.4890013965105]]}, "properties": {"osm_id": null, "type": "pedestrian", "width_m": 4, "extrude": false}}, {"type": "Feature", "geometry": {"type": "LineString", "coordinates": [[22.130202592016804, -212.98236139673534], [13.201548796124825, -204.74468139657262], [-13.793006885451828, -178.13920139651202], [-29.59709221187401, -162.4430813965921], [-85.64760600927995, -108.45288139685636], [-87.02187429854922, -105.7812013968784], [-86.3347401539146, -88.74924139677177], [-84.8623098438836, -68.4890013965105], [-86.04025409180377, -54.24004139649625], [-90.35938300096066, -41.883521396845396], [-95.46380807533954, -33.20056139662043], [-110.58075925712708, -22.513841396708614], [-135.61207452556158, -15.389361396503745], [-140.71649959994045, -13.608241396650271], [-143.46503617847898, -11.04788139678675], [-156.71690896771173, 24.463198603332188], [-166.04230093048577, 49.17623860342488], [-171.0485639841029, 62.97991860337689], [-186.16551516589047, 107.28527860343974], [-191.26994024026934, 150.47743860314924], [-195.2945830873154, 174.1885986033985], [-204.32548898815298, 197.89975860325228], [-211.09866841373758, 209.92231860335082], [-214.4361771163234, 216.37887860326458], [-217.58911611946888, 221.58961771600005]]}, "properties": {"osm_id": null, "type": "pedestrian", "width_m": 4, "extrude": false}}, {"type": "Feature", "geometry": {"type": "LineString", "coordinates": [[19.68024215977297, -95.0944813965711], [120.98344748177982, -101.9963213965471]]}, "properties": {"osm_id": null, "type": "pedestrian", "width_m": 4, "extrude": false}}, {"type": "Feature", "geometry": {"type": "LineString", "coordinates": [[15.164789209441365, -165.44872139651787], [19.68024215977297, -95.0944813965711]]}, "properties": {"osm_id": null, "type": "residential", "width_m": 5, "extrude": false}}, {"type": "Feature", "geometry": {"type": "LineString", "coordinates": [[15.164789209441365, -165.44872139651787], [6.42836937054023, -165.00344139685112], [-6.234531294645239, -164.11288139672664], [-29.59709221187401, -162.4430813965921]]}, "properties": {"osm_id": null, "type": "pedestrian", "width_m": 4, "extrude": false}}, {"type": "Feature", "geometry": {"type": "LineString", "coordinates": [[116.66431857279733, -174.68828139652402], [15.164789209441365, -165.44872139651787]]}, "properties": {"osm_id": null, "type": "residential", "width_m": 5, "extrude": false}}, {"type": "Feature", "geometry": {"type": "LineString", "coordinates": [[-6.234531294645239, -164.11288139672664], [-13.793006885451828, -178.13920139651202]]}, "properties": {"osm_id": null, "type": "pedestrian", "width_m": 4, "extrude": false}}, {"type": "Feature", "geometry": {"type": "LineString", "coordinates": [[174.87439682452015, -178.58448139657426], [125.40073841152407, -175.02224139686732], [116.66431857279733, -174.68828139652402]]}, "properties": {"osm_id": null, "type": "pedestrian", "width_m": 4, "extrude": false}}, {"type": "Feature", "geometry": {"type": "LineString", "coordinates": [[226.31129565083276, -182.4806813966245], [174.87439682452015, -178.58448139657426]]}, "properties": {"osm_id": null, "type": "pedestrian", "width_m": 4, "extrude": false}}, {"type": "Feature", "geometry": {"type": "LineString", "coordinates": [[13.201548796124825, -204.74468139657262], [15.164789209441365, -165.44872139651787]]}, "properties": {"osm_id": null, "type": "pedestrian", "width_m": 4, "extrude": false}}, {"type": "Feature", "geometry": {"type": "LineString", "coordinates": [[116.66431857279733, -174.68828139652402], [114.16300486098783, -212.98236139673534]]}, "properties": {"osm_id": null, "type": "residential", "width_m": 5, "extrude": false}}, {"type": "Feature", "geometry": {"type": "LineString", "coordinates": [[285.5029941093011, -72.73469442089322], [284.2268878407935, -88.08132139687615], [281.6746753036041, -120.80940139650721], [280.2177643083167, -137.33140561930213]]}, "properties": {"osm_id": null, "type": "pedestrian", "width_m": 4, "extrude": false}}, {"type": "Feature", "geometry": {"type": "LineString", "coordinates": [[283.93644037361736, -120.9364269938149], [281.6746753036041, -120.80940139650721]]}, "properties": {"osm_id": null, "type": "footway", "width_m": 2, "extrude": false}}, {"type": "Feature", "geometry": {"type": "LineString", "coordinates": [[252.67377963019266, -184.56923850677], [226.31129565083276, -182.4806813966245]]}, "properties": {"osm_id": null, "type": "pedestrian", "width_m": 4, "extrude": false}}, {"type": "Feature", "geometry": {"type": "LineString", "coordinates": [[172.38024829424495, -212.98236139673534], [174.87439682452015, -178.58448139657426]]}, "properties": {"osm_id": null, "type": "pedestrian", "width_m": 4, "extrude": false}}, {"type": "Feature", "geometry": {"type": "LineString", "coordinates": [[225.19547865712758, -204.35333991622144], [225.72232352695985, -194.50324139672304], [226.31129565083276, -182.4806813966245]]}, "properties": {"osm_id": null, "type": "residential", "width_m": 5, "extrude": false}}, {"type": "Feature", "geometry": {"type": "LineString", "coordinates": [[-86.3347401539146, -88.74924139677177], [19.68024215977297, -95.0944813965711]]}, "properties": {"osm_id": null, "type": "pedestrian", "width_m": 4, "extrude": false}}]}