{"type": "FeatureCollection", "crs": {"type": "name", "properties": {"name": "EPSG:32628_local_enu_m_section_centroid", "lng0": -15.422090049113818, "lat0": 28.11439715994021}}, "features": [{"type": "Feature", "geometry": {"type": "Point", "coordinates": [-103.38417688513658, 276.31404454428275]}, "properties": {"osm_id": null, "category": "finanzas", "name": "Banco Santander", "extrude": false}}, {"type": "Feature", "geometry": {"type": "Point", "coordinates": [-11.777399874305933, 271.8612445444513]}, "properties": {"osm_id": null, "category": "finanzas", "name": "Banco Santander", "extrude": false}}, {"type": "Feature", "geometry": {"type": "Point", "coordinates": [299.7641901100896, 288.11396454415245]}, "properties": {"osm_id": null, "category": "restauracion", "name": "La Encina", "extrude": false}}, {"type": "Feature", "geometry": {"type": "Point", "coordinates": [295.0513012605215, 277.2046045444073]}, "properties": {"osm_id": null, "category": "restauracion", "name": "La Cocotte", "extrude": false}}, {"type": "Feature", "geometry": {"type": "Point", "coordinates": [278.55619028764363, 238.68788454436256]}, "properties": {"osm_id": null, "category": "salud", "name": "Clínica Oftalmológica Pérez Silguedo", "extrude": false}}, {"type": "Feature", "geometry": {"type": "Point", "coordinates": [307.2262641216877, 227.44456454427407]}, "properties": {"osm_id": null, "category": "salud", "name": "Cermeco, Certificados Médicos", "extrude": false}}, {"type": "Feature", "geometry": {"type": "Point", "coordinates": [295.6404123667829, 213.30692454437425]}, "properties": {"osm_id": null, "category": "salud", "name": "Naturest, Reconocimientos Médicos", "extrude": false}}, {"type": "Feature", "geometry": {"type": "Point", "coordinates": [247.0387461069311, 210.85788454422968]}, "properties": {"osm_id": null, "category": "restauracion", "name": "Bar Piscolabis La Planchita", "extrude": false}}, {"type": "Feature", "geometry": {"type": "Point", "coordinates": [290.7311531486354, 208.4088445440851]}, "properties": {"osm_id": null, "category": "restauracion", "name": "Bar Restaurante La Prensa", "extrude": false}}, {"type": "Feature", "geometry": {"type": "Point", "coordinates": [264.12296818624475, 203.62208454430586]}, "properties": {"osm_id": null, "category": "salud", "name": "Farmacia Giner + García", "extrude": false}}, {"type": "Feature", "geometry": {"type": "Point", "coordinates": [242.718597995045, 198.61268454429776]}, "properties": {"osm_id": null, "category": "restauracion", "name": "Restaurante Hnos. García", "extrude": false}}, {"type": "Feature", "geometry": {"type": "Point", "coordinates": [250.76978311273012, 177.1279245443597]}, "properties": {"osm_id": null, "category": "finanzas", "name": "BBVA", "extrude": false}}, {"type": "Feature", "geometry": {"type": "Point", "coordinates": [-76.4814363697024, 262.39904454421634]}, "properties": {"osm_id": null, "category": "salud", "name": "Molina Iglesias, B.R.", "extrude": false}}, {"type": "Feature", "geometry": {"type": "Point", "coordinates": [-93.76202881759545, 251.26704454424228]}, "properties": {"osm_id": null, "category": "finanzas", "name": "Caixabank", "extrude": false}}, {"type": "Feature", "geometry": {"type": "Point", "coordinates": [-50.06962177589109, 250.7104445440656]}, "properties": {"osm_id": null, "category": "restauracion", "name": "Café Bar Yeray", "extrude": false}}, {"type": "Feature", "geometry": {"type": "Point", "coordinates": [-55.764362469053786, 235.6822445444368]}, "properties": {"osm_id": null, "category": "restauracion", "name": "Olivia", "extrude": false}}, {"type": "Feature", "geometry": {"type": "Point", "coordinates": [91.31704370696538, 230.89548454426208]}, "properties": {"osm_id": null, "category": "restauracion", "name": "La Pausa", "extrude": false}}, {"type": "Feature", "geometry": {"type": "Point", "coordinates": [-89.04913996820179, 216.5352045441334]}, "properties": {"osm_id": null, "category": "publico", "name": "Academia de Inglés Covent College International", "extrude": false}}, {"type": "Feature", "geometry": {"type": "Point", "coordinates": [-135.68710254068995, 167.1091245443435]}, "properties": {"osm_id": null, "category": "restauracion", "name": "Miraflor", "extrude": false}}, {"type": "Feature", "geometry": {"type": "Point", "coordinates": [-122.92302857343678, 161.54312454415873]}, "properties": {"osm_id": null, "category": "salud", "name": "Clínica Dermatológica y Centro Capilar", "extrude": false}}, {"type": "Feature", "geometry": {"type": "Point", "coordinates": [-91.79832513040623, 148.51868454421677]}, "properties": {"osm_id": null, "category": "restauracion", "name": "Restaurante A Paris", "extrude": false}}, {"type": "Feature", "geometry": {"type": "Point", "coordinates": [-11.581029505552129, 145.513044544291]}, "properties": {"osm_id": null, "category": "restauracion", "name": "Bar Valparaíso", "extrude": false}}, {"type": "Feature", "geometry": {"type": "Point", "coordinates": [-167.30273190551782, 118.12832454422036]}, "properties": {"osm_id": null, "category": "publico", "name": "Giros, Escuela de Baile", "extrude": false}}, {"type": "Feature", "geometry": {"type": "Point", "coordinates": [5.503192573587119, 111.56044454419217]}, "properties": {"osm_id": null, "category": "salud", "name": "Fisior, Centros de Fisioterapia", "extrude": false}}, {"type": "Feature", "geometry": {"type": "Point", "coordinates": [-20.81043683576007, 111.11516454412993]}, "properties": {"osm_id": null, "category": "restauracion", "name": "Cafetería New York", "extrude": false}}, {"type": "Feature", "geometry": {"type": "Point", "coordinates": [-232.0067684009143, 99.87184454443693]}, "properties": {"osm_id": null, "category": "restauracion", "name": "Churrería Cafetería Los Arenales", "extrude": false}}, {"type": "Feature", "geometry": {"type": "Point", "coordinates": [65.3961550351258, 83.84176454417371]}, "properties": {"osm_id": null, "category": "restauracion", "name": "Bar Veneguera", "extrude": false}}, {"type": "Feature", "geometry": {"type": "Point", "coordinates": [-167.99002819606895, 83.61912454434034]}, "properties": {"osm_id": null, "category": "publico", "name": "Latinnova, Escuela de baile", "extrude": false}}, {"type": "Feature", "geometry": {"type": "Point", "coordinates": [-59.39721429038873, 66.03056454445252]}, "properties": {"osm_id": null, "category": "restauracion", "name": "El Rincón de Hilario", "extrude": false}}, {"type": "Feature", "geometry": {"type": "Point", "coordinates": [-299.26361968976136, 61.80040454405898]}, "properties": {"osm_id": null, "category": "publico", "name": "Soraya Hernández, Estudio Flamenco", "extrude": false}}, {"type": "Feature", "geometry": {"type": "Point", "coordinates": [-314.4823232660011, 32.18928454407262]}, "properties": {"osm_id": null, "category": "restauracion", "name": "Cafetería Club Las Palmas", "extrude": false}}, {"type": "Feature", "geometry": {"type": "Point", "coordinates": [-273.3427310179218, 24.062924544419815]}, "properties": {"osm_id": null, "category": "salud", "name": "Ortpedia Bentejui", "extrude": false}}, {"type": "Feature", "geometry": {"type": "Point", "coordinates": [136.67859888281546, 9.368684544343324]}, "properties": {"osm_id": null, "category": "restauracion", "name": "Cafetería Kayei", "extrude": false}}, {"type": "Feature", "geometry": {"type": "Point", "coordinates": [152.1918580120987, 0.01780454422274147]}, "properties": {"osm_id": null, "category": "restauracion", "name": "Primer Express", "extrude": false}}, {"type": "Feature", "geometry": {"type": "Point", "coordinates": [-288.0705086723642, -2.9878354557030207]}, "properties": {"osm_id": null, "category": "finanzas", "name": "Caja Rural de Canarias", "extrude": false}}, {"type": "Feature", "geometry": {"type": "Point", "coordinates": [146.5953025034001, -9.110435455668977]}, "properties": {"osm_id": null, "category": "finanzas", "name": "Chaabi Bank", "extrude": false}}, {"type": "Feature", "geometry": {"type": "Point", "coordinates": [117.72885830077668, -14.676435455853749]}, "properties": {"osm_id": null, "category": "restauracion", "name": "Restaurante Tesoro Chino 2", "extrude": false}}, {"type": "Feature", "geometry": {"type": "Point", "coordinates": [-37.50191817756612, -32.26499545574157]}, "properties": {"osm_id": null, "category": "restauracion", "name": "Café del Mar", "extrude": false}}, {"type": "Feature", "geometry": {"type": "Point", "coordinates": [118.4161545913278, -45.28943545568353]}, "properties": {"osm_id": null, "category": "salud", "name": "Relief, Terapia anti-tabaco", "extrude": false}}, {"type": "Feature", "geometry": {"type": "Point", "coordinates": [-177.0230651575231, -58.20255545590655]}, "properties": {"osm_id": null, "category": "restauracion", "name": "Colón, Cafetería y Club de Billar", "extrude": false}}, {"type": "Feature", "geometry": {"type": "Point", "coordinates": [-320.76617506525076, -62.655355455737975]}, "properties": {"osm_id": null, "category": "salud", "name": "José María Medina", "extrude": false}}, {"type": "Feature", "geometry": {"type": "Point", "coordinates": [68.43989575037375, -79.24203545578237]}, "properties": {"osm_id": null, "category": "salud", "name": "V E. Pérez, C.B.", "extrude": false}}, {"type": "Feature", "geometry": {"type": "Point", "coordinates": [138.24956183267147, -85.2533154556339]}, "properties": {"osm_id": null, "category": "restauracion", "name": "Café Tamaragua", "extrude": false}}, {"type": "Feature", "geometry": {"type": "Point", "coordinates": [-314.5805084502908, -107.51731545558201]}, "properties": {"osm_id": null, "category": "finanzas", "name": "Caixabank", "extrude": false}}, {"type": "Feature", "geometry": {"type": "Point", "coordinates": [-91.89651031469592, -121.65495545587731]}, "properties": {"osm_id": null, "category": "restauracion", "name": "El Obrero", "extrude": false}}, {"type": "Feature", "geometry": {"type": "Point", "coordinates": [139.133228491802, -133.12091545579918]}, "properties": {"osm_id": null, "category": "restauracion", "name": "", "extrude": false}}, {"type": "Feature", "geometry": {"type": "Point", "coordinates": [-75.40139934164367, -134.56807545570484]}, "properties": {"osm_id": null, "category": "restauracion", "name": "Los Trópicos", "extrude": false}}, {"type": "Feature", "geometry": {"type": "Point", "coordinates": [-328.81736018311034, -134.56807545570484]}, "properties": {"osm_id": null, "category": "finanzas", "name": "Caixabank", "extrude": false}}, {"type": "Feature", "geometry": {"type": "Point", "coordinates": [82.08763637693185, -155.49623545586172]}, "properties": {"osm_id": null, "category": "finanzas", "name": "Caixabank", "extrude": false}}, {"type": "Feature", "geometry": {"type": "Point", "coordinates": [44.973636687520695, -206.36947545555728]}, "properties": {"osm_id": null, "category": "finanzas", "name": "Caixabank", "extrude": false}}, {"type": "Feature", "geometry": {"type": "Point", "coordinates": [-7.7518073154633775, -207.14871545556733]}, "properties": {"osm_id": null, "category": "restauracion", "name": "Bar Cafetería Rialto", "extrude": false}}, {"type": "Feature", "geometry": {"type": "Point", "coordinates": [92.49526591931381, -227.52027545554753]}, "properties": {"osm_id": null, "category": "restauracion", "name": "María Jesús Martel Ortega", "extrude": false}}, {"type": "Feature", "geometry": {"type": "Point", "coordinates": [-46.33858477009204, -228.41083545567201]}, "properties": {"osm_id": null, "category": "restauracion", "name": "La Gran Muralla", "extrude": false}}, {"type": "Feature", "geometry": {"type": "Point", "coordinates": [62.94152542596486, -232.7523154557845]}, "properties": {"osm_id": null, "category": "restauracion", "name": "Las Vegas", "extrude": false}}, {"type": "Feature", "geometry": {"type": "Point", "coordinates": [24.25656278687209, -232.7523154557845]}, "properties": {"osm_id": null, "category": "finanzas", "name": "Grupo HNA, Seguros e Inversiones", "extrude": false}}, {"type": "Feature", "geometry": {"type": "Point", "coordinates": [51.453858855524196, -247.55787545557993]}, "properties": {"osm_id": null, "category": "restauracion", "name": "D'Vainilla Galletas y Pasteles", "extrude": false}}, {"type": "Feature", "geometry": {"type": "Point", "coordinates": [47.72282184972514, -252.56727545558803]}, "properties": {"osm_id": null, "category": "restauracion", "name": "La Galería", "extrude": false}}, {"type": "Feature", "geometry": {"type": "Point", "coordinates": [-3.628029572156713, -268.04075545567457]}, "properties": {"osm_id": null, "category": "restauracion", "name": "Y... Tres", "extrude": false}}, {"type": "Feature", "geometry": {"type": "Point", "coordinates": [25.04204426188731, -283.29159545592773]}, "properties": {"osm_id": null, "category": "finanzas", "name": "Banco Madrid", "extrude": false}}, {"type": "Feature", "geometry": {"type": "Point", "coordinates": [-20.71225165129596, -289.74815545584147]}, "properties": {"osm_id": null, "category": "restauracion", "name": "Cafetería Recreativos Carvajal", "extrude": false}}, {"type": "Feature", "geometry": {"type": "Point", "coordinates": [65.98526614138721, -289.8594754555604]}, "properties": {"osm_id": null, "category": "restauracion", "name": "Cafetería Parking", "extrude": false}}, {"type": "Feature", "geometry": {"type": "Point", "coordinates": [-103.28599170084689, -301.99335545577344]}, "properties": {"osm_id": null, "category": "salud", "name": "Farmacia Lcdo. Rogelio Tenorio Hernández", "extrude": false}}, {"type": "Feature", "geometry": {"type": "Point", "coordinates": [286.70556058979287, 128.9263645442466]}, "properties": {"osm_id": null, "category": "restauracion", "name": "Chaplin", "extrude": false}}, {"type": "Feature", "geometry": {"type": "Point", "coordinates": [280.5198939748329, 118.2396445443348]}, "properties": {"osm_id": null, "category": "finanzas", "name": "Caixabank", "extrude": false}}, {"type": "Feature", "geometry": {"type": "Point", "coordinates": [174.47989486260332, 29.29496454426129]}, "properties": {"osm_id": null, "category": "finanzas", "name": "Caixabank", "extrude": false}}, {"type": "Feature", "geometry": {"type": "Point", "coordinates": [181.05830221489651, -28.14615545585795]}, "properties": {"osm_id": null, "category": "salud", "name": "Sanitas Centro Dental Milenium Las Palmas", "extrude": false}}, {"type": "Feature", "geometry": {"type": "Point", "coordinates": [318.7139306921283, -99.72491545587701]}, "properties": {"osm_id": null, "category": "finanzas", "name": "Banco Santander", "extrude": false}}, {"type": "Feature", "geometry": {"type": "Point", "coordinates": [219.3505241166561, -247.00127545579875]}, "properties": {"osm_id": null, "category": "restauracion", "name": "La Marea", "extrude": false}}]}