{"type": "FeatureCollection", "crs": {"type": "name", "properties": {"name": "EPSG:32628_local_enu_m_section_centroid", "lng0": -13.675417008016893, "lat0": 28.96405487639019}}, "features": [{"type": "Feature", "geometry": {"type": "Polygon", "coordinates": [[[-1297.125868424301, 4114.4847597558855], [-1297.125868424301, 4113.0375997559795], [-1296.9310754149265, 4111.701759755793], [-1295.6649208542535, 4109.586679755992], [-1294.3013697888068, 4107.805559755743], [-1293.4248012467092, 4107.026319755732], [-1291.9638536766622, 4106.358399755837], [-1290.4055096018412, 4106.135759756004], [-1289.2367515457688, 4106.692359755785], [-1288.5549760130455, 4108.139519756086], [-1288.8471655271933, 4110.477239756116], [-1289.9185270784922, 4112.369679756084], [-1290.697699115989, 4113.0375997559795], [-1292.5482327047848, 4113.0375997559795], [-1293.7169907608572, 4114.039479755823], [-1294.6909558075554, 4115.37531975601], [-1296.2492998823764, 4115.486639755729], [-1297.125868424301, 4114.4847597558855]]]}, "properties": {"name": "", "kind": "water", "category": "agua", "extrude": false}}, {"type": "Feature", "geometry": {"type": "Polygon", "coordinates": [[[-199.3698642493286, 3882.1599197559403], [-199.75945026790407, 3879.9335197560245], [-199.66205376330345, 3878.7089997559524], [-198.59069221183165, 3878.1523997557756], [-197.22714114638498, 3877.707119756109], [-196.15577959508622, 3878.0410797560567], [-195.181814548388, 3879.1542797560146], [-194.5974355202653, 3880.3787997560867], [-194.20784950151682, 3882.382559755774], [-194.40264251089104, 3884.2749997557416], [-195.5714005669635, 3885.4995197558137], [-196.7401586230359, 3885.722159756043], [-197.90891667910833, 3885.722159756043], [-198.59069221183165, 3884.720279755804], [-199.3698642493286, 3882.1599197559403]]]}, "properties": {"name": "", "kind": "water", "category": "agua", "extrude": false}}, {"type": "Feature", "geometry": {"type": "Polygon", "coordinates": [[[2907.0916523121646, 3608.869319755806], [2912.7406495831524, 3606.1976397558283], [2914.3963901627467, 3604.861799756037], [2915.272958704671, 3602.8580397559545], [2918.389646854313, 3594.8429997560206], [2921.0193524804326, 3591.948679755814], [2929.7850379010624, 3588.7203997560546], [2936.018414200173, 3585.3807997557856], [2938.7455163310665, 3584.490239756057], [2943.420548555356, 3583.93363975588], [2946.439840200224, 3584.6015597557757], [2951.309665433888, 3588.1637997558782], [2954.523750088131, 3592.5052797559906], [2955.3029221256274, 3595.622239756031], [2955.2055256208537, 3598.6278797559567], [2953.647181546033, 3601.7448397559965], [2951.894044462011, 3603.1919997559025], [2948.972149321743, 3604.30519975586], [2946.6346332095986, 3605.0844397558703], [2944.686703116202, 3605.195759755985], [2942.3491870040575, 3605.0844397558703], [2936.992379246871, 3600.186359755977], [2933.973087602003, 3600.742959755758], [2929.2980553777134, 3602.524079756007], [2924.330833639449, 3606.6429197558905], [2917.3182853028416, 3613.322119756033], [2909.331771919709, 3616.773039756021], [2906.89685930279, 3618.665479755989], [2905.3385152279693, 3619.22207975577], [2904.364550181271, 3619.3333997558843], [2903.4879816391735, 3618.9994397559367], [2902.0270340691263, 3615.6598397560633], [2901.7348445551515, 3613.433439755752], [2902.611413097249, 3612.097599755961], [2907.0916523121646, 3608.869319755806]]]}, "properties": {"name": "", "kind": "water", "category": "agua", "extrude": false}}, {"type": "Feature", "geometry": {"type": "Polygon", "coordinates": [[[3052.9916163130533, 3579.8147997559963], [3052.602030294305, 3578.256319755976], [3054.160374369126, 3577.2544397557376], [3056.790079995419, 3577.2544397557376], [3062.341680761806, 3584.490239756057], [3062.5364737710074, 3586.9392797558057], [3062.0494912476584, 3587.9411597560447], [3060.5885436776107, 3589.0543597560027], [3054.6473568924753, 3590.5015197559082], [3049.8749281635846, 3586.4939997557435], [3049.1931526308617, 3584.71287975589], [3052.9916163130533, 3579.8147997559963]]]}, "properties": {"name": "", "kind": "water", "category": "agua", "extrude": false}}, {"type": "Feature", "geometry": {"type": "Polygon", "coordinates": [[[2922.577696555254, 3562.7828397558897], [2919.8505944243607, 3569.350719755918], [2918.876629377662, 3570.2412797560423], [2914.201597153373, 3571.1318397557716], [2912.6432530785514, 3570.7978797558235], [2911.2797020131047, 3569.2393997558033], [2910.8901159943566, 3566.0111197560445], [2910.305736966407, 3562.7828397558897], [2909.136978910334, 3560.556439755974], [2911.8640810412276, 3558.4413597557773], [2913.2276321066743, 3558.1073997558296], [2916.1495272467687, 3557.884759755996], [2919.363611901011, 3558.775319755725], [2921.9933175271312, 3560.4451197558597], [2922.577696555254, 3562.7828397558897]]]}, "properties": {"name": "", "kind": "water", "category": "agua", "extrude": false}}, {"type": "Feature", "geometry": {"type": "Polygon", "coordinates": [[[2979.2624622751982, 3553.988559755946], [2990.0734742939985, 3551.4281997560824], [3000.884486312798, 3548.7565197561044], [3003.708984948292, 3548.979159755938], [3006.4360870791847, 3550.314999755729], [3009.0657927053044, 3553.431959755769], [3009.942361247402, 3556.2149597558614], [3010.624136780126, 3558.552679755892], [3010.526740275352, 3561.1130397557554], [3009.260585714679, 3563.1167997558377], [3003.6115884436913, 3567.45827975595], [2995.91726457436, 3570.6865597561045], [2983.840097994888, 3576.3638797560084], [2981.9895644060916, 3576.3638797560084], [2980.431220331271, 3575.5846397559985], [2979.2624622751982, 3572.3563597558436], [2980.3338238266706, 3571.577119755834], [2982.0869609106926, 3572.6903197557917], [2983.645304985513, 3573.803519755749], [3006.72827659316, 3563.1167997558377], [3008.189224163207, 3560.7790797558073], [3007.994431154006, 3558.1073997558296], [3007.4100521258833, 3555.6583597560802], [3005.0725360137385, 3552.5413997560404], [3003.6115884436913, 3551.873479755749], [2999.326142237977, 3552.6527197557593], [2977.3145321818024, 3559.109279756068], [2976.7301531536796, 3555.213079756018], [2979.2624622751982, 3553.988559755946]]]}, "properties": {"name": "", "kind": "water", "category": "agua", "extrude": false}}, {"type": "Feature", "geometry": {"type": "Polygon", "coordinates": [[[1691.1936879680663, 3565.12055975592], [1689.6353438934184, 3564.4526397560244], [1687.8822068092231, 3563.228119755952], [1686.5186557437764, 3561.6696397559317], [1684.4733291456066, 3557.439479755934], [1683.7915536128833, 3555.4357197558516], [1682.3306060428358, 3552.9866797561026], [1680.4800724540403, 3550.8715997559057], [1678.5321423606438, 3549.7583997559477], [1675.220661201628, 3548.422559755761], [1677.0711947904235, 3544.7489997559396], [1680.285279444666, 3546.4187997560743], [1684.083743127031, 3549.090479756052], [1692.1676530149373, 3563.228119755952], [1691.1936879680663, 3565.12055975592]]]}, "properties": {"name": "", "kind": "water", "category": "agua", "extrude": false}}, {"type": "Feature", "geometry": {"type": "Polygon", "coordinates": [[[2961.731091433939, 3558.775319755725], [2957.0560592096494, 3540.964119756004], [2957.3482487236242, 3537.4018797559015], [2961.2441089105905, 3534.396239755976], [2966.0165376396535, 3533.839639755799], [2969.4254153032703, 3534.284919755861], [2972.8342929667137, 3535.954719755996], [2974.003051022786, 3538.6263997559736], [2974.1978440321604, 3550.648959756072], [2975.658791602381, 3561.8922797557652], [2972.2499139387637, 3564.4526397560244], [2969.4254153032703, 3565.12055975592], [2966.211330649028, 3563.673399756014], [2961.731091433939, 3558.775319755725]]]}, "properties": {"name": "", "kind": "water", "category": "agua", "extrude": false}}, {"type": "Feature", "geometry": {"type": "Polygon", "coordinates": [[[1674.2466961549296, 3547.86595975598], [1668.2081128651935, 3544.637679755825], [1664.5070456876017, 3543.413159755753], [1658.1762728838905, 3541.186759755837], [1654.8647917248747, 3540.4075197558273], [1648.144432902415, 3536.177359755829], [1643.7615901921001, 3531.947199755831], [1642.0084531080781, 3530.5000397559256], [1639.963126509908, 3530.1660797559775], [1637.430817388389, 3528.718919756072], [1635.2880942856184, 3526.381199756042], [1635.2880942856184, 3524.0434797560115], [1636.2620593323165, 3522.1510397560437], [1637.8204034069643, 3521.1491597558047], [1639.183954472411, 3521.1491597558047], [1640.8396950520055, 3521.371799756034], [1642.6902286408015, 3522.0397197559296], [1644.8329517435718, 3525.824599755865], [1647.7548468836665, 3530.945319755988], [1653.5986371642016, 3535.954719755996], [1661.2929610333595, 3538.737719756088], [1670.1560429585898, 3541.520719755785], [1675.707643724977, 3544.192399755763], [1674.2466961549296, 3547.86595975598]]]}, "properties": {"name": "", "kind": "water", "category": "agua", "extrude": false}}, {"type": "Feature", "geometry": {"type": "Polygon", "coordinates": [[[2850.1146970782447, 3344.706959755959], [2855.666297844632, 3343.482439755887], [2860.243933564148, 3342.7031997558765], [2864.4319832650885, 3342.7031997558765], [2867.8408609287053, 3343.2597997560533], [2870.762756068973, 3344.3729997560113], [2873.295065190492, 3346.4880797558126], [2874.561219751165, 3349.15975975579], [2874.8534092653126, 3352.1653997561116], [2873.782047713841, 3354.8370797560897], [2870.080980536249, 3358.844599755859], [2864.7241727792366, 3361.961559755899], [2858.8803824987012, 3364.633239755877], [2852.8417992089653, 3366.191719755897], [2847.8745774707004, 3366.191719755897], [2843.0047522370364, 3365.969079756064], [2838.9140990406963, 3365.412479755887], [2835.7000143864543, 3364.633239755877], [2833.6546877882843, 3363.186079755971], [2832.680722741586, 3360.9596797560557], [2832.193740218237, 3357.8427197560154], [2833.0703087603347, 3355.1710397560373], [2835.310428367879, 3352.2767197558305], [2840.7646326294926, 3348.3805197557804], [2845.5370613585555, 3346.1541197558645], [2850.1146970782447, 3344.706959755959]]]}, "properties": {"name": "", "kind": "water", "category": "agua", "extrude": false}}, {"type": "Feature", "geometry": {"type": "Polygon", "coordinates": [[[2831.219775171539, 3345.26355975574], [2827.9082940126955, 3342.7031997558765], [2825.9603639191264, 3339.029639756055], [2825.4733813957773, 3334.910799755776], [2826.5447429472492, 3330.903279756007], [2829.174448573369, 3327.6749997558522], [2832.7781192463594, 3325.559919756051], [2836.9661689473005, 3325.1146397559887], [2840.959425638867, 3326.2278397559467], [2844.27090679771, 3328.78819975581], [2846.31623339588, 3332.4617597560273], [2846.8032159192285, 3336.580599755911], [2845.6344578631565, 3340.699439755794], [2843.0047522370364, 3343.927719755949], [2839.401081564046, 3345.9314797560314], [2835.2130318631052, 3346.4880797558126], [2831.219775171539, 3345.26355975574]]]}, "properties": {"name": "", "kind": "water", "category": "agua", "extrude": false}}, {"type": "Feature", "geometry": {"type": "Polygon", "coordinates": [[[2851.283455134317, 3323.8901197559167], [2854.9845223119087, 3323.4448397558544], [2858.588192984727, 3324.335399755979], [2861.6074846295946, 3326.673119756009], [2863.458018218391, 3329.901399755768], [2863.9450007417395, 3333.6862797560993], [2862.9710356950413, 3337.359839755921], [2860.7309160874975, 3340.254159755732], [2847.9719739753014, 3325.7825597558844], [2851.283455134317, 3323.8901197559167]]]}, "properties": {"name": "", "kind": "water", "category": "agua", "extrude": false}}, {"type": "Feature", "geometry": {"type": "Polygon", "coordinates": [[[1943.7428245865585, 3167.3741997559887], [1945.9829441941024, 3163.9232797560007], [1949.8788043808954, 3161.5855597559707], [1952.995492530537, 3162.253479755866], [1956.599163203355, 3164.1459197558343], [1966.046624156708, 3166.4836397558643], [1969.4555018203246, 3168.7100397557797], [1971.5008284184944, 3171.270399756039], [1973.1565689979163, 3175.277919755808], [1973.2539655025166, 3180.843919755993], [1971.695621427869, 3187.7457597559687], [1969.3581053157238, 3194.202319755883], [1973.3513620072904, 3199.211719755891], [1975.6888781194352, 3203.5531997560033], [1977.4420152036305, 3208.3399597557823], [1977.6368082128313, 3215.3531197558727], [1976.5654466615329, 3226.707759756076], [1975.299292100687, 3238.396359755831], [1972.377396960592, 3248.971759756024], [1966.9231926988057, 3258.4339597558633], [1960.5924198950943, 3265.0018397558915], [1956.3069736893801, 3267.6735197558696], [1951.3397519511154, 3268.8980397559417], [1945.1063756520048, 3268.0074797558173], [1938.9703958574949, 3265.6697597557873], [1932.2500370350356, 3261.8848797558517], [1924.9452991846258, 3253.7585197558033], [1919.7832844368143, 3245.4095197559213], [1916.082217259223, 3237.2831597558734], [1910.72540950221, 3223.9247597559834], [1907.608721352741, 3212.792759756009], [1906.7321528106434, 3203.2192397560552], [1905.5633947545712, 3202.4399997560454], [1893.4862281749251, 3194.313639755997], [1890.1747470160824, 3192.421199756029], [1883.843974212371, 3192.6438397558627], [1879.1689419880815, 3192.532519755748], [1872.2537901562478, 3191.0853597558425], [1867.1891719132093, 3191.0853597558425], [1862.7089326981209, 3190.083479755999], [1857.352124941108, 3189.1929197558748], [1850.3395766046738, 3186.409919755782], [1848.2942500065035, 3183.960879756033], [1848.1968535019028, 3182.513719755732], [1850.6317661186483, 3178.728839755796], [1853.1640752401674, 3178.617519756077], [1856.2807633896361, 3180.9552397561074], [1860.9557956140986, 3183.626919756085], [1863.5855012402185, 3183.738239755804], [1867.5787579317848, 3185.5193597560533], [1871.669411128125, 3185.7419997558864], [1877.221011894512, 3185.7419997558864], [1881.1168720814776, 3185.185399756105], [1885.7919043057675, 3183.515599755971], [1896.895105838542, 3183.181639756023], [1900.498776511533, 3183.738239755804], [1912.478546586405, 3193.311759755758], [1918.2249403619935, 3188.9702797560412], [1927.2828152967709, 3185.9646397561155], [1937.8016378014227, 3184.1835197558667], [1941.1131189602659, 3183.0703197559087], [1943.4506350725835, 3179.9533597558684], [1943.7428245865585, 3167.3741997559887]]]}, "properties": {"name": "", "kind": "water", "category": "agua", "extrude": false}}, {"type": "Feature", "geometry": {"type": "Polygon", "coordinates": [[[2096.850129933256, 2984.586759755948], [2096.2657509053065, 3010.301679755884], [2091.2011326622683, 3010.079039756051], [2091.7855116902183, 2984.4754397558336], [2096.850129933256, 2984.586759755948]]]}, "properties": {"name": "", "kind": "water", "category": "agua", "extrude": false}}]}