{"type": "FeatureCollection", "crs": {"type": "name", "properties": {"name": "EPSG:32628_local_enu_m_section_centroid", "lng0": -16.249892400734176, "lat0": 28.4743203734887}}, "features": [{"type": "Feature", "geometry": {"type": "Polygon", "coordinates": [[[105.42766763397212, 296.04145676178007], [110.6440235263302, 298.3791767622057], [104.33252632263908, 298.3791767622057], [105.42766763397212, 296.04145676178007]]]}, "properties": {"name": "", "kind": "pitch", "category": "parque", "extrude": false}}, {"type": "Feature", "geometry": {"type": "Polygon", "coordinates": [[[99.752151989025, 296.15277676189453], [98.69373422246805, 298.3791767622057], [83.21287662917564, 298.3791767622057], [87.12902236463673, 290.14149676204295], [99.752151989025, 296.15277676189453]]]}, "properties": {"name": "", "kind": "pitch", "category": "parque", "extrude": false}}, {"type": "Feature", "geometry": {"type": "Polygon", "coordinates": [[[120.20357905452785, 278.11893676194444], [113.45167251132317, 295.37353676188445], [105.23196019808331, 292.1452567617298], [111.983866741288, 274.89065676178984], [120.20357905452785, 278.11893676194444]]]}, "properties": {"name": "", "kind": "pitch", "category": "parque", "extrude": false}}, {"type": "Feature", "geometry": {"type": "Polygon", "coordinates": [[[97.30580903850286, 272.55293676175967], [107.2868882764802, 277.4510167620488], [99.65429827090676, 293.03581676185433], [89.67321903327708, 288.13773676196064], [97.30580903850286, 272.55293676175967]]]}, "properties": {"name": "", "kind": "pitch", "category": "parque", "extrude": false}}, {"type": "Feature", "geometry": {"type": "Polygon", "coordinates": [[[-261.13236006005474, 257.302096761902], [-261.0345063419365, 257.52473676173537], [-261.0345063419365, 257.74737676196423], [-261.13236006005474, 258.08133676191204], [-261.3280674959435, 258.3039767617454], [-261.6216286502982, 258.5266167619743], [-261.9151898043052, 258.5266167619743], [-262.20875095831224, 258.5266167619743], [-262.5023121123193, 258.41529676185985], [-262.69801954820815, 258.19265676202644], [-262.8937269844445, 257.8586967620787], [-262.8937269844445, 257.6360567618498], [-262.79587326632634, 257.302096761902], [-262.60016583043756, 256.96813676195416], [-262.4044583942011, 256.85681676183975], [-262.11089724019405, 256.74549676172535], [-261.81733608618697, 256.74549676172535], [-261.52377493218, 256.85681676183975], [-261.3280674959435, 256.96813676195416], [-261.13236006005474, 257.302096761902]]]}, "properties": {"name": "", "kind": "garden", "category": "parque", "extrude": false}}, {"type": "Feature", "geometry": {"type": "Polygon", "coordinates": [[[-249.09635274402814, 248.17385676201027], [-248.50923043566644, 248.8417767619059], [-248.11781556354117, 249.62101676191594], [-248.01996184577058, 250.51157676204042], [-248.21566928165942, 251.29081676205047], [-248.7049378719029, 252.18137676177946], [-249.38991389803522, 252.73797676195613], [-250.3684510781745, 253.07193676190394], [-251.34698825831381, 253.07193676190394], [-252.22767172033497, 252.73797676195613], [-253.01050146458542, 252.18137676177946], [-253.4019163367107, 251.29081676205047], [-253.5976237725995, 250.400256761926], [-253.4997700548289, 249.5096967618015], [-253.10835518270366, 248.73045676179146], [-252.42337915657137, 248.06253676189584], [-251.6405494123209, 247.72857676194803], [-250.75986595029974, 247.6172567618336], [-249.87918248793102, 247.72857676194803], [-249.09635274402814, 248.17385676201027]]]}, "properties": {"name": "", "kind": "garden", "category": "parque", "extrude": false}}, {"type": "Feature", "geometry": {"type": "Polygon", "coordinates": [[[-257.4139187753862, 249.62101676191594], [-257.316065057268, 250.51157676204042], [-257.51177249350445, 251.4021367617694], [-258.0988948015185, 252.07005676206052], [-258.78387082765084, 252.51533676172727], [-259.5667005719013, 252.84929676207057], [-260.3495303158042, 252.73797676195613], [-261.13236006005474, 252.51533676172727], [-261.81733608618697, 251.95873676194608], [-262.3066046764305, 251.29081676205047], [-262.5023121123193, 250.51157676204042], [-262.5023121123193, 249.62101676191594], [-262.11089724019405, 248.8417767619059], [-261.6216286502982, 248.17385676201027], [-260.83879890604766, 247.72857676194803], [-259.95811544367893, 247.6172567618336], [-259.0774319816578, 247.72857676194803], [-258.29460223740733, 248.17385676201027], [-257.7074799293933, 248.8417767619059], [-257.4139187753862, 249.62101676191594]]]}, "properties": {"name": "", "kind": "garden", "category": "parque", "extrude": false}}, {"type": "Feature", "geometry": {"type": "Polygon", "coordinates": [[[-251.34698825831381, 243.60973676206441], [-251.2491345401956, 244.05501676173117], [-251.2491345401956, 244.61161676190784], [-251.44484197643206, 245.05689676197008], [-251.73840313043908, 245.3908567619179], [-252.22767172033497, 245.7248167618657], [-252.71694031057845, 245.7248167618657], [-253.20620890047425, 245.7248167618657], [-253.5976237725995, 245.3908567619179], [-253.98903864472476, 245.05689676197008], [-254.18474608096122, 244.61161676190784], [-254.18474608096122, 244.05501676173117], [-254.08689236284297, 243.60973676206441], [-253.79333120883598, 243.16445676200217], [-253.4019163367107, 242.9418167617733], [-252.91264774646723, 242.71917676193993], [-252.42337915657137, 242.71917676193993], [-251.93411056632786, 242.9418167617733], [-251.6405494123209, 243.16445676200217], [-251.34698825831381, 243.60973676206441]]]}, "properties": {"name": "", "kind": "garden", "category": "parque", "extrude": false}}, {"type": "Feature", "geometry": {"type": "Polygon", "coordinates": [[[-273.95119712033176, 262.97941676180574], [-267.98212032137764, 283.90757676196256], [-273.7940360288567, 290.3949491418184], [-274.9966106987401, 289.9054463211999], [-283.67753737784983, 285.2346519092947], [-291.91422693867696, 279.6183740034003], [-299.6273555586047, 273.1107004302632], [-306.7426415923351, 265.7743036435859], [-313.19156094581166, 257.6798371550248], [-318.9120070002187, 248.90525510168274], [-323.8488887331694, 239.53506150570703], [-327.95466127450004, 229.65949645314225], [-331.1897837904403, 219.37366703417084], [-333.5231002824445, 208.77663140891926], [-334.9321396371872, 197.97044482375085], [-335.4033320356539, 187.05917676206965], [-335.4033320356539, 67.10446691575868], [-273.95119712033176, 262.97941676180574]]]}, "properties": {"name": "Parque García Sanabria", "kind": "park", "category": "parque", "extrude": false}}, {"type": "Feature", "geometry": {"type": "Polygon", "coordinates": [[[249.76190170991083, 1.266096761707729], [242.52072657681032, 18.07541676198099], [237.92160182977307, 51.13745676195535], [231.1696952865684, 98.44845676194396], [227.74481515590693, 101.23145676203634], [217.372321046152, 100.7861767619741], [215.31739296775513, 98.00317676188172], [227.35340028412932, 48.911056762039635], [230.09330438865848, 37.66773676195115], [247.706973631514, -41.36946323822059], [248.39194965764625, -40.81286323804392], [253.77390414858638, -37.13930323822254], [262.67859248830615, -30.90538323814215], [249.76190170991083, 1.266096761707729]]]}, "properties": {"name": "", "kind": "garden", "category": "parque", "extrude": false}}, {"type": "Feature", "geometry": {"type": "Polygon", "coordinates": [[[109.24396263675884, 38.001696761898955], [101.80708006742186, 34.99605676197319], [94.95731980609895, 31.879096761933], [86.54190005662265, 28.09421676199719], [102.1006412214289, -3.8546232380193146], [121.8670922611471, 5.607576761820212], [109.24396263675884, 38.001696761898955]]]}, "properties": {"name": "", "kind": "park", "category": "parque", "extrude": false}}, {"type": "Feature", "geometry": {"type": "Polygon", "coordinates": [[[102.1006412214289, 9.058496761808215], [106.7976196862367, 11.173576762004984], [105.52552135209035, 14.067896761816314], [108.3632791743901, 15.292416761888603], [105.81908250609739, 20.96973676179232], [102.88347096567941, 19.633896762001086], [102.49205609355415, 20.63577676184451], [97.79507762874634, 18.52069676204323], [102.1006412214289, 9.058496761808215]]]}, "properties": {"name": "Parque Infantil Pisaca", "kind": "playground", "category": "parque", "extrude": false}}, {"type": "Feature", "geometry": {"type": "Polygon", "coordinates": [[[86.54190005662265, 28.09421676199719], [81.35565300157135, 39.337536762085676], [57.18578465140002, 28.873456762007237], [66.09047299077216, 15.849016762065276], [82.43204389982891, -13.094183238025465], [102.1006412214289, -3.8546232380193146], [86.54190005662265, 28.09421676199719]]]}, "properties": {"name": "Cancha de fútbol Pisaca", "kind": "pitch", "category": "parque", "extrude": false}}, {"type": "Feature", "geometry": {"type": "Polygon", "coordinates": [[[60.61066478206148, -23.33562323827053], [82.43204389982891, -13.094183238025465], [66.09047299077216, 15.849016762065276], [47.20470541342269, 3.0472167619566903], [60.61066478206148, -23.33562323827053]]]}, "properties": {"name": "Cancha de baloncesto Pisaca", "kind": "pitch", "category": "parque", "extrude": false}}, {"type": "Feature", "geometry": {"type": "Polygon", "coordinates": [[[-326.8900585680594, -22.55638323826048], [-328.1621569022057, -22.222423237917184], [-329.43425523635204, -22.445063238146048], [-330.8042072886166, -23.001663237927232], [-331.78274446875594, -24.003543238166145], [-332.4677204948883, -25.339383237957378], [-332.5655742130065, -26.78654323825853], [-332.1741593408812, -28.233703238164196], [-331.3913295966307, -29.346903238122053], [-330.2170849806026, -30.237463238246534], [-328.847132928338, -30.682743237913286], [-327.3793271579552, -30.571423238194342], [-326.00937510569065, -29.903503238298725], [-325.0308379255513, -29.012943238174245], [-324.44371561753724, -27.899743238216388], [-324.1501544635302, -26.6752232381441], [-324.345861899419, -25.339383237957378], [-324.8351304896625, -24.22618323799952], [-325.7158139516836, -23.224303238156097], [-326.8900585680594, -22.55638323826048]]]}, "properties": {"name": "", "kind": "garden", "category": "parque", "extrude": false}}, {"type": "Feature", "geometry": {"type": "Polygon", "coordinates": [[[-228.05780337016358, -19.884703238282526], [-228.74277939629584, -21.22054323807376], [-229.7213165764352, -23.558263238103905], [-230.30843888444926, -25.116743238124002], [-230.11273144856048, -28.456343237997572], [-222.8715563151123, -31.6846232381522], [-198.01671193880867, -42.037383238116206], [-175.8039179485683, -51.610903238070165], [-157.89668755135818, -59.51462323828508], [-132.94398945693632, -69.75606323813466], [-105.74065584788113, -81.66730323811876], [-98.4994807147806, -84.45030323821115], [-95.95528404614025, -84.67294323804452], [-93.60679481373634, -83.44842323797224], [-91.06259814544363, -80.99938323822315], [-89.88835352906786, -78.21638323813076], [-89.10552378516498, -75.43338323803837], [-89.30123122105378, -74.09754323824714], [-89.98620724718607, -73.09566323800823], [-96.05313776425847, -70.31266323791584], [-98.4994807147806, -69.19946323795799], [-104.27285007784596, -66.63910323809446], [-110.24192687680014, -64.07874323823094], [-115.62388136774022, -61.741023238200796], [-123.5500325273207, -58.51274323804617], [-131.18262253254647, -55.395783238005976], [-138.52165138411286, -52.39014323808021], [-146.64350997958212, -49.05054323820664], [-151.927610752404, -46.82414323829093], [-159.16878588550452, -43.81850323796968], [-167.38849819909203, -40.1449432381483], [-171.1069394837605, -38.47514323801377], [-178.44596833497926, -35.24686323825463], [-185.00216744229513, -32.352543238047815], [-191.94978142173628, -29.346903238122053], [-199.1909565548368, -26.22994323808186], [-206.2364242520485, -23.224303238156097], [-213.18403823148964, -20.107343238115902], [-218.66384644054796, -17.658303237971325], [-221.69731169908417, -16.32246323818009], [-223.16511746911934, -15.76586323800342], [-224.92648439350916, -16.099823237951227], [-226.39429016389198, -17.10170323819014], [-227.4706810621495, -18.437543237981373], [-228.05780337016358, -19.884703238282526]]]}, "properties": {"name": "", "kind": "park", "category": "parque", "extrude": false}}, {"type": "Feature", "geometry": {"type": "Polygon", "coordinates": [[[-327.0857660039482, -79.88618323826529], [-314.9519049698034, -128.86698323799294], [-295.0876002123146, -123.96890323809927], [-294.7940390579599, -113.17086323807303], [-294.01120931405706, -85.11822323810676], [-319.94244458861823, -81.7786232382332], [-322.3887875391403, -55.95238323818265], [-319.55102971649296, -51.27694323812236], [-335.4033320356539, -41.932135237785104], [-335.4033320356539, -81.0533268506343], [-327.0857660039482, -79.88618323826529]]]}, "properties": {"name": "", "kind": "garden", "category": "parque", "extrude": false}}, {"type": "Feature", "geometry": {"type": "Polygon", "coordinates": [[[188.01620564092937, -98.0313432379343], [190.95181718134734, -99.70114323806882], [193.98528243988352, -99.70114323806882], [224.12422758935668, -71.20322323804032], [223.63495899946085, -70.5353032381447], [186.6462535886648, -95.5823032381852], [188.01620564092937, -98.0313432379343]]]}, "properties": {"name": "", "kind": "garden", "category": "parque", "extrude": false}}, {"type": "Feature", "geometry": {"type": "Polygon", "coordinates": [[[223.5371052813426, -89.12574323827144], [232.93106221095823, -83.55974323808667], [254.85029504684394, -109.83126323819945], [263.1678610785496, -125.19342323817156], [268.3541081336009, -133.32580053567298], [268.3541081336009, -100.68075923844304], [264.8313742848212, -92.57666323825944], [249.76190170991083, -64.07874323823094], [230.58257297855437, -72.0937832381648], [218.54656566252777, -81.33334323817095], [223.5371052813426, -89.12574323827144]]]}, "properties": {"name": "", "kind": "garden", "category": "parque", "extrude": false}}, {"type": "Feature", "geometry": {"type": "Polygon", "coordinates": [[[-79.80942057331994, -76.65790323811066], [-85.38708250049649, -89.90498323828149], [-74.72102723638687, -94.35778323811292], [-60.82579927785225, -100.2577432382455], [-52.01896465625069, -103.93130323806687], [-45.364911831164235, -106.71430323815926], [-30.882561564615543, -112.83690323812522], [-13.26889232141243, -120.51798323811127], [-4.559911417929101, -124.30286323804708], [54.543734264989084, -149.6838232380354], [56.30510118903128, -150.46306323804544], [57.87076067753231, -150.0177832379832], [59.33856644756747, -148.90458323802534], [61.09993337195731, -146.67818323810963], [63.25271516847241, -143.7838632382983], [63.644130040597666, -141.0008632382059], [64.03554491272293, -138.55182323806133], [62.959154014465376, -136.65938323809343], [60.70851849983205, -135.76882323796895], [58.45788298554638, -134.76694323812552], [26.948985783808638, -121.96514323801694], [19.805664368478695, -119.0708232382056], [14.228002441649787, -116.95574323800884], [6.791119872312813, -113.95010323808307], [0.43062820123338813, -111.27842323810512], [-7.789084112354104, -107.71618323800269], [-23.249971559042116, -100.81434323802668], [-28.63192604998222, -98.47662323799653], [-68.06697441130042, -81.88994323795214], [-71.39400082384364, -80.44278323804647], [-79.80942057331994, -76.65790323811066]]]}, "properties": {"name": "", "kind": "park", "category": "parque", "extrude": false}}, {"type": "Feature", "geometry": {"type": "Polygon", "coordinates": [[[158.46438279947026, -114.84066323820755], [168.24975460121115, -125.52738323811937], [175.2952222987705, -118.4029032379145], [180.38361563535594, -112.83690323812522], [181.94927512385698, -109.71994323808502], [181.65571396984993, -106.38034323821145], [178.42654127507728, -101.59358323803673], [158.46438279947026, -114.84066323820755]]]}, "properties": {"name": "", "kind": "garden", "category": "parque", "extrude": false}}, {"type": "Feature", "geometry": {"type": "Polygon", "coordinates": [[[265.02708172071, -61.184423238024124], [268.3541081336009, -67.62436831317927], [268.3541081336009, -41.03124509674515], [262.67859248830615, -30.90538323814215], [253.77390414858638, -37.13930323822254], [265.02708172071, -61.184423238024124]]]}, "properties": {"name": "", "kind": "garden", "category": "parque", "extrude": false}}, {"type": "Feature", "geometry": {"type": "Polygon", "coordinates": [[[190.07113371932624, -175.84402323803374], [203.28138565172856, -161.5950632380195], [173.72956281026947, -134.32166323806328], [160.51931087786713, -148.57062323807753], [190.07113371932624, -175.84402323803374]]]}, "properties": {"name": "", "kind": "pitch", "category": "parque", "extrude": false}}, {"type": "Feature", "geometry": {"type": "Polygon", "coordinates": [[[246.4348752973676, -189.42506323815238], [266.3970337729746, -170.83462323802564], [257.6880528694913, -162.04034323808173], [237.53018695799545, -179.96286323791736], [246.4348752973676, -189.42506323815238]]]}, "properties": {"name": "", "kind": "garden", "category": "parque", "extrude": false}}, {"type": "Feature", "geometry": {"type": "Polygon", "coordinates": [[[93.78307519007083, -149.1272232382542], [91.3367322395487, -149.23854323797315], [80.27926210331381, -157.5875432382503], [79.78999351341797, -158.92338323804154], [80.67067697543906, -159.81394323816602], [102.19849493954712, -168.71954323822436], [120.10572533675727, -176.28930323809598], [145.35198458518616, -186.64206323806], [175.68663717054812, -199.44386323816857], [212.47963514545538, -214.58338323791182], [240.91136698534353, -226.31362116311706], [246.14233704375872, -219.74788363120936], [249.45695146962157, -214.66360244444203], [238.01945554789128, -209.90794323824701], [220.4057863046882, -202.56082323820877], [194.3766973120088, -191.6514632380681], [172.75102563013016, -182.3005832379475], [151.51676882037677, -173.5063032380036], [104.64483788972161, -153.35738323825225], [93.78307519007083, -149.1272232382542]]]}, "properties": {"name": "", "kind": "park", "category": "parque", "extrude": false}}]}