{"type": "FeatureCollection", "crs": {"type": "name", "properties": {"name": "wgs84_and_EPSG:32628_local_enu_m_section_centroid", "lng0": -16.394003106224243, "lat0": 28.33872551918705}}, "features": [{"type": "Feature", "geometry": {"type": "Polygon", "coordinates": [[[-16.38487, 28.34029], [-16.3826, 28.3393], [-16.37839, 28.34032], [-16.37812, 28.34037], [-16.37779, 28.3403], [-16.37745, 28.34023], [-16.37724, 28.34017], [-16.37708, 28.34012], [-16.37424, 28.34009], [-16.37323, 28.34006], [-16.3713, 28.33998], [-16.37135, 28.33915], [-16.371, 28.33877], [-16.36976, 28.3387], [-16.36951, 28.33881], [-16.36947, 28.33974], [-16.3676, 28.33964], [-16.36746, 28.33967], [-16.3674, 28.33971], [-16.36738, 28.33974], [-16.36728, 28.33977], [-16.36718, 28.33966], [-16.36708, 28.33967], [-16.3668, 28.33973], [-16.36672, 28.33971], [-16.36622, 28.33957], [-16.36609, 28.33951], [-16.36597, 28.33942], [-16.36591, 28.33931], [-16.3659, 28.33916], [-16.3659, 28.33908], [-16.36588, 28.33897], [-16.36582, 28.33882], [-16.36578, 28.33875], [-16.36572, 28.33867], [-16.36563, 28.33855], [-16.36557, 28.33842], [-16.3655, 28.33823], [-16.36542, 28.33804], [-16.36538, 28.33796], [-16.36534, 28.33788], [-16.36528, 28.33771], [-16.36521, 28.3376], [-16.36515, 28.33752], [-16.36509, 28.33745], [-16.36502, 28.33733], [-16.36499, 28.33722], [-16.36494, 28.33712], [-16.36488, 28.33703], [-16.36483, 28.33695], [-16.36478, 28.33688], [-16.36472, 28.33677], [-16.36469, 28.33669], [-16.36461, 28.33655], [-16.36454, 28.33644], [-16.36448, 28.33634], [-16.36443, 28.33623], [-16.36435, 28.3361], [-16.36422, 28.33585], [-16.36415, 28.33576], [-16.36409, 28.33569], [-16.36397, 28.33564], [-16.36389, 28.33555], [-16.36392, 28.33549], [-16.36391, 28.33541], [-16.36382, 28.33535], [-16.3637, 28.33522], [-16.36365, 28.33514], [-16.36341, 28.33458], [-16.36335, 28.33445], [-16.36331, 28.33439], [-16.36319, 28.33417], [-16.3631, 28.334], [-16.36306, 28.33387], [-16.36296, 28.33366], [-16.3629, 28.33353], [-16.36284, 28.33343], [-16.36278, 28.33332], [-16.36271, 28.33324], [-16.36263, 28.33316], [-16.36255, 28.33305], [-16.3625, 28.33296], [-16.36245, 28.33288], [-16.36239, 28.33269], [-16.36238, 28.33258], [-16.36237, 28.3325], [-16.36233, 28.33238], [-16.3623, 28.33226], [-16.36227, 28.33213], [-16.3622, 28.33179], [-16.3622, 28.33171], [-16.36514, 28.33049], [-16.36573, 28.3299], [-16.36622, 28.32965], [-16.36697, 28.32972], [-16.36815, 28.32984], [-16.36959, 28.32988], [-16.36997, 28.32984], [-16.37354, 28.32859], [-16.37575, 28.32781], [-16.37617, 28.3278], [-16.37842, 28.32779], [-16.37899, 28.32769], [-16.38048, 28.32767], [-16.38114, 28.32782], [-16.38413, 28.32851], [-16.3868, 28.32897], [-16.38867, 28.32928], [-16.38927, 28.32938], [-16.39112, 28.32951], [-16.39343, 28.32936], [-16.39521, 28.32988], [-16.3972, 28.33048], [-16.39977, 28.33127], [-16.40079, 28.33219], [-16.40183, 28.33281], [-16.40262, 28.33316], [-16.4032, 28.3333], [-16.40458, 28.33397], [-16.40476, 28.33404], [-16.40555, 28.33419], [-16.40694, 28.33411], [-16.40722, 28.33416], [-16.40757, 28.33416], [-16.40794, 28.33428], [-16.40829, 28.33433], [-16.40888, 28.33435], [-16.40965, 28.33452], [-16.41006, 28.33459], [-16.41027, 28.3346], [-16.41056, 28.33453], [-16.41079, 28.33453], [-16.41164, 28.33432], [-16.41204, 28.33427], [-16.41256, 28.33432], [-16.41281, 28.33426], [-16.41309, 28.33414], [-16.41342, 28.33411], [-16.41366, 28.33418], [-16.41394, 28.33416], [-16.41485, 28.33402], [-16.41486, 28.3341], [-16.41489, 28.3342], [-16.41496, 28.3343], [-16.41502, 28.33436], [-16.41546, 28.33466], [-16.41575, 28.33485], [-16.41586, 28.33493], [-16.41593, 28.33499], [-16.416, 28.3351], [-16.41603, 28.33521], [-16.41602, 28.3353], [-16.416, 28.33542], [-16.41596, 28.3356], [-16.4159, 28.33583], [-16.41583, 28.33618], [-16.41579, 28.33633], [-16.41601, 28.33643], [-16.4161, 28.33654], [-16.41606, 28.33673], [-16.41613, 28.33718], [-16.41652, 28.33796], [-16.41682, 28.33855], [-16.41684, 28.33881], [-16.41646, 28.33983], [-16.41643, 28.33999], [-16.41606, 28.34016], [-16.41565, 28.34049], [-16.4151, 28.3407], [-16.41533, 28.34135], [-16.41538, 28.34148], [-16.41545, 28.34162], [-16.41552, 28.34169], [-16.41561, 28.34176], [-16.41573, 28.34183], [-16.416, 28.34194], [-16.4161, 28.34198], [-16.41679, 28.34233], [-16.41691, 28.34239], [-16.41704, 28.34247], [-16.41714, 28.34253], [-16.41722, 28.34258], [-16.41736, 28.34269], [-16.41754, 28.34284], [-16.41761, 28.34289], [-16.41769, 28.34295], [-16.41779, 28.34302], [-16.41796, 28.34307], [-16.41806, 28.34308], [-16.41819, 28.34307], [-16.41848, 28.34304], [-16.41864, 28.34303], [-16.41875, 28.34302], [-16.41891, 28.34304], [-16.41907, 28.34308], [-16.41914, 28.34317], [-16.41944, 28.3433], [-16.41965, 28.34343], [-16.41984, 28.34361], [-16.41999, 28.34372], [-16.42005, 28.34392], [-16.42005, 28.34405], [-16.42001, 28.34425], [-16.41997, 28.34441], [-16.41988, 28.34466], [-16.41981, 28.34474], [-16.41957, 28.34479], [-16.41925, 28.34485], [-16.41851, 28.34483], [-16.41828, 28.34484], [-16.41813, 28.34488], [-16.41802, 28.34491], [-16.4179, 28.34496], [-16.41755, 28.34508], [-16.41731, 28.34518], [-16.41718, 28.34524], [-16.41709, 28.34529], [-16.41702, 28.34535], [-16.41697, 28.34541], [-16.41693, 28.34548], [-16.41692, 28.34556], [-16.41691, 28.34569], [-16.41692, 28.34576], [-16.41695, 28.34588], [-16.41699, 28.34601], [-16.41712, 28.34644], [-16.41716, 28.34656], [-16.41724, 28.34666], [-16.41732, 28.34672], [-16.41742, 28.34677], [-16.41778, 28.34692], [-16.41786, 28.34697], [-16.41793, 28.34704], [-16.41798, 28.34712], [-16.41801, 28.34726], [-16.418, 28.34736], [-16.418, 28.34747], [-16.41799, 28.34757], [-16.418, 28.34765], [-16.41801, 28.34773], [-16.41803, 28.3478], [-16.41809, 28.34793], [-16.41818, 28.34806], [-16.41825, 28.34817], [-16.41833, 28.34827], [-16.41838, 28.34833], [-16.41843, 28.34841], [-16.41847, 28.3485], [-16.41848, 28.34864], [-16.41845, 28.34871], [-16.41842, 28.34883], [-16.41836, 28.34894], [-16.41828, 28.34903], [-16.41821, 28.34907], [-16.41805, 28.3491], [-16.41794, 28.34909], [-16.41781, 28.34908], [-16.41769, 28.34909], [-16.41759, 28.34911], [-16.41746, 28.34918], [-16.41736, 28.3493], [-16.41732, 28.34938], [-16.4172, 28.3499], [-16.41709, 28.35039], [-16.41703, 28.35048], [-16.41695, 28.35056], [-16.41686, 28.3506], [-16.41666, 28.3507], [-16.41599, 28.35102], [-16.41556, 28.35124], [-16.4153, 28.35136], [-16.41492, 28.35155], [-16.41461, 28.3517], [-16.41451, 28.35177], [-16.41441, 28.35185], [-16.41433, 28.35192], [-16.41428, 28.352], [-16.41424, 28.35208], [-16.41421, 28.35217], [-16.41419, 28.35227], [-16.41419, 28.35236], [-16.41419, 28.35269], [-16.41419, 28.35309], [-16.41419, 28.35323], [-16.41417, 28.35331], [-16.41413, 28.35343], [-16.41409, 28.3535], [-16.41401, 28.35362], [-16.41389, 28.35378], [-16.41372, 28.354], [-16.41363, 28.35416], [-16.41361, 28.35424], [-16.4136, 28.35431], [-16.41359, 28.3544], [-16.4136, 28.35461], [-16.41362, 28.35485], [-16.41363, 28.35515], [-16.41364, 28.35528], [-16.41362, 28.35538], [-16.4136, 28.35548], [-16.41357, 28.3556], [-16.41351, 28.3557], [-16.41344, 28.35579], [-16.41337, 28.35587], [-16.41324, 28.35598], [-16.41299, 28.35619], [-16.41293, 28.35625], [-16.41286, 28.35634], [-16.41281, 28.35644], [-16.41278, 28.35652], [-16.41277, 28.35663], [-16.41277, 28.35675], [-16.41281, 28.35709], [-16.41293, 28.35768], [-16.41294, 28.3578], [-16.41292, 28.35788], [-16.41289, 28.35795], [-16.41282, 28.35791], [-16.4126, 28.35782], [-16.41225, 28.35766], [-16.4121, 28.35754], [-16.412, 28.35741], [-16.41198, 28.3572], [-16.41187, 28.35683], [-16.41182, 28.35665], [-16.41169, 28.35659], [-16.4115, 28.3565], [-16.4114, 28.35641], [-16.41133, 28.35626], [-16.4113, 28.35617], [-16.4113, 28.35609], [-16.41129, 28.35602], [-16.41124, 28.35592], [-16.41117, 28.35583], [-16.41111, 28.35574], [-16.41107, 28.35563], [-16.41106, 28.35554], [-16.41105, 28.35543], [-16.41099, 28.35527], [-16.41093, 28.35508], [-16.4109, 28.35501], [-16.41083, 28.35495], [-16.41075, 28.35484], [-16.41072, 28.35471], [-16.41063, 28.3546], [-16.41061, 28.35451], [-16.41061, 28.35441], [-16.41065, 28.35432], [-16.41062, 28.35421], [-16.41053, 28.35406], [-16.41047, 28.35398], [-16.4104, 28.35393], [-16.41031, 28.35391], [-16.41021, 28.35389], [-16.41008, 28.35382], [-16.41001, 28.35376], [-16.40993, 28.35373], [-16.40979, 28.3537], [-16.4096, 28.3536], [-16.40936, 28.3534], [-16.40925, 28.35331], [-16.40915, 28.35326], [-16.40905, 28.35325], [-16.40895, 28.35318], [-16.40886, 28.35311], [-16.40867, 28.35299], [-16.40857, 28.35295], [-16.4084, 28.35294], [-16.40829, 28.35296], [-16.40813, 28.35302], [-16.40794, 28.35315], [-16.40786, 28.3532], [-16.40772, 28.35325], [-16.40757, 28.35327], [-16.40737, 28.35321], [-16.40722, 28.35317], [-16.40706, 28.35315], [-16.40695, 28.35312], [-16.40672, 28.35305], [-16.40646, 28.35297], [-16.40638, 28.35292], [-16.40627, 28.35273], [-16.40619, 28.35264], [-16.40613, 28.35253], [-16.40615, 28.35244], [-16.40613, 28.35233], [-16.40609, 28.35226], [-16.40597, 28.35217], [-16.40588, 28.35213], [-16.4058, 28.35211], [-16.40561, 28.35203], [-16.40542, 28.352], [-16.40535, 28.35198], [-16.40526, 28.35193], [-16.4052, 28.35175], [-16.40521, 28.35148], [-16.40542, 28.35114], [-16.40539, 28.3509], [-16.40528, 28.35069], [-16.40493, 28.35024], [-16.40165, 28.34844], [-16.39337, 28.34402], [-16.38487, 28.34029]]]}, "properties": {"cusec": "3800401003", "mun": "004", "nmun": "Arafo", "area_m2": 8210078.390076765, "perimeter_m": 15855.318245276354, "coords_system": "wgs84"}}, {"type": "Feature", "geometry": {"type": "Polygon", "coordinates": [[[894.8530375224831, -174.1580040974479], [1117.2654726021594, -63.9512040976652], [1529.7572574857822, -177.49760409732147], [1556.2115999842965, -183.06360409750624], [1588.5446852600264, -175.27120409740576], [1621.8575609989737, -167.47880409730527], [1642.4331607199242, -160.79960409755813], [1658.1098081265286, -155.23360409737336], [1936.3702995918416, -151.8940040974998], [2035.3291363454655, -148.55440409762622], [2224.4286956861947, -139.64880409756788], [2219.529743371849, -47.25320409750637], [2253.822409573665, -4.951604097525859], [2375.3164269739787, 2.8407959025746266], [2399.8111885467542, -9.404404097357286], [2403.730350398231, -112.93200409739285], [2586.951166961745, -101.80000409741879], [2600.6682334422626, -105.13960409768785], [2606.5469762198263, -109.59240409751928], [2608.506557145565, -112.93200409739285], [2618.3044617746054, -116.2716040976619], [2628.102366403646, -104.0264040973345], [2637.900271032687, -105.13960409768785], [2665.3344039940707, -111.81880409743499], [2673.172727697373, -109.59240409751928], [2722.1622508429245, -94.0076040973183], [2734.8995268605727, -87.32840409757117], [2746.657012415352, -77.30960409755497], [2752.535755192916, -65.06440409762305], [2753.515545655785, -48.366404097464226], [2753.515545655785, -39.460804097405884], [2755.4751265815235, -27.21560409747397], [2761.353869359087, -10.517604097315143], [2765.273031210564, -2.7252040976101455], [2771.151773988128, 6.180395902448197], [2779.9698881542995, 19.538795902337966], [2785.8486309315144, 34.01039590258108], [2792.7071641719476, 55.161195902571336], [2800.54548787525, 76.31199590256159], [2804.464649727075, 85.21759590261993], [2808.383811578552, 94.12319590267828], [2814.2625543561157, 113.04759590235733], [2821.1210875962006, 125.29279590268473], [2826.9998303737643, 134.19839590234758], [2832.878573151328, 141.99079590244807], [2839.7371063914125, 155.34919590233784], [2842.6764777803683, 167.59439590266524], [2847.5754300947146, 178.7263959026393], [2853.4541728722784, 188.7451959026555], [2858.3531251866248, 197.65079590231835], [2863.2520775013195, 205.44319590241884], [2869.1308202788828, 217.68839590235075], [2872.0701916674907, 226.5939959024091], [2879.908515370793, 242.17879590261006], [2886.7670486108777, 254.42399590254198], [2892.645791388441, 265.55599590251603], [2897.5447437031357, 277.80119590244794], [2905.38306740609, 292.2727959026911], [2918.120343424086, 320.10279590242845], [2924.9788766645192, 330.12159590244465], [2930.857619441735, 337.91399590254514], [2942.615104996862, 343.4799959023344], [2950.453428699816, 353.4987959023506], [2947.5140573112085, 360.17799590249325], [2948.493847774078, 369.08359590255156], [2957.311961940249, 375.7627959026942], [2969.0694474950283, 390.23439590254185], [2973.968399809723, 399.13999590260016], [2997.483370919629, 461.4791959026131], [3003.3621136968445, 475.95079590246075], [3007.28127554867, 482.62999590260335], [3019.0387611034494, 507.1203959024672], [3027.8568752696206, 526.0447959025418], [3031.776037121098, 540.5163959023894], [3041.5739417501386, 563.8935959026908], [3047.452684527702, 578.3651959025384], [3053.3314273052656, 589.4971959025124], [3059.2101700824815, 601.7423959024444], [3066.068703322914, 610.6479959025028], [3073.9070270262164, 619.553595902561], [3081.7453507295186, 631.798795902493], [3086.644303043865, 641.8175959025092], [3091.5432553585592, 650.7231959025676], [3097.4219981357746, 671.8739959025578], [3098.401788598644, 684.1191959024898], [3099.3815790618614, 693.024795902548], [3103.3007409133384, 706.3831959024378], [3106.2401123019463, 719.7415959023276], [3109.179483690902, 734.2131959025708], [3116.038016930987, 772.0619959023243], [3116.038016930987, 780.9675959023826], [2827.9796208366333, 916.7779959023825], [2770.171983525259, 982.4567959026645], [2722.1622508429245, 1010.2867959024019], [2648.677966124945, 1002.4943959026969], [2533.062691501847, 989.1359959024117], [2391.972864843452, 984.6831959025802], [2354.740827253028, 989.1359959024117], [2004.9556319954743, 1128.2859959026805], [1788.4219396930137, 1215.1155959025573], [1747.270740251112, 1216.2287959025152], [1526.8178860971746, 1217.341995902473], [1470.96982971119, 1228.473995902447], [1324.9810507384489, 1230.7003959023627], [1260.314880186641, 1214.0023959025993], [967.3575317775931, 1137.1915959023434], [705.7534781814059, 1085.9843959023046], [522.5326616178922, 1051.4751959024245], [463.745233843648, 1040.3431959024506], [282.483998205873, 1025.8715959026028], [56.15240127471959, 1042.5695959023662], [-118.25030112262255, 984.6831959025802], [-313.22860324126344, 917.8911959023403], [-565.0347522080618, 829.9483959025058], [-664.9733794245556, 727.533995902428], [-766.8715875667876, 658.515595902668], [-844.2750341362439, 619.553595902561], [-901.1028809847496, 603.9687959023602], [-1036.313964865929, 529.3843959024152], [-1053.9501931982718, 521.5919959023148], [-1131.3536397680764, 504.89399590255147], [-1267.5445141117768, 513.7995959026098], [-1294.9786470731603, 508.233595902425], [-1329.2713132749768, 508.233595902425], [-1365.5235604025318, 494.87519590253527], [-1399.8162266043485, 489.3091959023505], [-1457.6238639157232, 487.0827959024348], [-1533.067729559441, 468.1583959023602], [-1573.2391385388212, 460.36599590265524], [-1593.8147382597717, 459.25279590269736], [-1622.2286616840245, 467.0451959024024], [-1644.763842330714, 467.0451959024024], [-1728.0460316777337, 490.4223959023084], [-1767.2376501942447, 495.98839590249315], [-1818.1867542651867, 490.4223959023084], [-1842.6815158379627, 497.101595902451], [-1870.115648799346, 510.4599959023408], [-1902.448734075076, 513.7995959026098], [-1925.9637051849825, 506.00719590250935], [-1953.3978381463662, 508.233595902425], [-2042.5587702709495, 523.818395902626], [-2043.538560733819, 514.9127959025677], [-2046.4779321224269, 503.7807959025936], [-2053.3364653628596, 492.64879590261955], [-2059.2152081400754, 485.96959590247695], [-2102.325988508063, 452.57359590255476], [-2130.739911932316, 431.42279590256453], [-2141.517607024226, 422.51719590250616], [-2148.3761402646587, 415.83799590236356], [-2155.234673505092, 403.5927959024316], [-2158.1740448937, 391.34759590249973], [-2157.1942544308304, 381.32879590248353], [-2155.234673505092, 367.97039590259374], [-2151.3155116532666, 347.93279590256134], [-2145.436768876051, 322.32919590234417], [-2138.578235635618, 283.3671959026327], [-2134.659073784141, 266.6691959024739], [-2156.214463967961, 255.53719590249983], [-2165.0325781341326, 243.29199590256792], [-2161.1134162826556, 222.14119590257766], [-2167.97194952274, 172.04719590249667], [-2206.1837775760337, 85.21759590261993], [-2235.577491463504, 19.538795902337966], [-2237.5370723892424, -9.404404097357286], [-2200.3050347988183, -122.95080409740905], [-2197.3656634098625, -140.76200409752573], [-2161.1134162826556, -159.68640409760027], [-2120.942007303275, -196.422004097396], [-2067.053531843377, -219.79920409730198], [-2089.5887124904148, -292.1572040973311], [-2094.487664804761, -306.6288040975742], [-2101.346198045194, -322.2136040973797], [-2108.204731285627, -330.0060040974802], [-2117.0228454517983, -337.79840409758066], [-2128.7803310065774, -345.59080409768114], [-2155.234673505092, -357.83600409761306], [-2165.0325781341326, -362.2888040974445], [-2232.638120074548, -401.2508040975514], [-2244.3956056296756, -407.93000409769405], [-2257.1328816473238, -416.8356040973569], [-2266.9307862763644, -423.51480409749956], [-2274.7691099796666, -429.08080409768434], [-2288.486176460184, -441.3260040976162], [-2306.122404792527, -458.0240040973796], [-2312.9809380329602, -463.59000409756436], [-2320.8192617362624, -470.26920409731144], [-2330.617166365303, -478.061604097412], [-2347.273604234777, -483.62760409759676], [-2357.0715088638176, -484.7408040975546], [-2369.808784881466, -483.62760409759676], [-2398.222708305719, -480.28800409732764], [-2413.899355712323, -479.1748040973698], [-2424.677050804233, -478.061604097412], [-2440.3536982108376, -480.28800409732764], [-2456.0303456174415, -484.7408040975546], [-2462.888878857527, -494.7596040975708], [-2492.2825927449967, -509.2312040974184], [-2512.8581924659475, -523.7028040976616], [-2531.4742112611593, -543.740404097694], [-2546.1710682045464, -555.9856040976258], [-2552.0498109821106, -578.249604097574], [-2552.0498109821106, -592.7212040974216], [-2548.130649130633, -614.9852040973697], [-2544.2114872788084, -632.7964040974864], [-2535.3933731126367, -660.6264040976192], [-2528.5348398722035, -669.5320040976776], [-2505.0198687626453, -675.0980040974669], [-2473.6665739497844, -681.7772040976095], [-2401.162079694675, -679.5508040976938], [-2378.6268990476374, -680.6640040976516], [-2363.9300421042503, -685.116804097483], [-2353.1523470119923, -688.4564040973567], [-2341.394861457213, -694.0224040975414], [-2307.1021952553965, -707.3808040974312], [-2283.5872241458383, -718.5128040974053], [-2270.8499481278413, -725.1920040975479], [-2262.0318339620185, -730.7580040973371], [-2255.1733007215853, -737.4372040974798], [-2250.274348406891, -744.1164040976224], [-2246.355186555414, -751.9088040973274], [-2245.3753960925446, -760.8144040973857], [-2244.3956056296756, -775.2860040976288], [-2245.3753960925446, -783.0784040973339], [-2248.3147674811526, -796.4368040976192], [-2252.2339293326295, -810.9084040974667], [-2264.971205350626, -858.776004097632], [-2268.8903672021033, -872.1344040975218], [-2276.7286909054055, -883.2664040974959], [-2284.5670146087073, -889.9456040976385], [-2294.3649192377484, -895.5116040974278], [-2329.637375902434, -912.2096040975866], [-2337.4756996057363, -917.7756040973759], [-2344.334232845821, -925.5680040974764], [-2349.233185160515, -934.4736040975347], [-2352.1725565491233, -950.0584040973401], [-2351.192766086254, -961.1904040973143], [-2351.192766086254, -973.4356040976417], [-2350.2129756233844, -984.5676040976157], [-2351.192766086254, -993.473204097674], [-2352.1725565491233, -1002.3788040973369], [-2354.1321374752097, -1010.1712040974373], [-2360.010880252425, -1024.6428040976805], [-2368.8289944185967, -1039.1144040975282], [-2375.6875276590295, -1051.35960409746], [-2383.525851362332, -1062.491604097434], [-2388.424803676678, -1069.1708040975768], [-2393.3237559913723, -1078.076404097635], [-2397.2429178428497, -1088.0952040976513], [-2398.222708305719, -1103.6800040974567], [-2395.283336917111, -1111.4724040975573], [-2392.3439655285033, -1124.830804097447], [-2386.4652227509396, -1137.076004097379], [-2378.6268990476374, -1147.0948040973951], [-2371.7683658072046, -1151.547604097622], [-2356.091718400948, -1154.8872040974957], [-2345.314023309038, -1153.7740040975377], [-2332.5767472910416, -1152.6608040975798], [-2320.8192617362624, -1153.7740040975377], [-2311.021357107222, -1156.0004040974534], [-2298.2840810892253, -1163.792804097554], [-2288.486176460184, -1177.1512040974437], [-2284.5670146087073, -1186.056804097502], [-2272.8095290539286, -1243.9432040976835], [-2262.0318339620185, -1298.490004097596], [-2256.1530911844543, -1308.5088040976123], [-2248.3147674811526, -1317.4144040976705], [-2239.496653314981, -1321.867204097502], [-2219.9008440568996, -1332.999204097476], [-2154.2548830422224, -1368.6216040973138], [-2112.123893137104, -1393.1120040975732], [-2086.649341101459, -1406.470404097463], [-2049.4173035110343, -1427.6212040974533], [-2019.0437991610431, -1444.319204097612], [-2009.2458945320025, -1452.111604097317], [-1999.4479899029616, -1461.0172040973753], [-1991.6096661996596, -1468.8096040974758], [-1986.7107138853132, -1477.7152040975343], [-1982.7915520334882, -1486.6208040975926], [-1979.8521806448805, -1496.6396040976088], [-1977.8925997191418, -1507.771604097583], [-1977.8925997191418, -1517.790404097599], [-1977.8925997191418, -1554.5260040973947], [-1977.8925997191418, -1599.0540040976864], [-1977.8925997191418, -1614.6388040974919], [-1975.9330187930555, -1623.5444040975503], [-1972.013856941578, -1636.9028040974401], [-1968.0946950901011, -1644.6952040975405], [-1960.256371386799, -1658.0536040974303], [-1948.4988858316717, -1675.864804097547], [-1931.842447962546, -1700.355204097411], [-1923.0243337963745, -1718.1664040975274], [-1921.064752870288, -1727.072004097586], [-1920.0849624074187, -1734.8644040976862], [-1919.1051719445493, -1744.883204097307], [-1920.0849624074187, -1768.2604040976084], [-1922.0445433335055, -1794.977204097388], [-1923.0243337963745, -1828.3732040973102], [-1924.0041242592438, -1842.8448040975534], [-1922.0445433335055, -1853.9768040975273], [-1920.0849624074187, -1865.1088040975014], [-1917.145591018811, -1878.4672040973912], [-1911.2668482412473, -1889.5992040973651], [-1904.4083150011627, -1899.6180040973813], [-1897.5497817607295, -1908.5236040974398], [-1884.812505742733, -1920.7688040973717], [-1860.3177441703056, -1944.146004097673], [-1854.4390013927416, -1950.8252040974203], [-1847.5804681523089, -1960.8440040974365], [-1842.6815158379627, -1971.9760040974106], [-1839.7421444493546, -1980.8816040974689], [-1838.7623539861374, -1993.1268040974007], [-1838.7623539861374, -2006.4852040976862], [-1842.6815158379627, -2044.3340040974397], [-1854.4390013927416, -2110.0128040973264], [-1855.418791855611, -2123.3712040976116], [-1853.4592109298724, -2132.27680409767], [-1850.5198395412647, -2140.069204097375], [-1843.6613063008317, -2135.616404097543], [-1822.1059161170117, -2125.597604097527], [-1787.8132499151955, -2107.7864040974105], [-1773.1163929714603, -2094.428004097521], [-1763.3184883424196, -2079.956404097673], [-1761.358907416681, -2056.5792040973715], [-1750.581212324771, -2015.390804097349], [-1745.6822600100766, -1995.3532040973166], [-1732.9449839924282, -1988.6740040975694], [-1714.3289651972161, -1978.6552040975532], [-1704.5310605681752, -1968.636404097537], [-1697.6725273277425, -1951.9384040973782], [-1694.7331559391348, -1941.919604097362], [-1694.7331559391348, -1933.0140040973035], [-1693.7533654762653, -1925.2216040975986], [-1688.854413161571, -1914.0896040976245], [-1681.995879921138, -1904.0708040976083], [-1676.1171371439225, -1894.052004097592], [-1672.1979752920975, -1881.8068040976602], [-1671.2181848292282, -1871.788004097644], [-1670.238394366359, -1859.5428040973165], [-1664.3596515891434, -1841.7316040975954], [-1658.4809088115796, -1820.5808040976053], [-1655.5415374229717, -1812.7884040975048], [-1648.6830041825388, -1806.1092040973622], [-1640.8446804792368, -1793.86400409743], [-1637.9053090906289, -1779.3924040975826], [-1629.0871949244574, -1767.1472040976507], [-1627.127613998371, -1757.1284040976345], [-1627.127613998371, -1745.9964040976604], [-1631.046775850196, -1735.9776040976442], [-1628.1074044615884, -1723.7324040973167], [-1619.289290295417, -1707.0344040975535], [-1613.410547517853, -1698.128804097495], [-1606.5520142774203, -1692.5628040973104], [-1597.7339001112489, -1690.3364040973947], [-1587.9359954822082, -1688.1100040974788], [-1575.1987194645596, -1680.3176040973785], [-1568.3401862241267, -1673.6384040976313], [-1560.5018625208245, -1670.2988040973623], [-1546.7847960403067, -1666.9592040974887], [-1528.1687772450948, -1655.8272040975146], [-1504.6538061351882, -1633.5632040975665], [-1493.8761110432781, -1623.5444040975503], [-1484.0782064142377, -1617.9784040973655], [-1474.2803017851968, -1616.8652040974077], [-1464.4823971561561, -1609.0728040973072], [-1455.6642829899847, -1601.280404097602], [-1437.0482641947726, -1587.9220040973169], [-1427.2503595657317, -1583.4692040974855], [-1410.5939216962583, -1582.3560040975276], [-1399.8162266043485, -1584.5824040974433], [-1384.139579197744, -1591.2616040975859], [-1365.5235604025318, -1605.7332040974336], [-1357.6852366992296, -1611.2992040976183], [-1343.968170218712, -1616.8652040974077], [-1329.2713132749768, -1619.0916040973234], [-1309.6755040168953, -1612.4124040975762], [-1294.9786470731603, -1607.9596040973493], [-1279.301999666904, -1605.7332040974336], [-1268.5243045746458, -1602.39360409756], [-1245.9891239279568, -1594.6012040974595], [-1220.5145718923118, -1585.6956040974012], [-1212.6762481890096, -1580.129604097612], [-1201.8985530970997, -1558.9788040976216], [-1194.0602293937975, -1548.9600040976054], [-1188.1814866165819, -1536.7148040976736], [-1190.1410675423203, -1526.6960040976574], [-1188.1814866165819, -1514.4508040973299], [-1184.2623247647566, -1506.658404097625], [-1172.5048392099775, -1496.6396040976088], [-1163.686725043806, -1492.1868040973818], [-1155.8484013405039, -1489.9604040974662], [-1137.2323825452918, -1481.0548040974077], [-1118.6163637500797, -1477.7152040975343], [-1111.7578305096467, -1475.4888040976184], [-1102.9397163434753, -1469.9228040974338], [-1097.0609735662597, -1449.8852040974014], [-1098.040764029129, -1419.8288040973528], [-1118.6163637500797, -1381.9800040975992], [-1115.676992361472, -1355.263204097424], [-1104.899297269562, -1331.8860040975183], [-1070.6066310677454, -1281.7920040974373], [-749.2353592344447, -1081.4160040975087], [62.03114405193515, -589.381604097548], [894.8530375224831, -174.1580040974479]]]}, "properties": {"cusec": "3800401003", "mun": "004", "nmun": "Arafo", "area_m2": 8210078.390076765, "perimeter_m": 15855.318245276354, "coords_system": "local_m_enu"}}]}