{"type": "FeatureCollection", "crs": {"type": "name", "properties": {"name": "EPSG:32628_local_enu_m_section_centroid", "lng0": -15.422590484109387, "lat0": 28.110218606799705}}, "features": [{"type": "Feature", "geometry": {"type": "Polygon", "coordinates": [[[-62.10162397880191, -188.15808215882245], [-62.09918895337333, -188.15447795639164], [-64.3574509180159, -186.59605679493234], [-35.199180156519226, -143.40962149110408], [-39.97355418933675, -140.25212010023847], [-38.813562376048, -139.08312492420748], [-35.38065033303114, -133.89378965702258], [-34.32826938438458, -132.302966034718], [-33.5170666483467, -131.07671761523946], [-33.417404036832835, -130.96372694597778], [-29.697766090934593, -125.49293120627672], [-29.71469717330826, -125.4819624599878], [-29.49992602826617, -125.18977101525077], [-28.618267998062617, -123.85701938810998], [-28.030236003874467, -122.96812531555877], [-26.655589855004774, -120.96436529889512], [-26.463698603641422, -120.67429435452289], [-26.45881715951698, -120.67753856903902], [-20.481342301801757, -111.9644416528977], [-19.54991134971017, -110.11645414257154], [-17.6741929622103, -111.0468248117071], [-6.584027282796443, -115.9563886241309], [-6.550980143362262, -115.90393539544098], [-6.544579621795678, -115.90756363276992], [-6.268982151987953, -115.4909588229537], [8.08815171247593, -121.65301851262335], [7.702976453784666, -122.4172180122296], [7.972504094071901, -122.51907536200845], [7.971873087602824, -122.52058563418096], [11.087280600048505, -123.84509931254603], [14.035064374513757, -125.18189776052436], [15.816882733671346, -125.96749379318852], [16.013194222662563, -126.07877607893958], [27.87964529891572, -131.3044662606962], [29.014270396018937, -131.81901046912273], [29.30692630190616, -131.0448261058362], [32.50228752131096, -132.43816554211762], [32.43130490237071, -132.62594112615056], [39.78718712409929, -136.07680900662845], [39.78902553397625, -136.07402998837995], [40.06264220312198, -136.20603335471628], [40.42771083974102, -136.3772981458459], [40.42527434160233, -136.38098125964697], [44.79293902579281, -138.4881132671436], [46.22299596788217, -141.61490803284545], [46.22299596788216, -141.61490803284548], [46.28547786649606, -141.75152362330692], [45.63902538493186, -143.21733105697805], [45.54456119936895, -143.21733105697805], [44.456824999498, -145.78649999075128], [41.51958711205276, -152.75877105682764], [41.6180542768844, -152.75877105682764], [40.24268256322445, -156.01913105669115], [39.70826200727291, -156.01913105669115], [39.21451625466187, -157.41856917235881], [39.19119524642053, -157.40424763137233], [28.906582714180136, -181.5015643919796], [19.68236251488616, -177.83021205593002], [5.250844440514004, -213.33571616532788], [4.681124419378228, -213.1204129355477], [3.69572023296717, -216.025091422909], [2.4884158977274042, -215.5273607747923], [-2.839013449285094, -217.87620140605438], [-22.356305212000546, -209.7979538441608], [-22.485763476464317, -209.06409910691076], [-32.60304179657163, -205.30335160918938], [-32.3405648780091, -204.55940555462473], [-34.958614868889775, -203.0753223261939], [-35.31102000218377, -202.9421446942065], [-35.2787739711922, -202.8836513344862], [-38.90947153122735, -201.2828924335667], [-42.435660176028435, -198.8227372963174], [-42.79956580294714, -199.54473719531555], [-46.46118711862758, -197.83537984617828], [-48.73350387261679, -196.49127669967476], [-55.96295741395791, -192.26094835560352], [-55.96295741395791, -192.282290346499], [-61.52057817791768, -188.54845257951703], [-61.523031024625475, -188.55208316011093], [-61.812160330644694, -188.35255572000293], [-62.10162397880191, -188.15808215882245]]]}, "properties": {"id": 0, "height_median_m": 15.0, "building_count": 66, "area_m2": 5778.529942190888}}, {"type": "Feature", "geometry": {"type": "Polygon", "coordinates": [[[-194.16801046854238, -138.41118310361145], [-193.87513742348185, -137.9629298109046], [-192.00314763962126, -135.09777851521048], [-191.81225929007707, -134.8056166632897], [-191.8105789104823, -134.80677628921475], [-187.47250590550794, -128.24916136832965], [-188.27702080554224, -127.71019076232385], [-179.24160143376577, -114.55629477653684], [-176.5610971876813, -116.32085964330817], [-133.13879020791347, -63.8887438449489], [-123.25660990905394, -72.39528852370626], [-121.89621803336547, -71.53844436218726], [-112.99930657442032, -77.5672832315931], [-113.0135892301901, -77.80207739055386], [-113.3740973653898, -83.72851052505102], [-113.80734248215488, -84.37814065071], [-113.42912413709894, -84.6331017153741], [-113.67558578726393, -88.68471206006586], [-111.7332566940094, -85.77630424500109], [-107.54627741263411, -88.5987921260373], [-106.8750620548424, -87.61233893442535], [-100.9046145239136, -91.65346493637534], [-95.88600678010044, -84.6249439973688], [-106.28485794420902, -77.61797229263505], [-100.31306074826793, -68.67591314571942], [-102.05738251763768, -67.35751780619165], [-92.92558126249483, -54.21268080916887], [-87.93672544473331, -57.73198484415446], [-87.97023690253458, -57.78083299266581], [-82.72743630032383, -61.40518031728317], [-90.45964120107429, -72.39569813744824], [-84.46019755689765, -76.41491987773118], [-43.30740680882288, -14.86103710892625], [-43.34797234992175, -14.833983907306596], [-43.155168316465236, -14.548137984882755], [-42.96843932170615, -14.24570856498653], [-42.95653399542201, -14.25364823948829], [-30.92139590676346, 3.58931431049837], [-31.17075070700464, 3.757710486615584], [-5.17228419397383, 42.48803704550547], [-13.673707121245473, 40.680849555210955], [-15.47530095954125, 40.80099803610342], [-18.962299529562525, 42.88169333313318], [-19.27193117386379, 42.296627946163845], [-21.16795430716555, 43.65425847115577], [-21.219691403453965, 43.57605048474908], [-23.434364175862136, 46.08689537380926], [-24.45921914326493, 44.758997502461156], [-46.68469865873353, 65.94799962524107], [-36.03870005982984, 78.01770647132216], [-38.153036737869826, 79.85077580453894], [-37.23220610578333, 80.89475074790872], [-36.834707643787944, 81.34540738322383], [-32.835191963256385, 85.52180816898273], [-32.813244498685854, 85.49692563110472], [-30.052533238036485, 88.36600619266437], [-27.30134925603964, 91.1509210932951], [-24.82865508068808, 93.64280726730783], [-24.899772416580536, 93.72343525050077], [-24.64739309377041, 93.93803309291023], [-24.401529223194093, 94.21677677434054], [-24.371038553197618, 94.18220853303669], [-18.16688333410194, 100.56174498664423], [-18.211536394969595, 100.61236958043659], [-14.464472986271717, 104.13227758616003], [-14.522024073258835, 104.19100033235995], [-14.232657512621808, 104.40970970813835], [-14.006989068486078, 104.66555719283119], [-13.968600373445547, 104.62638695793508], [-10.605906973399875, 107.85225740221273], [-7.072450113343042, 111.41313945029758], [-1.4745167244570725, 116.90205182682831], [-1.5262074062729167, 116.9541437097044], [1.274470785783823, 119.76299026639602], [6.953628350214047, 125.28182572115153], [6.013274794750468, 126.24798673217184], [6.6427794296976765, 126.60483143387529], [6.6427794296976845, 126.60483143387528], [8.48284249849957, 127.64790041295787], [9.151830798500548, 128.0271270573764], [9.341472092393138, 128.13462823718174], [9.55216508913373, 128.39521297648986], [9.665035552065724, 128.27500359088248], [14.198064683677543, 133.41424273657083], [14.1623119108742, 133.45009978472171], [14.43183281366666, 133.67927309260284], [14.662059695901458, 133.94028862354654], [14.714159986785795, 133.88803637868736], [15.497909601175593, 134.77659821708394], [20.733368039244375, 140.4483990927481], [21.500571027722927, 141.02826736100278], [21.502008070561562, 141.02663813988022], [21.52715632010196, 141.04836108806637], [23.414899142019088, 142.47515709576447], [23.312858988971048, 142.59084325921762], [23.84262176399951, 143.04845003198375], [23.86259691065143, 143.02580357358465], [26.341893729317622, 144.801082040875], [30.478314346291096, 147.7861915303399], [30.472303816947964, 147.7949528092966], [32.43151178172135, 149.17918902904464], [32.681408890911456, 149.39167624812202], [32.70093210515409, 149.36954215986964], [39.21981838993747, 153.97532095929358], [39.41094507645734, 154.11027476782806], [39.73380175384313, 154.33824260956357], [39.73380175384318, 154.33824260956362], [43.10888454550001, 156.72137541611642], [43.98301339585745, 157.33859439088963], [43.98301339585747, 157.3385943908896], [46.01064533858797, 158.7702974040069], [46.01064533858798, 158.7702974040069], [48.54055872136488, 160.55665938455937], [48.60199957590317, 160.51022108539325], [52.76037172003844, 163.6532068289828], [53.361834595045664, 164.10780520946008], [55.18419083064089, 165.24770212680593], [57.83810496459477, 167.12162055453578], [57.83810496459477, 164.75124212718768], [58.00023221627147, 164.60085309571483], [57.920067239311585, 164.52511511129507], [61.80660641325425, 160.35700016713253], [60.393587031411016, 158.9759786444532], [58.97147170377163, 157.58606715389726], [58.971471703771634, 157.58606715389726], [51.78870043001782, 150.56594991488444], [52.37927030773188, 149.81109391119242], [41.96587661933268, 139.64482020712356], [41.969515007045544, 139.64069525137924], [41.72574303165653, 139.41038522359122], [39.07229184640262, 136.81990302183516], [39.59478630107349, 136.08454894300775], [38.54678706089143, 136.08454894300775], [28.059522440269077, 126.05225694126673], [27.840640536481782, 126.07293638858432], [16.46154902254199, 114.60552521077095], [16.734584843183733, 114.34359880846803], [8.685096525846852, 106.55611239046556], [8.521827729990285, 106.7180775338959], [1.4120332814694976, 99.79422894327425], [1.4120332814694878, 99.79422894327425], [-3.248185040282082, 95.25589154228764], [-3.1054192758669497, 95.1099539265214], [-13.698004917074673, 84.73841453083443], [-14.377071758599849, 85.3983113760797], [-20.883013894238022, 78.98440415875619], [-20.187683911512234, 78.19608646596329], [-28.227957977479814, 70.3525045173696], [-16.757956094707463, 62.50532013443714], [-16.91289227762324, 62.259401632141035], [-12.701785250670198, 58.67870226233053], [-12.386843815693403, 58.46711167808289], [-12.425768543469937, 58.422981477524814], [-9.895039020222422, 56.727563748583265], [-9.897066384709122, 56.72401154058246], [-4.640095752580546, 53.10544337537866], [-3.283094843121431, 51.803656799166745], [-3.039081122283593, 51.1120415293175], [-3.039081122283593, 50.016250561109864], [-3.4067825286663953, 48.14031411159246], [38.434104494592354, 19.865449595794338], [30.28609509349683, 7.776663722985403], [25.327746196688686, 0.3081822386179127], [23.408975171671976, -2.5819544119721725], [23.217762840239377, -2.8699667698371853], [23.21638565264142, -2.869029953036448], [16.04937523708361, -13.55457613813205], [4.6605220203498146, -5.874219015560889], [0.8237718776883272, -11.640293328432021], [8.061030291749542, -16.654527095103475], [8.104379459409715, -16.59104642062828], [12.316944492729563, -19.430781932614746], [6.0321529692474884, -28.693630105060837], [-1.8169136095188518, -23.37750201312973], [-3.7751877736978825, -22.0715269330624], [-2.303096014625788, -19.846250670407926], [-5.837900367974742, -17.50853067041461], [-3.936516946431775, -14.634318944248143], [-13.157372305368005, -8.407220923785049], [-18.416126628451085, -16.15784283090652], [-51.31169732600464, -65.51528848847005], [-43.44702046870849, -70.80294122282294], [-43.43590778005789, -70.78643243968394], [-43.14869217289841, -71.003516078942], [-40.01728951326428, -73.10884985628762], [-38.343386312676685, -70.5785068692609], [-24.522997707998236, -79.88542775884181], [-24.453196442491794, -79.9118063963282], [-24.46276159669999, -79.92599193822811], [-24.462761596699988, -79.92599193822811], [-43.06191093826464, -107.50934360664826], [-56.88969179619729, -98.10314691715084], [-56.101702415100796, -96.87476509663318], [-59.44877858799181, -94.53098808052593], [-58.07921215695873, -92.53463254074425], [-63.73744966479336, -88.78436949495823], [-76.65222475727835, -108.06881108717364], [-73.40642925972116, -110.26574331281368], [-78.99755922701695, -118.75739914845641], [-84.30253170356616, -115.08192280080293], [-125.14747161232438, -175.86013075717761], [-137.50818887230153, -167.4518880346773], [-127.2986750598226, -152.17308580175037], [-123.76370341881787, -154.6222417047804], [-100.096693724587, -119.24775524028874], [-101.86074552850063, -118.02555649931352], [-101.85879212827179, -118.02256023262399], [-103.42981628539874, -116.90936023266607], [-101.76060311852775, -114.34900023280255], [-101.76468134784322, -114.34611047146234], [-101.57531071130894, -114.06478532416341], [-98.98002400249999, -110.08394668156635], [-106.78457227891329, -104.83672015453377], [-127.2065735869753, -135.33643962060296], [-134.7655034180023, -130.32811558532111], [-134.78281178363181, -130.354279644013], [-135.18413630444508, -130.03578359216834], [-142.2303563629926, -140.45559691348743], [-148.71059072794742, -136.1841738996503], [-153.31070553832947, -143.01801044517035], [-145.276195009278, -148.45143702333064], [-157.8278573250511, -166.88073619417847], [-160.89929859758394, -158.95575079657243], [-175.9927600505671, -149.73308356848915], [-194.16801046854238, -138.41118310361145]]]}, "properties": {"id": 1, "height_median_m": 9.0, "building_count": 70, "area_m2": 12833.299177533112}}, {"type": "Feature", "geometry": {"type": "Polygon", "coordinates": [[[21.26198541063261, 110.00041138482194], [21.261985410632622, 110.00041138482193], [34.462412749022924, 122.94623890017643], [34.52436441199654, 122.85844318943117], [39.43167723268732, 127.39715029776208], [48.41896932349168, 136.08454894300775], [48.13005872746042, 136.08454894300775], [50.635395193534926, 138.49887155943586], [50.98963107400142, 138.09726308729847], [58.78264196809064, 145.79242338257615], [58.37873604191948, 146.25034436359934], [62.85022258272773, 150.55939076543552], [63.147341329587846, 150.11025348117533], [67.5520583601401, 154.42690008524175], [74.05329071018792, 160.82268644144267], [73.78681624444239, 160.83005499186302], [75.89048649615629, 162.13096288338252], [76.5925053769264, 162.39626325289848], [77.61075624158626, 162.2679939909738], [80.63667520891104, 160.98152631512878], [80.74056096643729, 161.09930489906756], [81.22462304589453, 160.6243848002363], [81.22462304589452, 160.6243848002363], [86.36571152111466, 155.5803907540813], [85.67962144907246, 154.91366894309442], [86.34781839741733, 154.2643351349159], [86.34409353402194, 154.26011213894074], [91.3105498760904, 149.2669125315358], [91.90969137126991, 148.72349993267875], [91.90969137126991, 145.98708723200315], [91.61752977786445, 145.6558543512733], [85.95384563717151, 140.09090218665318], [86.73985635605109, 139.19977686225883], [81.23113296726304, 133.81157592420675], [81.10452461970661, 133.95511583034585], [75.45619750133312, 128.48855298259076], [75.32960725291422, 128.61156959960422], [68.61448531729674, 122.02326923758625], [68.7923387325313, 121.850436608275], [61.449934856990296, 114.78262066998164], [61.61456588126541, 114.6193041751186], [58.19298767140709, 111.12806744393778], [57.86868373888444, 111.41403585531685], [51.412595148413025, 105.31447522895424], [51.80120684250492, 104.92896648282742], [6.9808935024786045, 61.18163059569796], [1.6872608845196826, 60.59324241129804], [0.12806754936889794, 62.13998605508193], [-0.4204376007906536, 62.03634310243474], [-13.046399384812355, 70.44324466648145], [-13.532378203821075, 74.71325927697818], [-14.08281863991299, 75.33731108717937], [0.4957232311210471, 89.63467310809668], [0.4957232311210471, 89.63467310809666], [9.073165378234322, 98.04668006157769], [10.855082525342935, 99.79422894327425], [10.85508252534293, 99.79422894327425], [21.26198541063261, 110.00041138482194]]]}, "properties": {"id": 2, "height_median_m": 12.0, "building_count": 74, "area_m2": 3128.1252171600936}}, {"type": "Feature", "geometry": {"type": "Polygon", "coordinates": [[[-223.0451942283913, -119.52589736378373], [-222.37785435108876, -118.76931294244879], [-222.18147633146904, -118.65799294275418], [-220.06427012099246, -116.25764899629894], [-213.87846348112703, -119.9487255842153], [-217.1610216929203, -124.18358205477399], [-222.02749601131623, -121.1741584831759], [-221.74174569317717, -120.63421812619168], [-223.0451942283913, -119.52589736378373]]]}, "properties": {"id": 3, "height_median_m": 3.0, "building_count": 1, "area_m2": 37.60198385418557}}, {"type": "Feature", "geometry": {"type": "Polygon", "coordinates": [[[-7.225072452390172, -106.84699718869594], [-8.521468449071165, -106.25909105695345], [-8.521468449071179, -106.25909105695345], [-15.594848612659279, -103.05136472875932], [-12.664109764557983, -98.6937624405427], [-2.7232247017664792, -83.91304476432157], [-2.7177026218454388, -83.91671474627411], [3.294730567102018, -74.91380801131045], [3.470646080171536, -75.03845864014093], [12.178207071568378, -62.28707551997302], [13.277283889008283, -63.16393136542185], [13.261762495432816, -63.18152846248088], [15.582210847115629, -65.00282801439018], [17.540791474164873, -66.5654056653421], [17.536586255439374, -66.53680012493562], [38.00701946433926, -82.60386354555463], [41.831184625297674, -77.77643726788784], [23.197102532176473, -62.87829733119521], [19.368030300492613, -59.77748244365469], [19.365614211668465, -59.78103545961437], [17.571919745418725, -58.29496624118952], [16.503112377522665, -59.50670711347807], [16.152044263128754, -57.118604665720696], [16.152044263128744, -57.11860466572069], [16.079356816889845, -56.62415626335289], [20.08635302252815, -50.56701105697879], [20.773676091250206, -50.56701105697879], [24.2180711245757, -45.36031761473678], [24.41339304419554, -45.138874949074314], [27.704619933625455, -40.06421380210256], [27.425926370509845, -39.537607557025574], [32.01993344812216, -32.93186773787787], [32.02214804595421, -32.933426140588374], [32.07854770914822, -32.84758607450896], [32.09990746118109, -32.816872807823266], [32.09990746118109, -32.815076615726646], [43.882588639196555, -14.881882095852108], [43.882588639196555, -14.523665172407703], [49.62185326329677, -5.6196413395547005], [51.050386355924374, -5.417194670570164], [51.050386355924374, -4.080867625940067], [54.46409218693187, 0.7881273269896863], [55.042617483403234, 0.3508656542092042], [55.40143315192887, 1.0288668601383406], [55.44852153669074, 0.9955008614806874], [57.39734766033304, 3.941428984593992], [57.90264068017352, 4.628869085270527], [58.18530624504294, 4.949336016750073], [58.368969587862956, 5.261673467061209], [60.67555445117266, 8.781931120057717], [61.48693403961376, 10.424586151782128], [68.12649584781052, 7.5162407687054955], [68.7177429617488, 7.292802223029106], [69.2214410393811, 7.064378817736212], [70.3932148672228, 6.510846643751385], [73.1382782399592, 5.399358944069083], [79.38588522169985, 2.6448159608088226], [79.78144861977766, 3.6538572426220046], [88.44113308254504, -0.22157410093005347], [88.5166212619787, -0.029011569332372814], [93.2161962547356, -1.9783008909320683], [92.73157065022231, -2.967284692043557], [97.69195200678246, -5.290134623825443], [99.27551658456991, -5.963386176615776], [99.47238932014193, -6.074986613906009], [103.40773185960356, -7.7631682393366575], [99.16699800937712, -17.779532195269223], [99.18819604957882, -17.789018863028687], [99.0494856044476, -18.10353974027741], [98.91381994944699, -18.433129304472455], [98.86900919147175, -18.413075338685235], [96.5867407219844, -23.91147092122258], [96.39048605500938, -24.245221147878926], [96.09382090805472, -24.962743713113785], [95.24864509721198, -27.00690940664242], [94.9254362846905, -27.788631218751238], [94.82560123103616, -28.015003563139835], [94.72846188885266, -28.235263480439414], [92.37192565320463, -33.80126348033482], [91.68469449925979, -35.35953506692582], [90.03786346616764, -39.2633975459418], [90.05739811571166, -39.27201028870674], [89.91790769144214, -39.58829974021516], [88.9255915136204, -41.999057692111585], [87.58937493938905, -45.089476505755435], [87.58937493938905, -45.90733894158716], [85.10182420266898, -50.84271572229147], [84.04706059440507, -53.28218651002718], [83.68535611581198, -54.25611667560509], [82.35570854105275, -57.403305603825], [82.22019795080627, -57.72238882383216], [82.21989013044534, -57.72225677518023], [80.97387535246727, -60.64845318167053], [80.97273540982494, -60.65039176545617], [79.01191827156235, -65.0964731412393], [80.1300312480018, -65.67267323467833], [77.17984307714086, -72.48599594949363], [73.3513207847313, -81.6093053701891], [71.88184448952673, -81.9425037626908], [68.62833126601977, -89.84667085336707], [68.66962722249255, -89.8651518551593], [68.57793389808381, -89.9691074902364], [68.42513085522658, -90.34033105680467], [68.27429348807696, -90.34033105680467], [65.25150947329385, -97.63658054480771], [65.15215632029445, -97.74922037071887], [62.70069372464993, -103.50634393362013], [61.83769568479142, -105.59657983886108], [61.70400785224188, -105.92497314908557], [61.702394726036495, -105.92428732942436], [59.67561714034342, -110.83327099553767], [58.398313212843675, -113.72951108376812], [50.878171691453346, -131.34206724697083], [50.30976305875378, -131.5568748890451], [42.63121396427726, -128.1547583227679], [39.364247767353525, -126.70598473376062], [36.96585134790714, -125.64197412557172], [33.87059082634628, -124.25920226615462], [33.54641734266885, -124.11784619777264], [33.5487296317954, -124.11309912889871], [28.477725784342937, -121.81343585959699], [16.084931291632063, -116.3559571168759], [16.075689857043965, -116.36942794145128], [15.812333908090844, -116.24791485743769], [15.420212182088713, -116.08120453536444], [15.42771982598981, -116.07045297189099], [7.4342700199495555, -112.38225552770609], [7.414912480281774, -112.41264265379853], [7.128484733046377, -112.21780331152775], [4.769700471757384, -110.88068898128034], [4.5592317011178, -111.11930411379606], [4.473279774095786, -111.08146083983694], [3.787395503486746, -111.41472174929446], [-7.009236810613928, -106.75801547070684], [-7.225072452390172, -106.84699718869594]]]}, "properties": {"id": 4, "height_median_m": 9.0, "building_count": 148, "area_m2": 7546.14215259742}}, {"type": "Feature", "geometry": {"type": "Polygon", "coordinates": [[[64.72321325757707, 16.976501454046936], [66.71080200106111, 21.00041664367566], [66.84803740403129, 21.204626072779735], [66.83446748545576, 21.25078001623942], [66.91559205202127, 21.415018406462327], [66.9155920520213, 21.415018406462362], [69.65564579623127, 26.962314806621393], [73.45736046743782, 32.46143943333952], [75.36794582727228, 35.2250731913612], [75.57281533721405, 35.52141393884473], [75.57362653068792, 35.520800821635525], [82.08756208844483, 44.88721292468369], [81.83834146817149, 45.02848759231973], [84.03354423350848, 48.51276715909726], [84.28926179133549, 48.69831283570214], [89.78456200687076, 56.5680346620575], [89.69406384347725, 56.62503501934148], [89.89227696296729, 56.92125751110973], [90.07786881270324, 57.21057315380197], [90.08349659791459, 57.20702848774759], [92.2436548137775, 60.43530848739087], [92.50284674714675, 60.27205619320317], [99.21696862665345, 70.34677966363043], [99.95485307819116, 69.86874363765956], [102.75700647996054, 74.10459742298512], [102.47454495687462, 75.27879463360345], [108.08247453877918, 83.39524731866696], [107.96861198829076, 83.48130704604154], [112.77731660062678, 90.38689656161948], [112.79767146742103, 90.37305038611281], [117.6026061355356, 97.07767449892864], [117.88781914532763, 96.86210446536836], [119.84422000267811, 99.78587630425054], [121.41532891257201, 102.01239641279703], [124.17707808044584, 106.13224216996358], [123.75230617925669, 106.37303086977433], [126.71040675309717, 110.68492135892686], [127.97026341627294, 112.82743064829648], [132.03835994777003, 114.0997424508319], [135.6667802473638, 112.41208896480828], [135.85971819064596, 112.84956871709558], [143.31601420846795, 109.59824575926477], [143.44384494765401, 109.8518658573179], [148.6106827727473, 107.28907477052148], [149.5663663019364, 103.67744550371074], [148.8307237630614, 102.00940286676622], [143.99530373306328, 90.5353043015206], [138.46706521738065, 77.38187595747165], [138.3593818460123, 77.44291798715325], [132.79509245043195, 64.59244976781574], [132.8505030258114, 64.56103940294459], [130.02217030458266, 57.9012387903319], [129.43504981725573, 58.2340573651973], [128.5397637034419, 56.09124937469554], [128.53279070419626, 56.095899675156886], [126.54203535270376, 51.58193449433262], [124.49907019642407, 46.692232761569485], [124.52521407619511, 46.6820120211851], [124.38394584525345, 46.354727967373364], [124.25848703661008, 46.03469553337306], [124.24763835430039, 46.03893673882424], [122.12459833970796, 41.120370563338696], [120.26292071672114, 36.56582499415989], [119.57469290446576, 34.67089391989079], [109.60064782874112, 11.286612842460192], [109.60484266559348, 11.285027569188633], [109.45662510463127, 10.948949653999293], [107.9742146419056, 7.473418646337189], [108.61619751593655, 7.109500455951742], [107.2248895278155, 4.349102834312886], [101.65920323660731, 2.3626228085395993], [87.2003072159848, 8.765946946698536], [86.91383250171626, 8.18133307345442], [65.33340794202931, 17.865954868709323], [64.72321325757707, 16.976501454046936]]]}, "properties": {"id": 5, "height_median_m": 9.0, "building_count": 99, "area_m2": 3852.922039791876}}, {"type": "Feature", "geometry": {"type": "Polygon", "coordinates": [[[-220.7788345784, -88.4035490857095], [-226.20923536833388, -94.5601669908943], [-236.25116455275182, -106.51426385782872], [-241.82064319255085, -101.80949512213661], [-224.61912063135506, -84.94607654684988], [-220.7788345784, -88.4035490857095]]]}, "properties": {"id": 6, "height_median_m": 3.0, "building_count": 1, "area_m2": 147.4019501992086}}, {"type": "Feature", "geometry": {"type": "Polygon", "coordinates": [[[-145.035850834073, -43.28112506914689], [-146.48134986817297, -42.06798135148061], [-150.56323337531884, -46.40650730594236], [-156.5490113288803, -40.58970732786564], [-153.13824987734486, -36.48113816808975], [-160.6904004223969, -30.142950613156916], [-148.1984972516516, -15.300684667200285], [-147.49185772381884, -14.339317046668535], [-144.50210965634733, -16.88149632667354], [-135.20387831017078, -5.672599813795178], [-123.73382293153132, -15.254469644530513], [-122.40380262036925, -16.48819478504414], [-141.2388579670794, -39.09820724483699], [-141.34121169842928, -38.982165567512084], [-145.035850834073, -43.28112506914689]]]}, "properties": {"id": 7, "height_median_m": 3.0, "building_count": 2, "area_m2": 715.2532833566657}}, {"type": "Feature", "geometry": {"type": "Polygon", "coordinates": [[[25.291024284589287, 44.72389716737153], [25.595349305902474, 45.18392776095772], [22.239100281400138, 47.422213731909025], [15.223729117315584, 52.19434323664631], [15.004726104036601, 55.42212199946894], [25.953928189898328, 65.88160998846266], [25.889460798815016, 65.92369137816067], [26.21079525810071, 66.2151370464587], [26.39816552594386, 66.4275646721416], [26.43682256702742, 66.4023311085822], [30.601689796946275, 70.44962450933822], [34.243083332256155, 74.05283570764999], [33.95756536004306, 74.48443676952324], [39.79743845437407, 79.87920316392326], [39.976931459086046, 79.57395778082379], [48.52415056378995, 87.99335866986227], [49.691986302529784, 89.12822651034817], [49.69312546399471, 89.12745160822105], [51.603428849842246, 90.9663143222294], [54.694620464452996, 93.94190293505098], [55.734443775705294, 94.94283939906191], [57.73262650965023, 96.83067544088472], [58.90821568403939, 98.05241133796893], [61.9529943302194, 101.05895913629998], [64.99906610984318, 104.1781847457991], [67.45480532247113, 106.51687038204292], [68.32777974236416, 107.3966204578302], [68.42743565781541, 107.50960353515153], [69.90027080519842, 108.95676353545295], [69.99569151058611, 109.0649450205766], [71.08934118336948, 110.19213172997053], [72.07635538066086, 111.08733921330165], [76.98013728509521, 115.75738082187007], [77.7626934951352, 116.53368855516723], [81.88805790204202, 120.65395278661236], [88.66283887856201, 127.22158005725619], [90.98187036109297, 129.54737514968818], [90.68283093933931, 129.88640564333383], [99.2341051930289, 138.12038894319446], [104.13333278075646, 138.12038894319446], [111.2019638633334, 130.62348515402982], [111.37688662644139, 130.82180064798976], [115.33965919474393, 126.89066963126056], [115.75906248533781, 127.24728775773279], [117.32439457459402, 125.33610821122285], [117.8475689688971, 121.42138795547879], [116.39754186304127, 119.50345585681539], [115.23622388844993, 120.16176739916143], [108.73085926212345, 110.36310331308273], [108.77137950793468, 110.33427878599265], [108.45389041693902, 109.97433131688283], [108.8244044737133, 108.92417242296105], [108.55863908615171, 108.32155909590313], [102.83301057114636, 100.03952125459372], [102.5184632326864, 99.68290894315982], [101.56088881631555, 99.68290894315982], [99.40903049969435, 96.60685354905569], [97.39932720161879, 93.60887397073134], [97.92754791216151, 93.20963356961215], [91.91743409363227, 84.363573625545], [91.42651870676379, 84.80882672242355], [87.62704113630892, 79.13064196714384], [83.70050484287023, 73.44243664691103], [84.49963152598148, 72.98943899193445], [78.60673649943882, 64.18271593986941], [78.79472320468663, 64.05484003974048], [74.54062225637563, 57.99516155983837], [73.74481165701845, 58.67183837997166], [65.27555068913065, 46.17416600826401], [66.61019480664568, 45.24301004596557], [63.4788875064637, 40.55185593347327], [63.125494590277675, 40.780800377359874], [55.2434688436038, 29.254522582737994], [53.50351954447382, 28.88040199987415], [53.50351954447381, 28.880401999874145], [49.264357237110325, 27.96890539817529], [49.12294583252442, 28.066244120923177], [48.83842157932525, 28.26209273354607], [47.98496234362579, 28.849560428698663], [32.34683397555832, 39.613865089787474], [32.48515291527797, 39.802044981499186], [25.291024284589287, 44.72389716737153]]]}, "properties": {"id": 8, "height_median_m": 12.0, "building_count": 100, "area_m2": 4267.039217919973}}, {"type": "Feature", "geometry": {"type": "Polygon", "coordinates": [[[39.832748314873065, -178.58746978292672], [43.160616823921686, -170.9199424834084], [43.46553400808494, -171.03517391662174], [47.381358662523176, -161.90249885714903], [48.75768911474207, -162.42262871056437], [48.36284479452933, -162.8702762618108], [45.12260747047064, -170.66267626205757], [44.58258863919656, -171.27491276804838], [44.58258863919656, -171.88202426118255], [41.70622070257536, -178.62898229251516], [40.82240881220035, -180.63299353204815], [35.95261120568823, -192.0063447182624], [36.20799801372461, -193.74358554530124], [34.794545871563116, -192.1411099454169], [40.14387399405953, -178.6932897030821], [39.832748314873065, -178.58746978292672]]]}, "properties": {"id": 9, "height_median_m": 6.0, "building_count": 3, "area_m2": 45.54357099728461}}, {"type": "Feature", "geometry": {"type": "Polygon", "coordinates": [[[61.88432033784779, -136.8094428965954], [59.28307980275966, -135.7035270072421], [60.583700070159324, -132.7544179680934], [61.88432033784779, -136.8094428965954]]]}, "properties": {"id": 10, "height_median_m": 12.0, "building_count": 1, "area_m2": 4.55485929738031}}, {"type": "Feature", "geometry": {"type": "Polygon", "coordinates": [[[81.52044358435282, 173.97098022339244], [81.8884826265483, 174.2839233897868], [77.76519636001356, 178.37428645110606], [76.28761685499308, 179.791745460539], [80.65512081024004, 186.93123001051535], [83.40755721766578, 191.61201691423975], [84.88207671861913, 193.84096305495802], [89.1168796906635, 200.76352356112133], [89.20544754705308, 200.86393575380526], [89.64877729169224, 201.74351553261306], [94.40489214922731, 209.4232564559604], [96.0630672227418, 212.05515252406664], [99.4955244721027, 209.94263164165588], [101.26241723395, 212.83611741716055], [109.0113005738831, 208.09675735742138], [109.89430457754493, 207.6518286048753], [128.5582591506978, 196.35050861797546], [129.0588992719612, 197.14513687390297], [132.41728087538718, 194.96942034658036], [131.9109145598233, 194.28052005079425], [134.4554958380216, 192.83808373089397], [134.44533056420414, 192.82809566285817], [136.952177470556, 191.30554638618204], [137.40938456441657, 188.022661733615], [125.94357080883292, 176.90744024346202], [126.11436737365192, 176.71380275159464], [120.12073858003221, 170.88937356229974], [120.13705308234796, 170.83388475348613], [111.51205494566709, 162.8785482820222], [111.67749972541606, 162.69097827891886], [103.88608273874821, 154.9036590999345], [100.94585696567661, 154.78019882673684], [90.00721852790964, 165.6489133263182], [89.90571220900755, 165.53383238771687], [81.52044358435282, 173.97098022339244]]]}, "properties": {"id": 11, "height_median_m": 9.0, "building_count": 48, "area_m2": 1949.3337871321612}}, {"type": "Feature", "geometry": {"type": "Polygon", "coordinates": [[[106.38978344704327, 226.2893518949034], [108.44082088058387, 229.27905714029194], [106.97329299842707, 230.16640806574577], [107.46547202577065, 230.9104067324427], [109.57592270679172, 234.3665072717438], [109.53730905139413, 234.3898552866354], [109.60576463595635, 234.50195901159327], [109.90082354186845, 234.98806895160288], [109.90212479948987, 234.9872821371454], [111.66448724010995, 237.87334900200128], [111.6651194074942, 237.8729906478772], [119.43217757641047, 250.53127153029573], [124.141199277132, 251.0873931459942], [124.14496509894914, 251.09379729375186], [124.31964129621302, 251.1084666237284], [125.01385387318939, 251.19045108769618], [124.99920328326299, 251.16553632879848], [143.3255209445631, 252.70458288999288], [143.73923146683902, 248.36599283177262], [152.09139975650177, 240.63610014048862], [152.77579128365275, 247.23138969985507], [153.324971188417, 253.4576167587228], [143.1436462818702, 254.6119059115605], [143.18860448069952, 254.1404284315983], [133.51098363738868, 258.80345457480377], [132.5449850899339, 259.4292735709307], [137.32112813913932, 269.22211474204806], [150.80913011329773, 282.8148048453283], [153.2371244262794, 281.3834038132146], [154.3347722035012, 283.87228013057523], [154.56484434926682, 283.7418600798132], [156.91035285211208, 282.5784699197418], [157.19195102741145, 282.4440460047706], [157.1903743299103, 282.4395771246469], [164.77650136352702, 278.6768000836535], [165.16772060837488, 278.4550312397878], [171.83764666208768, 275.2301002803351], [173.80064878788212, 274.22861723563744], [177.20627791112494, 272.6029035778768], [177.2089156887249, 272.6086852735987], [177.53045638134705, 272.4481535016], [177.83808812282646, 272.30130218409437], [177.8355849827624, 272.29581559788636], [188.2335788056684, 267.10453371063807], [195.08091035343745, 263.807901422847], [195.08397649701877, 263.8144192685846], [195.40229565665152, 263.6531711954576], [199.73011043686662, 261.5695545572819], [200.08388428204447, 262.3717238530283], [203.41186626871811, 260.68036158229273], [204.85829804821918, 253.535232621864], [201.93411712237236, 250.73003223556546], [201.056789240124, 251.50365239734876], [196.66978953219572, 247.070588943196], [195.31281697268508, 247.070588943196], [195.09083405095092, 246.3155816701819], [190.8311245719759, 247.6034131289189], [192.00005589935563, 242.63370843903334], [176.25654028013017, 227.14218962947268], [175.96154532250665, 226.8077444739079], [169.5653174008536, 220.5602062991861], [169.07404083602754, 220.1146256191671], [166.32976211601337, 217.44781764189673], [159.9027107820694, 211.1328056557871], [160.69337543461208, 210.34845422346987], [149.8996685917293, 199.85945275880073], [148.99434966173948, 200.62924438443815], [144.11829670360783, 199.8553053225797], [135.0053520655981, 205.31133721699436], [134.6982930404836, 204.73113292985562], [129.4119610090327, 208.10235437906698], [129.60181587871463, 208.53284337436807], [127.32028346170857, 209.8261662681181], [118.62845859905583, 215.05848378785493], [116.21662987742334, 216.51035999040312], [115.84751098944997, 216.73256272169692], [115.84840579987443, 216.73350473420362], [110.52467187290281, 219.9594749946743], [106.6996460839968, 222.2945421357424], [106.1154425345334, 222.6257071981413], [105.59289897386279, 222.92191931560185], [107.37652854569774, 225.61812933361088], [106.38978344704327, 226.2893518949034]]]}, "properties": {"id": 12, "height_median_m": 12.0, "building_count": 50, "area_m2": 4117.010679556894}}, {"type": "Feature", "geometry": {"type": "Polygon", "coordinates": [[[109.2712190069213, 148.93370370148105], [119.36648240318338, 158.760494330161], [119.7521745571244, 158.32322288119198], [121.28984248276322, 159.9080437725385], [123.87945766865718, 162.53492762452308], [127.87479989233762, 166.6383226686236], [128.2291764586094, 166.95973704636435], [128.4110299015057, 167.16591007225412], [128.45658023329943, 167.1379373989897], [133.23726079708734, 171.96881538035953], [136.09259801734092, 174.87112053922542], [136.06020181382718, 174.89115432386885], [136.37561831745617, 175.1937370026642], [138.51828733541598, 177.6229489432099], [138.20575575750007, 177.9772759226813], [145.50389018034454, 184.96949580807112], [148.49114233631383, 185.33236109489874], [154.12861980328563, 181.83231566182636], [154.77104096147562, 178.5548159136394], [153.59839733987138, 176.71402053350766], [154.39504305792042, 176.14953143275824], [148.03439339903022, 166.9967648987549], [142.82591883128603, 159.23589054359107], [142.71790504576853, 159.29711987378195], [133.48797268883754, 145.9261113282196], [133.56807160446724, 145.8655708712346], [125.62684725310504, 133.9767056165147], [122.45462102507149, 133.85268997294628], [118.66394329069979, 137.41356830618128], [118.9419887358344, 137.72879726113135], [113.9939823018348, 142.34856016523932], [113.81369492087421, 142.2463613992897], [109.38049711019063, 145.83640226053575], [109.2712190069213, 148.93370370148105]]]}, "properties": {"id": 13, "height_median_m": 12.0, "building_count": 25, "area_m2": 929.2108956259432}}, {"type": "Feature", "geometry": {"type": "Polygon", "coordinates": [[[139.11081694938906, 129.16155449053667], [139.41081596781993, 128.90646567663555], [143.2138538116808, 134.29599671397887], [144.98654630498493, 136.908681853962], [145.06998232499564, 137.06633863182086], [145.5727444363858, 137.75033548691198], [152.50073221095386, 147.86595347481364], [152.39223983136822, 147.93372967801125], [152.64313368968172, 148.2181760164736], [153.44685596292723, 149.58498423051003], [155.01531872552704, 150.77046160904575], [155.33168615645621, 150.89002021170847], [155.53125661452793, 151.00314989604934], [157.12782026740368, 151.56879831433753], [157.41897771957548, 151.67882979903953], [158.00811177680782, 151.90146979827537], [159.13925713991256, 152.3289416101406], [161.73701046803959, 154.29237859780534], [164.26114275719476, 156.60374276654395], [166.39921453944692, 159.13792448864064], [168.36527672501913, 161.81270908513588], [169.28520416795863, 162.8556600540686], [170.43841659325318, 163.68766323197875], [171.81029077401914, 164.16622856889018], [174.02944727665982, 164.2805889431928], [174.5728159618748, 164.2805889431928], [175.60382067579184, 164.02083721000025], [175.7103587178505, 163.90005164689092], [176.5486178341907, 163.62851993444875], [176.5486178341907, 163.3364207487286], [176.64680684393483, 163.11378074849975], [176.64680684393483, 162.73902346795242], [167.61224836889303, 143.57513872960442], [167.86311678670788, 143.41261444636413], [166.2697175575297, 139.54157016774133], [166.95458814049007, 139.31972458534662], [165.75964965193094, 136.61024512704077], [166.25652272833557, 136.38491681003742], [162.9702773935332, 129.29402894314617], [162.86920912127565, 129.29402894314617], [159.63635218407467, 122.52751948856121], [159.7664585313395, 122.46430276020969], [157.86470248531035, 118.15214025979904], [157.12027237580358, 116.34360297434525], [157.05691662174075, 116.32051526430097], [157.05691662174075, 116.32051526430095], [154.04992113867388, 115.2247246633607], [152.88819013822226, 115.74123107310734], [152.57847588275135, 115.86891576077889], [152.58171684295306, 115.87748931306236], [142.3137742091597, 120.44262374022605], [142.28093378011215, 120.37746732410753], [137.7076775325573, 122.72299285244989], [136.83648973563714, 125.80953436442013], [139.11081694938906, 129.16155449053667]]]}, "properties": {"id": 14, "height_median_m": 9.0, "building_count": 17, "area_m2": 802.6612152675314}}]}