{"type": "FeatureCollection", "crs": {"type": "name", "properties": {"name": "EPSG:32628_local_enu_m_section_centroid", "lng0": -15.430681106823796, "lat0": 28.166331359543946}}, "features": [{"type": "Feature", "geometry": {"type": "Polygon", "coordinates": [[[-458.774283863, -22.052573589], [-443.861651491, -24.167046427], [-443.860006442, -24.15696991], [-443.856470917, -24.157577552], [-442.715553146, -17.169046634], [-446.378549551, -16.44643253], [-449.415708342, -16.001899964], [-452.515223382, -15.484861775], [-452.518820395, -15.503222605], [-452.826691166, -15.449495568], [-453.221601256, -15.449495568], [-453.209349993, -15.386959416], [-456.348644139, -14.824699077], [-456.347989067, -14.821355287], [-457.514861193, -14.600753106], [-457.029950621, -11.630501775], [-457.03476729, -11.630081493], [-456.968815972, -11.256030107], [-456.176564069, -6.403202799], [-456.417164748, -6.312229618], [-455.479081612, 1.018180871], [-453.466399255, 2.413370392], [-446.152750843, 1.130474574], [-446.152750841, 1.130474573], [-444.203343561, 0.78852671], [-439.205473949, -0.088155579], [-438.813222573, 0.420348228], [-432.370489666, -0.675875435], [-432.401738876, -0.853109353], [-432.183251568, -0.889158193], [-430.44435028, -1.176064446], [-432.513078403, -11.735816439], [-430.423468061, -12.438608644], [-425.321417535, -2.02131164], [-424.921498767, -2.087295371], [-424.921498767, -2.087295372], [-423.181838091, -2.374326918], [-424.519117599, -10.234681657], [-416.183081509, -3.930828135], [-400.804378626, -6.573927906], [-400.743639735, -6.344268948], [-387.71081801, -8.885177015], [-386.382468122, -11.019784091], [-387.541384464, -17.831743375], [-377.702676932, -11.055847448], [-370.462782516, -12.365070409], [-370.561005258, -13.144986501], [-364.802958922, -14.198454268], [-350.586013616, -16.792251026], [-346.623935308, -25.780825824], [-350.976826654, -25.287066155], [-351.03962394, -25.637292996], [-351.040358743, -25.637158164], [-352.288207742, -32.512284741], [-345.869003107, -33.577865575], [-344.720300859, -25.996759979], [-344.858526985, -25.981080634], [-343.69813541, -19.040789939], [-341.513106709, -17.057962504], [-333.111064945, -18.8228981], [-333.111064945, -32.260165397], [-329.556306744, -32.57114771], [-327.335824767, -19.977398433], [-318.961196824, -21.47732833], [-318.949522643, -21.371389742], [-312.566182758, -22.457507751], [-311.103516595, -24.244273768], [-311.99654058, -28.875039894], [-312.724228388, -32.648457078], [-313.443945159, -36.380540537], [-307.224445185, -37.791528318], [-305.226244137, -26.269589692], [-303.825882324, -25.078239858], [-289.729366105, -27.641528898], [-289.429364328, -26.847496178], [-286.594342146, -27.249476007], [-286.546835948, -27.370722888], [-282.293660027, -28.028607467], [-281.800949188, -29.034617722], [-277.991927407, -29.705066738], [-277.991927406, -29.705066739], [-276.100143031, -30.038051176], [-275.374415404, -31.684474226], [-274.392929092, -32.426691016], [-275.52721256, -38.85992567], [-275.447063713, -38.87810865], [-276.99018057, -46.956864805], [-276.914086153, -46.965496391], [-278.62063606, -56.214239691], [-278.499024174, -56.24182919], [-279.39398647, -61.825312407], [-280.45538827, -61.606407793], [-280.554368129, -62.504611007], [-280.577498296, -62.499363578], [-281.72970405, -69.134783449], [-281.726457791, -69.135309494], [-281.790539793, -69.485129467], [-281.849470877, -69.824506772], [-281.852615502, -69.823997196], [-283.423090364, -78.39712934], [-284.07320339, -78.288833965], [-291.397116219, -77.068821662], [-297.488575322, -76.054110644], [-298.819150113, -83.147845229], [-296.56916495, -83.488140706], [-296.570925355, -83.504115689], [-292.474417547, -84.330208888], [-285.347002898, -85.513351796], [-285.284396685, -85.158272603], [-284.885934154, -85.685589958], [-284.672271626, -85.717905012], [-284.708074536, -85.920965824], [-284.119248965, -86.700205824], [-284.865652472, -90.933529369], [-285.541343588, -91.220949552], [-286.536706805, -96.640466904], [-285.946141753, -96.752115761], [-286.135411441, -97.754018659], [-286.593844836, -100.180745056], [-286.916453563, -101.888480836], [-288.507233303, -103.306272722], [-292.895048719, -102.496028916], [-302.487912213, -100.759630199], [-302.289494291, -99.971883253], [-304.921076465, -99.545444483], [-304.919100276, -99.534983485], [-313.788388328, -97.822530428], [-314.773953882, -97.710735191], [-317.671420013, -97.078683189], [-317.356500915, -95.292579001], [-323.870994256, -94.060986089], [-325.291340175, -102.250921994], [-326.908317506, -103.299024281], [-342.081176289, -100.701142888], [-342.200300315, -101.444332856], [-350.202536115, -100.047849468], [-353.980159305, -99.435698723], [-353.784989897, -98.218077472], [-356.144136551, -97.883572375], [-355.47534058, -93.982033894], [-355.401335882, -93.444783113], [-355.401335882, -93.060066861], [-355.349455003, -93.068144287], [-354.905461496, -89.844891409], [-354.731639278, -89.056207345], [-354.135220632, -89.165325574], [-354.22520925, -89.667855568], [-351.388491137, -89.667855568], [-348.260791665, -90.240086215], [-348.381394493, -90.034881877], [-347.472976761, -90.201082137], [-345.946667945, -90.480329133], [-345.946667938, -90.480329134], [-339.79745825, -91.605362491], [-339.79745825, -91.381487283], [-339.7329577, -91.392919257], [-338.573265016, -84.627648781], [-342.841281902, -83.906600913], [-345.581880869, -83.462496349], [-347.351638664, -83.239442814], [-349.81115462, -82.793060054], [-352.904373222, -82.2918147], [-352.910861185, -82.328045907], [-352.935079413, -82.286838869], [-353.593027153, -82.180220718], [-353.455653449, -81.401088078], [-358.454802966, -72.895092131], [-359.838310402, -79.869972538], [-361.635210854, -81.143891557], [-368.551773634, -80.192905475], [-368.551773634, -79.852746565], [-371.116267364, -79.229395585], [-371.454406252, -79.176490807], [-371.431366017, -79.045815146], [-375.959511466, -78.403766155], [-375.370685895, -74.396246155], [-375.423199461, -74.388800219], [-375.315984263, -74.023949344], [-374.707844168, -69.884975568], [-378.138229693, -69.884975568], [-378.130012619, -69.838371378], [-381.713061322, -69.099399675], [-386.373367325, -68.2583966], [-386.577485709, -68.142628232], [-389.524509652, -67.585480714], [-389.455081405, -67.270463724], [-389.455081405, -65.62337776], [-389.35581595, -64.497384167], [-389.255721559, -63.134908427], [-388.754778164, -61.089269678], [-388.049865492, -58.957001447], [-388.042179455, -58.878535219], [-385.071842851, -59.440090095], [-385.047804496, -59.299858136], [-384.664907833, -59.517022906], [-384.383926392, -59.570143653], [-384.396109537, -59.641216165], [-373.424411731, -61.645149258], [-372.564677675, -57.256666156], [-370.332872733, -54.725072369], [-381.563487413, -52.686804324], [-381.564477698, -52.692046416], [-381.908023928, -52.624273663], [-382.252253556, -52.561798699], [-382.251264153, -52.556561276], [-383.838213541, -52.243497357], [-385.460094996, -51.923542248], [-386.761927202, -51.666724548], [-386.216540764, -48.454842575], [-386.216540764, -44.582743302], [-384.412977181, -35.297828928], [-391.099307079, -34.214332342], [-391.651359402, -37.345368132], [-391.802641861, -38.203386065], [-392.428363445, -41.752246552], [-392.423164462, -41.753120232], [-392.490077302, -42.102264633], [-392.974997997, -44.852554756], [-392.974997997, -45.075194759], [-393.889283419, -50.260682183], [-400.842620388, -48.888969299], [-401.287968888, -50.089039903], [-394.498692687, -53.939665273], [-395.06731967, -57.164706378], [-396.487675706, -58.104541782], [-399.08808851, -57.632587355], [-399.423217263, -57.571764128], [-399.422909304, -57.570049255], [-409.811923327, -55.630823459], [-409.921107764, -56.250077043], [-416.776693755, -55.000287601], [-416.781276478, -55.031477405], [-424.754470439, -53.484443345], [-425.682404369, -51.905574335], [-424.544824205, -44.347596503], [-424.64091494, -44.332025333], [-423.046733371, -34.68764569], [-427.798128563, -34.08879793], [-430.512651247, -36.398162639], [-436.055466735, -35.535191896], [-436.039490903, -35.471765606], [-444.352872388, -34.124610951], [-445.01928234, -33.260695568], [-449.063157296, -33.260695568], [-449.08302202, -33.29449517], [-458.39786312, -31.785057456], [-460.623708267, -28.538843036], [-459.942976656, -24.549290873], [-459.253872916, -24.772624618], [-458.774283863, -22.052573589]]]}, "properties": {"id": 0, "height_median_m": 9.0, "building_count": 323, "area_m2": 9608.188664163928}}, {"type": "Feature", "geometry": {"type": "Polygon", "coordinates": [[[-430.003098416, 6.218727374], [-431.463965312, 6.486001393], [-431.8229145, 6.548642209], [-431.822272373, 6.551555735], [-437.713301886, 7.629353541], [-438.184369666, 8.484304432], [-438.499187817, 8.484304432], [-438.417944423, 8.908224205], [-438.570061347, 9.184304432], [-437.935053417, 9.184304432], [-437.935053417, 16.669336817], [-450.972342891, 18.991503156], [-451.031958212, 18.611122697], [-451.288625097, 19.047838477], [-451.824263107, 19.143244854], [-451.618734945, 19.609516622], [-452.181143458, 20.566448298], [-451.41595825, 25.154285896], [-450.300390408, 24.973511994], [-450.300390408, 27.844997065], [-446.262539879, 27.102255803], [-441.997859287, 26.484697894], [-441.996749796, 26.491619777], [-441.653186449, 26.434786668], [-435.465528465, 25.538767131], [-433.884631456, 32.811400912], [-440.192193957, 33.75836377], [-448.97717212, 35.264705036], [-447.449528189, 44.737595561], [-446.473024196, 50.27596362], [-446.473024196, 50.880463898], [-440.328262679, 49.866622277], [-441.098945773, 44.718522225], [-433.058215162, 43.303224482], [-432.471439226, 46.520267207], [-431.903894839, 46.439794681], [-430.333611041, 55.854779409], [-430.37841015, 55.861870123], [-430.268068128, 56.237361508], [-445.063417729, 58.754773386], [-444.871091899, 59.73649401], [-445.840401111, 59.846445249], [-445.041100762, 64.768351592], [-444.84439826, 64.746039121], [-443.459023605, 72.952584448], [-443.389428448, 72.932848553], [-442.09710954, 81.141947904], [-441.972448624, 81.124272143], [-440.864130859, 88.667432339], [-440.493673086, 89.227725388], [-439.885172343, 89.68788409], [-439.378981703, 90.262069161], [-438.739098105, 90.624987378], [-438.327540419, 90.858407616], [-437.138238108, 91.348973514], [-430.036254284, 90.282743112], [-430.10112749, 89.694044337], [-424.304366256, 88.378961244], [-423.822882612, 89.143584249], [-418.002805217, 88.229480061], [-417.462757806, 88.144659952], [-416.948647433, 88.063913526], [-416.944898134, 88.025637193], [-409.602933998, 86.856769981], [-405.794769116, 80.966270747], [-401.280998033, 84.904798987], [-393.754681222, 83.624204757], [-393.734751113, 83.827669882], [-386.7738632, 82.626117704], [-386.739443145, 82.821335474], [-377.708046963, 81.254522689], [-377.714878525, 81.215776605], [-372.318950638, 80.288391775], [-369.713521944, 76.650970453], [-366.91458629, 76.333479977], [-363.679042275, 78.780253877], [-356.161465763, 77.468349182], [-356.120709538, 77.699503355], [-349.542359345, 76.580204565], [-349.604574373, 76.227344027], [-342.33481146, 75.049304144], [-341.825688759, 73.749904432], [-339.907050421, 73.749904432], [-339.741315996, 73.720220723], [-339.632323975, 73.700699809], [-338.81561959, 73.554424735], [-335.986035034, 73.047634642], [-334.83074357, 71.02235225], [-334.762780265, 70.903209255], [-335.156594639, 68.669640355], [-335.091555382, 68.65558784], [-335.168638389, 67.956089932], [-335.358918792, 67.997202305], [-335.767041011, 64.756597551], [-335.866510739, 64.418104333], [-336.390867015, 60.998057121], [-335.171954444, 60.800536563], [-335.171954444, 60.138152141], [-335.725530231, 60.661431527], [-337.582175442, 47.557179853], [-337.595690791, 47.461788159], [-338.922849274, 40.93825805], [-323.77785055, 38.009957736], [-317.654737246, 36.8523569], [-316.437207465, 44.395153131], [-316.137171045, 46.777526361], [-316.036613007, 47.005657503], [-315.848142102, 48.181488194], [-315.290172279, 52.29546514], [-321.694308091, 53.451161334], [-321.705437092, 53.396457713], [-322.041052521, 53.463079726], [-322.394568159, 53.52036571], [-322.392047715, 53.53275473], [-325.968637481, 54.24273285], [-329.492706044, 54.857723876], [-329.506811835, 54.783054587], [-329.606883108, 54.877649104], [-330.065548609, 54.957691578], [-328.939064325, 63.646732374], [-328.120232907, 66.433197028], [-328.565346988, 66.529369287], [-328.055346736, 70.463212895], [-327.677705286, 70.291865529], [-326.266245654, 71.092393023], [-323.19515477, 70.627910698], [-319.754026046, 69.958763119], [-312.757744696, 68.636086119], [-312.749550446, 68.688137832], [-312.427817803, 68.629184432], [-312.050210341, 68.629184432], [-312.060797466, 68.561932641], [-299.645600319, 66.28700625], [-298.870177812, 66.177058536], [-297.845184022, 66.047872221], [-296.974417144, 64.919034185], [-298.282568282, 57.664561054], [-298.218983614, 57.653172782], [-298.276695659, 57.313948901], [-298.710915191, 54.481807152], [-299.357075212, 50.963618631], [-299.417122375, 50.61066923], [-299.444684367, 50.616186455], [-301.311711649, 39.850616207], [-301.218807016, 39.833850552], [-301.321767548, 39.483478208], [-301.37077038, 39.149967168], [-301.418722591, 39.158620668], [-302.356679656, 33.24779378], [-316.968143347, 36.010153668], [-318.125888539, 29.256244231], [-313.700414469, 28.001261949], [-313.735659445, 27.777377961], [-307.100495956, 26.656419301], [-303.607802173, 26.037379855], [-304.060681639, 23.725672101], [-297.600767466, 22.91148911], [-296.19068516, 31.442116583], [-295.829360378, 31.624276583], [-294.957029302, 36.901650402], [-294.065338903, 36.775216981], [-294.065338903, 38.542929167], [-294.065338903, 39.632403071], [-293.946440437, 39.614177451], [-293.714462191, 41.193010824], [-293.703527521, 41.190999449], [-292.226216145, 49.450064432], [-292.85879416, 49.450064432], [-291.684258474, 55.921265283], [-291.962022623, 55.960649661], [-290.603090725, 63.905156246], [-288.706160817, 65.42402901], [-274.296946196, 62.77664106], [-274.39491643, 61.776469639], [-274.374062957, 61.772752483], [-274.374565544, 61.769657667], [-260.933357926, 59.246821135], [-259.792037433, 57.693266082], [-259.903102727, 56.433423864], [-260.79026269, 51.401781964], [-260.888400286, 50.956501964], [-261.082865599, 49.853566916], [-261.967267448, 44.280234808], [-262.255721235, 42.971432588], [-262.255721235, 42.867605245], [-262.454975785, 41.737507422], [-262.562823146, 40.636501083], [-262.669331461, 40.51568596], [-263.478522571, 35.620292351], [-263.459443249, 35.617341146], [-263.537711832, 35.262212872], [-264.42105642, 29.918210196], [-263.861056571, 29.827464161], [-264.356075633, 27.300656276], [-272.323368231, 23.283987368], [-265.135453656, 22.264807805], [-265.915249682, 18.284365642], [-265.731136539, 18.258260107], [-267.069653219, 10.666690509], [-268.338638919, 3.289544417], [-268.211356604, 3.181259713], [-269.777044807, -5.343542325], [-269.657613475, -5.370637132], [-271.264602166, -13.877264082], [-272.183995569, -20.134613678], [-272.770546258, -20.93302113], [-273.424463156, -21.303898513], [-273.897338002, -21.572095568], [-274.312717878, -21.572095568], [-280.829876854, -20.498978948], [-280.87693393, -20.739180187], [-288.697387254, -19.280943231], [-288.599749829, -18.284169434], [-299.025861725, -16.510178375], [-299.026413577, -16.513308274], [-302.351762086, -15.86295855], [-303.213118966, -14.746319375], [-301.855613407, -6.854570215], [-300.681117318, -0.026731862], [-300.681117319, -0.026731862], [-300.536730594, 0.812648725], [-301.807547373, 1.041314279], [-307.693427797, 5.810246889], [-307.693427797, 1.508026712], [-308.235864238, 1.613275331], [-308.520267504, 1.428929077], [-308.481314907, 1.660899977], [-322.769010963, 4.433133105], [-323.395443024, 0.347309554], [-323.395443024, 0.118574945], [-323.932092044, -2.722187433], [-318.753426176, -3.73499674], [-317.834849683, -3.913236066], [-317.835130719, -3.914590907], [-315.335148311, -4.403520974], [-310.085180793, -5.475452164], [-310.085316241, -5.476128191], [-308.999199675, -5.700130004], [-309.089232378, -6.108635653], [-308.021773437, -6.218712576], [-309.434873557, -13.740086883], [-310.606922209, -13.474189893], [-311.582241613, -14.248620824], [-313.7290768, -13.842752423], [-313.827214395, -14.621992423], [-316.474875253, -14.121440781], [-323.416904276, -12.827696045], [-326.002811044, -12.417039561], [-331.134955888, -11.602026203], [-331.093181465, -11.412482992], [-340.149414526, -9.625923298], [-340.680696607, -8.822394047], [-341.618181536, -7.404509669], [-345.626115512, -1.342772786], [-339.888869896, -2.450501358], [-339.441450841, 0.340852863], [-339.438611429, 0.340304639], [-338.222451604, 7.556262685], [-337.297065339, 13.119616807], [-337.306785501, 13.121499266], [-337.240315001, 13.46079566], [-336.333755289, 18.910965934], [-336.061931554, 20.14431257], [-335.172022424, 25.443908429], [-342.299234336, 26.791338412], [-342.689729537, 24.355120251], [-342.702464133, 24.357046275], [-343.857121326, 17.022404991], [-343.840379622, 17.019420762], [-343.911775462, 16.67522967], [-343.966000654, 16.3307791], [-344.010463342, 16.338704627], [-345.359023817, 8.690170352], [-344.59316358, 8.58157848], [-344.59316358, 8.023190026], [-344.842652318, 6.664782841], [-346.110647077, -0.60995062], [-346.125180423, -0.587969888], [-347.21726367, -7.02961619], [-348.769720052, -8.350359612], [-356.151937295, -6.935062877], [-356.171044789, -6.783344018], [-363.209081816, -5.472632198], [-363.204487413, -5.446574452], [-369.120156546, -4.351015962], [-377.144805858, -2.948083444], [-378.859676492, -0.404331734], [-378.042529009, 4.307467991], [-376.71875843, 11.940535432], [-376.603541923, 12.604891765], [-376.172785738, 12.526945432], [-375.888204804, 14.060280951], [-375.631483139, 14.018680095], [-374.23887771, 21.917020997], [-373.01866238, 29.476454649], [-373.026765097, 29.477853298], [-372.962838372, 29.82229351], [-372.907108246, 30.167550764], [-372.899019155, 30.166154467], [-372.17803126, 34.050871315], [-371.638315961, 37.601706447], [-373.184684312, 37.868632489], [-378.646909102, 39.245508527], [-378.646909102, 35.500892937], [-379.763338035, 29.379988252], [-379.506217099, 29.088329357], [-380.359920479, 24.246440777], [-380.359920479, 24.246440776], [-380.455546648, 24.22233606], [-381.136929972, 20.164555193], [-381.903170908, 19.838617637], [-390.080698118, 16.360125294], [-382.716967005, 15.166858194], [-382.943356487, 13.797261308], [-382.907744595, 13.790710689], [-382.9691196, 13.455272494], [-383.016242074, 13.09892426], [-383.033731865, 13.102141415], [-384.475984398, 5.219672246], [-384.065861687, 5.161520653], [-384.748187864, 0.001653028], [-386.66383898, -1.446995215], [-392.996099557, -0.192847475], [-396.560056923, 0.419681095], [-395.646223447, 7.675774906], [-401.437211224, 1.106908427], [-409.380004696, 2.577882314], [-409.401814179, 2.556235639], [-416.646421393, 3.925859709], [-415.974430165, 7.737144432], [-408.04875136, 7.737144432], [-407.732942187, 10.713855504], [-415.168251752, 12.309489046], [-423.127748088, 14.017614204], [-427.292700897, 14.9114221], [-428.69819129, 7.737144432], [-428.664490812, 7.737144432], [-428.707819998, 7.687995021], [-428.881413437, 6.801893246], [-429.337096214, 6.974190813], [-430.003098416, 6.218727374]]]}, "properties": {"id": 1, "height_median_m": 9.0, "building_count": 414, "area_m2": 12228.042360941758}}, {"type": "Feature", "geometry": {"type": "Polygon", "coordinates": [[[-419.050060643, 96.492590382], [-418.93521899, 97.143929596], [-423.26560367, 97.82145605], [-423.067596153, 99.056783675], [-423.087567198, 99.060559287], [-423.012121027, 99.402881422], [-422.843148318, 100.457066932], [-422.719995282, 101.50478437], [-421.864932406, 106.13884577], [-428.877269091, 107.428728037], [-432.346840399, 108.009759362], [-432.689725043, 108.066956907], [-432.689533566, 108.068079093], [-436.616948673, 108.736324299], [-436.521508819, 109.27762371], [-437.404747176, 109.38894371], [-436.58665004, 114.028886894], [-436.551830559, 114.019012736], [-435.046061538, 122.315170862], [-434.449115366, 122.508636978], [-434.0043369, 124.778993455], [-433.175024261, 130.109687258], [-433.277090954, 130.12739431], [-433.115094191, 130.494908506], [-433.067401132, 130.801472138], [-433.007509204, 130.79108178], [-431.8417251, 139.166148234], [-432.784646957, 139.360617421], [-430.806736839, 151.169008749], [-417.436123847, 148.981513974], [-417.436123846, 148.981513973], [-414.245133579, 147.171702784], [-413.327260733, 147.79640286], [-407.299965763, 146.770865488], [-405.33120014, 146.435882261], [-404.254846755, 146.213894016], [-402.790180253, 145.992372828], [-401.442244012, 145.773944432], [-400.882576215, 145.773944432], [-400.097478985, 144.501721583], [-399.410515819, 143.499841583], [-394.200849086, 135.057757215], [-393.021209776, 142.640296856], [-392.228457025, 142.415486894], [-392.136420152, 142.93748586], [-377.436916077, 140.240216981], [-377.432612467, 140.274388847], [-377.070208583, 140.202449138], [-376.742824392, 140.149397664], [-376.744291021, 140.137752219], [-369.214703281, 138.643076316], [-362.599890211, 137.39251753], [-362.04167883, 136.601025609], [-362.458652335, 134.236106714], [-362.743774325, 132.295579447], [-365.954738568, 114.015289851], [-365.394549414, 113.911228619], [-365.681926107, 112.281334722], [-365.362603049, 112.100226541], [-365.362603049, 112.10022654], [-366.583656264, 104.828598078], [-368.110405206, 95.736487326], [-362.447044281, 94.685229505], [-360.574145857, 103.891296008], [-360.3405504, 103.854862174], [-358.94750135, 111.634167488], [-358.996851765, 111.644345569], [-358.929176556, 111.976997071], [-358.876678955, 112.334293352], [-358.823341071, 112.323292891], [-357.64701338, 119.185606597], [-357.952913356, 119.234023836], [-357.952913356, 123.694845354], [-355.855718132, 134.399906687], [-354.390308187, 143.634641223], [-352.861295074, 144.568548338], [-341.888838741, 142.474771579], [-341.981947418, 141.946693736], [-338.109358157, 141.20425244], [-337.750805281, 141.143245077], [-337.752440573, 141.135825262], [-331.14086063, 139.868272818], [-327.313937429, 139.200430128], [-325.402480349, 138.839060968], [-323.573073542, 136.1535815], [-324.520056537, 130.56780814], [-324.511233739, 130.566227941], [-324.578764627, 130.221518832], [-324.637066379, 129.877626308], [-324.698501503, 129.888629588], [-325.895814313, 122.554658813], [-325.884854789, 122.552746248], [-325.952485356, 122.20752833], [-326.008606958, 121.863763373], [-326.04532671, 121.870171398], [-327.169514831, 114.644063454], [-327.16190451, 114.642589598], [-327.228176748, 114.304305226], [-327.284436332, 113.953313405], [-327.345007278, 113.9650439], [-328.50344098, 106.737817498], [-328.602056813, 106.178505114], [-328.694873163, 105.652085243], [-328.694873163, 105.427004922], [-328.872193052, 104.496739292], [-328.878606419, 104.463093123], [-329.578111519, 100.793309922], [-329.578111519, 100.598963833], [-329.731042307, 100.622619287], [-331.295653971, 90.929593988], [-331.199572529, 90.909778051], [-331.352235432, 90.563439133], [-330.696031734, 90.138096994], [-331.05527758, 88.14586593], [-331.827379115, 83.4748545], [-331.608621204, 83.368507616], [-331.963749232, 83.107852352], [-332.02095272, 82.790625116], [-332.246539047, 82.900291563], [-333.091822341, 82.279874354], [-334.9327327, 82.572221234], [-335.030327518, 81.907995352], [-339.392578493, 82.553414511], [-339.809664613, 82.615124709], [-340.190008631, 82.67139871], [-340.190008631, 82.69164275], [-340.878918311, 82.824655172], [-342.262762506, 83.091843272], [-343.872594899, 83.402664432], [-347.691370212, 84.139981049], [-347.700568445, 84.091985605], [-348.390084527, 84.21316158], [-349.295425895, 84.372266822], [-350.745959237, 84.627184432], [-355.588801192, 85.478268418], [-355.634901436, 85.112219565], [-360.707809879, 86.191156554], [-362.317211639, 86.434567999], [-362.399259572, 86.550904351], [-363.65067865, 88.325300436], [-363.664870565, 88.345423255], [-363.664870565, 88.345423256], [-363.443713215, 89.599745629], [-362.815565296, 93.46773496], [-369.186174016, 94.410301757], [-370.038003876, 89.57903909], [-371.04454187, 88.722732625], [-377.521728801, 89.8656366], [-377.532233103, 89.802655728], [-377.875540176, 89.86374154], [-378.223136603, 89.915170354], [-378.221448751, 89.925290245], [-382.012637159, 90.599869474], [-385.43753891, 91.200538701], [-385.783882673, 91.260979837], [-385.783729504, 91.261813806], [-399.394823977, 93.670800508], [-400.273419938, 94.667414519], [-398.573687656, 104.60428798], [-398.634954865, 104.614216119], [-398.577666876, 104.957698963], [-398.526523806, 105.305776364], [-398.519794455, 105.304685896], [-397.890114027, 109.080074538], [-397.497735691, 111.416769978], [-396.476521191, 117.524639213], [-396.479639302, 117.52511954], [-396.336476336, 118.337086724], [-396.727579213, 119.335272359], [-396.198925433, 122.753366219], [-402.659326012, 123.974732662], [-403.48062615, 119.316623235], [-403.539334481, 118.955110934], [-403.544181959, 118.95615829], [-404.791769222, 111.880306575], [-404.690304062, 111.861124151], [-404.755952468, 111.526024106], [-404.803027416, 111.170035274], [-404.872406851, 111.183151754], [-406.073762566, 103.960689606], [-406.06006718, 103.958160648], [-406.131319584, 103.614661048], [-406.757172969, 99.852076554], [-406.751224171, 99.851164679], [-406.816687048, 99.504635626], [-406.862259518, 99.160008789], [-406.881240922, 99.162918396], [-407.433213714, 96.241039322], [-408.744289588, 95.294647526], [-411.882947704, 95.818215274], [-411.98153747, 95.259050727], [-416.46816327, 96.042019207], [-419.050060643, 96.492590382]]]}, "properties": {"id": 2, "height_median_m": 9.0, "building_count": 139, "area_m2": 4973.929527483791}}, {"type": "Feature", "geometry": {"type": "Polygon", "coordinates": [[[-325.590156762, 82.001210168], [-325.590156762, 82.001210169], [-324.383963791, 88.15818096], [-324.266574668, 88.757389724], [-324.280058554, 88.747492882], [-323.208196306, 94.826697557], [-322.654194681, 99.016152904], [-321.695463551, 104.725598231], [-321.958256334, 104.768182891], [-321.759342898, 105.44508078], [-321.573702041, 105.414998323], [-320.235682214, 112.624312382], [-320.321528027, 112.641212543], [-320.264775154, 112.96769207], [-320.223670011, 113.340705044], [-320.200773212, 113.335872964], [-318.948537857, 120.539547131], [-318.964226887, 120.542378388], [-318.865441132, 120.990599286], [-319.430854599, 121.097493127], [-318.453104411, 127.628784432], [-318.264235831, 127.628784432], [-317.008491222, 136.017055744], [-316.74861362, 136.274993365], [-315.22898617, 145.10922507], [-314.806890285, 145.043508216], [-313.541769205, 152.378256272], [-313.5577881, 152.381284713], [-313.419443096, 153.087462057], [-313.41944309, 153.08746209], [-313.294775829, 153.723821865], [-312.668362955, 157.513455166], [-313.15954443, 157.624887124], [-312.682529117, 160.195068166], [-310.988328593, 161.604370023], [-304.177398578, 160.397211709], [-304.206106739, 160.283236288], [-297.004782479, 158.841710267], [-296.927992395, 159.190130143], [-288.719572265, 157.618139378], [-288.727499247, 157.546205138], [-274.382756626, 154.834270013], [-273.456443918, 159.705884342], [-273.456443918, 159.814843618], [-272.768766297, 163.715095743], [-273.128995489, 163.771848138], [-273.377608455, 164.166659458], [-272.342984847, 169.682580334], [-270.528033785, 170.840624791], [-266.686540896, 170.114374083], [-266.666512815, 170.073481021], [-259.665766244, 168.749959852], [-259.755437566, 168.037944432], [-259.723907174, 168.037944432], [-259.77822921, 167.770929268], [-256.221112088, 167.322603767], [-256.222576011, 167.312640376], [-249.445996734, 166.082744651], [-249.419464845, 166.233223672], [-249.068526426, 166.034184432], [-248.74376137, 166.034184432], [-248.750035006, 165.998602696], [-244.383886257, 165.137274888], [-242.500705604, 164.781251507], [-242.31056321, 164.565568096], [-241.886933411, 163.964900366], [-241.638632584, 163.401592328], [-241.748545646, 162.404174609], [-242.339128556, 159.277912098], [-242.41995073, 158.788959181], [-242.659620139, 156.221030758], [-241.805516208, 155.736614723], [-243.453443398, 146.390183601], [-241.351927698, 145.964504432], [-244.49281651, 145.964504432], [-244.49281651, 143.124407515], [-244.828080365, 141.270452721], [-245.415957687, 141.048171262], [-245.871811707, 138.462736525], [-245.929908329, 138.116758932], [-245.932726449, 138.117250727], [-247.224182449, 130.792591827], [-247.182709816, 130.784560014], [-247.246300159, 130.444508391], [-247.307787186, 130.095776806], [-247.311383431, 130.096473274], [-247.932918874, 126.772790356], [-248.225187592, 125.004641399], [-248.323894059, 124.108919115], [-248.323894059, 124.108919113], [-248.639754752, 122.496619002], [-248.914375805, 121.094825226], [-249.109123445, 119.879835295], [-249.484663837, 117.18192946], [-250.262205499, 113.212994623], [-249.539665879, 113.095909582], [-250.298543488, 108.791837564], [-250.039107971, 108.726441034], [-251.231095571, 101.47425644], [-251.273033732, 101.483770747], [-252.708894508, 93.340101578], [-253.554548253, 93.553267536], [-254.409704911, 88.703136504], [-254.465988934, 88.362632954], [-254.516531938, 88.370540848], [-255.056013887, 85.004825423], [-255.110270585, 85.016162617], [-256.31702775, 77.89811292], [-256.300800601, 77.894431545], [-256.391242644, 77.484068597], [-255.526810686, 77.375118884], [-256.790805504, 69.847764152], [-258.805961435, 68.577851242], [-264.347125338, 69.61392017], [-267.56173144, 70.214976835], [-274.424783036, 71.498208054], [-274.424783036, 71.422184501], [-280.739013046, 72.568167479], [-280.846092309, 72.466948509], [-288.251556115, 73.829144432], [-288.667771169, 73.829144432], [-288.667771169, 81.136777593], [-295.767466429, 74.694083945], [-308.295290202, 77.004755967], [-308.295290202, 77.558493975], [-310.906214003, 78.0141306], [-310.905551442, 78.017662933], [-324.536000783, 80.539730298], [-325.590156762, 82.001210168]]]}, "properties": {"id": 3, "height_median_m": 9.0, "building_count": 189, "area_m2": 5762.802302320678}}, {"type": "Feature", "geometry": {"type": "Polygon", "coordinates": [[[-521.0196218598535, -5.89673443569873], [-521.1172911197697, -7.115410744672546], [-498.4859496344726, -10.135565229161895], [-498.4859496344726, -9.468411053267133], [-484.5441227139264, -11.301984746489886], [-476.05579836960777, -12.578054294505433], [-476.83390477516286, -18.5042582592753], [-485.3060858411238, -17.23061556785499], [-485.40275216065265, -17.23061556785499], [-498.77421526904095, -15.334666224127638], [-522.0333747871301, -11.994987329225903], [-543.870782498494, -8.827952895758846], [-542.9875955220177, -2.5665671555408553], [-521.0196218598535, -5.89673443569873]]]}, "properties": {"id": 4, "height_median_m": 3.0, "building_count": 1, "area_m2": 389.346239790622}}, {"type": "Feature", "geometry": {"type": "Polygon", "coordinates": [[[-310.7088270185516, 190.4571193337989], [-308.9123684391306, 199.92675268780894], [-304.2004825944221, 199.14458487545954], [-305.18359597022084, 193.75459265061647], [-294.19687357255924, 192.13908054145423], [-294.78686797156627, 188.45822846674938], [-287.86888758580346, 187.29174636906177], [-277.27113275223974, 185.62212052642008], [-276.19172334439946, 185.44720597365497], [-276.3960810125954, 184.7517814852577], [-279.59256579272005, 166.28258280778573], [-298.6337812558986, 169.51664880557624], [-296.7646752816003, 180.43555012029861], [-304.3181715003335, 181.5293533330515], [-303.14976745744195, 189.60194443198728], [-306.50849397096357, 189.60194443198728], [-310.7088270185516, 190.4571193337989]]]}, "properties": {"id": 5, "height_median_m": 3.0, "building_count": 3, "area_m2": 527.2262992962981}}, {"type": "Feature", "geometry": {"type": "Polygon", "coordinates": [[[-246.84858116832828, 193.52590903987016], [-243.36278451553392, 192.9080920305214], [-245.6344631107226, 178.85269113468993], [-249.4185580991043, 179.5885305067837], [-250.45091832160728, 179.75582090275535], [-247.97424815805476, 193.68551816981542], [-246.84858116832828, 193.52590903987016]]]}, "properties": {"id": 6, "height_median_m": 3.0, "building_count": 1, "area_m2": 67.96151638190679}}, {"type": "Feature", "geometry": {"type": "Polygon", "coordinates": [[[249.46172875031797, 1200.4073005280832], [251.72880718720438, 1207.0040274743324], [251.36358915926021, 1207.4183036831776], [259.16025809531607, 1216.1443464261674], [260.9409072735039, 1214.6054236132093], [265.9869283384618, 1220.3292551781738], [266.1865327223839, 1220.216046983489], [269.9157613390014, 1224.334886983698], [270.1117167365056, 1224.2237483582173], [274.27482659403876, 1228.8336347633765], [276.8622369212986, 1226.5974700951517], [275.4872058332459, 1225.0377369423022], [276.7655140666544, 1223.922338535166], [267.0749033058018, 1213.1374313985477], [267.33100164170287, 1212.8916246084568], [263.31539651654236, 1208.3366203639089], [263.44302791862845, 1208.2401033078354], [260.0513820771048, 1204.6333240857232], [260.25035777043513, 1204.4076208354022], [254.87858772219204, 1198.493499609415], [255.0775170265009, 1198.32426163692], [253.10734136456858, 1196.0894406769978], [252.91501026567423, 1196.3076067925685], [249.70743739811536, 1192.5589188054844], [248.3770645212702, 1193.732644734501], [249.80811086633742, 1197.5589303855995], [249.5888179772921, 1200.2951756316545], [249.46172875031797, 1200.4073005280832]]]}, "properties": {"id": 7, "height_median_m": 3.0, "building_count": 1, "area_m2": 263.29191588461157}}]}