{"type": "FeatureCollection", "crs": {"type": "name", "properties": {"name": "EPSG:32628_local_enu_m_section_centroid", "lng0": -16.314581677359843, "lat0": 28.43938416584461}}, "features": [{"type": "Feature", "geometry": {"type": "Polygon", "coordinates": [[[319.17486446618415, 313.8295418219549], [366.2580600313493, 259.7280218221047], [362.9299339415647, 268.2996618222153], [369.1946418752155, 283.4391818219585], [398.75623243805427, 306.0371418222499], [392.3936384424891, 323.06910182196106], [416.5286113792882, 350.3290187376558], [415.006996440807, 350.5857055953922], [405.4124846176235, 351.1217418223228], [349.9006508036716, 351.1217418223228], [319.17486446618415, 313.8295418219549]]]}, "properties": {"name": "", "kind": "scrub", "category": "parque", "extrude": false}}, {"type": "Feature", "geometry": {"type": "Polygon", "coordinates": [[[-185.13412420609848, 246.70358182216276], [-168.39560769560885, 260.50726182211474], [-193.35655336934124, 290.8976218221112], [-210.09506988017864, 277.0939418221592], [-185.13412420609848, 246.70358182216276]]]}, "properties": {"name": "", "kind": "pitch", "category": "parque", "extrude": false}}, {"type": "Feature", "geometry": {"type": "Polygon", "coordinates": [[[-106.2379586648464, 208.74346182229473], [-12.463111780434563, 272.7524618220467], [18.95831395008177, 272.9751018222755], [15.336529675945304, 224.10562182226684], [85.91237999273582, 238.02062182233328], [94.82001158624882, 233.90178182205418], [109.405034744709, 227.22258182230703], [238.90829406404387, 218.53962182208207], [307.33065102880494, 219.8754618222688], [319.8600668964544, 212.19438182228274], [376.0466661779178, 236.90742182197994], [366.2580600313493, 259.7280218221047], [319.17486446618415, 313.8295418219549], [311.0503213645079, 313.2729418221737], [260.14956940207327, 282.65994182194845], [198.97078098593292, 285.44294182204084], [113.61413538754915, 309.8220218221857], [65.6499652693285, 298.022101822316], [8.680277496376066, 302.9201818222097], [-61.01459826735891, 292.9013818221935], [-136.68052378074066, 254.38466182214881], [-106.2379586648464, 208.74346182229473]]]}, "properties": {"name": "", "kind": "scrub", "category": "parque", "extrude": false}}, {"type": "Feature", "geometry": {"type": "Polygon", "coordinates": [[[389.84860084454124, 241.58286182204023], [392.00209419691845, 242.58474182227914], [399.14777668362484, 246.03566182226714], [396.602739085677, 251.71298182217086], [392.4915245040556, 260.952541822177], [383.0944626034054, 257.39030182207455], [389.84860084454124, 241.58286182204023]]]}, "properties": {"name": "", "kind": "scrub", "category": "parque", "extrude": false}}, {"type": "Feature", "geometry": {"type": "Polygon", "coordinates": [[[478.33760040957645, 255.16390182215886], [474.0306137051698, 246.36962182221495], [477.8481701024393, 244.47718182224705], [482.05727074527954, 253.7167418222532], [478.33760040957645, 255.16390182215886]]]}, "properties": {"name": "", "kind": "playground", "category": "parque", "extrude": false}}, {"type": "Feature", "geometry": {"type": "Polygon", "coordinates": [[[-282.9222996105652, 350.7877818219795], [-282.62864142621333, 350.2311818221983], [-282.13921111907615, 349.7859018221361], [-281.74766687315775, 349.45194182218825], [-281.3561226272394, 349.22930182195944], [-280.47514807418383, 348.6727018221782], [-279.3005153364287, 347.6708218223348], [-278.713198967725, 347.11422182215813], [-276.07027530821057, 343.6633018221701], [-275.3850728779404, 342.43878182209784], [-272.54637709529294, 335.9822218221841], [-271.95906072658926, 334.31242182204954], [-271.66540254223736, 333.6445018221539], [-271.56751648067086, 333.3105418222061], [-271.17597223475246, 333.19922182209166], [-270.8823140504006, 333.19922182209166], [-270.5886558660487, 333.3105418222061], [-270.3928837429157, 333.6445018221539], [-270.5886558660487, 334.31242182204954], [-274.79030325576497, 351.1217418223228], [-283.098494521524, 351.1217418223228], [-282.9222996105652, 350.7877818219795]]]}, "properties": {"name": "", "kind": "garden", "category": "parque", "extrude": false}}, {"type": "Feature", "geometry": {"type": "Polygon", "coordinates": [[[-239.95031862702143, 351.1217418223228], [-241.58991015660905, 351.1217418223228], [-241.3207234875619, 349.8972218222505], [-239.95031862702143, 351.1217418223228]]]}, "properties": {"name": "", "kind": "garden", "category": "parque", "extrude": false}}, {"type": "Feature", "geometry": {"type": "Polygon", "coordinates": [[[-232.7067500787485, 349.7859018221361], [-234.01562655787197, 351.1217418223228], [-239.23750730763604, 351.1217418223228], [-241.12495136477662, 349.34062182207384], [-237.4052810290736, 345.3331018223047], [-232.7067500787485, 349.7859018221361]]]}, "properties": {"name": "", "kind": "garden", "category": "parque", "extrude": false}}, {"type": "Feature", "geometry": {"type": "Polygon", "coordinates": [[[-237.89471133621078, 344.776501822128], [-241.3207234875619, 348.45006182194936], [-245.62771019231636, 344.44254182218015], [-242.20169804096523, 340.7689818219633], [-237.89471133621078, 344.776501822128]]]}, "properties": {"name": "", "kind": "garden", "category": "parque", "extrude": false}}, {"type": "Feature", "geometry": {"type": "Polygon", "coordinates": [[[-253.9480254167779, 332.75394182202945], [-258.54867030553646, 349.22930182195944], [-262.0725685184542, 348.22742182211596], [-260.31061941199533, 340.65766182224434], [-257.37403756812904, 328.5237818220314], [-255.22054421575183, 327.8558618221358], [-254.92688603140002, 328.6351018221458], [-247.29177323720867, 335.9822218221841], [-248.955836282101, 337.76334182203755], [-253.9480254167779, 332.75394182202945]]]}, "properties": {"name": "", "kind": "garden", "category": "parque", "extrude": false}}, {"type": "Feature", "geometry": {"type": "Polygon", "coordinates": [[[-285.95676751599797, 299.0239818221595], [-268.92459282115647, 314.7201018220794], [-267.9457322065344, 318.5049818220152], [-267.55418796061605, 320.06346182203526], [-267.65207402218255, 320.9540218221598], [-267.84784614496783, 322.1785418222321], [-268.14150432931973, 323.73702182225213], [-268.6309346368046, 325.07286182204336], [-268.8267067595899, 326.0747418222823], [-269.21825100550836, 327.07662182212573], [-270.8823140504006, 326.18606182200125], [-270.5886558660487, 324.9615418223244], [-270.5886558660487, 323.4030618223044], [-270.78442798883407, 321.7332618221698], [-271.17597223475246, 320.39742182198313], [-271.66540254223736, 319.1729018223063], [-272.3506049725076, 318.05970182195296], [-273.3294655871297, 316.7238618221617], [-274.4062122633183, 315.7219818223183], [-275.2871868163739, 314.7201018220794], [-275.97238924664407, 314.0521818221838], [-276.85336379969965, 313.3842618222882], [-281.25823656567286, 309.37674182212345], [-283.41172991805007, 311.6031418220392], [-285.17367902450894, 313.4955818220071], [-285.8588814547792, 314.27482182201715], [-286.64196994626815, 315.83330182203724], [-288.79546329864536, 316.0559418222661], [-289.08912148299726, 314.9427418223082], [-289.48066572891565, 313.94086182206934], [-290.1658681591859, 312.9389818222259], [-290.9489566510226, 311.3805018222058], [-291.73204514251165, 310.1559818221335], [-292.3193615115631, 309.26542182200905], [-293.4939942489705, 307.1503418222078], [-285.95676751599797, 299.0239818221595]]]}, "properties": {"name": "", "kind": "garden", "category": "parque", "extrude": false}}, {"type": "Feature", "geometry": {"type": "Polygon", "coordinates": [[[-213.1295377856114, 280.6561818222616], [-196.19524915198872, 294.7938218221614], [-221.35196694850643, 324.9615418223244], [-238.28625558212914, 310.82390182202914], [-213.1295377856114, 280.6561818222616]]]}, "properties": {"name": "", "kind": "pitch", "category": "parque", "extrude": false}}, {"type": "Feature", "geometry": {"type": "Polygon", "coordinates": [[[407.46809190843413, 207.18498182227464], [411.77507861284084, 202.28690182198548], [412.7539392274629, 201.17370182202762], [414.22223014956995, 199.50390182228858], [419.01864716146156, 193.82658182198938], [421.3679126366241, 191.26622182212586], [421.75945688254245, 190.93226182217805], [427.43684844748964, 198.72466182227853], [424.30449448049035, 202.62086182232878], [414.02645802643684, 214.97738182197963], [412.26450892032574, 216.98114182206197], [409.91524344516324, 219.8754618222688], [404.4336240030014, 210.63590182226264], [407.46809190843413, 207.18498182227464]]]}, "properties": {"name": "", "kind": "scrub", "category": "parque", "extrude": false}}, {"type": "Feature", "geometry": {"type": "Polygon", "coordinates": [[[420.2911659604355, 190.26434182228243], [417.74612836213987, 188.03794182197123], [416.86515380908435, 187.25870182196118], [417.45247017778803, 186.59078182206557], [414.80954651827363, 184.36438182214985], [416.08206531724755, 182.80590182212975], [416.37572350194716, 183.251181822192], [421.75945688254245, 190.93226182217805], [421.3679126366241, 191.26622182212586], [420.2911659604355, 190.26434182228243]]]}, "properties": {"name": "", "kind": "garden", "category": "parque", "extrude": false}}, {"type": "Feature", "geometry": {"type": "Polygon", "coordinates": [[[389.6528287217559, 175.90406182215375], [397.38582757751374, 182.58326182229638], [400.5181815441653, 185.58890182222214], [393.3724990574589, 193.49262182204157], [385.83527232448637, 180.1342218221518], [389.6528287217559, 175.90406182215375]]]}, "properties": {"name": "", "kind": "scrub", "category": "parque", "extrude": false}}, {"type": "Feature", "geometry": {"type": "Polygon", "coordinates": [[[493.60782599830696, 227.77918182208822], [488.81140898641536, 222.6584618219657], [489.00718110954836, 222.4358218221323], [493.80359812143996, 217.4264218221242], [490.67124415444067, 212.30570182200168], [489.5944974782521, 213.3075818222406], [486.85368775717114, 208.52082182206587], [484.89596652792693, 205.06990182207787], [479.80589133168354, 196.16430182201952], [476.67353736468425, 190.37566182200138], [473.83484158238446, 185.03230182204547], [470.21305730790027, 178.79838182196508], [465.3187542347899, 187.3700218220756], [464.829323927305, 188.2605818222001], [457.29209719468014, 183.5851418221398], [453.57242685897717, 189.59642182199133], [450.4400728919779, 184.92098182232652], [447.50349104811164, 180.57950182221404], [441.82609948281674, 172.78710182211356], [442.4134158518682, 172.11918182221794], [444.95845344981603, 169.22486182201112], [446.8182886178414, 167.10978182220984], [449.0696680314374, 164.66074182206526], [451.6147056293853, 161.87774182197288], [458.858274178006, 153.97402182215345], [454.3555153504662, 149.96650182198877], [453.96397110454785, 149.52122182232202], [451.71259169095185, 147.96274182230192], [448.77600984708556, 145.62502182227178], [439.18317582330235, 156.08910182195473], [438.4979733930321, 156.08910182195473], [432.4290375821666, 151.3023418221755], [429.3945696767338, 148.96462182214535], [428.61148118489706, 148.40802182196867], [433.5057842583552, 141.9514618220549], [436.34448004100267, 136.71942182221343], [460.52233722289833, 142.17410182228377], [480.3932077003872, 146.6269018221152], [487.4410041258748, 148.1853818221353], [502.5154575918199, 151.19102182206106], [503.2985460836567, 151.20814797607693], [503.2985460836567, 154.43022893855598], [499.0894454404688, 154.7532618221635], [503.2985460836567, 162.47275506192366], [503.2985460836567, 185.71034182184363], [501.14505273127946, 186.92474182201337], [496.6422939037397, 189.26246182204352], [501.5365969771978, 199.05862182222634], [503.2006600220901, 201.28502182214206], [503.2985460836567, 201.3209314997259], [503.2985460836567, 224.55615276551057], [493.60782599830696, 227.77918182208822]]]}, "properties": {"name": "", "kind": "scrub", "category": "parque", "extrude": false}}, {"type": "Feature", "geometry": {"type": "Polygon", "coordinates": [[[281.68450292480225, 152.41554182213335], [288.7322993502899, 154.97590182199687], [288.9280714730752, 165.32866182196088], [281.19507261731735, 171.45126182232232], [271.30858040918224, 159.98530182200497], [281.68450292480225, 152.41554182213335]]]}, "properties": {"name": "", "kind": "playground", "category": "parque", "extrude": false}}, {"type": "Feature", "geometry": {"type": "Polygon", "coordinates": [[[376.82975466940684, 151.19102182206106], [385.15006989421613, 142.17410182228377], [386.61836081632316, 143.84390182202281], [385.6395002013533, 144.62314182203286], [390.72957539759676, 150.85706182211325], [387.1077911234603, 154.86458182227793], [382.6050322959205, 159.7626618221716], [379.96210863640613, 162.65698182198292], [377.4170710384583, 165.4399818220753], [371.2502491660262, 157.09098182219364], [376.82975466940684, 151.19102182206106]]]}, "properties": {"name": "", "kind": "scrub", "category": "parque", "extrude": false}}, {"type": "Feature", "geometry": {"type": "Polygon", "coordinates": [[[266.12061915172006, 97.20082182232531], [269.74240342585654, 95.86498182213859], [274.4409343761816, 94.75178182218073], [273.65784588434485, 107.7762218221227], [266.12061915172006, 97.20082182232531]]]}, "properties": {"name": "", "kind": "garden", "category": "parque", "extrude": false}}, {"type": "Feature", "geometry": {"type": "Polygon", "coordinates": [[[-241.7122677334803, 257.27898182196014], [-261.28948002661735, 280.878821822095], [-268.14150432931973, 275.2015018221913], [-248.46640597461607, 251.60166182205643], [-241.7122677334803, 257.27898182196014]]]}, "properties": {"name": "", "kind": "garden", "category": "parque", "extrude": false}}, {"type": "Feature", "geometry": {"type": "Polygon", "coordinates": [[[-271.76328860345615, 245.5903818222049], [-285.17367902450894, 261.5091418219582], [-292.0257033268635, 255.83182182205448], [-278.6153129061585, 239.80174182218676], [-271.76328860345615, 245.5903818222049]]]}, "properties": {"name": "", "kind": "garden", "category": "parque", "extrude": false}}, {"type": "Feature", "geometry": {"type": "Polygon", "coordinates": [[[-233.48983857058528, 228.00182182231708], [-243.08267259402072, 239.69042182207232], [-247.48754535999396, 236.01686182225095], [-237.796825274992, 224.43958182221465], [-233.48983857058528, 228.00182182231708]]]}, "properties": {"name": "", "kind": "garden", "category": "parque", "extrude": false}}, {"type": "Feature", "geometry": {"type": "Polygon", "coordinates": [[[-272.6442631568595, 228.3357818222649], [-293.7876524333223, 210.74722182198158], [-299.7587021829691, 204.51330182229668], [-298.779841568347, 203.06614182199553], [-296.6263482159698, 202.3982218220999], [-290.4595263435377, 202.28690182198548], [-286.83774206940126, 202.28690182198548], [-280.37726201261734, 201.95294182203767], [-272.6442631568595, 202.28690182198548], [-265.20492248545344, 202.17558182226654], [-258.2550121211846, 201.61898182208986], [-254.24168360112975, 200.1718218221842], [-251.6966460031819, 199.50390182228858], [-248.66217809774915, 199.39258182217415], [-272.6442631568595, 228.3357818222649]]]}, "properties": {"name": "", "kind": "garden", "category": "parque", "extrude": false}}, {"type": "Feature", "geometry": {"type": "Polygon", "coordinates": [[[253.29754509971875, 92.63670182198396], [245.95609048953148, 98.98194182217878], [240.18081286301782, 92.30274182203615], [227.35773881101647, 77.27454182201186], [242.92162258409874, 62.13502182226861], [253.78697540685587, 72.82174182218043], [267.19736582790864, 86.73674182224687], [262.49883487723577, 87.84994182220473], [253.29754509971875, 92.63670182198396]]]}, "properties": {"name": "", "kind": "park", "category": "parque", "extrude": false}}, {"type": "Feature", "geometry": {"type": "Polygon", "coordinates": [[[501.9281412231163, -58.64717817770696], [477.456625856521, -79.24137817791603], [503.2985460836567, -109.96104368331345], [503.2985460836567, -60.281681592217495], [501.9281412231163, -58.64717817770696]]]}, "properties": {"name": "", "kind": "pitch", "category": "parque", "extrude": false}}, {"type": "Feature", "geometry": {"type": "Polygon", "coordinates": [[[-158.70488761060685, -235.20069817766725], [-168.49349375717537, -239.87613817772754], [-163.9907349296356, -246.6666581779846], [-155.0831033361226, -240.6553781777376], [-158.70488761060685, -235.20069817766725]]]}, "properties": {"name": "", "kind": "playground", "category": "parque", "extrude": false}}, {"type": "Feature", "geometry": {"type": "Polygon", "coordinates": [[[-183.86160540712456, -259.02317817803095], [-197.66354007374795, -239.65349817789416], [-200.20857767204356, -241.6572581779765], [-186.700301189772, -261.0269381777178], [-183.86160540712456, -259.02317817803095]]]}, "properties": {"name": "", "kind": "pitch", "category": "parque", "extrude": false}}, {"type": "Feature", "geometry": {"type": "Polygon", "coordinates": [[[328.0824960596972, -271.1570581778484], [315.4551941304812, -251.6760581779927], [311.53975167164504, -251.56473817787827], [290.8857927023194, -269.4872581777139], [290.9836787638859, -273.94005817794084], [305.2750437379942, -290.3040981777564], [311.34397954885975, -290.4154181778708], [327.10363544472733, -276.27777817797096], [328.0824960596972, -271.1570581778484]]]}, "properties": {"name": "", "kind": "park", "category": "parque", "extrude": false}}, {"type": "Feature", "geometry": {"type": "Polygon", "coordinates": [[[-6.492062030787794, -324.70197817791745], [-31.06146345894958, -304.77569817799946], [-59.350535222466604, -339.50753817771283], [-50.37764625445999, -346.85465817814656], [-24.540000073405775, -346.85465817814656], [-6.492062030787794, -324.70197817791745]]]}, "properties": {"name": "", "kind": "pitch", "category": "parque", "extrude": false}}, {"type": "Feature", "geometry": {"type": "Polygon", "coordinates": [[[-187.18973149690916, -261.47221817778006], [-200.99166616388032, -242.10253817803874], [-203.63458982339472, -244.1062981777256], [-190.02842727955664, -263.5872981779768], [-187.18973149690916, -261.47221817778006]]]}, "properties": {"name": "", "kind": "pitch", "category": "parque", "extrude": false}}]}