{"type": "FeatureCollection", "crs": {"type": "name", "properties": {"name": "EPSG:32628_local_enu_m_section_centroid", "lng0": -16.280996308141717, "lat0": 28.472533170906175}}, "features": [{"type": "Feature", "geometry": {"type": "Polygon", "coordinates": [[[1.2381088857025546, -52.20537731239326], [1.2382245085612666, -52.20533546122545], [-12.751906002231205, -16.034577599176632], [-4.293089585922291, -12.731253759350487], [6.002458663819, -8.654871579727304], [20.416316257226413, -45.71695506114641], [45.07462835577609, -107.99067919390995], [35.50466096515141, -107.74875101101759], [35.4213541283406, -107.53213472470424], [27.009130390233388, -107.53213472470424], [20.579590596058036, -102.16074960758725], [2.6033706224849116, -55.73158897304541], [1.3670873404973278, -52.53850415468074], [1.2381088857025546, -52.20537731239326]]]}, "properties": {"id": 0, "height_median_m": 12.0, "building_count": 2, "area_m2": 2071.454330551535}}, {"type": "Feature", "geometry": {"type": "Polygon", "coordinates": [[[11.705490433672251, -6.459805680002232], [21.82320815232595, -2.623176525062539], [30.76475992379332, 0.921571055734919], [43.69098253279228, -33.938142203461915], [44.88404888311499, -37.155629023044625], [45.006786351780114, -37.48663005043271], [45.00593519146245, -37.48692545715937], [70.15456867125788, -105.8368686809886], [62.41767853157958, -108.53598450676041], [52.04306147356895, -108.19223298923097], [26.713071960510813, -43.525281709350836], [11.705490433672251, -6.459805680002232]]]}, "properties": {"id": 1, "height_median_m": 12.0, "building_count": 2, "area_m2": 2134.000736739167}}, {"type": "Feature", "geometry": {"type": "Polygon", "coordinates": [[[-172.53332546629863, 2.3394106278992592], [-171.8563486803136, -0.2276790515944048], [-171.66107471361917, -1.0051799722417938], [-170.77222744062814, -4.2408605459267035], [-170.76495394374479, -4.239205683972042], [-170.68252097898937, -4.567419971913509], [-170.58662230820656, -4.916520965439524], [-170.594397876101, -4.918290058310635], [-169.81504055799812, -8.021371549702637], [-174.59383361506428, -9.315738610752264], [-177.42070551423564, 1.0464176244656698], [-172.53332546629863, 2.3394106278992592]]]}, "properties": {"id": 2, "height_median_m": 9.0, "building_count": 2, "area_m2": 53.79761967626503}}, {"type": "Feature", "geometry": {"type": "Polygon", "coordinates": [[[17.301806283, 109.754606606], [16.324463339, 112.534163126], [17.41069873, 112.997550008], [30.633332782, 118.467379691], [31.88740102, 115.899455534], [32.16773258, 114.783290133], [34.361085555, 108.961268266], [34.778363237, 109.119499575], [37.799376587, 100.996399081], [38.409765868, 99.355144013], [45.534254188, 80.19834863], [51.328002692, 82.834729491], [48.719568557, 89.67611377], [48.93511429, 89.798715882], [47.946741336, 92.398822239], [47.619449652, 93.217939675], [47.386998284, 93.799698937], [46.379460818, 96.521856993], [44.597463236, 101.20974654], [44.546500222, 101.188212827], [44.423225965, 101.528787066], [43.835489889, 102.977435394], [43.835489889, 102.977435396], [43.835489887, 102.9774354], [43.05158555, 105.20685387], [42.931456529, 105.519216018], [42.983892207, 105.541192585], [40.690430167, 111.361349863], [38.151459207, 117.804539267], [38.151459206, 117.804539269], [38.111475226, 117.98648193], [38.149634126, 118.004240345], [38.05349352, 118.250321236], [34.666760285, 126.918982378], [34.538928096, 127.246180846], [34.538928089, 127.246180866], [34.412017092, 127.571021458], [34.438869215, 127.581203758], [33.236490801, 130.579891175], [31.580173871, 134.819389599], [31.541536555, 134.807044553], [30.968422566, 136.236369703], [29.650041642, 139.481300089], [29.506860847, 139.807064236], [29.516973955, 139.811031354], [27.985928997, 143.601817327], [25.639390698, 149.385550751], [25.401183864, 149.927517611], [27.533886223, 150.837326208], [23.939253813, 159.621627716], [33.622279813, 163.549593882], [36.892268165, 164.876080417], [37.209283831, 165.00467935], [37.209640961, 165.003821668], [49.727944059, 170.042869269], [50.689977123, 169.730181803], [54.926138566, 159.106377071], [54.930166536, 159.1080063], [55.057210468, 158.777663847], [55.18541013, 158.456153868], [55.181470427, 158.454560341], [57.109993963, 153.439970634], [57.208497386, 153.215856196], [57.646290369, 152.045480816], [58.857646339, 148.895686132], [58.984097625, 148.930819769], [60.447819223, 145.134333382], [61.380832099, 142.714357692], [61.380832103, 142.714357682], [64.135960877, 135.568320554], [64.159566044, 135.541467381], [64.170140506, 135.481319991], [69.605667808, 122.083865139], [69.332054142, 121.914877879], [70.935355657, 117.680798001], [71.198475147, 117.156981004], [71.788783006, 115.590071664], [72.010286701, 115.086107693], [72.010286701, 114.969561683], [73.704934867, 110.792603121], [73.727164003, 110.801798686], [73.846751187, 110.461693569], [75.952407652, 105.328717305], [75.980474354, 105.339619754], [76.097118709, 105.007884022], [76.231135107, 104.68603103], [76.112360113, 104.639893142], [76.974634775, 102.678050639], [77.667733614, 100.875839653], [77.667733615, 100.87583965], [79.037708844, 97.31359965], [79.233480109, 96.645473113], [80.897021458, 92.303993113], [81.092201501, 91.637884296], [82.847472625, 87.200569772], [84.319674714, 83.516069189], [84.709282394, 82.297223509], [84.899743185, 81.86388818], [86.390186574, 78.173629534], [86.804147681, 77.148683827], [87.642961231, 74.953950327], [89.099971, 71.337607962], [90.357822751, 67.939152432], [90.462997374, 67.981883274], [90.922460693, 66.936514894], [92.508960438, 62.123721062], [93.200274159, 62.348417223], [94.821867863, 58.131913276], [94.751291818, 58.108974101], [97.067232486, 52.137196772], [96.472709864, 51.911754346], [97.723855649, 48.455168736], [99.286981209, 44.454202359], [100.561823517, 41.330571781], [101.445721583, 38.76090962], [102.438838301, 35.873727775], [91.534066485, 31.968375067], [90.362928244, 31.635304168], [86.856419343, 30.305639252], [88.905828956, 24.496242459], [91.831379717, 25.383735362], [91.999346326, 24.952161856], [100.014765636, 27.843336064], [103.089928629, 29.009435012], [106.943063413, 27.113947278], [106.985109873, 27.093263197], [106.985109874, 27.093263197], [107.122991963, 26.622700356], [108.725333399, 22.247934396], [108.969775353, 22.323773437], [112.700580986, 9.591311194], [113.285377262, 8.011312488], [113.284077142, 8.010840463], [114.360541327, 5.036854015], [115.826857419, 1.03346898], [116.220360174, 0.026261799], [116.416765514, -0.569551981], [112.417022579, -1.981650867], [112.701004061, -2.911188773], [103.489938561, -6.430679054], [102.867990849, -6.666521049], [102.28112839, -5.108757156], [87.406978307, -10.786128042], [75.804669548, 20.048892296], [82.857409443, 22.449528005], [73.88471852, 25.851964067], [72.265819654, 26.465849012], [69.972664088, 32.878872148], [69.921804655, 32.7824429], [66.329068591, 43.185935882], [67.713428681, 43.758606492], [68.010664007, 43.874538176], [71.151727567, 45.099657655], [71.481271212, 45.22819066], [71.481999781, 45.226072571], [80.72345787, 48.765121446], [79.343433364, 52.414106164], [77.373330326, 57.586418576], [72.828175461, 55.92793851], [68.59650005, 54.228900105], [68.602758436, 54.212287886], [67.098196002, 53.685646031], [66.777992286, 53.529533379], [66.714139253, 53.689339251], [63.1249804, 52.204605758], [62.658910047, 53.662656676], [61.350723432, 57.116173918], [61.230850496, 57.430867268], [61.231999799, 57.431342702], [59.591001589, 61.787197673], [58.056742616, 65.688610129], [58.044593772, 65.683803002], [57.926039839, 66.020969562], [57.926039834, 66.020969575], [57.812222984, 66.344663903], [57.853863034, 66.361140287], [57.142361312, 68.249745828], [53.732785076, 77.946556878], [52.732778128, 77.775868581], [52.732778128, 76.959292888], [47.420555355, 74.944902948], [49.281837779, 70.357225275], [48.59773811, 70.357225275], [50.16569764, 65.600674903], [50.559477672, 64.704748769], [50.657333046, 64.370788769], [50.78409695, 64.08237624], [52.17078545, 60.595562846], [52.153635056, 60.589507944], [53.650314662, 56.697808409], [54.825741025, 53.780364584], [54.844371236, 53.786941932], [55.797185376, 51.154567925], [56.300094076, 51.336189365], [57.99459812, 47.119426387], [58.188449153, 46.568115402], [58.284258445, 46.350130634], [61.385380606, 38.286523953], [61.502230812, 38.419452421], [65.578966578, 27.984665131], [67.827584802, 28.81181179], [64.532756516, 22.564832674], [64.485147558, 22.47456631], [64.150068344, 21.839257678], [64.056003328, 21.660910844], [63.884522531, 21.33578405], [52.509888412, 16.947520309], [49.596118479, 15.800125349], [49.407684141, 16.55039367], [47.479536207, 15.819241766], [44.506724143, 14.691954194], [40.632440931, 13.222829601], [38.949083822, 13.940947984], [37.951572997, 14.281377644], [37.222456217, 14.696098252], [34.830222599, 21.440433153], [35.019897647, 21.548320056], [32.475657937, 28.227520056], [33.664258842, 28.903594591], [30.452208996, 37.531139328], [29.004857521, 36.976339403], [28.572982907, 37.958938116], [26.312846765, 44.036141653], [26.587451043, 44.192336183], [24.15841695, 50.603104978], [24.274893249, 50.669356535], [20.816913992, 59.957466053], [20.816913992, 60.396164844], [21.838553344, 60.686718364], [34.30977563, 65.50762098], [32.820924359, 69.636046551], [31.113192472, 74.268665169], [21.380130878, 70.48787853], [19.991896763, 70.057173641], [16.834014311, 77.357854], [15.794965543, 79.721891963], [17.158712017, 80.135597079], [20.545057264, 81.495231283], [20.85986438, 81.626543305], [20.861075816, 81.623787052], [27.198767483, 84.160547553], [23.995568228, 92.42016878], [23.985278845, 92.416657228], [23.872095642, 92.73854947], [23.742251502, 93.073359554], [23.760317663, 93.079525158], [20.644350764, 101.083720898], [20.057083846, 102.642558384], [18.981795984, 105.42265946], [17.639115967, 108.884835479], [17.631668853, 108.88201154], [17.512076958, 109.212412384], [17.301806283, 109.754606606]]]}, "properties": {"id": 3, "height_median_m": 9.0, "building_count": 178, "area_m2": 7861.465833970961}}, {"type": "Feature", "geometry": {"type": "Polygon", "coordinates": [[[85.401538869, 101.560211415], [85.218643386, 102.028349545], [82.459005464, 109.091901457], [82.936415695, 109.272934973], [81.704621362, 112.77614947], [79.734288672, 117.856758077], [79.295247829, 117.656977422], [75.335612733, 127.969842589], [75.44073861, 128.029638041], [72.637124298, 135.046282453], [72.623326006, 135.041050154], [72.506807102, 135.372429106], [72.377353278, 135.696414985], [72.391060154, 135.70161262], [70.861524909, 140.051600194], [69.865178032, 142.718521204], [69.73883141, 143.047050496], [69.742000148, 143.048231362], [68.080639708, 147.495193726], [76.325281412, 150.737345325], [81.47405201, 152.829212138], [79.69354637, 157.386583204], [77.95392736, 161.728474478], [64.801918955, 156.408763157], [62.231518841, 163.426555164], [59.862033975, 169.755165874], [73.050933077, 175.1296094], [70.818810455, 181.00163999], [73.683222966, 182.129598805], [83.673684436, 186.180533062], [85.625953568, 185.657969316], [87.530142296, 180.474562682], [88.544117859, 177.714412083], [86.314370654, 176.784342208], [89.177311219, 169.354600211], [91.459785699, 170.247159668], [91.660913388, 169.560752774], [91.660913391, 169.560752766], [91.783815339, 169.141314027], [91.818479991, 169.154458831], [92.997762697, 166.113615071], [93.005209811, 166.11643901], [93.124801706, 165.786038167], [93.250872921, 165.460956772], [93.228427281, 165.452445406], [95.179591507, 160.220439233], [99.01942441, 150.104646549], [97.233691819, 149.384640933], [100.63534828, 140.252113758], [103.075112494, 141.177270082], [104.610308631, 137.281376968], [104.411588893, 137.216787534], [106.773966692, 131.125269567], [106.281837025, 131.0133005], [108.642531419, 124.794203035], [109.858714866, 121.590246006], [109.985460193, 121.256343598], [109.984813532, 121.256119708], [117.634946518, 100.98637703], [116.315697589, 97.484571255], [101.849521182, 99.470722524], [101.791936222, 99.143180076], [91.192105564, 100.70629794], [90.370026764, 100.827526863], [85.401538869, 101.560211415]]]}, "properties": {"id": 4, "height_median_m": 9.0, "building_count": 60, "area_m2": 2346.830246419698}}, {"type": "Feature", "geometry": {"type": "Polygon", "coordinates": [[[97.785698885, 173.039026021], [96.79163987, 175.698025275], [96.40985233, 176.719265231], [92.87967448, 186.162105276], [93.626535418, 186.162105276], [92.841334723, 188.484534793], [94.180238637, 188.919715753], [93.795008082, 189.796190164], [98.709791272, 191.616529958], [98.709791272, 192.323850965], [99.271093315, 190.904882878], [108.646366054, 194.459977586], [108.295441566, 195.358201704], [112.991782955, 197.250353011], [112.989144651, 197.257061861], [113.317070305, 197.381410964], [113.641088039, 197.511957389], [113.645690916, 197.500252898], [120.675254487, 200.322657104], [123.677923892, 199.310559817], [123.677923892, 198.523229454], [124.180200835, 197.951840602], [124.345084621, 197.389126598], [124.630684678, 196.631031664], [124.826395425, 196.185751664], [127.386944945, 189.389045679], [128.786021034, 190.071153561], [129.581957381, 188.260243624], [130.208231772, 186.612707621], [130.351147591, 186.287546347], [130.334346167, 186.280939296], [131.912649831, 182.128906024], [130.399295074, 181.698508985], [132.26412789, 176.925294608], [132.743630767, 175.75640646], [134.027567804, 172.46829558], [134.188301592, 172.102594961], [135.496310073, 168.568626309], [135.787547368, 167.79556793], [137.577490309, 163.46857047], [137.671242298, 163.50548847], [137.671242298, 163.05524703], [137.770342967, 162.792194858], [137.736259785, 162.778773458], [140.288173805, 156.220030249], [141.047399592, 154.384682328], [141.14905777, 154.269036268], [141.589728171, 153.099323624], [139.297422824, 152.261127855], [142.201018482, 143.552896273], [146.231787055, 145.316508229], [147.409393823, 142.079039636], [147.554635018, 142.138048914], [147.554635018, 141.734907739], [148.31515843, 139.62605754], [148.439143519, 139.308706084], [148.43082503, 139.305326409], [150.002267863, 134.947883257], [148.732205764, 134.503323533], [154.141621042, 119.78786851], [155.362281057, 116.467256832], [155.481108947, 116.144004433], [155.480728886, 116.143860314], [157.807544694, 109.791110293], [159.104366917, 106.348833821], [157.640532298, 105.793749094], [157.642812134, 105.78791364], [157.307106298, 105.667314264], [156.985977119, 105.545542378], [156.983781364, 105.551162619], [151.730677799, 103.664031261], [148.035893708, 102.228800404], [148.039874858, 102.217154546], [147.716918849, 102.104895313], [144.567040545, 100.881331926], [145.795016122, 97.550163513], [142.761499544, 96.436963513], [144.124067528, 92.740681998], [137.702926782, 93.900153713], [137.605047208, 93.343416061], [128.471682615, 94.99638494], [127.079032985, 97.900887889], [127.697058887, 98.25242016], [124.622882221, 106.475506859], [123.268585483, 110.09525627], [123.270072673, 110.095820211], [122.194713161, 112.987317987], [122.227672571, 113.000145064], [119.892292524, 119.346758323], [119.307287907, 119.124925116], [115.586792079, 129.037711577], [115.561808502, 129.028699962], [115.460826104, 129.373331847], [114.669381318, 131.482035504], [113.806168637, 133.691509268], [113.511510485, 134.36191385], [112.222956205, 137.817145276], [112.018122064, 137.817145276], [112.018122064, 138.204942859], [111.456374, 139.483028921], [110.673531012, 141.598108921], [110.575168155, 141.821903545], [109.908727943, 143.663101968], [109.767448474, 143.823821098], [109.767448474, 144.104902859], [109.206966084, 145.380109267], [108.397473245, 147.452082058], [108.397473245, 147.561048868], [106.976568133, 151.063287205], [106.973728697, 151.062124357], [106.85601716, 151.396895149], [106.661869487, 151.838618853], [105.191012247, 155.742852734], [104.868190586, 156.587507084], [104.705916867, 156.956711344], [101.706650177, 164.538838951], [100.181827057, 168.875425275], [100.083971683, 168.875425275], [99.614719515, 170.20997517], [98.956875009, 171.706699328], [97.785698885, 173.039026021]]]}, "properties": {"id": 5, "height_median_m": 9.0, "building_count": 75, "area_m2": 3311.824295541443}}, {"type": "Feature", "geometry": {"type": "Polygon", "coordinates": [[[114.137337511, 23.927029156], [114.942267995, 24.176761885], [113.174133047, 28.834799624], [115.271329287, 36.257178366], [108.664678017, 39.507214284], [104.577929649, 50.316310283], [105.166211945, 50.539386383], [102.61559379, 57.358090221], [102.57208329, 57.34159108], [102.451320714, 57.669187561], [102.158212567, 58.410163141], [100.005133369, 64.125282555], [99.879728116, 64.446269053], [99.902622999, 64.45546146], [98.701087657, 67.579720327], [97.456690587, 70.815429209], [97.333718014, 71.135185223], [97.335990262, 71.136025317], [95.284415873, 76.58171103], [96.646840096, 77.128731029], [95.179546022, 80.689668945], [107.298799938, 85.859729993], [104.662440366, 92.185988823], [110.703952447, 91.269614517], [110.70225089, 91.287035697], [111.154865097, 91.201220254], [111.417859847, 91.161329308], [111.424809125, 91.090179998], [115.061290777, 90.534483543], [115.324178079, 90.49710106], [115.324535263, 90.494256741], [121.707228761, 89.518907354], [122.077493558, 89.23809922], [123.153902666, 88.34753922], [123.513936936, 88.074489898], [123.750452463, 87.536371092], [125.291674596, 83.361871089], [126.000042106, 81.750197282], [128.033293879, 76.493330128], [128.039098002, 76.495370979], [128.15683877, 76.173911211], [128.28593087, 75.840150273], [128.268913848, 75.834166731], [130.832055105, 69.065293425], [132.071584894, 65.81975504], [132.197301076, 65.492865032], [132.195856822, 65.492329278], [134.056601247, 60.590317835], [131.811693968, 59.787694896], [134.191459467, 53.370593631], [136.478771021, 54.209267438], [137.588225765, 51.286480311], [137.631074199, 51.404278936], [137.945309697, 50.451016464], [137.987535686, 50.33646868], [137.985192756, 50.330027513], [138.943559919, 47.422732015], [136.537885375, 46.771139478], [126.074311087, 43.545002515], [122.971101486, 42.564390684], [124.656663562, 35.533591385], [129.113209374, 36.966347976], [132.629723882, 27.854377916], [132.63387454, 27.855951842], [132.755800112, 27.52768999], [132.881757041, 27.201311195], [132.877610311, 27.199738759], [134.476235433, 22.89573892], [135.692931889, 19.620010746], [135.813271515, 19.296018759], [135.812899306, 19.295877618], [139.729249803, 8.714707779], [136.008041965, 7.377896518], [136.011742894, 7.367640985], [133.229188442, 6.463233504], [133.55316829, 5.480410645], [124.600541924, 2.319709089], [121.784859322, 3.30528222], [119.944407315, 8.268110241], [119.944407315, 8.268110242], [119.238152715, 10.172544644], [114.137337511, 23.927029156]]]}, "properties": {"id": 6, "height_median_m": 9.0, "building_count": 47, "area_m2": 2071.2005412015515}}, {"type": "Feature", "geometry": {"type": "Polygon", "coordinates": [[[134.847205638, -1.266929701], [137.985152214, -0.374499883], [137.772159184, 0.352400949], [141.663897735, 1.693986078], [141.856409942, 1.036982028], [142.694256925, 1.354692825], [143.134734303, 0.352521151], [145.673951135, 0.808616833], [163.677679424, 4.147908861], [164.604890337, 4.323707619], [167.021048847, -7.816009446], [168.616156252, -15.82155276], [171.955279247, -15.151215641], [171.963674085, -15.202502378], [177.922562571, -14.040419819], [177.935137692, -14.114331169], [183.622993515, -12.99872963], [184.017105985, -12.886644318], [186.123144557, -12.50835638], [187.755600806, -12.215133589], [193.587801637, -11.267319959], [193.566725095, -11.159425191], [198.885057295, -10.29512235], [197.19189228, 0.224564248], [196.947857772, 1.674320899], [196.371904738, 5.0959343], [196.31545987, 5.431261149], [196.318348316, 5.431709225], [195.731614472, 9.102776541], [197.777549549, 9.435269404], [197.776401748, 9.441425012], [198.134133034, 9.493219172], [198.4686716, 9.547586335], [198.469748441, 9.541811282], [203.858556615, 10.322030411], [205.592651624, -0.141865282], [206.166937518, -3.607227711], [206.22247445, -3.942349291], [206.214432441, -3.943688106], [207.325540512, -10.769252704], [207.828425128, -13.725000074], [208.107046067, -15.309792091], [208.3528306, -16.707811093], [208.415714084, -17.065491471], [208.709531632, -18.848136928], [209.8426748, -25.645001429], [197.798087273, -27.819904475], [197.806578001, -27.870614373], [192.326156117, -28.87258962], [192.327278377, -28.879356021], [191.984091366, -28.935128676], [191.639005079, -28.998220154], [191.637843016, -28.991398842], [186.504299981, -29.825670877], [183.828380086, -30.316657814], [180.429895326, -30.940223425], [177.750733927, -31.431805124], [174.368171855, -32.052594815], [174.026000027, -32.121286648], [174.024711747, -32.113714673], [169.383292944, -32.941960177], [166.692656471, -33.452103602], [166.688987366, -33.432724486], [158.190385651, -34.992077004], [158.194695087, -35.012299412], [157.826584641, -35.058828458], [157.500023501, -35.118747013], [157.478140375, -35.013638238], [152.554790353, -35.947103114], [148.895583848, -36.657808525], [148.90085482, -36.681793498], [148.532126355, -36.728400662], [148.208218629, -36.791311288], [148.185245897, -36.686776427], [140.137155758, -38.18991574], [138.14102487, -37.559139925], [135.234932156, -30.947213989], [129.718296894, -38.188416553], [129.735747568, -38.217930789], [129.561833644, -38.393792118], [128.858155873, -39.317448122], [123.050510761, -40.564006779], [112.354213075, -21.393543603], [117.766369087, -19.341259073], [117.712709136, -19.247898562], [118.044596507, -19.153510025], [118.295141303, -18.868490965], [118.41046198, -19.063532246], [120.693507013, -18.10667437], [120.699191221, -18.122301357], [128.549832256, -15.251665423], [127.670481136, -13.167608376], [127.672350036, -13.166715433], [125.307719868, -7.463922459], [126.369394979, -3.478318927], [132.377929546, -1.920910584], [134.293788065, -1.424321273], [134.870097001, -1.274942363], [134.847205638, -1.266929701]]]}, "properties": {"id": 7, "height_median_m": 9.0, "building_count": 44, "area_m2": 2574.0166934287076}}, {"type": "Feature", "geometry": {"type": "Polygon", "coordinates": [[[-1.2798440805275273, 68.16409333710337], [-12.045543563361162, 64.15597452177288], [-6.469019436528941, 49.13109434349949], [-14.95046506984651, 45.87473608881527], [-23.415637418782637, 68.57391917420036], [-4.169252025517964, 75.83371898753076], [-1.2798440805275273, 68.16409333710337]]]}, "properties": {"id": 8, "height_median_m": 6.0, "building_count": 1, "area_m2": 314.0045449435211}}, {"type": "Feature", "geometry": {"type": "Polygon", "coordinates": [[[3.72043057396511, 146.7313337096429], [16.947918713953996, 151.93159121256923], [17.369021586987028, 152.41063666503987], [21.063336514263, 142.9830875865722], [21.070999061800713, 142.9866535881358], [21.200649846131707, 142.63267669827397], [22.269389687747086, 139.9053517389013], [22.28181630281311, 139.87364016971446], [23.45058779042093, 136.62352838391703], [25.211562274789504, 132.36655909845203], [25.282953917588628, 132.39625709662664], [26.191567991078724, 129.9413696101683], [27.292604190036936, 127.06053747757932], [13.856817914264068, 121.69955157312604], [12.644432663798291, 121.23981621300821], [10.86126490945763, 126.0128201314732], [10.763812667109011, 126.23454292940546], [9.190097741847806, 130.3745046351213], [8.994672850495796, 131.04144907036763], [6.847720613548994, 136.59228288405149], [5.476661143848585, 140.04593404978735], [3.1049027163440583, 146.49792611786268], [3.72043057396511, 146.7313337096429]]]}, "properties": {"id": 9, "height_median_m": 6.0, "building_count": 5, "area_m2": 420.7573097906994}}, {"type": "Feature", "geometry": {"type": "Polygon", "coordinates": [[[-181.0404890093307, 172.21135194001843], [-181.04014352999275, 172.20995388192296], [-172.8686726725738, 174.24008039694232], [-169.10341735215786, 175.21913044316602], [-157.75144539070658, 129.6862476442386], [-129.56093233415712, 136.75239743436885], [-138.78802736832864, 174.80299867053125], [-142.27176230225356, 173.8390044997877], [-142.5719461514492, 174.18049280839634], [-144.6293503575515, 182.84033277472358], [-140.95066001285076, 183.75008666144825], [-137.53501086832202, 184.59478947515456], [-137.20213711961853, 184.6771103987158], [-137.20185453749153, 184.67598527247665], [-131.72075613496273, 186.01211718497848], [-117.7554905142393, 129.5631068148711], [-151.89484699349924, 121.04625665320863], [-152.56396031123987, 123.5472813993476], [-156.35143921882982, 122.57784067447487], [-156.97133022576287, 122.40993917900656], [-157.85247667388285, 122.17127495463279], [-160.2694911429447, 121.57497856221568], [-160.61252916593108, 121.48717476507865], [-160.6132455869702, 121.49017164960779], [-168.39273987700213, 119.570909502296], [-192.5112210528862, 113.58668235186957], [-205.49817392885507, 166.02846434743873], [-184.75677690901801, 171.2718766617558], [-181.3746770071002, 172.12686942126015], [-181.0404890093307, 172.21135194001843]]]}, "properties": {"id": 10, "height_median_m": 9.0, "building_count": 4, "area_m2": 2905.213209445737}}, {"type": "Feature", "geometry": {"type": "Polygon", "coordinates": [[[-221.9106597335134, 245.46719806130199], [-221.75297289954617, 246.72288678291378], [-221.31143051232323, 247.35075851823183], [-220.86814206829933, 247.98111314068157], [-220.02950166777214, 248.3899852754131], [-219.79917235871835, 248.3899852754131], [-211.4771254427912, 250.62380420457936], [-211.47877969793151, 250.62965893002246], [-211.1317485524729, 250.71651089598396], [-210.80099901464436, 250.8052912868996], [-210.7994148202803, 250.79968451994822], [-205.90512777904254, 252.0245845240953], [-194.98691255784408, 212.6929024176002], [-188.48373597696397, 214.05171792566483], [-183.80017325377557, 197.2569104315639], [-198.63914579479814, 193.1507762675844], [-200.05583082889757, 192.92054527527182], [-201.37148987741253, 192.92054527527182], [-202.68535485307973, 193.03551828561135], [-204.1159160815717, 193.38424738510975], [-205.35165110618487, 193.9699843511787], [-206.47007063043603, 194.77963676255584], [-207.47752614957028, 195.69649963383978], [-208.40685306125982, 196.75369933768962], [-208.732508958954, 197.4946298200264], [-221.458573598553, 243.82146389636952], [-221.86441220786128, 245.09108629036925], [-221.86441220786128, 245.29884268137872], [-221.9106597335134, 245.46719806130199]]]}, "properties": {"id": 11, "height_median_m": 9.0, "building_count": 2, "area_m2": 1115.0633922805177}}, {"type": "Feature", "geometry": {"type": "Polygon", "coordinates": [[[42.25206627084762, 5.791347485650684], [55.95443055900788, 10.987271288162336], [55.9419792306187, 11.01965642279248], [68.63527589834356, 15.83294272133256], [89.36321620336398, -39.363400699731365], [90.5810848874738, -42.60645800020052], [90.70484649803895, -42.93602226266815], [90.70451193555766, -42.936143797955054], [117.33792460018167, -114.0756292393023], [115.82985913507339, -118.73217928113228], [104.08105471001846, -115.82665598672331], [104.07863924899432, -115.8202200240498], [85.45550497576976, -111.19142787113857], [84.01167052647565, -110.68604262699617], [62.81847332125097, -52.64508214507061], [41.57967996238128, 5.408895091164977], [42.25206627084762, 5.791347485650684]]]}, "properties": {"id": 12, "height_median_m": 9.0, "building_count": 4, "area_m2": 3959.166803187061}}, {"type": "Feature", "geometry": {"type": "Polygon", "coordinates": [[[126.65836541626436, -48.389134724741574], [127.11255152502945, -48.389134724741574], [134.9710411756552, -46.9523818095458], [134.9506595228514, -46.83065472472148], [135.32894429574466, -46.83065472472148], [135.65175153830117, -46.765078899921875], [135.65845359385122, -46.80671897830622], [140.44414601399586, -45.928623759817306], [140.76382603673133, -45.83770698411698], [147.58331440079607, -44.56244710250749], [147.57119884135685, -44.49293472469133], [147.9550338114918, -44.49293472469133], [148.2565235046111, -44.436555464279394], [148.26416902369994, -44.471345549082685], [152.81437933514664, -43.60862778762096], [153.2586567779127, -43.52260076121596], [160.9287074283215, -42.16279376409839], [161.8083865469964, -41.94041142771608], [167.8857921070464, -40.82530826338844], [169.06289374425245, -40.6021303402045], [169.48623730386748, -40.531653103193165], [169.48623730386782, -40.5316531031931], [173.07496405631335, -39.93421034031976], [173.65824291857788, -39.82362093896947], [179.77924588553128, -38.663081620974204], [179.76731804623566, -38.59297472455875], [180.1490089037323, -38.59297472455875], [180.47065194306776, -38.531991353773996], [180.47668120233743, -38.5697151307157], [191.6254644180118, -36.576699820743244], [191.60892076083138, -36.47789472475747], [192.18597171955338, -36.47789472475747], [192.88661173911115, -36.3481430287548], [196.45543799071856, -35.66812395964769], [196.70093300582667, -35.62674996783991], [196.70408475028202, -35.64308352827234], [198.554703825191, -35.31067419680738], [198.55547823119306, -35.31419804523709], [201.211771277011, -34.86652522113388], [202.69783874755143, -43.31925627462311], [202.69783874737783, -43.31925627466796], [203.32562936963936, -46.89012058052046], [203.42379037289467, -47.336791315294064], [203.81643438277848, -49.681812651737175], [204.36600098155472, -52.807739802718274], [199.96763869786736, -53.586072084675656], [199.96835824553622, -53.58983743961481], [199.61639664335547, -53.648227726292895], [199.27828352022982, -53.708060077906616], [199.27759086823548, -53.70443546661136], [194.57446811453943, -54.484681618944485], [193.49705610420511, -48.24495340547528], [193.4909244176138, -48.245863238897215], [193.12180860358606, -45.85240405098251], [181.93334070702466, -47.57239998135262], [183.32182294402566, -56.259834346853744], [176.38597431537974, -57.48226001819877], [176.38689325823123, -57.48696425891816], [173.6469428011021, -57.932244258980305], [173.6469428011021, -57.93224425898032], [172.95565771582997, -58.04458768548719], [172.944442723204, -57.98717603590156], [163.21239975249657, -59.548491348481626], [156.01765733049956, -60.783920619301604], [156.0274042126194, -60.84036875128181], [155.67479346994438, -60.88493863990467], [152.38294792555473, -61.509071025308096], [150.8788682570786, -61.664619828816136], [150.1844559303516, -61.80824919732501], [147.15005818309479, -61.61377469497851], [142.7782318536138, -61.33358441651563], [142.49809755348093, -61.31563061376918], [142.49808433977884, -61.31554493210638], [137.59321234223287, -60.99970896754811], [127.90313958894468, -60.425573564015146], [126.65836541626436, -48.389134724741574]]]}, "properties": {"id": 13, "height_median_m": 6.0, "building_count": 31, "area_m2": 1194.1169699460602}}, {"type": "Feature", "geometry": {"type": "Polygon", "coordinates": [[[134.42245958484452, 78.9063597674806], [134.4662651026911, 78.92552631938743], [131.73094930317475, 85.46007033529024], [133.26485440771143, 87.33926467217576], [139.33550846095534, 86.30337080338803], [145.65209101727302, 85.28999908876719], [146.62005804959784, 85.11187081572177], [146.62381664062633, 85.13410478163213], [148.56647672081738, 84.8224430945036], [148.56647672081738, 84.82244309450361], [149.1225521519936, 84.73323170398898], [155.88126462914167, 83.40759507156882], [156.07581777715356, 83.37179280236583], [156.07674784820205, 83.36925349141046], [167.28602462862406, 81.1706945242543], [169.03194579787714, 80.23603332228596], [170.1984563266019, 79.20390733655036], [171.01121162680388, 77.19156839303157], [171.49213262935803, 76.15208904900597], [171.61513154595391, 75.88623492232], [172.67954039955808, 73.06087498608385], [172.8104634740283, 72.73671640933122], [172.80279355079867, 72.7337126232841], [173.977058032227, 69.61675262324383], [168.00788025082224, 67.27903262321384], [168.00920590309752, 67.27551382043865], [167.68442111940365, 67.1523557326268], [167.35602783812038, 67.02374647191373], [167.35459681860496, 67.02754496080559], [157.4785600705246, 63.358989249207696], [156.89144520930765, 64.80610641223373], [142.20805092639768, 59.349535536866206], [138.8727665334238, 67.95947412480103], [138.78034858540224, 67.92712507865811], [138.6611418243345, 68.23601288080461], [138.51219078755528, 68.57490544909092], [138.52819379147803, 68.58050697913356], [136.8979372588726, 72.80481735197652], [134.6857208398773, 78.25747501655187], [134.68141786712238, 78.2555923050873], [134.54968070084902, 78.59278592935095], [134.42245958484452, 78.9063597674806]]]}, "properties": {"id": 14, "height_median_m": 9.0, "building_count": 14, "area_m2": 713.139630831382}}, {"type": "Feature", "geometry": {"type": "Polygon", "coordinates": [[[140.5663552140763, -136.90698354650206], [118.43778318302364, -81.07797235479312], [146.63458320076091, -76.65361358541661], [146.62309001206395, -76.62398705418907], [197.41662308579433, -68.73919486143181], [197.40429441090794, -68.70757230656804], [223.17378098324835, -65.50121179888676], [251.57557972377367, -139.88108011741272], [228.81529878396995, -149.27553425443145], [202.86357740816243, -82.71041346253556], [151.84112196513075, -102.74295433558659], [162.1409152241541, -128.86332679390716], [162.09311986365736, -128.88230565378208], [168.64243992120373, -145.12437000702607], [141.32500831073258, -137.12902824218273], [140.74556440804304, -137.35911719893954], [140.5876544194471, -136.96072011718326], [140.5663552140763, -136.90698354650206]]]}, "properties": {"id": 15, "height_median_m": 9.0, "building_count": 4, "area_m2": 4759.654645083139}}, {"type": "Feature", "geometry": {"type": "Polygon", "coordinates": [[[157.05043138052227, 15.916547022277715], [157.11734090835824, 15.878488976121295], [154.47967840738613, 22.479803488345993], [157.02504543316815, 23.48212740657866], [154.63078953708015, 29.53479147646349], [152.08175198217842, 28.754082010985822], [147.42061708658315, 41.088144282253296], [148.1037353251056, 43.16044669136143], [152.38611922557217, 44.43634925873908], [155.57597259733, 45.444340453544], [155.5749756876317, 45.44761668954507], [155.9078011115663, 45.549198007028124], [156.24347836099423, 45.655271757851736], [156.24448683341623, 45.65195752220858], [160.23666441806205, 46.87040608265977], [160.8316350863724, 45.27307082578264], [165.78089393504905, 46.881717415529245], [167.1127389012647, 47.36769388792856], [174.26167689233003, 49.7773566808479], [174.26167689233003, 49.777356680847916], [174.92503872755216, 50.00095329541853], [174.92964173254663, 49.9868553879067], [179.91487065405187, 51.43245093226568], [185.32366585003126, 35.75963781963767], [185.2338402539457, 35.728356590766126], [189.9901762907977, 21.943713170689893], [190.00191959855314, 21.94756241849826], [190.18554038584273, 21.377515920029804], [190.21852639187594, 21.281917054117592], [190.2108897924824, 21.279413912405634], [190.59994267435, 20.06230386013148], [190.59828465428947, 20.06171850044251], [191.10674188049535, 18.44214383719119], [184.75374988735214, 17.375843611233222], [183.0713877054359, 16.96573278358061], [183.06083034283276, 17.00176286235924], [176.4358253796438, 15.81744202080626], [176.14599933656407, 15.750383316044323], [176.1406174030465, 15.764669085356479], [169.3060837988308, 14.542891798434923], [168.93285313919736, 15.3920641145783], [164.26710432879435, 13.811034333428445], [164.17128878388806, 14.247032319519414], [161.4989667105589, 13.26988106053165], [161.30178495022287, 13.718507901619116], [158.4571924897057, 12.714231899295976], [157.5696515030346, 14.859768222608784], [157.37109495981093, 15.085645592130044], [157.05043138052227, 15.916547022277715]]]}, "properties": {"id": 16, "height_median_m": 12.0, "building_count": 31, "area_m2": 1095.127892480727}}]}