{"type": "FeatureCollection", "crs": {"type": "name", "properties": {"name": "EPSG:32628_local_enu_m_section_centroid", "lng0": -15.440060497766439, "lat0": 28.0883605828547}}, "features": [{"type": "Feature", "geometry": {"type": "Polygon", "coordinates": [[[-353.155721022, 175.187283385], [-352.806005492, 175.187283385], [-357.716588883, 183.53650914], [-359.189524901, 185.206083385], [-357.539659239, 185.206083385], [-352.706478002, 188.493132442], [-350.78092179, 189.584442255], [-349.475751779, 191.063853586], [-345.418688166, 181.866483385], [-344.50678842, 181.866483385], [-342.233830289, 179.290083385], [-342.907142526, 178.526883385], [-341.560518053, 178.526883385], [-338.281162119, 174.809730609], [-337.790117058, 175.366330609], [-337.053504308, 174.531379423], [-332.903974124, 169.827883385], [-332.942566454, 169.784138946], [-332.633827814, 169.52167231], [-332.633827812, 169.521672308], [-330.714058555, 167.889627228], [-330.714058553, 167.889627227], [-327.845757076, 165.45121058], [-327.9317281, 165.305038235], [-322.796304988, 159.484031714], [-321.609937713, 158.139283386], [-322.510993088, 157.117936342], [-320.60295555, 156.036555246], [-320.647253602, 155.966258614], [-313.966402467, 149.4753296], [-311.905773867, 147.139605307], [-311.905773867, 146.135991167], [-309.1604776, 145.098725939], [-305.288857156, 142.904483385], [-304.306767033, 142.904483385], [-302.342586788, 141.791283385], [-301.294823022, 141.791283385], [-300.3127329, 140.678083385], [-298.837339363, 140.678083385], [-302.78487264, 134.712040225], [-302.78487264, 136.06271086], [-307.270778875, 130.97793228], [-315.374617942, 135.570786561], [-317.64822092, 136.859352029], [-313.849763959, 143.317683385], [-314.99546938, 143.317683385], [-314.81756952, 143.519333029], [-326.114799348, 147.787806277], [-330.069334596, 148.908423554], [-337.882402909, 153.336483385], [-338.907267125, 153.336483385], [-339.07186581, 153.485741586], [-340.615374151, 154.885396014], [-340.615374153, 154.885396015], [-344.032657793, 157.984191175], [-344.032657793, 158.902483385], [-344.846117976, 158.902483385], [-348.943108407, 164.707411114], [-348.943108407, 166.064005308], [-348.046815147, 167.07995449], [-352.714609756, 174.487283385], [-352.74961877, 174.487283385], [-352.83130647, 174.672469541], [-353.155721022, 175.187283385]]]}, "properties": {"id": 0, "height_median_m": 9.2, "building_count": 7, "area_m2": 871.2572183448727}}, {"type": "Feature", "geometry": {"type": "Polygon", "coordinates": [[[-324.39085534, 171.325411719], [-324.39085534, 171.365361463], [-331.073445694, 178.940083385], [-331.867560344, 178.940083385], [-331.413780544, 179.325853231], [-326.355035585, 183.626422058], [-326.355035585, 185.206083385], [-320.888010116, 185.206083385], [-328.951305953, 194.345836162], [-331.635116092, 191.303735058], [-332.617206215, 190.190535058], [-336.808026935, 185.440236161], [-336.847813483, 185.395138076], [-340.032803136, 190.208722764], [-341.034727676, 191.344405093], [-343.010405243, 195.823269541], [-347.953016969, 203.666706049], [-348.943108407, 216.011670525], [-348.943108407, 230.739191167], [-345.756601802, 231.943160494], [-341.767110732, 233.073683385], [-339.912256798, 233.073683385], [-338.77220718, 234.365930609], [-337.527656828, 232.955231713], [-335.563476583, 230.728831713], [-333.599296337, 228.502431713], [-320.643317237, 213.816818244], [-320.445808671, 213.943184357], [-317.863645231, 209.552857631], [-315.717396977, 207.120083385], [-317.681577222, 204.893683385], [-314.939584006, 201.785631713], [-312.255773867, 198.743530609], [-310.311097595, 200.947822839], [-309.429084417, 200.090883385], [-304.808551961, 195.601702655], [-303.174835504, 194.014429216], [-297.547323808, 188.69877142], [-297.524422027, 188.724730609], [-297.272502436, 188.439179536], [-297.038155755, 188.217819399], [-297.057684645, 188.195683385], [-291.408248153, 181.792042255], [-289.41354979, 180.661546099], [-287.449369545, 177.321946099], [-285.02949893, 175.950483385], [-296.197024629, 169.621283385], [-290.72487663, 169.621283385], [-296.335981803, 164.533129347], [-298.156512149, 163.50134299], [-298.156512149, 162.459761464], [-299.239044579, 161.232710022], [-304.26399294, 156.676083385], [-309.467462994, 156.676083385], [-311.536143974, 159.020935058], [-312.51843969, 160.134368099], [-314.482414342, 162.360535058], [-318.306274098, 166.694883385], [-319.288364221, 166.694883385], [-323.983921465, 172.017301566], [-324.39085534, 171.325411719]]]}, "properties": {"id": 1, "height_median_m": 8.7, "building_count": 13, "area_m2": 2123.673508532355}}, {"type": "Feature", "geometry": {"type": "Polygon", "coordinates": [[[-296.887639179, 200.090883385], [-296.762740659, 200.161669675], [-301.702340211, 205.760710022], [-301.927414106, 205.964807185], [-301.906407209, 205.99202014], [-303.679422992, 208.001735057], [-307.345323254, 212.157036162], [-308.327413376, 211.043836162], [-313.728909051, 217.166436162], [-314.219954113, 216.609836162], [-316.342093853, 219.015283385], [-321.322734844, 219.015283385], [-326.303375836, 230.306405093], [-328.481473164, 232.775280291], [-327.29640287, 233.67079909], [-329.249646204, 238.098805093], [-332.16003655, 241.397735058], [-333.229666444, 242.610161464], [-333.229666444, 243.681473929], [-335.943307244, 245.732083385], [-336.96598643, 245.732083385], [-338.256854439, 247.195283385], [-337.355799064, 248.216630429], [-339.408160597, 249.379807212], [-333.229666444, 254.048692842], [-333.229666444, 255.913455911], [-327.811256335, 249.771683385], [-326.829166213, 249.771683385], [-323.574117958, 246.082083385], [-324.556208081, 244.968883385], [-319.56472272, 239.311030429], [-319.970803909, 239.08088374], [-321.561256676, 238.179493949], [-317.141427609, 232.167637884], [-316.14434781, 233.297828695], [-312.959358156, 228.484244007], [-307.996668369, 222.859030858], [-302.616455175, 226.343874452], [-297.090104033, 229.475936342], [-302.697332869, 235.831735057], [-306.635998714, 240.296216184], [-308.151550516, 242.357671312], [-304.326007927, 246.693927132], [-305.022890573, 247.552620061], [-309.927298085, 244.773044991], [-311.546449327, 246.975416184], [-317.324183976, 253.524483385], [-318.306274098, 253.524483385], [-322.852190362, 258.677283385], [-321.870100239, 258.677283385], [-327.477994165, 265.033835981], [-321.476332304, 270.476147092], [-321.619684411, 270.638636829], [-320.329515447, 271.516081409], [-316.101985038, 274.391227024], [-311.248886873, 267.790037884], [-310.261036698, 268.909766909], [-306.07923388, 262.98467054], [-301.189492386, 256.333639104], [-295.322493575, 250.791765599], [-290.15892271, 246.109435981], [-291.145615019, 244.991019399], [-285.600173079, 239.752883385], [-284.575880372, 239.752883385], [-280.553877625, 234.054203912], [-275.918439327, 228.799930609], [-274.936349205, 229.913130609], [-274.936349204, 229.913130609], [-272.70970873, 227.389231713], [-272.178193859, 226.786759149], [-270.723319342, 225.137657631], [-270.723319341, 225.13765763], [-268.767326542, 221.811978345], [-262.665001461, 216.047819399], [-270.723319342, 206.91370914], [-272.656435248, 203.626926322], [-276.564658209, 193.659484614], [-277.552789591, 189.179293526], [-279.646603697, 185.619283385], [-281.968939559, 185.619283385], [-283.055530415, 186.850935057], [-288.685610922, 193.232636162], [-289.667701045, 192.119436162], [-292.876431642, 195.756535058], [-296.700291399, 200.090883385], [-296.887639179, 200.090883385]]]}, "properties": {"id": 2, "height_median_m": 8.3, "building_count": 14, "area_m2": 2440.4629845911436}}, {"type": "Feature", "geometry": {"type": "Polygon", "coordinates": [[[-270.375898591, 233.675044713], [-270.375898591, 238.363448938], [-269.271958341, 240.866083385], [-267.237587718, 240.866083385], [-264.395818084, 244.087231713], [-261.410720625, 247.470842255], [-256.211097346, 250.417730987], [-257.770984329, 251.596486481], [-257.543396368, 251.854457631], [-257.361210331, 252.164219675], [-257.30655452, 252.122918069], [-254.574916857, 255.219231713], [-253.592826734, 256.332431713], [-251.628604552, 258.558879249], [-248.682376121, 261.898431712], [-247.67696339, 263.03806791], [-240.198147193, 268.68956431], [-241.061489256, 269.423513539], [-234.72934289, 276.601006898], [-231.004753912, 280.822831713], [-230.02266379, 281.936031712], [-228.825940962, 283.292518069], [-225.592705449, 280.849267909], [-222.607066868, 277.465044007], [-219.899515786, 273.373028695], [-218.957212211, 274.441130609], [-215.712601592, 270.763361678], [-214.97819589, 269.930912181], [-214.537806659, 269.431730609], [-214.071069278, 268.902683385], [-215.0531594, 267.789483385], [-209.855241818, 261.897639329], [-208.861317933, 260.771025749], [-208.86129867, 260.771003914], [-208.861298669, 260.771003914], [-204.953438003, 255.234049625], [-201.978140532, 252.985714794], [-199.215963007, 246.723853586], [-198.27638576, 247.788865204], [-198.048650263, 247.401657631], [-196.169596378, 245.271748435], [-194.12645331, 242.955844007], [-191.180182942, 238.503044007], [-188.249958178, 235.181631713], [-186.285777933, 232.955231713], [-183.601967794, 229.913130609], [-183.545033919, 229.977665205], [-183.317298422, 229.590457631], [-183.135230412, 229.384083385], [-183.171644014, 229.342808536], [-181.353118177, 226.250857631], [-179.206869922, 223.818083385], [-180.305697426, 222.572561463], [-180.305697426, 221.38774299], [-182.527591819, 220.128483386], [-184.426098421, 220.128483386], [-188.196579099, 215.85464029], [-184.344920295, 212.944067908], [-183.33970643, 211.804657127], [-182.38074005, 210.717667909], [-176.869106732, 206.552707167], [-176.858173266, 206.577493354], [-176.508302346, 206.280059112], [-176.295298507, 206.119099089], [-176.301753169, 206.10446636], [-171.26208158, 201.820112294], [-168.64400234, 199.594415989], [-168.372393921, 199.363514707], [-165.92794008, 197.285421806], [-160.515600627, 192.684253232], [-163.697705111, 189.077335058], [-167.42178845, 184.856083385], [-167.376268498, 184.80448648], [-167.64938821, 184.598098861], [-167.888525831, 184.327036162], [-167.936353355, 184.381248702], [-170.595658578, 182.371698861], [-172.514307072, 180.19690914], [-174.320089754, 177.126624802], [-174.22197294, 177.033945225], [-174.496700018, 176.826342972], [-174.684161853, 176.507610745], [-174.788307317, 176.605984889], [-177.470289437, 174.579298861], [-183.339507565, 167.926535058], [-186.390278667, 164.468483385], [-191.61664827, 164.468483385], [-191.976345136, 164.876200092], [-194.667419373, 167.926535058], [-194.845622717, 168.128528701], [-195.632887898, 169.020894462], [-203.769844799, 175.938330205], [-204.225860371, 175.421436162], [-210.276360602, 182.279683385], [-212.221748827, 182.279683385], [-218.325122088, 188.044832425], [-218.325122088, 189.147044713], [-225.796723265, 195.49884449], [-225.812339097, 195.481143931], [-226.067397682, 195.728951754], [-226.330137415, 195.952313539], [-226.314979354, 195.969495215], [-232.942028541, 202.408151754], [-238.171729285, 206.854054477], [-240.789768772, 209.079716987], [-241.061416943, 209.310652064], [-241.873746223, 210.001234018], [-243.505870784, 211.388744965], [-248.548582341, 215.675683385], [-249.752006015, 215.675683385], [-249.752006015, 216.788883385], [-250.734096137, 216.788883385], [-250.734096137, 217.49154299], [-253.680366505, 219.16134299], [-253.680366505, 219.232961463], [-255.494089761, 221.288818336], [-257.497864617, 223.560098861], [-260.176456476, 225.584222981], [-260.224501337, 225.537543932], [-260.444134985, 225.786498861], [-260.741508356, 226.011214176], [-260.688133648, 226.063071556], [-263.37490087, 229.108524516], [-265.20773383, 230.147283385], [-266.22620455, 230.147283385], [-270.375898591, 233.675044713]]]}, "properties": {"id": 3, "height_median_m": 9.1, "building_count": 38, "area_m2": 5746.442415048596}}, {"type": "Feature", "geometry": {"type": "Polygon", "coordinates": [[[-208.681048006, 173.311765943], [-206.951721984, 172.331669675], [-208.669573603, 170.384483386], [-205.95675147, 167.309497161], [-200.679237452, 163.72025715], [-203.967038643, 161.235773495], [-206.893624905, 156.812722764], [-210.942531734, 152.223283385], [-212.432581352, 152.223283385], [-212.432581352, 155.738673929], [-215.187464501, 157.820448878], [-220.571392456, 159.346120621], [-220.571392456, 155.780561464], [-224.691793452, 151.110083385], [-225.739557218, 151.110083385], [-227.870567695, 149.90233228], [-230.900253178, 153.336483385], [-231.882343301, 153.336483385], [-232.034091076, 153.508489619], [-234.872060686, 155.624727566], [-235.218426303, 155.821030428], [-235.182911507, 155.86128648], [-237.966924542, 157.965073929], [-237.966924542, 159.449340596], [-241.737909204, 162.298950171], [-243.601751131, 163.355283385], [-244.649514896, 163.355283385], [-244.728181552, 163.444452108], [-245.697278662, 164.542924516], [-246.697198022, 165.676333973], [-248.048172182, 166.694883385], [-248.577875387, 166.694883385], [-249.641143636, 167.900098862], [-255.644546751, 172.436673929], [-255.644546751, 173.52014299], [-257.806499125, 174.745430429], [-254.574916857, 178.408431713], [-253.488326001, 179.640083385], [-253.488326, 179.640083385], [-252.062996433, 181.255695678], [-244.127450168, 176.258502052], [-241.720868227, 179.536568512], [-244.461539424, 181.866483385], [-244.461539425, 181.866483385], [-248.8115008, 185.56449711], [-251.592882658, 187.929021158], [-255.259426946, 191.04604449], [-255.74536888, 191.459156191], [-253.615035877, 195.081257631], [-251.628646489, 197.332831713], [-250.607729275, 198.490042254], [-248.693353772, 199.575015396], [-247.665975642, 201.904083385], [-245.334478048, 201.904083385], [-239.231104788, 196.138934345], [-239.231104788, 195.049092842], [-236.395696798, 192.90646791], [-234.407988087, 190.653398373], [-233.44942643, 189.56686791], [-230.538246911, 187.366984914], [-225.48184307, 183.928122048], [-225.48184307, 176.876255911], [-221.978026959, 180.847834491], [-211.889957176, 175.130416597], [-208.993842194, 172.941917379], [-208.681048006, 173.311765943]]]}, "properties": {"id": 4, "height_median_m": 8.1, "building_count": 14, "area_m2": 1347.9063586764235}}, {"type": "Feature", "geometry": {"type": "Polygon", "coordinates": [[[-259.670372968, 186.046233375], [-266.022993721, 178.84553228], [-272.412606791, 182.466848239], [-269.235658616, 192.069710887], [-259.670372968, 186.046233375]]]}, "properties": {"id": 5, "height_median_m": 5.2, "building_count": 1, "area_m2": 90.00247044981043}}, {"type": "Feature", "geometry": {"type": "Polygon", "coordinates": [[[-202.421897973, 268.696083385], [-202.05510527, 268.696083385], [-203.522276082, 270.359122764], [-204.4883206, 271.454135057], [-207.666218857, 275.05628547], [-198.554869531, 283.088958377], [-195.300775357, 285.547970743], [-192.162273065, 280.804644007], [-188.000161074, 276.086886481], [-191.237138879, 273.640808394], [-200.367572536, 265.591310516], [-202.421897973, 268.696083385]]]}, "properties": {"id": 6, "height_median_m": 7.6, "building_count": 1, "area_m2": 188.38695389711873}}, {"type": "Feature", "geometry": {"type": "Polygon", "coordinates": [[[-300.9615608524698, 287.2978359812915], [-300.92327528397055, 287.3325533611872], [-300.8206923948183, 287.425575595755], [-295.50800945376244, 292.2431201473988], [-290.4726973249624, 285.39408338544627], [-289.50974155004707, 285.39408338544627], [-284.96382528701906, 280.2412833852193], [-285.9459154096175, 280.2412833852193], [-280.3037905009689, 273.8459299416085], [-284.54022983219886, 270.9647253627648], [-291.65960992312506, 264.50886659071716], [-296.70029139899236, 270.2224833852031], [-297.68238152165986, 270.2224833852031], [-301.7255481000532, 274.80541618459887], [-306.8322913010865, 281.7516135648324], [-300.8524397277457, 287.1741470924252], [-300.9615608524698, 287.2978359812915]]]}, "properties": {"id": 7, "height_median_m": 6.6, "building_count": 1, "area_m2": 356.4992133747245}}, {"type": "Feature", "geometry": {"type": "Polygon", "coordinates": [[[-385.70595821405226, 359.9784833853911], [-384.72386809143103, 359.9784833853911], [-390.33176201775495, 366.33503598105295], [-384.3301001569082, 371.77734709238626], [-384.4466471694335, 371.9094532314715], [-379.98487252866, 375.7025222801544], [-374.1274515970448, 369.06313060907297], [-373.14536147437605, 370.17633060904194], [-368.7502636023638, 365.1944833851752], [-369.71282483496327, 364.1034193989211], [-364.32945215108407, 359.01837142061504], [-364.306550370113, 359.0443306090745], [-364.0546307794605, 358.7587795360789], [-363.82028409884543, 358.5374193991423], [-363.83981298889876, 358.5152833854437], [-358.151549404754, 352.0676317132271], [-354.22318891381224, 347.61483171324727], [-350.6640612371597, 343.58055742598594], [-350.66406123715973, 343.58055742598594], [-342.43810744171583, 334.25643171314516], [-338.49944159734315, 329.79195058617535], [-333.5889909838727, 323.11275058603195], [-327.8112563353339, 316.5636833854527], [-326.829166212667, 316.5636833854527], [-322.28324994943716, 311.4108833852257], [-323.2653400720583, 311.4108833852257], [-317.65002025794195, 305.04591353935496], [-322.1117948984885, 301.25284449024736], [-322.4317671008885, 301.6155332572116], [-328.9790345855667, 295.6784665907229], [-334.49384668910744, 301.9295108600872], [-334.49384668910744, 300.63919786040447], [-339.0562064304111, 307.1034962312747], [-343.94594792508514, 313.75452766623135], [-349.7143660053791, 319.20328338532624], [-350.71524814733925, 319.20328338532624], [-354.95238652416253, 324.00608338511654], [-353.9898252915547, 325.0971473717677], [-359.4009517608372, 330.20841113297155], [-359.42382838922106, 330.18766659058883], [-359.6480193472722, 330.4417872346544], [-359.91135075173406, 330.69052587945475], [-359.88696821427305, 330.71263598122636], [-365.55110072177354, 337.1329350574715], [-369.47946121274595, 341.58573505748615], [-375.1372703522961, 347.9988665907126], [-375.16177404728603, 347.97664662321154], [-375.38230730227536, 348.27661618458507], [-375.60041017734784, 348.52383598135003], [-375.5785998898477, 348.5436135650835], [-380.19708617608603, 354.8256833851641], [-381.1600419508224, 354.8256833851641], [-385.70595821405226, 359.9784833853911]]]}, "properties": {"id": 8, "height_median_m": 9.3, "building_count": 4, "area_m2": 1417.9062853076578}}, {"type": "Feature", "geometry": {"type": "Polygon", "coordinates": [[[-209.7684011066932, 309.63979240774376], [-206.8872808014551, 305.2854559442215], [-199.58516814214724, 295.82608338542025], [-201.12163050742384, 295.82608338542025], [-202.02254250409544, 294.8048988611921], [-204.96881287225327, 292.5784988608762], [-206.93299311775255, 290.35209886095305], [-209.89489359420892, 288.11388770008796], [-215.07439788188006, 283.4171096430998], [-222.42710469941275, 292.9420233693944], [-220.16293547142294, 294.2252422548212], [-215.7668200987854, 299.20824281630183], [-217.31326090698178, 302.71402679191533], [-218.3857270927154, 305.14530948294384], [-217.3430319656557, 306.3272053075919], [-217.3430319656557, 308.55360530752523], [-216.36094184282217, 309.6668053074831], [-216.36094184282217, 313.006405307339], [-215.37885172016306, 314.11960530729687], [-215.37885172016306, 315.45048338549486], [-209.7684011066932, 315.45048338549486], [-209.7684011066932, 309.63979240774376]]]}, "properties": {"id": 9, "height_median_m": 11.5, "building_count": 1, "area_m2": 344.3430875995151}}, {"type": "Feature", "geometry": {"type": "Polygon", "coordinates": [[[-41.6095050074807, 12.24645728802779], [-40.505984900526876, 14.748139271082824], [-31.510251988605287, 22.67888338550481], [-30.27853822126175, 22.67888338550481], [-27.257014113901313, 20.395616599576393], [-25.349519519166932, 19.314543216596025], [-21.074424742685867, 18.103087313775784], [-26.80522088300865, 5.111362591600849], [-20.10147983714059, 1.3120144668886211], [-25.3254215074564, -8.162133345911604], [-28.580754307207986, -6.932159168484154], [-33.8059180288733, -3.9707953789694157], [-34.1277815188216, -4.882876736768378], [-45.47726049368627, 0.9646888061346552], [-45.47726049368627, 2.365048937424061], [-41.28214163311461, 11.87539062127515], [-41.6095050074807, 12.24645728802779]]]}, "properties": {"id": 10, "height_median_m": 10.1, "building_count": 3, "area_m2": 469.6396479868351}}, {"type": "Feature", "geometry": {"type": "Polygon", "coordinates": [[[-22.704154257293347, -11.74383714351694], [-17.674864670430868, -13.644071836357192], [-15.032466690207853, -7.653751062598124], [-15.032466690207853, -6.540551062634276], [-14.020605508606145, -4.2466600208090135], [-11.3277980331866, 1.8579391637846554], [-18.298145946401625, 3.1747550576692736], [-16.917847004966703, 4.739325096706891], [-9.781101120142988, 14.177083972541372], [-10.410563230924785, 14.341736859786616], [-8.092505203180293, 16.969257630661982], [-2.850302773678834, 25.882319084482074], [-5.176711254866006, 26.585515355793863], [-7.238588815387803, 35.934075320026764], [-2.9878621041423394, 37.138625917113814], [5.502944820805845, 39.277367464360324], [5.500465422509715, 39.28579866467354], [5.859978175487344, 39.36730026770397], [6.182265130290338, 39.44848083233881], [6.18450323414289, 39.44087015440453], [10.877133080470873, 40.504690148929065], [14.148146867952386, 39.26879116706255], [14.148146867952386, 37.97374219361973], [22.82067024806463, 33.760751027395536], [27.173733956208274, 30.47128338520981], [28.658165158000585, 30.47128338520981], [32.70369783072917, 27.032072308340346], [35.56208906239113, 23.792083385462668], [36.46673354208362, 23.792083385462668], [42.910850548946165, 20.661621023284304], [42.910850548946165, 21.758668385183974], [48.52130116241606, 19.214888144101405], [48.52130116241606, 18.117991167077363], [51.544934628901956, 16.97556078758839], [50.47466793088874, 13.336116116016793], [49.56623439187669, 9.217275319851742], [49.636064091389464, 9.197487313716229], [49.48767597994796, 8.86109120946992], [49.41520560028395, 8.532510258354542], [49.350787485008084, 8.550764755641673], [46.536503783513865, 2.1707787565629038], [45.357796670039015, -1.837417829122703], [50.25613087071762, -4.058324243304448], [54.735942791005805, -5.3277919108317535], [56.67695934013472, 0.1725679153919348], [56.798815213481184, 0.5869391275516019], [56.819124525686355, 0.5754288161126017], [58.78330477099915, 6.141428816282128], [61.09734486464352, 4.829945596725913], [72.6505884008229, -0.4082990034136419], [75.34217274997222, 7.981712236419736], [77.46994211534891, 12.805369053667388], [83.75017871731819, 9.246042254548195], [86.83266768102744, 5.752038359080451], [85.84072582485697, -7.740365021864576], [85.84072582485697, -10.787580582550634], [85.98240337858844, -10.819698908387222], [85.84072582485697, -11.140882166764513], [85.84072582485697, -11.505342767658478], [84.85863570219789, -11.282702767674815], [84.85863570219789, -22.23725554294142], [83.78835989474095, -27.08988974148145], [78.96804623802457, -25.723932321075257], [79.27275649010467, -25.378542987880163], [71.70228860730285, -23.66231661474476], [68.4451937389547, -23.66231661474476], [68.4451937389547, -17.617157729682333], [59.54620431866389, -14.254820338765782], [57.21374027733387, -20.42380367190442], [53.954078135115225, -19.192193723338573], [50.38678284734427, -18.18131065303852], [47.83929291869681, -28.287847752963767], [48.65329760217138, -28.749185257853657], [48.14788212963852, -29.608518568062863], [61.874435267887016, -34.79487183628162], [62.67450312992629, -32.98111661476096], [66.19892337097743, -32.98111661476096], [66.19892337097743, -34.094316614718814], [77.0019147205763, -34.094316614718814], [77.0019147205763, -43.69991661477716], [63.06061249781432, -43.69991661477716], [62.07852237515524, -44.813116614735016], [54.95364616900323, -44.813116614735016], [50.68415552946724, -42.3933809560141], [51.010249995804315, -41.53091478619603], [48.96573579129163, -39.21345617433752], [44.4693373564749, -38.19412187460581], [44.421799482118026, -38.32883242843155], [44.10091883019852, -38.11060133123443], [43.78201584882116, -38.0383059704213], [43.823164620610605, -37.92170054975417], [39.09920091197904, -34.70893039023498], [37.21035031782858, -32.5679166148031], [36.22826019499504, -32.5679166148031], [34.19840630619582, -30.267075483433608], [32.365573346979126, -29.228316614534045], [31.42713589276223, -29.228316614534045], [27.197408585702963, -28.02971672812996], [27.197408585702963, -27.56825940411983], [23.187009667725082, -24.537732318861902], [26.071260321308568, -17.999131118486872], [10.423675514473715, -14.67352783298481], [13.291509948011411, -3.2961030302181404], [7.072407441023858, -1.8862314205687902], [3.3008211176836566, -9.011391997086472], [1.1956243502050001, -12.590755521384255], [-8.181491595370504, -9.93351327117901], [-9.920162181824818, -17.816651699181385], [-9.920162181824816, -17.816651699181385], [-10.564022503352978, -20.735916614829044], [-10.217178440274411, -20.735916614829044], [-12.49013657181581, -25.888716614660474], [-13.676173542940917, -25.888716614660474], [-19.26644698399299, -42.36382399258021], [-20.410944698455474, -44.95840228289395], [-26.91554754018756, -41.27191582108009], [-24.754949270512817, -36.37383582079274], [-27.642262456686964, -34.73744982910699], [-30.908165986536932, -32.26951351965869], [-29.880555911823308, -31.10471661483838], [-32.6225491278029, -27.99666494252437], [-34.791006525299245, -25.538716614660476], [-33.64051927223855, -24.23463832234345], [-32.67527279362792, -22.04642289250214], [-29.486298137823255, -16.021913693798492], [-26.662789035037026, -19.222363693648056], [-22.704154257293347, -11.74383714351694]]]}, "properties": {"id": 11, "height_median_m": 9.0, "building_count": 38, "area_m2": 4534.498552389758}}, {"type": "Feature", "geometry": {"type": "Polygon", "coordinates": [[[83.17654557953882, -47.45271661460858], [85.14072582485699, -47.45271661460858], [85.14072582485699, -35.20751661467667], [92.71535668364504, -35.20751661467667], [92.71535668364504, -43.69991661477716], [85.84072582485697, -43.69991661477716], [85.84072582485697, -52.229737759025134], [97.62580729728938, -50.74547109188002], [97.62580729728938, -56.358316614666926], [98.60789741994847, -56.358316614666926], [98.60789741994847, -67.07711661468312], [95.29364170130621, -67.07711661468312], [84.49065035170737, -65.96391661472526], [77.0019147205763, -65.96391661472526], [77.0019147205763, -66.07687937900657], [76.60328153682474, -65.96391661472526], [76.3019147205763, -65.96391661472526], [76.3019147205763, -65.87851672827904], [72.3735542297655, -64.76531672832118], [72.3735542297655, -63.73751661480956], [69.71336803311779, -63.73751661480956], [66.48101349363652, -62.516224396651175], [66.48101349363652, -60.3979166145405], [63.5347431254848, -60.3979166145405], [63.5347431254848, -55.24511661470907], [67.46310361629561, -55.24511661470907], [67.46310361629561, -54.13191661475121], [79.24818508872802, -54.13191661475121], [79.24818508872802, -50.792316614482154], [83.17654557953882, -50.792316614482154], [83.17654557953882, -47.45271661460858]]]}, "properties": {"id": 12, "height_median_m": 9.5, "building_count": 4, "area_m2": 513.16788487856}}, {"type": "Feature", "geometry": {"type": "Polygon", "coordinates": [[[-53.73792172506754, 84.31808338551772], [-54.79020222562815, 84.31808338551772], [-56.87183425250682, 81.95855168982646], [-64.2414614426767, 87.9253222385914], [-62.11711900730832, 91.5372382090315], [-57.924989012791514, 97.47696690878718], [-54.72452858284509, 93.84924225451003], [-52.791357303921956, 92.75361659961135], [-49.525453773879825, 90.28568029016397], [-52.68564122449978, 86.70360509306943], [-53.73792172506754, 84.31808338551772]]]}, "properties": {"id": 13, "height_median_m": 9.9, "building_count": 1, "area_m2": 114.81287214926722}}, {"type": "Feature", "geometry": {"type": "Polygon", "coordinates": [[[-159.12423306560322, 180.8478640075305], [-159.1242330655943, 180.84786400752543], [-154.2972236080167, 186.31928338524207], [-152.04641741825392, 186.31928338524207], [-147.89672337690286, 182.79152205773948], [-147.89672337690286, 181.7204237811633], [-146.08111548741923, 180.69142722795257], [-142.48501897100428, 177.63429335358452], [-142.4742979991364, 177.65859781527368], [-142.1205059271946, 177.32441146671275], [-141.92859887501047, 177.1612663599882], [-141.93424320007006, 177.1484706653569], [-136.48454368544142, 172.00077142056543], [-135.47955178181135, 173.13993060898036], [-134.18990401706324, 171.6781137567997], [-129.063903622818, 167.83941411162675], [-129.05794892153241, 167.82591479355418], [-127.50340951594578, 166.65120028992462], [-127.78668909094866, 166.3301026477129], [-121.38029006406077, 160.52077559581357], [-121.38029006406077, 158.0069614633845], [-122.44991995806029, 156.79453505677907], [-126.14244633210322, 152.60905323149], [-126.11035128018004, 152.5817684047412], [-126.29074067753065, 152.4181911749267], [-126.29074067753065, 152.41819117492543], [-131.06032283334298, 148.09313078956555], [-126.64074067745075, 143.08353060902326], [-126.29074067753065, 143.48025591040522], [-126.29074067753065, 142.7464092943908], [-117.0115743284311, 151.7617890512546], [-113.78920573618224, 152.97930824281676], [-106.48962443806465, 145.88723822350764], [-106.06467562519212, 146.36891806892845], [-105.89947766899935, 146.24408338517728], [-105.24133283355695, 146.24408338517728], [-105.5045907677246, 145.9456802900409], [-102.83144011187423, 143.9256679095433], [-101.82602738115433, 142.7860317132596], [-98.90307962106752, 139.47286790971495], [-96.00332270247038, 137.28161659988683], [-94.00813349076962, 136.15084225447512], [-91.12753676542543, 132.8856833852875], [-89.1633565201011, 132.8856833852875], [-85.8840005856957, 129.16853060896423], [-85.39295552427893, 129.72513060904203], [-83.07877527896075, 127.10200530765364], [-83.07877527896075, 125.98880530749804], [-83.07877527896075, 125.6525429894012], [-85.16932238650604, 124.46772451585298], [-88.97131601508973, 120.1581614631958], [-88.97131601508973, 117.71408338543989], [-91.12753676541462, 117.71408338543989], [-95.1943527784497, 113.10434393150605], [-102.31051981201784, 120.01821375619018], [-109.68745267643979, 125.03526960958001], [-112.3199938415281, 128.01925728801322], [-111.9645521658309, 128.8250441791388], [-117.72738519399564, 132.09113227976061], [-122.71238018672449, 126.44063616187545], [-123.94030894093862, 127.83249446245414], [-131.90119129100052, 134.60024471283222], [-131.90119129100052, 135.97057914571693], [-128.8894575178583, 141.09128338534586], [-138.55448859943073, 141.09128338534586], [-146.506042963529, 147.8511036761813], [-154.145676852168, 154.03648338527776], [-151.74565277365704, 154.03648338527776], [-161.2249064061115, 161.1996448230846], [-170.36496340936057, 168.10648648067405], [-164.22310092338168, 175.0682928986211], [-162.16529395461353, 177.40081887029564], [-159.3121366637982, 180.63487511711804], [-159.12423306560322, 180.8478640075305]]]}, "properties": {"id": 14, "height_median_m": 8.3, "building_count": 14, "area_m2": 2000.7131405711846}}, {"type": "Feature", "geometry": {"type": "Polygon", "coordinates": [[[-79.85041478814993, 121.75368338531345], [-78.4009542334982, 121.75368338531345], [-72.11352659589335, 117.00248029032558], [-75.71100648221301, 112.92473374121565], [-73.57154138055239, 112.11637189607632], [-81.2190128173493, 107.78216416569512], [-84.37107885397758, 103.01833807548518], [-86.61418326791656, 105.56089886123569], [-89.75335444243453, 107.933067681257], [-88.63756614376743, 110.46256167650483], [-85.655449472602, 113.84279349221868], [-82.24011030033812, 117.71408338543989], [-82.24011030090317, 117.71408338543989], [-79.85041478814993, 120.42280530751101], [-79.85041478814993, 121.75368338531345]]]}, "properties": {"id": 15, "height_median_m": 8.6, "building_count": 1, "area_m2": 148.3747262618417}}, {"type": "Feature", "geometry": {"type": "Polygon", "coordinates": [[[-80.01330012772841, 98.07879213482958], [-70.04882784642508, 110.78537228774705], [-66.47224651131556, 109.43401961314818], [-65.47771519060343, 107.17941539581372], [-63.239200695905744, 105.91073634198374], [-64.50660271882904, 104.47413505706768], [-66.44857382111952, 102.2729091399037], [-68.41275406644559, 98.93330914001673], [-69.41705333179561, 97.79493505789105], [-72.36332370031701, 94.45533505700521], [-74.554844370191, 91.97124449025632], [-78.71975230948698, 95.5119395429964], [-81.00884553320101, 96.80928411339208], [-80.01330012772841, 98.07879213482958]]]}, "properties": {"id": 16, "height_median_m": 7.3, "building_count": 1, "area_m2": 149.1596080391313}}, {"type": "Feature", "geometry": {"type": "Polygon", "coordinates": [[[-98.5688829857293, 153.8073110350077], [-99.36572475450978, 154.5298877000002], [-102.32762523117215, 156.76809886088841], [-103.33303796149987, 157.90773505713247], [-106.01684810098426, 160.949836161759], [-106.99893822365111, 159.83663616179234], [-110.20766882051919, 163.4737350571839], [-111.18975894374042, 164.5869350575812], [-112.37619568640372, 165.9317621273279], [-112.37619568617717, 165.9317621275847], [-117.04347258836262, 171.22212451605978], [-118.97664386729481, 172.3177501709636], [-121.68246253986837, 174.3624487015227], [-121.69517025956124, 174.34804449030588], [-121.94932465324902, 174.56410765842992], [-122.22063310061344, 174.7691265642706], [-122.20883708115588, 174.78472582885587], [-129.8060456348744, 181.24330765857576], [-132.7724190346228, 183.48489886104366], [-134.7599218883389, 185.73773505746735], [-136.70077952544082, 187.937698860881], [-145.81271034200464, 194.82328648044415], [-139.56587176761388, 201.90408338544304], [-139.56587176756247, 201.90408338544304], [-136.74631127640282, 205.1000576306603], [-136.54522721951727, 205.44195105815535], [-136.48937053705671, 205.3913001800122], [-132.79579194252423, 209.57797469819454], [-130.83156139721186, 211.80443171359246], [-126.98179218257789, 216.16814843422551], [-124.69342362961994, 218.76201615999855], [-123.6891364854303, 219.90037650294025], [-122.97484041544747, 220.71003171381264], [-121.99275029315557, 221.82323171335435], [-121.01066017049659, 222.93643171331203], [-120.02857004773541, 224.04963171338562], [-117.73700899002523, 226.64711814590657], [-113.15393918882903, 231.8420317134225], [-111.18975894345475, 234.0684317134018], [-108.945169306168, 236.61267600041867], [-103.33303796189844, 242.97403171338613], [-101.12929926848821, 245.47197142055796], [-94.86385675121869, 239.55373434543222], [-94.86385675121869, 238.42200530739422], [-91.7844500993197, 234.93149521501834], [-99.12651360120712, 227.79815066893767], [-100.36101091791919, 228.84762849788632], [-105.77126588487928, 225.78136416557118], [-110.26775250635225, 218.98566888758393], [-109.44691424618149, 218.28785323133255], [-116.84414713086966, 209.90308338542505], [-116.30758211737665, 209.29488648024414], [-119.52697219777643, 206.86209886095065], [-122.44991995772698, 203.54893505736433], [-125.13855886887863, 200.50136053598433], [-117.85628389484927, 195.34231993856358], [-117.83704937774948, 195.36412228026256], [-117.58700065544784, 195.15154944867805], [-117.28183788720804, 194.93536053576486], [-117.30363522779624, 194.91065323143445], [-109.71870242234999, 188.46250733014497], [-101.62535942663283, 181.5821488876601], [-104.6560002452117, 177.0018369161826], [-98.18302890034145, 170.88757142060757], [-98.16012711937043, 170.91353060906468], [-97.90820752872973, 170.6279795360824], [-97.67386084810349, 170.40661939913522], [-97.69338973815856, 170.38448338543657], [-92.26758638259022, 164.23433060838164], [-88.60168612105618, 168.38963171393166], [-86.6375058761247, 170.6160317132113], [-83.42877527897241, 174.253130608925], [-81.46459503347977, 172.0267306090093], [-80.50540669177157, 173.11397142053286], [-74.10369790342111, 167.06701939885716], [-76.30458672670895, 164.5723100219238], [-81.21503734018457, 160.11951002208718], [-84.19244189122621, 156.74461939919243], [-81.2382393821711, 153.95412682531133], [-75.33291667549132, 149.4916679089287], [-73.35831635872599, 147.2534567488535], [-73.25787405202097, 147.1623755959238], [-73.25787405202097, 147.13960530767727], [-71.3812335775661, 145.0124317132486], [-66.26650581184751, 139.2148833854394], [-70.39914345488829, 134.5305350571953], [-73.60787405202873, 130.89343616171038], [-75.82161199063364, 133.40271002192324], [-80.4547762782349, 137.6040665907665], [-80.45960312984558, 137.59859535030853], [-80.72025311734528, 137.84480117141948], [-80.97337336845816, 138.07433078956106], [-80.96877118208336, 138.07954737178068], [-87.959200430435, 144.68259535009858], [-88.31149725984896, 144.2832665905068], [-88.54557599319615, 144.4955293472164], [-88.88699802146537, 144.6890304287628], [-88.830094350072, 144.7535307893012], [-90.47384320662424, 146.24408338517728], [-90.22832067564839, 146.24408338517728], [-98.1022887953606, 153.3842031016755], [-98.5688829857293, 153.8073110350077]]]}, "properties": {"id": 17, "height_median_m": 9.5, "building_count": 16, "area_m2": 2163.71192616149}}, {"type": "Feature", "geometry": {"type": "Polygon", "coordinates": [[[-153.32112073340477, 220.1284833855176], [-170.11843603589423, 240.2882412998393], [-175.26145103500886, 246.11785323148118], [-166.8469419776596, 253.27124318000583], [-161.72321951207562, 246.3019505861685], [-148.0887638819129, 230.8472833851383], [-144.47632238150746, 230.8472833851383], [-140.7400023952812, 235.08240530743063], [-140.7400023952812, 238.63968338523878], [-137.60169152193444, 238.63968338523878], [-130.133494941344, 238.63968338523878], [-131.20119129100053, 233.79874445725295], [-131.20119129100053, 229.26321512894518], [-139.29113544753554, 218.94701162557286], [-142.98627276343294, 220.34315873619488], [-142.98627276343294, 217.9020833852064], [-144.16040339110342, 217.9020833852064], [-145.1424935137625, 216.78888338524854], [-147.42259274923234, 216.78888338524854], [-148.40468287189148, 217.9020833852064], [-149.5788134995619, 217.9020833852064], [-149.5788134995619, 219.01528338516425], [-150.560903622221, 219.01528338516425], [-150.560903622221, 220.1284833855176], [-153.32112073340477, 220.1284833855176]]]}, "properties": {"id": 18, "height_median_m": 6.8, "building_count": 1, "area_m2": 619.1179488439922}}, {"type": "Feature", "geometry": {"type": "Polygon", "coordinates": [[[24.18377132160861, -182.32123132379687], [40.552468396143304, -173.88762576353747], [39.86658080305128, -172.33271740841866], [42.319045955092754, -170.9427817274066], [46.78393532140559, -174.73849868431918], [41.8217697434283, -178.1132700586795], [44.77756506795562, -181.4636666048085], [35.560807895201435, -187.26766782356546], [23.778520169979615, -191.71941225223506], [26.00150698640301, -200.5385634018359], [16.17158043808922, -203.88123246457477], [17.154667190879703, -208.33855118885575], [9.423992572260387, -210.84218728610125], [10.494397950188194, -204.77566019629353], [5.591425886505238, -184.76857718971175], [5.591425886505238, -183.32304657852984], [12.04204568893526, -182.1044160615161], [13.990870238776859, -186.5224046732489], [24.42545768532246, -183.14308642813577], [24.18377132160861, -182.32123132379687]]]}, "properties": {"id": 19, "height_median_m": 5.4, "building_count": 1, "area_m2": 566.2931898570174}}, {"type": "Feature", "geometry": {"type": "Polygon", "coordinates": [[[100.66724002876462, 3.754483385430268], [101.15553460417215, 3.754483385430268], [102.93783932543755, 4.2595443696161315], [103.83842702639586, 5.790769771752928], [104.05099140580022, 6.272653586047466], [104.09350428168209, 6.22446520461974], [105.9958322669682, 9.458900819459096], [112.7493615962435, 5.206050090799653], [109.70719701562852, 15.550938606452991], [107.65143554857417, 22.54156078777849], [117.10403595242357, 26.113071020892512], [120.19326298573303, 19.109788014150975], [121.29923465232439, 15.348928504687384], [127.59995163778444, 18.20567575664366], [133.32161978316958, 19.827054699360552], [133.19370087252528, 20.33454138320955], [140.70015104121146, 22.765560735486606], [145.85230053670298, 8.74964259688429], [138.35177697388127, 6.320542620139608], [136.2082719690971, 10.36998390248046], [123.86154432204084, 5.280883385345982], [122.85878367104947, 5.280883385345982], [115.65606000539245, 3.2398100156637284], [120.11343781214637, -0.8021432512076284], [127.51402624557413, -9.190716614501644], [123.83141610976737, -9.190716614501644], [114.05278709404135, -11.407533497247085], [104.85322010317655, -13.724803965643735], [103.8177545607339, -7.8562985441479105], [99.99276446441553, -9.30150840034029], [98.90227537846998, -5.593297445702615], [96.85333989386895, 2.5353480329737565], [100.72149498159625, 3.6314873139177744], [100.66724002876462, 3.754483385430268]]]}, "properties": {"id": 20, "height_median_m": 10.2, "building_count": 8, "area_m2": 861.0970061971118}}, {"type": "Feature", "geometry": {"type": "Polygon", "coordinates": [[[127.7838710902061, -3.2174790897034544], [138.71443391027069, 0.49946162164103075], [140.67419889725946, -3.943328979162387], [146.23128753273986, -1.8436740608564228], [148.1719199711489, -0.7438197907034598], [150.13610021610745, 0.3693802090505658], [152.0665040673363, 1.4634374235003336], [157.56093215720188, 6.445788601138929], [156.51142056477647, 10.014655483173259], [156.51142056477647, 10.014655483173268], [154.88974166967972, 15.529178756451097], [152.93471534980068, 19.961226791542497], [151.95262522696723, 22.187626791853607], [150.82140941925383, 24.752094976686394], [157.07354101833, 27.114360494156273], [161.92165901902342, 28.488196976584945], [157.84221603126554, 38.8923142925544], [153.92502328393124, 47.772596998912924], [151.9608430384326, 51.11219699879672], [150.97053510439153, 53.35722679167105], [150.23468227109618, 55.02540643240599], [148.01511081089282, 60.05717875634474], [146.05279121882458, 66.73005159951235], [145.0482233093292, 66.35049206930213], [145.0482233093292, 68.97797436287786], [142.1436954817713, 73.36768742175563], [141.1578516888311, 75.60259699906204], [139.1820902855845, 78.96188787766654], [138.19420958377762, 82.32117875629885], [137.09350294998413, 84.81648259174001], [143.26146935771382, 88.3121802095042], [145.50985158938414, 89.5864518076259], [151.42845774344383, 80.64145824266579], [151.47719024670428, 80.65987102080628], [151.59902150486047, 80.38367934868735], [151.82455753837655, 80.0428189643409], [151.76011867165957, 80.01847179403151], [155.51746478707915, 71.50056167759168], [156.49955490973048, 70.38736167764262], [157.49848867661652, 68.12277710765008], [160.55210779283925, 62.35397727644904], [160.54018015411495, 62.340457287681176], [164.46854064494698, 53.434857288102016], [164.14117727063683, 53.063790621215006], [167.54113376783687, 45.35608338541078], [167.54113376782405, 45.35608338541078], [171.28256649951214, 36.87424893730408], [171.28256649951214, 35.761048937346224], [173.0608094728492, 31.72976905341023], [173.07963040781743, 31.740435826409186], [176.19301711298203, 23.506040632180717], [176.19301711298203, 23.30060303463143], [177.1186865986301, 21.411958147944315], [177.37287936460092, 21.123830428664952], [177.28446448952394, 21.07372126013846], [181.88628830964916, 11.684612985461076], [182.38060156965236, 11.964765238493698], [186.00799303115892, 2.3709120982246925], [189.94227883073265, -6.541034020350481], [189.94227883073265, -6.5639206015095235], [190.9037518199842, -9.833411985954994], [191.05704175967185, -10.180920543361351], [190.62055726066964, -10.304609432252137], [194.98540225050155, -20.199720542937722], [190.68413271683673, -21.418593723644015], [187.77712448449162, -22.516959168684338], [185.5368427124891, -23.786639827800634], [183.38772696474686, -20.132603000880938], [180.6577902239829, -13.943831706704406], [173.9994863304728, -16.962708985967904], [168.13169701025927, -18.625495048065325], [170.3004763766786, -24.361559367989347], [170.3004763766786, -27.252582311838477], [154.07816230659674, -18.058578825954033], [149.19232721271715, -15.843339511101204], [146.0936719309282, -14.672563367525216], [144.48543331132274, -9.203743785785589], [140.44015344183015, -11.496407894022365], [135.37932433699274, -6.907244574193272], [127.7838710902061, -3.2174790897034544]]]}, "properties": {"id": 21, "height_median_m": 8.8, "building_count": 19, "area_m2": 2471.7128545090463}}, {"type": "Feature", "geometry": {"type": "Polygon", "coordinates": [[[111.8430964098436, 30.739197716949988], [109.50605113308377, 36.03728338539458], [110.9327831628391, 36.03728338539458], [113.22896619578994, 37.33864610822862], [114.3687989016951, 32.17064069247288], [111.8430964098436, 30.739197716949988]]]}, "properties": {"id": 22, "height_median_m": 11.9, "building_count": 1, "area_m2": 17.79671017046462}}, {"type": "Feature", "geometry": {"type": "Polygon", "coordinates": [[[133.75684871724778, 85.352836545637], [130.51784556967115, 86.57664083153534], [128.53011751709488, 87.70318656129811], [124.9014063602193, 89.75976017225331], [124.88287683094569, 89.72825531616522], [124.58640436260698, 89.9382876900637], [124.2923342930381, 90.10495202864057], [124.30963253242666, 90.13436338251076], [116.43863906129019, 95.71047455717003], [119.55562265975078, 100.42127934873054], [120.52574130074632, 102.62053997870102], [121.66399763675948, 105.20096905331809], [123.44224060995701, 104.19314908241319], [123.44224060995701, 105.40885990995602], [127.78221506882589, 102.12928338523892], [127.05234207205368, 102.12928338523892], [138.99647476987022, 93.66760544666356], [135.58041487101553, 88.246655873969], [135.5804148710152, 88.24665587396977], [133.75684871724778, 85.352836545637]]]}, "properties": {"id": 23, "height_median_m": 9.5, "building_count": 2, "area_m2": 226.50367169681368}}, {"type": "Feature", "geometry": {"type": "Polygon", "coordinates": [[[213.67123314809237, -135.82655324483548], [217.01950679796295, -130.76619182313178], [230.46037824472666, -142.48560671723362], [228.0663673219442, -143.84241343876178], [226.02189922253376, -145.0011166145015], [221.88388244771102, -145.0011166145015], [215.67667371604054, -140.31053231882552], [216.65876383887405, -138.0841323189098], [213.67123314809237, -135.82655324483548]]]}, "properties": {"id": 24, "height_median_m": 6.8, "building_count": 1, "area_m2": 113.2835119698768}}, {"type": "Feature", "geometry": {"type": "Polygon", "coordinates": [[[262.8990380329554, -84.81108810815277], [262.8990380329554, -83.64069931511332], [253.8477374154291, -79.08085173875143], [255.13172457771782, -77.62545118433427], [253.0399298497149, -57.47151661462478], [260.5646618689331, -57.47151661462478], [261.54675199159215, -60.81111661449835], [266.50396602505936, -60.81111661449835], [267.5742784009206, -69.30351661459883], [266.5453084009327, -69.30351661459883], [266.5453084009327, -78.70771650106127], [274.10066256630586, -80.84871661453076], [276.5974861598286, -80.84871661453076], [273.28068232840985, -87.11471661471552], [272.044446416136, -87.11471661471552], [262.8990380329554, -84.81108810815277]]]}, "properties": {"id": 25, "height_median_m": 6.1, "building_count": 2, "area_m2": 354.59336780386786}}, {"type": "Feature", "geometry": {"type": "Polygon", "coordinates": [[[182.55968847678153, -51.9055166148355], [183.58236766241987, -51.9055166148355], [186.48739568162767, -49.710282106562694], [190.45371949040833, -48.58632424320068], [200.31963089186763, -44.11311661473501], [201.21940080800195, -44.11311661473501], [202.45889717590666, -42.70814641407428], [204.60717026448745, -47.57828520628635], [207.78215837235325, -49.9775197096486], [205.77245817499508, -52.25551661481494], [207.00825525453908, -53.65629366893245], [202.44572433474096, -60.55180397189656], [199.4260644452668, -58.26994591476033], [193.6286613632421, -63.19846695484467], [194.99739421282678, -67.07711661468312], [193.61292517356983, -67.07711661468312], [190.56758213255398, -68.80306609473269], [191.9064590760508, -73.35592060135953], [191.9064590760508, -76.67215106274767], [193.02122200501563, -79.19932054311413], [188.69665262744397, -80.42479632167154], [184.12674608547428, -81.46079492195749], [184.1342700894753, -81.49064454951339], [183.76308589207048, -81.54323675044698], [183.45666074679497, -81.61270338366636], [183.44930654330878, -81.58769539570791], [175.5710692050167, -82.7039439967928], [174.5109269901485, -77.89725554281824], [174.5109269901485, -75.67085554289251], [173.45728071181261, -70.89361968625833], [182.08369310298048, -69.49675598979307], [180.30546834871365, -65.46551740852063], [184.5694339853657, -63.048913047563694], [181.3401519147987, -53.287862358291385], [182.55968847678153, -51.9055166148355]]]}, "properties": {"id": 26, "height_median_m": 8.2, "building_count": 3, "area_m2": 603.6171973966246}}, {"type": "Feature", "geometry": {"type": "Polygon", "coordinates": [[[114.60342950567632, -53.07083269167613], [128.3526912234269, -50.84443269136493], [128.3526912234269, -49.6791166145243], [132.56713588556727, -49.6791166145243], [135.51340625371898, -48.56591661456644], [139.82616419861273, -48.56591661456644], [140.86605073782567, -60.3530394940318], [131.67091517154756, -61.511116614498356], [129.7045543021134, -61.511116614498356], [119.93175345484322, -62.6188644326516], [115.58551962850984, -63.85047937909645], [115.58551962850984, -58.97285554274368], [114.60342950567632, -54.52005554291225], [114.60342950567632, -53.07083269167613]]]}, "properties": {"id": 27, "height_median_m": 7.8, "building_count": 2, "area_m2": 283.78145234477034}}, {"type": "Feature", "geometry": {"type": "Polygon", "coordinates": [[[159.09885184332825, -53.018716614793355], [162.72584551789058, -51.990916501281745], [162.72584551789058, -51.951611543717775], [163.0032512714801, -51.912306586125894], [163.42584551789056, -51.792553850554214], [163.42584551789056, -51.85243021831878], [171.21845340589414, -50.74831424882324], [172.32322717053728, -57.00962431836989], [166.18222970659374, -57.783049419998356], [153.9502444981081, -59.323601172142496], [152.83778225439394, -53.018716614793355], [159.09885184332825, -53.018716614793355]]]}, "properties": {"id": 28, "height_median_m": 8.5, "building_count": 2, "area_m2": 113.18742978804413}}, {"type": "Feature", "geometry": {"type": "Polygon", "coordinates": [[[160.47957515, 111.517205307], [160.47957515, 110.461987971], [167.354206009, 106.009187971], [167.354206009, 104.890922049], [172.439756062, 101.432236829], [167.248451557, 95.547888702], [162.836707897, 98.881698861], [161.854617774, 99.994898861], [155.962077038, 104.447698861], [152.904944291, 107.912961463], [152.904944291, 109.290805308], [155.902874408, 112.688961678], [157.083858032, 115.366253586], [160.47957515, 111.517205307]]]}, "properties": {"id": 29, "height_median_m": 10.4, "building_count": 1, "area_m2": 156.54720330517776}}, {"type": "Feature", "geometry": {"type": "Polygon", "coordinates": [[[168.618386254, 93.576648144], [176.977270053, 97.366568939], [178.846433875, 93.923683385], [186.528638031, 93.923683385], [192.421178767, 98.376483385], [193.428353469, 98.376483385], [195.611895194, 99.614006598], [197.930996252, 95.670952029], [193.983239705, 93.433559305], [199.112127505, 83.259761509], [188.562361184, 75.287648701], [187.5368816, 76.450030693], [182.540129626, 74.184501627], [180.436877397, 78.952578053], [176.677992019, 86.408802727], [172.793564089, 84.207301524], [168.618386254, 90.123011114], [168.522951658, 90.25823011], [168.618386254, 90.366405307], [168.618386254, 93.576648144]]]}, "properties": {"id": 30, "height_median_m": 7.0, "building_count": 1, "area_m2": 428.873544367197}}]}