{"type": "FeatureCollection", "crs": {"type": "name", "properties": {"name": "EPSG:32628_local_enu_m_section_centroid", "lng0": -16.399373935639954, "lat0": 28.482694668232202}}, "features": [{"type": "Feature", "geometry": {"type": "Point", "coordinates": [-430.4306745643726, 431.7733476089563]}, "properties": {"osm_id": null, "category": "salud", "name": "Farmacia Cantillo", "extrude": false}}, {"type": "Feature", "geometry": {"type": "Point", "coordinates": [121.02915491169294, 235.40486760879702]}, "properties": {"osm_id": null, "category": "restauracion", "name": "Atelier", "extrude": false}}, {"type": "Feature", "geometry": {"type": "Point", "coordinates": [-76.91322177926342, 216.70310760895134]}, "properties": {"osm_id": null, "category": "restauracion", "name": "El Rincón de Tenorio", "extrude": false}}, {"type": "Feature", "geometry": {"type": "Point", "coordinates": [320.6349129190032, -7.272732391111987]}, "properties": {"osm_id": null, "category": "restauracion", "name": "La Tasquita De Mami", "extrude": false}}, {"type": "Feature", "geometry": {"type": "Point", "coordinates": [674.2502116640205, -235.5900523912878]}, "properties": {"osm_id": null, "category": "finanzas", "name": "BBVA", "extrude": false}}, {"type": "Feature", "geometry": {"type": "Point", "coordinates": [866.8110605652396, -354.8137723912433]}, "properties": {"osm_id": null, "category": "restauracion", "name": "El Campo", "extrude": false}}, {"type": "Feature", "geometry": {"type": "Point", "coordinates": [686.2852647202164, -363.2740923912394]}, "properties": {"osm_id": null, "category": "restauracion", "name": "Casa Tino", "extrude": false}}, {"type": "Feature", "geometry": {"type": "Point", "coordinates": [829.629595838357, -390.65881239131]}, "properties": {"osm_id": null, "category": "restauracion", "name": "El Mato", "extrude": false}}, {"type": "Feature", "geometry": {"type": "Point", "coordinates": [934.5204647521987, -419.93597239134857]}, "properties": {"osm_id": null, "category": "salud", "name": "Farmacia Los Naranjeros", "extrude": false}}]}