{"type": "FeatureCollection", "crs": {"type": "name", "properties": {"name": "wgs84_and_EPSG:32628_local_enu_m_section_centroid", "lng0": -16.572150028868972, "lat0": 28.403213091434292}}, "features": [{"type": "Feature", "geometry": {"type": "Polygon", "coordinates": [[[-16.57026, 28.40719], [-16.5702, 28.40693], [-16.57006, 28.4066], [-16.56989, 28.40626], [-16.56981, 28.40595], [-16.56973, 28.40575], [-16.56963, 28.40549], [-16.56946, 28.40517], [-16.56929, 28.40492], [-16.56926, 28.40483], [-16.56919, 28.40461], [-16.56906, 28.40425], [-16.56899, 28.40406], [-16.56882, 28.40358], [-16.56878, 28.4034], [-16.56871, 28.403], [-16.56865, 28.40264], [-16.5686, 28.40238], [-16.56861, 28.40234], [-16.56865, 28.40231], [-16.56881, 28.40215], [-16.569, 28.40197], [-16.56915, 28.40185], [-16.56926, 28.40179], [-16.56954, 28.40167], [-16.56973, 28.40159], [-16.56998, 28.40144], [-16.57015, 28.40136], [-16.57049, 28.40127], [-16.57094, 28.40119], [-16.57137, 28.40118], [-16.57183, 28.40117], [-16.57237, 28.40111], [-16.57264, 28.40107], [-16.57312, 28.40094], [-16.57357, 28.40082], [-16.57388, 28.40071], [-16.57409, 28.4006], [-16.57432, 28.40043], [-16.57447, 28.40027], [-16.57469, 28.40003], [-16.57485, 28.39985], [-16.57502, 28.39964], [-16.57517, 28.39947], [-16.57545, 28.39914], [-16.57552, 28.39899], [-16.57556, 28.39896], [-16.57557, 28.39902], [-16.57558, 28.39921], [-16.57559, 28.39937], [-16.57555, 28.39951], [-16.57551, 28.3997], [-16.5755, 28.39984], [-16.57553, 28.39995], [-16.57552, 28.4], [-16.57551, 28.40024], [-16.57551, 28.40054], [-16.57542, 28.40077], [-16.57521, 28.40116], [-16.57512, 28.4013], [-16.57509, 28.40138], [-16.5752, 28.40147], [-16.57539, 28.40157], [-16.5755, 28.40159], [-16.57561, 28.40159], [-16.57572, 28.40167], [-16.57584, 28.40173], [-16.57593, 28.40173], [-16.57605, 28.40174], [-16.57613, 28.40178], [-16.5762, 28.40187], [-16.57621, 28.40199], [-16.57618, 28.40209], [-16.57608, 28.40219], [-16.57595, 28.40229], [-16.57579, 28.40241], [-16.57564, 28.40254], [-16.57552, 28.40266], [-16.57549, 28.40278], [-16.5756, 28.40298], [-16.5758, 28.40326], [-16.57593, 28.40348], [-16.57602, 28.40369], [-16.57607, 28.40386], [-16.57603, 28.40395], [-16.57579, 28.40405], [-16.57561, 28.40418], [-16.57549, 28.40429], [-16.57535, 28.40436], [-16.5752, 28.40438], [-16.57521, 28.40432], [-16.57519, 28.4043], [-16.57511, 28.40424], [-16.57506, 28.4042], [-16.57499, 28.40415], [-16.57496, 28.40413], [-16.57492, 28.40407], [-16.57489, 28.40404], [-16.57484, 28.40401], [-16.5748, 28.40397], [-16.57475, 28.40394], [-16.5747, 28.40392], [-16.57462, 28.40388], [-16.57453, 28.40385], [-16.57446, 28.40384], [-16.57436, 28.40384], [-16.57424, 28.40384], [-16.57417, 28.40385], [-16.57398, 28.40388], [-16.57392, 28.40388], [-16.57387, 28.4039], [-16.57372, 28.40397], [-16.57362, 28.40399], [-16.57357, 28.404], [-16.57352, 28.404], [-16.57337, 28.40398], [-16.57331, 28.40398], [-16.57325, 28.404], [-16.5732, 28.40402], [-16.57315, 28.40405], [-16.57311, 28.40406], [-16.57298, 28.40408], [-16.5729, 28.40409], [-16.57286, 28.40411], [-16.57279, 28.40412], [-16.57274, 28.40415], [-16.57269, 28.40418], [-16.57263, 28.40422], [-16.57257, 28.40426], [-16.57249, 28.40434], [-16.57224, 28.40461], [-16.57219, 28.40467], [-16.57218, 28.40469], [-16.57214, 28.40473], [-16.57208, 28.40478], [-16.57205, 28.4048], [-16.57203, 28.40484], [-16.57201, 28.40494], [-16.572, 28.40498], [-16.57198, 28.40512], [-16.57192, 28.40534], [-16.57189, 28.40542], [-16.57184, 28.40565], [-16.57181, 28.40576], [-16.57176, 28.40588], [-16.57168, 28.40614], [-16.57165, 28.40621], [-16.57162, 28.4063], [-16.57162, 28.40639], [-16.57157, 28.40643], [-16.57152, 28.40644], [-16.5715, 28.40649], [-16.57145, 28.40665], [-16.57141, 28.40675], [-16.57136, 28.40685], [-16.57133, 28.40694], [-16.57131, 28.40703], [-16.57131, 28.40714], [-16.57134, 28.40723], [-16.5714, 28.40724], [-16.57147, 28.40724], [-16.57152, 28.40727], [-16.57151, 28.4073], [-16.57148, 28.40733], [-16.57139, 28.40736], [-16.57135, 28.40736], [-16.57128, 28.40731], [-16.57127, 28.4073], [-16.57123, 28.4073], [-16.57116, 28.40732], [-16.5711, 28.40734], [-16.57105, 28.40735], [-16.57105, 28.40739], [-16.57106, 28.40744], [-16.57107, 28.4075], [-16.57109, 28.40758], [-16.57111, 28.40765], [-16.57114, 28.40772], [-16.57112, 28.40778], [-16.57106, 28.40778], [-16.57102, 28.40775], [-16.57099, 28.40769], [-16.57096, 28.40762], [-16.57094, 28.40756], [-16.57091, 28.40752], [-16.57086, 28.40754], [-16.57082, 28.40757], [-16.57076, 28.40757], [-16.5707, 28.40754], [-16.57066, 28.4075], [-16.57061, 28.40754], [-16.5706, 28.40758], [-16.57058, 28.40767], [-16.57055, 28.40801], [-16.57052, 28.40807], [-16.5705, 28.40815], [-16.57048, 28.40816], [-16.57045, 28.40798], [-16.57038, 28.40765], [-16.57029, 28.40738], [-16.57026, 28.40719]]]}, "properties": {"cusec": "3803104001", "mun": "031", "nmun": "Realejos, Los", "area_m2": 315973.1599876608, "perimeter_m": 3205.711957136622, "coords_system": "wgs84"}}, {"type": "Feature", "geometry": {"type": "Polygon", "coordinates": [[[185.0707003389156, -442.70946153458783], [190.94587092645233, -413.76626153449706], [204.6546022969075, -377.0306615347013], [221.300918961305, -339.18186153455224], [229.13447974457134, -304.6726615346722], [236.9680405278377, -282.4086615347241], [246.75999150683364, -253.46546153463336], [263.40630817123116, -217.8430615344], [280.05262483562865, -190.0130615346626], [282.99021012922304, -179.9942615346464], [289.8445758146246, -155.50386153478257], [302.574112087215, -115.42866153471778], [309.4284777726165, -94.27786153472752], [326.07479443701396, -40.844261534772954], [329.99157482847323, -20.806661534740556], [336.8459405138747, 23.721338465551156], [342.72111110106357, 63.796538465220465], [347.6170865907355, 92.7397384653112], [346.6378914928707, 97.19253846553812], [342.72111110106357, 100.53213846541169], [327.0539895348788, 118.34333846552838], [308.44928267475166, 138.38093846556077], [293.7613562060838, 151.73933846545054], [282.99021012922304, 158.41853846559317], [255.5727473879648, 171.77693846548294], [236.9680405278377, 180.68253846554128], [212.48816308017385, 197.38053846530462], [195.84184641577636, 206.28613846536297], [162.54921308732926, 216.30493846537917], [118.48543368167353, 225.2105384654375], [76.38004447174741, 226.32373846539537], [31.337069968574742, 227.43693846535322], [-21.539465318212148, 234.11613846549585], [-47.97773296160559, 238.56893846532728], [-94.97909766085576, 253.0405384655704], [-139.0428770665115, 266.39893846546016], [-169.39792510136417, 278.6441384653921], [-189.96102215756878, 290.889338465324], [-212.4825094091551, 309.8137384653985], [-227.17043587782297, 327.62493846551524], [-248.7127280315445, 354.3417384652947], [-264.37984959807716, 374.3793384653271], [-281.02616626212676, 397.7565384652331], [-295.7140927307947, 416.6809384653077], [-323.1315554720529, 453.4165384654989], [-329.98592115745447, 470.1145384652622], [-333.9027015489137, 473.4541384655313], [-334.8818966467785, 466.7749384653887], [-335.8610917446433, 445.6241384653984], [-336.8402868425081, 427.8129384652817], [-332.92350645104887, 412.22813846547626], [-329.0067260595896, 391.077338465486], [-328.02753096172484, 375.492538465285], [-330.9651162553193, 363.2473384653531], [-329.98592115745447, 357.68133846556384], [-329.0067260595896, 330.9645384653888], [-329.0067260595896, 297.56853846546664], [-320.19397017845847, 271.9649384652495], [-299.63087312225394, 228.55013846531108], [-290.81811724112276, 212.9653384655056], [-287.8805319475283, 204.05973846544725], [-298.65167802438907, 194.04093846543105], [-317.2563848845162, 182.908938465457], [-328.02753096172484, 180.68253846554128], [-338.7986770385856, 180.68253846554128], [-349.56982311544635, 171.77693846548294], [-361.32016429017193, 165.0977384653403], [-370.1329201713031, 165.0977384653403], [-381.88326134602863, 163.98453846538246], [-389.71682212929494, 159.53173846555103], [-396.57118781469654, 149.51293846553483], [-397.5503829125613, 136.15453846524957], [-394.61279761896685, 125.02253846527552], [-384.82084663997097, 113.89053846530146], [-372.0913103670327, 102.7585384653274], [-356.4241888008479, 89.40013846543764], [-341.73626233218, 74.92853846559001], [-329.98592115745447, 61.57013846530475], [-327.04833586351214, 48.21173846541498], [-337.8194819407208, 25.94773846546687], [-357.4033838987127, -5.221861534539585], [-370.1329201713031, -29.71226153440341], [-378.94567605243424, -53.08946153470487], [-383.84165154210615, -72.01386153477941], [-379.92487115029905, -82.03266153440012], [-356.4241888008479, -93.16466153476966], [-338.7986770385856, -107.63626153461729], [-327.04833586351214, -119.8814615345492], [-313.339604493057, -127.67386153464969], [-298.65167802438907, -129.9002615345654], [-299.63087312225394, -123.22106153442277], [-297.67248292652425, -120.99466153450706], [-289.83892214325795, -114.31546153475992], [-284.94294665393386, -109.862661534533], [-278.08858096853237, -104.29666153474372], [-275.1509956749379, -102.07026153443252], [-271.2342152831308, -95.39106153468538], [-268.2966299895364, -92.05146153441632], [-263.4006544998645, -88.71186153454275], [-259.48387410840525, -84.25906153471132], [-254.5878986190812, -80.91946153444226], [-249.69192312940928, -78.69306153452655], [-241.85836234614297, -74.24026153469512], [-233.04560646501182, -70.90066153442606], [-226.1912407796103, -69.7874615344682], [-216.39928980061433, -69.7874615344682], [-204.64894862588875, -69.7874615344682], [-197.79458294048723, -70.90066153442606], [-179.18987608036014, -74.24026153469512], [-173.3147054931713, -74.24026153469512], [-168.41873000349935, -76.46666153461084], [-153.73080353517938, -84.25906153471132], [-143.93885255583552, -86.48546153462704], [-139.0428770665115, -87.59866153458489], [-134.14690157683958, -87.59866153458489], [-119.45897510851958, -85.37226153466918], [-113.58380452098285, -85.37226153466918], [-107.708633933794, -87.59866153458489], [-102.81265844412209, -89.8250615345006], [-97.91668295445018, -93.16466153476966], [-93.99990256299094, -94.27786153472752], [-81.27036629040057, -96.50426153464323], [-73.43680550713422, -97.61746153460109], [-69.52002511532712, -99.8438615345168], [-62.665659430273465, -100.95706153447466], [-57.769683940601546, -104.29666153474372], [-52.87370845127751, -107.63626153461729], [-46.998537863740786, -112.08906153444872], [-41.12336727620406, -116.54186153467563], [-33.289806492937714, -125.44746153473397], [-8.809929045621768, -155.50386153478257], [-3.9139535559498504, -162.1830615345297], [-2.9347584580850428, -164.40946153444543], [0.9820219333741873, -168.86226153467234], [6.857192520910913, -174.42826153446163], [9.794777814505336, -176.65466153477283], [11.753168010234951, -181.10746153460425], [13.711558206312446, -192.2394615345783], [14.690753304177253, -196.69226153440974], [16.649143499906867, -212.2770615346107], [22.524314087443592, -236.76746153447453], [25.461899381038016, -245.67306153453288], [30.357874870362053, -271.27666153475], [33.29546016430436, -283.521861534682], [38.191435653628396, -296.88026153457173], [46.02499643689473, -325.82346153466244], [48.962581730489156, -333.615861534763], [51.90016702443146, -343.6346615347792], [51.90016702443146, -353.65346153439987], [56.7961425137555, -358.1062615346268], [61.69211800342742, -359.21946153458464], [63.65050819915703, -364.7854615347694], [68.54648368882894, -382.59666153449064], [72.46326408028818, -393.72866153446466], [77.3592395699601, -404.8606615344387], [80.29682486355452, -414.8794615344549], [82.25521505928414, -424.8982615344711], [82.25521505928414, -437.14346153440306], [79.31762976568972, -447.16226153441926], [73.44245917815299, -448.2754615347726], [66.58809349275145, -448.2754615347726], [61.69211800342742, -451.61506153464614], [62.67131310129222, -454.9546615345197], [65.60889839488665, -458.2942615347888], [74.42165427601779, -461.63386153466234], [78.3384346678249, -461.63386153466234], [85.19280035287856, -456.0678615344776], [86.17199545109125, -454.9546615345197], [90.08877584255048, -454.9546615345197], [96.94314152795201, -457.18106153443546], [102.81831211514086, -459.40746153474663], [107.71428760481277, -460.52066153470446], [107.71428760481277, -464.9734615345359], [106.73509250694796, -470.53946153472066], [105.75589740908316, -477.21866153446786], [103.79750721300566, -486.12426153452617], [101.83911701727605, -493.91666153462666], [98.90153172368163, -501.70906153472714], [100.85992191941124, -508.3882615344743], [106.73509250694796, -508.3882615344743], [110.65187289840719, -505.0486615346007], [113.5894581923495, -498.3694615344581], [116.52704348594392, -490.57706153475306], [118.48543368167353, -483.89786153461046], [121.42301897526795, -479.44506153477903], [126.31899446493988, -481.67146153469474], [130.2357748563991, -485.0110615345683], [136.11094544393583, -485.0110615345683], [141.98611603147256, -481.67146153469474], [145.90289642293178, -477.21866153446786], [150.79887191260372, -481.67146153469474], [151.7780670104685, -486.12426153452617], [153.73645720619814, -496.14306153454237], [156.67404249979253, -533.9918615346915], [159.61162779373484, -540.6710615344386], [161.57001798946447, -549.5766615344969], [163.52840818519408, -550.6898615344548], [166.4659934787885, -530.6522615344225], [173.32035916419002, -493.91666153462666], [182.13311504532118, -463.86026153457806], [185.0707003389156, -442.70946153458783]]]}, "properties": {"cusec": "3803104001", "mun": "031", "nmun": "Realejos, Los", "area_m2": 315973.1599876608, "perimeter_m": 3205.711957136622, "coords_system": "local_m_enu"}}]}