{"type": "FeatureCollection", "crs": {"type": "name", "properties": {"name": "wgs84_and_EPSG:32628_local_enu_m_section_centroid", "lng0": -16.318476459291773, "lat0": 28.43484724651722}}, "features": [{"type": "Feature", "geometry": {"type": "Polygon", "coordinates": [[[-16.31597, 28.43724], [-16.31628, 28.43683], [-16.31648, 28.43653], [-16.31664, 28.43625], [-16.31672, 28.43601], [-16.31683, 28.43561], [-16.31709, 28.43343], [-16.31756, 28.43302], [-16.31803, 28.4326], [-16.3185, 28.43214], [-16.31917, 28.43157], [-16.31975, 28.43135], [-16.32008, 28.43132], [-16.32047, 28.43138], [-16.32085, 28.43146], [-16.32047, 28.43283], [-16.32023, 28.43364], [-16.3201, 28.43409], [-16.31933, 28.43689], [-16.319, 28.43736], [-16.31869, 28.43793], [-16.31868, 28.43793], [-16.31836, 28.43846], [-16.3183, 28.43843], [-16.31825, 28.43839], [-16.31818, 28.43833], [-16.31806, 28.43824], [-16.31789, 28.43811], [-16.31784, 28.43808], [-16.31763, 28.43805], [-16.31757, 28.43805], [-16.31747, 28.43806], [-16.3174, 28.43806], [-16.3173, 28.43805], [-16.31722, 28.43804], [-16.31709, 28.43802], [-16.31703, 28.43801], [-16.3169, 28.43797], [-16.31686, 28.43793], [-16.31628, 28.43746], [-16.31628, 28.43746], [-16.31618, 28.43738], [-16.31609, 28.43731], [-16.31604, 28.43727], [-16.316, 28.43724], [-16.31597, 28.43724]]]}, "properties": {"cusec": "3803812011", "mun": "038", "nmun": "Santa Cruz de Tenerife", "area_m2": 199087.00017883885, "perimeter_m": 2012.7457715198093, "coords_system": "wgs84"}}, {"type": "Feature", "geometry": {"type": "Polygon", "coordinates": [[[245.35794927496528, -266.3613177031323], [215.01196898131658, -220.7201177032782], [195.43391717894013, -187.32411770335602], [179.77147573689987, -156.15451770334957], [171.94025501587976, -129.43771770317454], [161.17232652460748, -84.90971770327832], [135.72085918137898, 157.7678822966307], [89.71243744569003, 203.40908229688026], [43.70401571000105, 250.1634822966922], [-2.304406025687919, 301.37068229673105], [-67.89087956375333, 364.82308229670184], [-124.66722979071457, 389.3134822969611], [-156.97101526487913, 392.65308229683467], [-195.14821627954797, 385.97388229669207], [-232.34651470413277, 377.0682822966337], [-195.14821627954797, 224.5598822968705], [-171.6545541164876, 134.39068229672472], [-158.92882044504722, 84.29668229664372], [-83.55332100579359, -227.39931770302533], [-51.24953553162902, -279.71971770341753], [-20.903555237980317, -343.17211770338827], [-19.92465264789627, -343.17211770338827], [11.400230236184257, -402.1717177031321], [17.27364577668852, -398.8321177032586], [22.16815872745652, -394.3793177030317], [29.020476858044834, -387.7001177032845], [40.76730793974892, -377.6813177032683], [57.408651971873226, -363.20971770342067], [62.30316492229345, -359.87011770315166], [82.86011931475393, -356.53051770327806], [88.73353485560598, -356.53051770327806], [98.5225607567942, -357.6437177032359], [105.37487888773029, -357.6437177032359], [115.1639047889185, -356.53051770327806], [122.99512550993865, -355.41731770332024], [135.72085918137898, -353.19091770340447], [141.59427472223103, -352.0777177030511], [154.3200083936714, -347.6249177032197], [158.23561875435536, -343.17211770338827], [215.01196898131658, -290.8517177033916], [215.01196898131658, -290.8517177033916], [224.8009948825048, -281.94611770333324], [233.611118193609, -274.15371770323276], [238.5056311440292, -269.70091770340133], [242.42124150471318, -266.3613177031323], [245.35794927496528, -266.3613177031323]]]}, "properties": {"cusec": "3803812011", "mun": "038", "nmun": "Santa Cruz de Tenerife", "area_m2": 199087.00017883885, "perimeter_m": 2012.7457715198093, "coords_system": "local_m_enu"}}]}