{"type": "FeatureCollection", "crs": {"type": "name", "properties": {"name": "wgs84_and_EPSG:32628_local_enu_m_section_centroid", "lng0": -15.450449086161882, "lat0": 28.091617667536994}}, "features": [{"type": "Feature", "geometry": {"type": "Polygon", "coordinates": [[[-15.4493, 28.093], [-15.4493, 28.0929], [-15.4495, 28.0921], [-15.4496, 28.092], [-15.4497, 28.0919], [-15.4501, 28.0916], [-15.451, 28.0906], [-15.4514, 28.0902], [-15.4516, 28.09], [-15.4519, 28.0903], [-15.4519, 28.0903], [-15.4517, 28.0906], [-15.451, 28.0913], [-15.4505, 28.0918], [-15.4501, 28.0923], [-15.4498, 28.0932], [-15.4495, 28.0931], [-15.4493, 28.093]]]}, "properties": {"cusec": "3501602032", "mun": "016", "nmun": "Palmas de Gran Canaria, Las", "area_m2": 20935.34597463322, "perimeter_m": 902.8285186409992, "coords_system": "wgs84"}}, {"type": "Feature", "geometry": {"type": "Polygon", "coordinates": [[[112.84719306444536, -153.88124978182887], [112.84719306444536, -142.74924978185481], [93.20598654599218, -53.69324978166688], [83.3853832868528, -42.56124978169282], [73.56478002771344, -31.429249781718767], [34.28236699098151, 1.9667502182034013], [-54.103062341447256, 113.28675021833945], [-93.38547537800473, 157.81475021823567], [-113.02668189628346, 180.07875021818379], [-142.488491673876, 146.68275021826162], [-142.488491673876, 146.68275021826162], [-122.84728515559728, 113.28675021833945], [-54.103062341447256, 35.36275021812557], [-5.000046045575963, -20.29724978174471], [34.28236699098151, -75.95724978201048], [63.744176768574064, -176.14524978177698], [93.20598654599218, -165.01324978180293], [112.84719306444536, -153.88124978182887]]]}, "properties": {"cusec": "3501602032", "mun": "016", "nmun": "Palmas de Gran Canaria, Las", "area_m2": 20935.34597463322, "perimeter_m": 902.8285186409992, "coords_system": "local_m_enu"}}]}