{"type": "FeatureCollection", "crs": {"type": "name", "properties": {"name": "EPSG:32628_local_enu_m_section_centroid", "lng0": -14.024985481008166, "lat0": 28.209203887113947}}, "features": [{"type": "Feature", "geometry": {"type": "Polygon", "coordinates": [[[-18.78767770186881, -381.0609264755328], [-32.03094128358493, -343.7687264755604], [-51.84678753173204, -351.7837664754943], [-40.271194178967896, -387.628806475561], [-18.78767770186881, -381.0609264755328]]]}, "properties": {"name": "", "kind": "water", "category": "agua", "extrude": false}}]}