{"type": "FeatureCollection", "crs": {"type": "name", "properties": {"name": "EPSG:32628_local_enu_m_section_centroid", "lng0": -16.28776920678043, "lat0": 28.472661620647656}}, "features": [{"type": "Feature", "geometry": {"type": "LineString", "coordinates": [[-246.08573049190423, 327.4612104972409], [-181.696973037085, 325.01217049709635]]}, "properties": {"osm_id": null, "type": "residential", "width_m": 5, "extrude": false}}, {"type": "Feature", "geometry": {"type": "LineString", "coordinates": [[-30.138054526687814, 357.5176104972895], [-27.672802469391936, 335.4762504971748]]}, "properties": {"osm_id": null, "type": "residential", "width_m": 5, "extrude": false}}, {"type": "Feature", "geometry": {"type": "LineString", "coordinates": [[89.06198113783462, 357.5176104972895], [112.65163246981588, 236.1788104971373]]}, "properties": {"osm_id": null, "type": "residential", "width_m": 5, "extrude": false}}, {"type": "Feature", "geometry": {"type": "LineString", "coordinates": [[-27.672802469391936, 335.4762504971748], [41.51086245551883, 354.0666904973016], [43.95724381751243, 354.7346104971972], [56.38374914696999, 357.5176104972895]]}, "properties": {"osm_id": null, "type": "residential", "width_m": 5, "extrude": false}}, {"type": "Feature", "geometry": {"type": "LineString", "coordinates": [[231.54186088546678, 350.0684649374102], [237.5149371996389, 335.142290497227], [246.71333112180557, 315.1046904971946]]}, "properties": {"osm_id": null, "type": "residential", "width_m": 5, "extrude": false}}, {"type": "Feature", "geometry": {"type": "LineString", "coordinates": [[83.29505612276382, 230.27885049700473], [43.95724381751243, 354.7346104971972], [43.0493799125598, 357.5176104972895]]}, "properties": {"osm_id": null, "type": "residential", "width_m": 5, "extrude": false}}, {"type": "Feature", "geometry": {"type": "LineString", "coordinates": [[156.1972207179605, 204.00733049728743], [148.46665561326807, 243.19197049722774], [126.96764275899412, 357.5176104972895]]}, "properties": {"osm_id": null, "type": "residential", "width_m": 5, "extrude": false}}, {"type": "Feature", "geometry": {"type": "LineString", "coordinates": [[167.35271972986112, 319.33485049719263], [158.77921669909023, 357.5176104972895]]}, "properties": {"osm_id": null, "type": "residential", "width_m": 5, "extrude": false}}, {"type": "Feature", "geometry": {"type": "LineString", "coordinates": [[206.20125576285287, 328.68573049691776], [237.5149371996389, 335.142290497227]]}, "properties": {"osm_id": null, "type": "residential", "width_m": 5, "extrude": false}}, {"type": "Feature", "geometry": {"type": "LineString", "coordinates": [[246.71333112180557, 315.1046904971946], [267.0932871833748, 323.296444476903]]}, "properties": {"osm_id": null, "type": "residential", "width_m": 5, "extrude": false}}, {"type": "Feature", "geometry": {"type": "LineString", "coordinates": [[-65.0994750963447, 357.5176104972895], [-66.52133850203603, 330.8008104971145], [-68.96771986437727, 257.8862104973042], [-71.80552224438719, 204.11865049700637]]}, "properties": {"osm_id": null, "type": "residential", "width_m": 5, "extrude": false}}, {"type": "Feature", "geometry": {"type": "LineString", "coordinates": [[206.20125576285287, 328.68573049691776], [167.35271972986112, 319.33485049719263]]}, "properties": {"osm_id": null, "type": "residential", "width_m": 5, "extrude": false}}, {"type": "Feature", "geometry": {"type": "LineString", "coordinates": [[-245.19263260902767, 350.15158452147546], [-246.08573049190423, 327.4612104972409], [-249.70637490794684, 282.59925049700144], [-254.59913763262932, 247.97873049700698], [-256.26267695893796, 235.62221049696063]]}, "properties": {"osm_id": null, "type": "residential", "width_m": 5, "extrude": false}}, {"type": "Feature", "geometry": {"type": "LineString", "coordinates": [[-195.59241917475222, 225.60341049694443], [-191.58035374069334, 256.10509049705524], [-188.93826186951776, 274.13893049700533], [-181.696973037085, 325.01217049709635], [-177.51844844957515, 357.5176104972895]]}, "properties": {"osm_id": null, "type": "secondary", "width_m": 9, "extrude": false}}, {"type": "Feature", "geometry": {"type": "LineString", "coordinates": [[-293.87838009696117, 304.1560954725844], [-255.6755454320873, 285.4935704972082], [-249.70637490794684, 282.59925049700144]]}, "properties": {"osm_id": null, "type": "residential", "width_m": 5, "extrude": false}}, {"type": "Feature", "geometry": {"type": "LineString", "coordinates": [[-302.040227276071, 285.0865100656131], [-301.9610808059985, 284.93697049703155], [-302.00053756954503, 285.2126985293327]]}, "properties": {"osm_id": null, "type": "pedestrian", "width_m": 4, "extrude": false}}, {"type": "Feature", "geometry": {"type": "LineString", "coordinates": [[-298.3193578181479, 294.9398009163025], [-292.8605421384227, 291.6161704971742], [-297.55759435392326, 258.9994104972621], [-302.93963335086545, 258.1088504971376], [-293.3498184106824, 253.0994504971295], [-302.74392284203105, 254.10133049697293], [-307.8834670498048, 256.34484634448495]]}, "properties": {"osm_id": null, "type": "pedestrian", "width_m": 4, "extrude": false}}, {"type": "Feature", "geometry": {"type": "LineString", "coordinates": [[256.69456707965725, 291.6161704971742], [263.15301387605734, 294.51049049698554], [280.9413694020694, 302.41382419116064]]}, "properties": {"osm_id": null, "type": "residential", "width_m": 5, "extrude": false}}, {"type": "Feature", "geometry": {"type": "LineString", "coordinates": [[-20.822934654975494, 284.6030104970838], [-27.672802469391936, 335.4762504971748]]}, "properties": {"osm_id": null, "type": "residential", "width_m": 5, "extrude": false}}, {"type": "Feature", "geometry": {"type": "LineString", "coordinates": [[246.71333112180557, 315.1046904971946], [256.69456707965725, 291.6161704971742]]}, "properties": {"osm_id": null, "type": "residential", "width_m": 5, "extrude": false}}, {"type": "Feature", "geometry": {"type": "LineString", "coordinates": [[292.29444168094693, 269.2411624933129], [278.41843357660787, 264.6767304971658], [277.1463152683156, 264.23145049710354]]}, "properties": {"osm_id": null, "type": "pedestrian", "width_m": 4, "extrude": false}}, {"type": "Feature", "geometry": {"type": "LineString", "coordinates": [[167.35271972986112, 319.33485049719263], [182.03100790356098, 260.0012904971055]]}, "properties": {"osm_id": null, "type": "residential", "width_m": 5, "extrude": false}}, {"type": "Feature", "geometry": {"type": "LineString", "coordinates": [[282.52835426525775, 296.18029049712004], [283.7552173363186, 296.645516398995]]}, "properties": {"osm_id": null, "type": "pedestrian", "width_m": 4, "extrude": false}}, {"type": "Feature", "geometry": {"type": "LineString", "coordinates": [[292.8705419690102, 265.73622244058083], [292.70530073229145, 265.7899304971237], [291.72674818742445, 265.9012504972381], [290.45462987878454, 265.9012504972381], [287.5189722441836, 265.233330496947], [283.0176305375174, 262.6729704970835], [281.25623595696544, 260.7805304971156], [280.86481493894917, 258.66545049691877], [278.41843357660787, 264.6767304971658], [276.1677627234486, 270.3540504970695], [278.9077098492152, 268.572930497216], [281.0605254477835, 268.01633049703935], [282.8219200286831, 267.6823704970916], [289.8674983519339, 270.1314104972362], [290.7481956425575, 270.5766904972984], [291.3353271694081, 271.244610497194], [291.5310376782425, 272.135170496923], [290.7481956425575, 274.8068504972964], [282.52835426525775, 296.18029049712004]]}, "properties": {"osm_id": null, "type": "pedestrian", "width_m": 4, "extrude": false}}, {"type": "Feature", "geometry": {"type": "LineString", "coordinates": [[229.88222734953743, 222.7090904971331], [217.65032053817885, 281.597370497158], [206.20125576285287, 328.68573049691776]]}, "properties": {"osm_id": null, "type": "residential", "width_m": 5, "extrude": false}}, {"type": "Feature", "geometry": {"type": "LineString", "coordinates": [[-241.09511251297837, 124.63617049716788], [-220.44765381548575, 122.85505049691892], [-217.41414092629384, 125.74937049712574], [-212.91279921962766, 159.36801049727677], [-215.06561481854357, 162.37365049720253], [-236.88733656973756, 163.8208104971082], [-241.09511251297837, 124.63617049716788]]}, "properties": {"osm_id": null, "type": "pedestrian", "width_m": 4, "extrude": false}}, {"type": "Feature", "geometry": {"type": "LineString", "coordinates": [[-206.65006293240953, 149.01525049691728], [-198.13665579168446, 143.33793049701356], [-190.8953669592517, 138.32853049700546], [-184.53477541744257, 134.0983704970074], [-182.57767032770863, 130.09085049723822], [-186.78544627060182, 122.96637049703335], [-195.98384019276853, 119.73809049727421], [-207.33504971385116, 119.73809049727421], [-210.56427311187738, 119.73809049727421]]}, "properties": {"osm_id": null, "type": "service", "width_m": 3.5, "extrude": false}}, {"type": "Feature", "geometry": {"type": "LineString", "coordinates": [[-308.3216723478076, 126.26495786541071], [-288.7506214497729, 124.85881049700126], [-241.1929677675694, 120.51733049728426], [-211.15140463872805, 115.17397049693287]]}, "properties": {"osm_id": null, "type": "residential", "width_m": 5, "extrude": false}}, {"type": "Feature", "geometry": {"type": "LineString", "coordinates": [[-162.22377739364129, 7.416210497294742], [-208.60716802214347, 102.81745049728201], [-211.15140463872805, 115.17397049693287], [-210.56427311187738, 119.73809049727421], [-206.65006293240953, 149.01525049691728], [-204.79081309691892, 163.15289049721258], [-195.59241917475222, 225.60341049694443]]}, "properties": {"osm_id": null, "type": "secondary", "width_m": 9, "extrude": false}}, {"type": "Feature", "geometry": {"type": "LineString", "coordinates": [[-241.1929677675694, 120.51733049728426], [-247.35784880019654, 52.83477049691996], [-243.63934912956302, 38.140530497238956], [-223.08974568666133, 12.536930497021785]]}, "properties": {"osm_id": null, "type": "residential", "width_m": 5, "extrude": false}}, {"type": "Feature", "geometry": {"type": "LineString", "coordinates": [[-294.8176472281567, 56.508330497136825], [-247.35784880019654, 52.83477049691996]]}, "properties": {"osm_id": null, "type": "residential", "width_m": 5, "extrude": false}}, {"type": "Feature", "geometry": {"type": "LineString", "coordinates": [[-216.92486465368654, 3.9652904969112512], [-182.0883940551013, -35.33066950274801], [-153.31894923489992, -23.530749502878336]]}, "properties": {"osm_id": null, "type": "residential", "width_m": 5, "extrude": false}}, {"type": "Feature", "geometry": {"type": "LineString", "coordinates": [[-161.2452248487743, -55.36826950278041], [-153.80822550750722, -32.77030950288449], [-153.31894923489992, -23.530749502878336], [-153.9060807620982, -13.177989502914329], [-156.15675161525746, -3.7157895030748023], [-162.22377739364129, 7.416210497294742]]}, "properties": {"osm_id": null, "type": "secondary", "width_m": 9, "extrude": false}}, {"type": "Feature", "geometry": {"type": "LineString", "coordinates": [[-308.3216723478076, -43.082589502842836], [-279.7479380367882, -50.47018950288674], [-272.7023597131897, -52.362629502854645], [-249.21709863568714, -63.16066950288089], [-243.05221760271237, -70.73042950275251], [-236.49591555172125, -81.86242950272657], [-234.83237622541264, -84.75674950293339], [-208.21574700412714, -110.02638950280726], [-198.9194978277171, -112.25278950272298], [-176.6084998039158, -113.9225895028575]]}, "properties": {"osm_id": null, "type": "residential", "width_m": 5, "extrude": false}}, {"type": "Feature", "geometry": {"type": "LineString", "coordinates": [[-176.6084998039158, -113.9225895028575], [-161.2452248487743, -55.36826950278041]]}, "properties": {"osm_id": null, "type": "secondary", "width_m": 9, "extrude": false}}, {"type": "Feature", "geometry": {"type": "LineString", "coordinates": [[-227.19966637531118, -131.28850950291195], [-230.2331792645031, -125.27722950306043], [-234.9302314800036, -121.49234950272913]]}, "properties": {"osm_id": null, "type": "footway", "width_m": 2, "extrude": false}}, {"type": "Feature", "geometry": {"type": "LineString", "coordinates": [[-208.21574700412714, -110.02638950280726], [-211.24925989331905, -113.36598950307632], [-220.34979856089475, -117.0395495028977], [-234.9302314800036, -121.49234950272913], [-278.37796447390485, -134.96206950273333], [-294.7197919735657, -163.34866950304288], [-298.14472588077393, -198.4144695027041], [-305.581725222041, -207.98798950305354]]}, "properties": {"osm_id": null, "type": "footway", "width_m": 2, "extrude": false}}, {"type": "Feature", "geometry": {"type": "LineString", "coordinates": [[-220.34979856089475, -117.0395495028977], [-227.19966637531118, -131.28850950291195], [-228.56963993819448, -158.33926950303479], [-234.63666571657828, -173.36746950305908], [-232.77741588108768, -181.04854950304514], [-225.4382717944116, -187.95038950302114], [-221.62191686918703, -195.6314695030072], [-230.42888977333746, -237.82174950287327]]}, "properties": {"osm_id": null, "type": "footway", "width_m": 2, "extrude": false}}, {"type": "Feature", "geometry": {"type": "LineString", "coordinates": [[-182.47981507311763, -145.42614950281177], [-151.94897567201662, -155.66758950305683], [-140.30420038785633, -186.72586950294885], [-122.98382034298088, -208.98986950289697], [-121.61384678009759, -219.67658950280878], [-120.92885999865594, -224.57466950270245]]}, "properties": {"osm_id": null, "type": "residential", "width_m": 5, "extrude": false}}, {"type": "Feature", "geometry": {"type": "LineString", "coordinates": [[-308.3216723478076, -204.18848351760886], [-305.581725222041, -207.98798950305354], [-279.7479380367882, -241.3839895029757], [-256.06696645010356, -272.10830950291995], [-218.7841144891771, -320.5325095028664], [-203.22512902520128, -337.7871095028064], [-191.384643231859, -340.0135095027221]]}, "properties": {"osm_id": null, "type": "residential", "width_m": 5, "extrude": false}}, {"type": "Feature", "geometry": {"type": "LineString", "coordinates": [[-176.6084998039158, -113.9225895028575], [-180.0334337107764, -131.28850950291195], [-182.47981507311763, -145.42614950281177], [-184.82834118086788, -163.79394950270964], [-187.4704330520435, -215.0011495027485], [-187.9597093246508, -238.26702950293551], [-188.44898559691043, -263.5366695028094], [-191.384643231859, -340.0135095027221]]}, "properties": {"osm_id": null, "type": "secondary", "width_m": 9, "extrude": false}}, {"type": "Feature", "geometry": {"type": "LineString", "coordinates": [[-279.7479380367882, -241.3839895029757], [-274.36589903949834, -236.26326950285318], [-252.44632203371341, -239.93682950307004], [-240.9972572583874, -237.71042950275884], [-230.42888977333746, -237.82174950287327], [-187.9597093246508, -238.26702950293551]]}, "properties": {"osm_id": null, "type": "footway", "width_m": 2, "extrude": false}}, {"type": "Feature", "geometry": {"type": "LineString", "coordinates": [[-188.44898559691043, -263.5366695028094], [-134.2371746094725, -265.5404295028917], [-122.59239932496456, -265.98570950295397]]}, "properties": {"osm_id": null, "type": "residential", "width_m": 5, "extrude": false}}, {"type": "Feature", "geometry": {"type": "LineString", "coordinates": [[-120.92885999865594, -224.57466950270245], [-122.59239932496456, -265.98570950295397], [-125.8127982760358, -366.06238950300155]]}, "properties": {"osm_id": null, "type": "residential", "width_m": 5, "extrude": false}}, {"type": "Feature", "geometry": {"type": "LineString", "coordinates": [[-254.63990613923508, -353.9698265422561], [-218.7841144891771, -320.5325095028664]]}, "properties": {"osm_id": null, "type": "residential", "width_m": 5, "extrude": false}}, {"type": "Feature", "geometry": {"type": "LineString", "coordinates": [[-199.88224088852832, -366.06238950300155], [-199.70233986340207, -362.72278950273244], [-203.62878194999803, -366.06238950300155]]}, "properties": {"osm_id": null, "type": "pedestrian", "width_m": 4, "extrude": false}}, {"type": "Feature", "geometry": {"type": "LineString", "coordinates": [[148.46665561326807, 243.19197049722774], [173.2240349994106, 254.76925049726404], [182.03100790356098, 260.0012904971055], [217.65032053817885, 281.597370497158], [242.21198941513936, 288.6105304972484], [256.69456707965725, 291.6161704971742]]}, "properties": {"osm_id": null, "type": "residential", "width_m": 5, "extrude": false}}, {"type": "Feature", "geometry": {"type": "LineString", "coordinates": [[263.15301387605734, 294.51049049698554], [265.4036847295643, 290.0576904971541], [264.13156642092434, 285.71621049704163], [265.2079742203823, 282.93321049694924], [270.68786847191546, 281.15209049709574], [277.1463152683156, 264.23145049710354], [285.4640118998587, 241.29953049725984], [286.73613020815094, 236.29013049725174]]}, "properties": {"osm_id": null, "type": "footway", "width_m": 2, "extrude": false}}, {"type": "Feature", "geometry": {"type": "LineString", "coordinates": [[256.69456707965725, 291.6161704971742], [259.0430931874075, 285.2709304969794], [278.41843357660787, 234.50901049700278]]}, "properties": {"osm_id": null, "type": "residential", "width_m": 5, "extrude": false}}, {"type": "Feature", "geometry": {"type": "LineString", "coordinates": [[45.5229278895777, 221.150610497113], [37.20523125768698, 252.20889049700503], [31.33391598848516, 277.2558904970455]]}, "properties": {"osm_id": null, "type": "service", "width_m": 3.5, "extrude": false}}, {"type": "Feature", "geometry": {"type": "LineString", "coordinates": [[-188.93826186951776, 274.13893049700533], [-249.70637490794684, 282.59925049700144]]}, "properties": {"osm_id": null, "type": "residential", "width_m": 5, "extrude": false}}, {"type": "Feature", "geometry": {"type": "LineString", "coordinates": [[-262.1339922284874, 251.65229049722385], [-276.225148874989, 253.21077049724394], [-289.92488450347423, 254.76925049726404], [-286.2063848328406, 287.1633704969473], [-271.5280966594884, 280.70681049703353], [-257.82836103065557, 274.695530497182]]}, "properties": {"osm_id": null, "type": "service", "width_m": 3.5, "extrude": false}}, {"type": "Feature", "geometry": {"type": "LineString", "coordinates": [[-271.5280966594884, 280.70681049703353], [-276.225148874989, 253.21077049724394]]}, "properties": {"osm_id": null, "type": "service", "width_m": 3.5, "extrude": false}}, {"type": "Feature", "geometry": {"type": "LineString", "coordinates": [[-255.6755454320873, 285.4935704972082], [-257.82836103065557, 274.695530497182], [-257.92621628524654, 273.916290497172], [-262.1339922284874, 251.65229049722385], [-254.59913763262932, 247.97873049700698]]}, "properties": {"osm_id": null, "type": "service", "width_m": 3.5, "extrude": false}}, {"type": "Feature", "geometry": {"type": "LineString", "coordinates": [[-191.58035374069334, 256.10509049705524], [-68.96771986437727, 257.8862104973042]]}, "properties": {"osm_id": null, "type": "residential", "width_m": 5, "extrude": false}}, {"type": "Feature", "geometry": {"type": "LineString", "coordinates": [[294.466695313191, 237.96523144964084], [286.73613020815094, 236.29013049725174], [278.41843357660787, 234.50901049700278]]}, "properties": {"osm_id": null, "type": "residential", "width_m": 5, "extrude": false}}, {"type": "Feature", "geometry": {"type": "LineString", "coordinates": [[285.4640118998587, 241.29953049725984], [294.466695313191, 243.44594007813058]]}, "properties": {"osm_id": null, "type": "footway", "width_m": 2, "extrude": false}}, {"type": "Feature", "geometry": {"type": "LineString", "coordinates": [[-71.80552224438719, 204.11865049700637], [-60.258602214817884, 205.12053049724528], [-23.171460762725754, 202.6714904971007], [33.291021078219096, 218.14497049718724], [35.93311294939468, 218.81289049708286], [45.5229278895777, 221.150610497113], [83.29505612276382, 230.27885049700473], [112.65163246981588, 236.1788104971373], [148.46665561326807, 243.19197049722774]]}, "properties": {"osm_id": null, "type": "residential", "width_m": 5, "extrude": false}}, {"type": "Feature", "geometry": {"type": "LineString", "coordinates": [[278.41843357660787, 234.50901049700278], [265.2079742203823, 230.72413049706697], [229.88222734953743, 222.7090904971331], [192.79508589744532, 212.6902904971169], [156.1972207179605, 204.00733049728743], [119.79506604765766, 196.21493049718694], [77.61945136239633, 186.9753704971808], [51.49209841337052, 180.63013049698597], [46.30576992526269, 179.62825049714255], [34.95456040452771, 177.2905304971124], [12.643562380726431, 179.96221049709035], [-23.758592289576406, 189.5357304970443], [-29.82561806830786, 191.0942104970644], [-71.80552224438719, 204.11865049700637]]}, "properties": {"osm_id": null, "type": "residential", "width_m": 5, "extrude": false}}, {"type": "Feature", "geometry": {"type": "LineString", "coordinates": [[33.291021078219096, 218.14497049718724], [46.30576992526269, 179.62825049714255]]}, "properties": {"osm_id": null, "type": "footway", "width_m": 2, "extrude": false}}, {"type": "Feature", "geometry": {"type": "LineString", "coordinates": [[-23.758592289576406, 189.5357304970443], [-23.171460762725754, 202.6714904971007]]}, "properties": {"osm_id": null, "type": "residential", "width_m": 5, "extrude": false}}, {"type": "Feature", "geometry": {"type": "LineString", "coordinates": [[-122.98382034298088, 156.69633049729882], [-114.76397896568115, 211.02049049698238]]}, "properties": {"osm_id": null, "type": "footway", "width_m": 2, "extrude": false}}, {"type": "Feature", "geometry": {"type": "LineString", "coordinates": [[-71.80552224438719, 204.11865049700637], [-73.86048258871213, 152.80013049724857], [-77.08970598708602, 71.42521049704669], [-79.14466633141095, 17.880290496977693]]}, "properties": {"osm_id": null, "type": "residential", "width_m": 5, "extrude": false}}, {"type": "Feature", "geometry": {"type": "LineString", "coordinates": [[-308.3216723478076, 242.73869513796697], [-256.26267695893796, 235.62221049696063], [-195.59241917475222, 225.60341049694443]]}, "properties": {"osm_id": null, "type": "residential", "width_m": 5, "extrude": false}}, {"type": "Feature", "geometry": {"type": "LineString", "coordinates": [[-71.80552224438719, 204.11865049700637], [-77.28541649592034, 204.2299704971208], [-114.76397896568115, 211.02049049698238], [-145.00125260335685, 216.47517049705272], [-195.59241917475222, 225.60341049694443]]}, "properties": {"osm_id": null, "type": "residential", "width_m": 5, "extrude": false}}, {"type": "Feature", "geometry": {"type": "LineString", "coordinates": [[-256.26267695893796, 235.62221049696063], [-268.7881495337219, 201.66961049725728], [-280.1393590544568, 176.84525049705016]]}, "properties": {"osm_id": null, "type": "residential", "width_m": 5, "extrude": false}}, {"type": "Feature", "geometry": {"type": "LineString", "coordinates": [[-110.16478200477162, 201.55829049714285], [-149.69830481885734, 210.90917049726343], [-154.7867780523742, 171.72453049692763], [-147.2519234565161, 171.39057049697982], [-142.26130547759027, 201.66961049725728], [-119.75459694495464, 197.99605049704041], [-124.74521492388048, 167.71701049715844], [-115.9382420197301, 166.15853049713834], [-110.16478200477162, 201.55829049714285]]}, "properties": {"osm_id": null, "type": "pedestrian", "width_m": 4, "extrude": false}}, {"type": "Feature", "geometry": {"type": "LineString", "coordinates": [[-145.00125260335685, 216.47517049705272], [-153.9060807620982, 159.03405049693347]]}, "properties": {"osm_id": null, "type": "footway", "width_m": 2, "extrude": false}}, {"type": "Feature", "geometry": {"type": "LineString", "coordinates": [[-280.1393590544568, 176.84525049705016], [-308.3216723478076, 180.0929030686389]]}, "properties": {"osm_id": null, "type": "residential", "width_m": 5, "extrude": false}}, {"type": "Feature", "geometry": {"type": "LineString", "coordinates": [[-154.7867780523742, 171.72453049692763], [-155.56962008840682, 164.93401049706605], [-116.72108405576273, 161.70573049691143], [-115.9382420197301, 166.15853049713834], [-124.74521492388048, 167.71701049715844], [-147.2519234565161, 171.39057049697982], [-154.7867780523742, 171.72453049692763]]}, "properties": {"osm_id": null, "type": "pedestrian", "width_m": 4, "extrude": false}}, {"type": "Feature", "geometry": {"type": "LineString", "coordinates": [[-73.86048258871213, 152.80013049724857], [-122.98382034298088, 156.69633049729882], [-153.9060807620982, 159.03405049693347], [-204.79081309691892, 163.15289049721258], [-280.1393590544568, 176.84525049705016]]}, "properties": {"osm_id": null, "type": "residential", "width_m": 5, "extrude": false}}, {"type": "Feature", "geometry": {"type": "LineString", "coordinates": [[-280.1393590544568, 176.84525049705016], [-283.9557139796814, 162.2623304970881], [-288.7506214497729, 124.85881049700126]]}, "properties": {"osm_id": null, "type": "residential", "width_m": 5, "extrude": false}}, {"type": "Feature", "geometry": {"type": "LineString", "coordinates": [[260.8044877683071, -78.522829502853], [229.58866158576444, 58.06681049715692], [192.79508589744532, 212.6902904971169], [182.03100790356098, 260.0012904971055]]}, "properties": {"osm_id": null, "type": "residential", "width_m": 5, "extrude": false}}, {"type": "Feature", "geometry": {"type": "LineString", "coordinates": [[294.466695313191, 106.56699081407055], [265.2079742203823, 230.72413049706697]]}, "properties": {"osm_id": null, "type": "residential", "width_m": 5, "extrude": false}}, {"type": "Feature", "geometry": {"type": "LineString", "coordinates": [[229.88222734953743, 222.7090904971331], [266.2843820198403, 66.08185049709078], [294.466695313191, -54.36570445745659]]}, "properties": {"osm_id": null, "type": "residential", "width_m": 5, "extrude": false}}, {"type": "Feature", "geometry": {"type": "LineString", "coordinates": [[-106.6419928429724, 69.75541049691216], [-77.08970598708602, 71.42521049704669]]}, "properties": {"osm_id": null, "type": "residential", "width_m": 5, "extrude": false}}, {"type": "Feature", "geometry": {"type": "LineString", "coordinates": [[156.1972207179605, 204.00733049728743], [192.403664879429, 49.829130496994196], [217.16104426557152, -57.59466950269612], [226.5551486965726, -100.1189095029055]]}, "properties": {"osm_id": null, "type": "residential", "width_m": 5, "extrude": false}}, {"type": "Feature", "geometry": {"type": "LineString", "coordinates": [[-79.7317978582616, -10.061029502874135], [-37.556183173000285, -0.8214695028679841], [5.1087077848683435, 8.640730496971543], [45.914348907594025, 17.212370497082077], [63.72400522472912, 21.331210496965696], [111.18380365268926, 31.906610497158567], [154.43582613740853, 41.480130497112526], [192.403664879429, 49.829130496994196], [229.58866158576444, 58.06681049715692], [266.2843820198403, 66.08185049709078], [294.466695313191, 72.10951000662632]]}, "properties": {"osm_id": null, "type": "residential", "width_m": 5, "extrude": false}}, {"type": "Feature", "geometry": {"type": "LineString", "coordinates": [[194.65433573293592, -127.16966950302833], [179.58462654121973, -66.27762950292109], [154.43582613740853, 41.480130497112526], [119.79506604765766, 196.21493049718694]]}, "properties": {"osm_id": null, "type": "residential", "width_m": 5, "extrude": false}}, {"type": "Feature", "geometry": {"type": "LineString", "coordinates": [[149.64091866731704, -143.53370950284386], [134.4733542213575, -77.29830950278071], [111.18380365268926, 31.906610497158567], [77.61945136239633, 186.9753704971808]]}, "properties": {"osm_id": null, "type": "residential", "width_m": 5, "extrude": false}}, {"type": "Feature", "geometry": {"type": "LineString", "coordinates": [[-29.82561806830786, 191.0942104970644], [-37.556183173000285, -0.8214695028679841], [-44.112485223643745, -153.32986950302669]]}, "properties": {"osm_id": null, "type": "residential", "width_m": 5, "extrude": false}}, {"type": "Feature", "geometry": {"type": "LineString", "coordinates": [[-162.22377739364129, 7.416210497294742], [-79.14466633141095, 17.880290496977693]]}, "properties": {"osm_id": null, "type": "residential", "width_m": 5, "extrude": false}}, {"type": "Feature", "geometry": {"type": "LineString", "coordinates": [[-5.263949190999662, -158.78454950270154], [-2.8175678286584103, -124.27534950282151], [5.1087077848683435, 8.640730496971543], [12.643562380726431, 179.96221049709035]]}, "properties": {"osm_id": null, "type": "residential", "width_m": 5, "extrude": false}}, {"type": "Feature", "geometry": {"type": "LineString", "coordinates": [[51.49209841337052, 180.63013049698597], [45.914348907594025, 17.212370497082077], [39.94517838345356, -124.49798950305038], [37.89021803912863, -161.23358950284612]]}, "properties": {"osm_id": null, "type": "residential", "width_m": 5, "extrude": false}}, {"type": "Feature", "geometry": {"type": "LineString", "coordinates": [[-79.14466633141095, 17.880290496977693], [-79.7317978582616, -10.061029502874135]]}, "properties": {"osm_id": null, "type": "residential", "width_m": 5, "extrude": false}}, {"type": "Feature", "geometry": {"type": "LineString", "coordinates": [[90.24277919142361, -111.91882950277517], [88.28567410168966, -88.20766950292139], [82.61006934132219, -37.223109502715914], [63.72400522472912, 21.331210496965696]]}, "properties": {"osm_id": null, "type": "residential", "width_m": 5, "extrude": false}}, {"type": "Feature", "geometry": {"type": "LineString", "coordinates": [[88.28567410168966, -88.20766950292139], [134.4733542213575, -77.29830950278071], [179.58462654121973, -66.27762950292109], [217.16104426557152, -57.59466950269612]]}, "properties": {"osm_id": null, "type": "residential", "width_m": 5, "extrude": false}}, {"type": "Feature", "geometry": {"type": "LineString", "coordinates": [[-85.79882363664541, -148.76574950308083], [-79.7317978582616, -10.061029502874135]]}, "properties": {"osm_id": null, "type": "residential", "width_m": 5, "extrude": false}}, {"type": "Feature", "geometry": {"type": "LineString", "coordinates": [[-2.8175678286584103, -124.27534950282151], [39.94517838345356, -124.49798950305038], [90.24277919142361, -111.91882950277517]]}, "properties": {"osm_id": null, "type": "residential", "width_m": 5, "extrude": false}}, {"type": "Feature", "geometry": {"type": "LineString", "coordinates": [[294.466695313191, -99.59888607407635], [292.6074454777005, -100.89814950291554], [287.4211169895926, -103.79246950272687], [280.76695968435814, -108.35658950306822], [276.4613284868739, -112.80938950289965], [267.45864507354156, -120.1565095029379], [261.0001982774891, -125.72250950272718], [255.42244877136494, -129.39606950294404], [250.72539655586448, -131.28850950291195], [243.28839721459732, -133.40358950271323], [241.33129212486344, -135.51866950291], [241.33129212486344, -139.08090950301244], [241.03772636143805, -143.53370950284386], [238.1999239810805, -146.09406950270738], [237.80850296306417, -149.43366950297644], [235.45997685531393, -155.44494950282797], [231.05649040323874, -161.34490950296055], [229.0015300589138, -165.46374950284417], [226.5551486965726, -169.47126950300884], [224.3044778434133, -173.14482950283022], [221.6623859722377, -174.48066950301694], [218.04174155619515, -174.59198950273588], [215.30179443042857, -174.0353895029547], [206.69053203511254, -171.92030950275793], [202.874177109888, -171.25238950286231], [195.33932251437756, -172.8108695028824], [189.9572835174354, -175.03726950279813], [185.16237604734388, -177.8202695028905], [184.37953401131125, -180.04666950280622], [182.12886315815197, -182.71834950278418], [178.70392925094376, -186.72586950294885], [176.3554031431935, -190.84470950283247], [172.93046923598527, -197.41258950286067]]}, "properties": {"osm_id": null, "type": "footway", "width_m": 2, "extrude": false}}, {"type": "Feature", "geometry": {"type": "LineString", "coordinates": [[-191.384643231859, -340.0135095027221], [-192.49620291875686, -366.06238950300155]]}, "properties": {"osm_id": null, "type": "secondary", "width_m": 9, "extrude": false}}, {"type": "Feature", "geometry": {"type": "LineString", "coordinates": [[107.66101449089004, -138.6356295029502], [76.24947779951304, -153.10722950279782], [53.64491401228644, -159.3411495028782], [37.89021803912863, -161.23358950284612]]}, "properties": {"osm_id": null, "type": "residential", "width_m": 5, "extrude": false}}, {"type": "Feature", "geometry": {"type": "LineString", "coordinates": [[37.89021803912863, -161.23358950284612], [8.533641692076564, -160.34302950272163], [-5.263949190999662, -158.78454950270154], [-44.112485223643745, -153.32986950302669], [-85.79882363664541, -148.76574950308083]]}, "properties": {"osm_id": null, "type": "residential", "width_m": 5, "extrude": false}}, {"type": "Feature", "geometry": {"type": "LineString", "coordinates": [[-121.61384678009759, -219.67658950280878], [-67.402035792312, -285.5780295029241], [-65.34707544798707, -292.4798695029001], [-70.6312591906859, -319.08534950296075], [-75.23045615159542, -332.88902950291276], [-75.03474564276108, -344.466309502949], [-72.97978529843614, -351.7021095028729], [-69.84841715465325, -353.92850950278853], [-63.585680867435116, -351.1455095026962], [-55.659405253560706, -337.4531495028586], [-38.82830148129258, -315.96838950292056], [-27.672802469391936, -300.0496295027717], [-25.030710598216352, -289.6968695028078], [-24.93285534362536, -281.7931495029883]]}, "properties": {"osm_id": null, "type": "service", "width_m": 3.5, "extrude": false}}]}