{"type": "FeatureCollection", "crs": {"type": "name", "properties": {"name": "EPSG:32628_local_enu_m_section_centroid", "lng0": -15.479335055264695, "lat0": 28.100135764979644}}, "features": [{"type": "Feature", "geometry": {"type": "Polygon", "coordinates": [[[-323.2631741881546, 189.32915753413056], [-326.8965090118974, 197.34419753406442], [-343.1974165999717, 189.99707753402618], [-339.5640817760545, 181.9820375340923], [-323.2631741881546, 189.32915753413056]]]}, "properties": {"name": "", "kind": "pitch", "category": "parque", "extrude": false}}, {"type": "Feature", "geometry": {"type": "Polygon", "coordinates": [[[37.12436104205909, 184.65371753407027], [42.91805711254024, 184.31975753412246], [43.01625535094906, 184.87635753390364], [42.81985887395699, 185.54427753379926], [42.32886768156403, 186.43483753392374], [41.641480012178995, 187.10275753381936], [40.56129938880982, 187.43671753376717], [39.18652405021419, 187.43671753376717], [38.106343426845015, 186.76879753387155], [37.517153995868796, 185.9895575338615], [37.12436104205909, 185.21031753385145], [37.12436104205909, 184.65371753407027]]]}, "properties": {"name": "", "kind": "garden", "category": "parque", "extrude": false}}, {"type": "Feature", "geometry": {"type": "Polygon", "coordinates": [[[-306.47127540768736, 169.7368375341604], [-297.3388392286899, 171.51795753401387], [-304.801905353342, 200.34983753399018], [-313.1487556243712, 198.34607753390785], [-306.47127540768736, 169.7368375341604]]]}, "properties": {"name": "", "kind": "pitch", "category": "parque", "extrude": false}}, {"type": "Feature", "geometry": {"type": "Polygon", "coordinates": [[[-345.65237256211094, 180.0895975341244], [-351.8388615864018, 193.44799753401418], [-376.9776106378982, 181.53675753403007], [-370.79112161343295, 167.95571753391144], [-345.65237256211094, 180.0895975341244]]]}, "properties": {"name": "", "kind": "pitch", "category": "parque", "extrude": false}}, {"type": "Feature", "geometry": {"type": "Polygon", "coordinates": [[[-301.5613634834089, 155.82183753409396], [-316.88028868669727, 189.4404775338495], [-331.11903326661644, 182.76127753410236], [-315.8983063019113, 149.47659753389914], [-301.5613634834089, 155.82183753409396]]]}, "properties": {"name": "", "kind": "pitch", "category": "parque", "extrude": false}}, {"type": "Feature", "geometry": {"type": "Polygon", "coordinates": [[[-360.38210833442304, 160.38595753403982], [-344.2775972233408, 168.06703753402587], [-348.10732852407574, 176.19339753407417], [-364.2118396351579, 168.1783575341403], [-360.38210833442304, 160.38595753403982]]]}, "properties": {"name": "", "kind": "pitch", "category": "parque", "extrude": false}}, {"type": "Feature", "geometry": {"type": "Polygon", "coordinates": [[[-316.78209044828844, 148.80867753400352], [-332.1992138899856, 182.5386375338735], [-346.4379584699048, 175.74811753401193], [-331.2172315051997, 142.4634375338087], [-316.78209044828844, 148.80867753400352]]]}, "properties": {"name": "", "kind": "pitch", "category": "parque", "extrude": false}}, {"type": "Feature", "geometry": {"type": "Polygon", "coordinates": [[[-392.00194112561127, 151.2577175341481], [-384.0478838085662, 151.92563753404372], [-384.34247852414154, 155.2652375339173], [-392.2965358411866, 154.48599753390724], [-392.1983376026033, 153.4841175340638], [-392.00194112561127, 151.92563753404372], [-392.00194112561127, 151.2577175341481]]]}, "properties": {"name": "", "kind": "pitch", "category": "parque", "extrude": false}}, {"type": "Feature", "geometry": {"type": "Polygon", "coordinates": [[[-331.2172315051997, 142.4634375338087], [-342.80462364598753, 166.06327753394353], [-355.47219641031904, 160.38595753403982], [-344.08120074634877, 136.67479753379055], [-331.2172315051997, 142.4634375338087]]]}, "properties": {"name": "", "kind": "pitch", "category": "parque", "extrude": false}}, {"type": "Feature", "geometry": {"type": "Polygon", "coordinates": [[[-362.4442713425782, 97.49015753385024], [-366.96139031269803, 150.14451753379475], [-399.17041253486246, 147.2234807337503], [-399.17041253486246, 94.08783529742024], [-362.4442713425782, 97.49015753385024]]]}, "properties": {"name": "", "kind": "pitch", "category": "parque", "extrude": false}}, {"type": "Feature", "geometry": {"type": "Polygon", "coordinates": [[[-394.35869884934164, 67.6563975340305], [-394.8496900417347, 77.89783753388008], [-399.17041253486246, 77.46776221687412], [-399.17041253486246, 67.19505643965263], [-394.35869884934164, 67.6563975340305]]]}, "properties": {"name": "", "kind": "pitch", "category": "parque", "extrude": false}}, {"type": "Feature", "geometry": {"type": "Polygon", "coordinates": [[[-115.77029627490019, -94.64816246591553], [-107.91443719643839, -96.54060246588344], [-108.79822134264106, -100.54812246604811], [-92.10452080075707, -89.41612246607406], [-93.086503185543, -87.41236246599172], [-94.264882047321, -85.40860246590938], [-95.05046795511484, -82.51428246609805], [-95.44326090909898, -79.73128246600567], [-95.34506267069017, -77.50488246608995], [-95.24686443210692, -75.1671624660598], [-95.05046795511484, -73.16340246597747], [-94.264882047321, -71.04832246617619], [-93.57749437793596, -69.37852246604166], [-92.69371023155885, -67.59740246618819], [-91.80992608535618, -66.03892246616809], [-90.53334898499494, -64.36912246603356], [-89.06037540781605, -62.921962466127894], [-88.17659126143896, -62.031402466003414], [-87.19460887665304, -61.252162465993365], [-99.665785163818, -39.099482466159685], [-100.84416402559599, -38.98816246604525], [-115.77029627490019, -94.64816246591553]]]}, "properties": {"name": "", "kind": "garden", "category": "parque", "extrude": false}}, {"type": "Feature", "geometry": {"type": "Polygon", "coordinates": [[[-79.14235332102471, -86.29916246603386], [-76.00000968967488, -86.96708246592948], [-73.34865725054357, -86.7444424660961], [-70.69730481158669, -85.29728246619044], [-68.24234884944745, -83.18220246599367], [-66.76937527226856, -80.28788246618234], [-66.37658231828442, -77.50488246608995], [-67.06396998766945, -74.72188246599757], [-81.79370576015603, -84.8520024661282], [-79.14235332102471, -86.29916246603386]]]}, "properties": {"name": "", "kind": "playground", "category": "parque", "extrude": false}}, {"type": "Feature", "geometry": {"type": "Polygon", "coordinates": [[[10.90543136719348, -78.50676246593338], [23.67120236993377, -101.99528246595378], [25.438770662687975, -98.21040246601797], [27.40273543225982, -95.76136246587339], [29.563096678823737, -92.86704246606206], [32.41084559477268, -90.64064246614635], [35.16039627231281, -88.97084246601182], [38.00814518826176, -87.41236246599172], [42.42706591997285, -85.96520246608605], [48.809951421430206, -85.96520246608605], [21.510841123369854, -68.59928246603161], [-7.654035705853524, -60.806882465931125], [-10.796379337377797, -72.82944246602966], [10.90543136719348, -78.50676246593338]]]}, "properties": {"name": "", "kind": "garden", "category": "parque", "extrude": false}}, {"type": "Feature", "geometry": {"type": "Polygon", "coordinates": [[[31.821656163970903, -71.382282466124], [60.98653299319428, -89.52744246618849], [63.34329071675027, -91.30856246604196], [65.01266077092123, -92.86704246606206], [67.46761673306047, -95.65004246615445], [69.52977974121556, -96.4292824661645], [85.63429085229775, -87.18972246615834], [86.02708380610747, -85.85388246597162], [31.821656163970903, -71.382282466124]]]}, "properties": {"name": "", "kind": "garden", "category": "parque", "extrude": false}}, {"type": "Feature", "geometry": {"type": "Polygon", "coordinates": [[[35.062198033904, -144.51952246616315], [62.066713616563455, -151.75532246608697], [70.70815860299355, -153.98172246600268], [73.06491632654954, -154.6496424658983], [81.70636131297964, -122.25552246621504], [81.9027577899717, -121.47628246620499], [82.59014545935673, -119.02724246606041], [89.75861686843352, -92.08780246605201], [91.03519396879476, -87.18972246615834], [86.02708380610747, -85.85388246597162], [31.821656163970903, -71.382282466124], [26.126158331898573, -69.8238024661039], [21.510841123369854, -68.59928246603161], [-7.654035705853524, -60.806882465931125], [-31.51620765716315, -54.46164246613179], [-36.131524865866304, -53.2371224660595], [-38.78287730482318, -52.56920246616389], [-63.23423868693459, -46.00132246613569], [-66.67117703385975, -45.11076246601121], [-68.3405470880307, -44.66548246594897], [-96.62163977087698, -37.09572246607735], [-100.15677635621095, -36.20516246595287], [-100.84416402559599, -38.98816246604525], [-115.77029627490019, -94.64816246591553], [-118.12705399845618, -103.66508246608831], [35.062198033904, -144.51952246616315]]]}, "properties": {"name": "", "kind": "park", "category": "parque", "extrude": false}}, {"type": "Feature", "geometry": {"type": "Polygon", "coordinates": [[[256.10643285751814, -80.95580246607796], [234.69921686834772, -74.833202466112], [222.71903177357575, -116.68952246603027], [244.02804952416287, -122.81212246599623], [256.10643285751814, -80.95580246607796]]]}, "properties": {"name": "", "kind": "pitch", "category": "parque", "extrude": false}}, {"type": "Feature", "geometry": {"type": "Polygon", "coordinates": [[[89.75861686843352, -92.08780246605201], [87.99104857585374, -91.64252246598977], [72.3775286571645, -100.65944246616255], [71.29734803379533, -102.44056246601602], [72.18113218017244, -105.11224246599397], [72.57392513415658, -107.22732246619074], [72.77032161114865, -109.67636246593983], [72.86851984955747, -111.23484246595993], [72.57392513415658, -113.57256246599007], [72.47572689557333, -115.2423624661246], [72.08293394176361, -116.35556246608246], [82.59014545935673, -119.02724246606041], [89.75861686843352, -92.08780246605201]]]}, "properties": {"name": "", "kind": "garden", "category": "parque", "extrude": false}}, {"type": "Feature", "geometry": {"type": "Polygon", "coordinates": [[[32.41084559477268, -131.4950824662212], [28.384717817045743, -127.93284246611876], [24.751382993302943, -123.03476246622509], [22.885616462139918, -119.47252246612265], [22.296427031163706, -117.13480246609251], [21.90363407717956, -114.35180246600012], [21.90363407717956, -112.01408246596998], [22.001832315762815, -109.78768246605426], [22.689219985147847, -106.67072246601407], [9.727052505415486, -82.62560246621248], [5.308131773704402, -100.32548246621474], [11.200026082594368, -111.1235224658455], [11.887413751979402, -112.79332246598003], [12.476603182955616, -114.68576246594793], [12.280206705963543, -117.24612246620694], [11.691017275161764, -119.69516246595603], [11.298224321177623, -120.91968246602832], [11.39642255958644, -122.47816246604842], [11.691017275161764, -124.03664246606851], [13.262189090749466, -125.92908246603642], [35.062198033904, -144.51952246616315], [62.066713616563455, -151.75532246608697], [32.41084559477268, -131.4950824662212]]]}, "properties": {"name": "", "kind": "garden", "category": "parque", "extrude": false}}, {"type": "Feature", "geometry": {"type": "Polygon", "coordinates": [[[26.91174423986686, -141.8478424661852], [-2.940520258741551, -116.8008424661447], [-14.233317684302959, -113.90652246593788], [-16.688273646267763, -115.13104246601017], [-20.125211993192924, -127.48756246605652], [-18.75043665442286, -129.71396246597223], [26.91174423986686, -141.8478424661852]]]}, "properties": {"name": "", "kind": "garden", "category": "parque", "extrude": false}}, {"type": "Feature", "geometry": {"type": "Polygon", "coordinates": [[[70.80635684140238, -119.36120246600822], [69.72617621820763, -122.14420246610061], [68.35140087943756, -124.81588246607856], [66.78022906367543, -127.15360246610871], [65.01266077092123, -129.38000246602442], [62.75410128594849, -131.27244246599233], [60.59374003921014, -132.94224246612686], [57.84418936184444, -134.38940246603252], [54.99644044572106, -135.6139224661048], [52.246889768355366, -136.170522465886], [49.1045461368311, -136.5044824662293], [45.86400426689801, -136.61580246594824], [70.70815860299355, -153.98172246600268], [73.06491632654954, -154.6496424658983], [81.70636131297964, -122.25552246621504], [70.80635684140238, -119.36120246600822]]]}, "properties": {"name": "", "kind": "garden", "category": "parque", "extrude": false}}, {"type": "Feature", "geometry": {"type": "Polygon", "coordinates": [[[-224.37754803633982, -321.18436246584236], [-195.6054641611006, -295.1354824659585], [-227.9126846216738, -259.4017624660062], [-256.7829667354963, -285.5619624660045], [-224.37754803633982, -321.18436246584236]]]}, "properties": {"name": "", "kind": "pitch", "category": "parque", "extrude": false}}, {"type": "Feature", "geometry": {"type": "Polygon", "coordinates": [[[-223.100970936153, -358.69920246604363], [-215.53970657291765, -351.3520824660054], [-229.28745996044387, -336.3238824659811], [-243.03521334797009, -348.4577624661941], [-237.04512080067127, -355.47092246588903], [-223.100970936153, -358.69920246604363]]]}, "properties": {"name": "", "kind": "playground", "category": "parque", "extrude": false}}, {"type": "Feature", "geometry": {"type": "Polygon", "coordinates": [[[183.488835500035, -385.63864246605203], [193.36466303089892, -385.63864246605203], [203.66857350796136, -345.2294824660395], [181.57396984940593, -339.55216246613577], [170.6739653780031, -382.41036246589744], [183.488835500035, -385.63864246605203]]]}, "properties": {"name": "", "kind": "pitch", "category": "parque", "extrude": false}}]}