{"type": "FeatureCollection", "crs": {"type": "name", "properties": {"name": "EPSG:32628_local_enu_m_section_centroid", "lng0": -13.55397252354127, "lat0": 29.074420904032806}}, "features": [{"type": "Feature", "geometry": {"type": "Polygon", "coordinates": [[[3067.0991989195204, 108.08103693182517], [3061.3589423698954, 111.6432769319276], [3052.5053263353852, 105.0753969318994], [3047.5434096568524, 98.95279693193345], [3043.846295268864, 88.93399693191725], [3046.181314882312, 81.36423693204563], [3052.797203787023, 78.80387693178662], [3062.039989756993, 78.02463693177657], [3068.4612936940603, 83.1453569318991], [3076.925739792938, 88.1547569319072], [3067.0991989195204, 108.08103693182517]]]}, "properties": {"name": "", "kind": "water", "category": "agua", "extrude": false}}, {"type": "Feature", "geometry": {"type": "Polygon", "coordinates": [[[2397.629617241753, -4453.367283068238], [2398.9917120162927, -4450.250323068198], [2392.1812381437653, -4447.356003067991], [2390.916435853047, -4450.361643067917], [2397.629617241753, -4453.367283068238]]]}, "properties": {"name": "cisterna", "kind": "water", "category": "agua", "extrude": false}}]}