{"type": "FeatureCollection", "crs": {"type": "name", "properties": {"name": "EPSG:32628_local_enu_m_section_centroid", "lng0": -15.438529029905187, "lat0": 28.135628738147346}}, "features": [{"type": "Feature", "geometry": {"type": "Polygon", "coordinates": [[[-92.3294216267232, -22.158027469570477], [-91.50939676864358, -22.7392203597145], [-87.43283430021444, -17.945180650646186], [-87.04009842741324, -17.499817962632054], [-82.13075332425295, -11.733789437374787], [-83.51146804440518, -11.733789437374787], [-79.67731910252375, -7.257982296338146], [-77.04172840971684, -4.269221050659798], [-73.55745902462675, -3.6705599392560253], [-72.46992202330581, -4.287193708008456], [-31.441114356839908, -26.548767723087497], [-29.820114970181695, -27.40660100044685], [-29.171838371170704, -30.959806703546978], [-35.86635622011039, -39.25215535922015], [-36.45644048783072, -38.80605144369109], [-38.597575361334755, -41.43643686834041], [-41.59169512573536, -45.23122125985412], [-41.564565333251274, -45.24685603316222], [-41.840955335584134, -45.56028244253711], [-44.19693306477933, -48.56592243907601], [-44.58932510987705, -49.0108952266873], [-46.847137100614496, -51.905215223466435], [-47.534297275196096, -52.68445522651718], [-51.10162634523618, -57.25746303383482], [-50.4956153101763, -57.60107145169488], [-51.94535898706085, -59.245081551503375], [-68.81987712507942, -50.25360216800658], [-68.04841225409017, -49.05069500483826], [-74.47014880654274, -45.689655314762746], [-75.26377440867321, -47.039613096743835], [-83.77715646521847, -42.04981231402762], [-89.62200520163898, -39.17348370727662], [-94.00644765450079, -35.33151456130368], [-98.41167836750748, -29.174228506777172], [-92.3294216267232, -22.158027469570477]]]}, "properties": {"id": 0, "height_median_m": 18.0, "building_count": 16, "area_m2": 2074.516677796137}}, {"type": "Feature", "geometry": {"type": "Polygon", "coordinates": [[[-148.28799789834895, -3.5802986879378116], [-147.76546802611307, -3.817318349280711], [-145.89347070823607, -0.1023379315383233], [-145.07327209379272, 1.7578733983573152], [-144.02154732596895, 3.695940122285037], [-143.862595263068, 4.008376443454559], [-143.82102115408819, 3.9864485077945235], [-134.972212541997, 21.488576997550002], [-135.5680752740418, 21.713813215653094], [-134.128404329926, 24.43479257521793], [-129.23081658490761, 25.498299041929286], [-93.27427629438012, 6.508646675197476], [-93.27427629438012, 6.50864667519748], [-87.58915651228828, 3.5061762636157874], [-86.43817685556184, 2.8535704922731715], [-86.12265637837685, -2.155634950760409], [-100.15555978671543, -18.068954871232652], [-108.9734523190705, -28.522972179626727], [-109.93676723748429, -28.013892740736082], [-109.93676723748429, -28.01389274073609], [-149.9730606517259, -6.856062215133838], [-148.28799789834895, -3.5802986879378116]]]}, "properties": {"id": 1, "height_median_m": 12.0, "building_count": 6, "area_m2": 1925.5233757328497}}, {"type": "Feature", "geometry": {"type": "Polygon", "coordinates": [[[-88.13189033704045, 11.692174149198433], [-87.89697533014214, 11.928968587113868], [-96.84671570258334, 16.736394536186044], [-96.83912844845754, 16.753602436615477], [-112.68783513157224, 25.33399400525998], [-114.15953751167262, 29.98310400217319], [-110.31279999338109, 35.052690562541535], [-109.77641800056121, 35.052690562541535], [-107.83633123097671, 38.60663271483789], [-107.34760510366903, 38.38494643978826], [-105.94835995049326, 40.99174138126981], [-105.6715821577729, 40.81238928753751], [-100.21214591883732, 47.98091976690404], [-100.5098660341775, 48.2341308435557], [-92.0491468086848, 59.11565266043304], [-91.71019211681588, 58.875418409924805], [-88.1513967603012, 63.631750632475516], [-85.39112559953267, 64.13257446657552], [-74.76532188588374, 54.405734794006534], [-74.61091281645227, 54.56137920892848], [-70.56596694927705, 50.73890357327233], [-70.6859454825935, 50.619854817863676], [-57.49853784759562, 38.9448291467161], [-57.99333697594689, 38.463884168594475], [-54.998248633401, 35.851244344510185], [-55.1206644777507, 34.46304802019883], [-57.10542811346399, 31.762180399679153], [-56.52745354787701, 31.2940207820776], [-62.70206482045857, 24.292008318730325], [-63.12413564035414, 24.690865430302384], [-69.9288434891318, 16.73318116782515], [-69.92335268605544, 16.664688858228406], [-78.64569277934342, 6.313497614182033], [-88.13189033704045, 11.692174149198433]]]}, "properties": {"id": 2, "height_median_m": 18.0, "building_count": 52, "area_m2": 1865.4921113770774}}, {"type": "Feature", "geometry": {"type": "Polygon", "coordinates": [[[-69.02899570757407, 1.8554664787897743], [-69.57565905839766, 5.079032434938826], [-66.61058259891949, 8.690497254584953], [-66.31380137557346, 8.466130544752037], [-59.652218621524206, 16.4400488372048], [-59.84907287362248, 16.66328166366918], [-57.49318014900292, 19.468444445239395], [-57.11212455754185, 19.221520306256934], [-54.62327933381342, 22.043872112241385], [-52.5818518962893, 24.358851910965548], [-52.319403003409185, 24.656469094925736], [-52.319403003402115, 24.65646909491772], [-49.25625305024517, 28.130082769004375], [-46.51810330849595, 28.502690360384747], [-40.2376622653925, 23.16117275082099], [-40.646530944407786, 22.69751545159346], [-34.087498015436864, 16.935725656738352], [-34.08194093996681, 16.941810082358906], [-32.52528843112778, 15.507548704816326], [-32.49944505751831, 15.539025948618226], [-32.391758153236815, 15.416908942167915], [-31.635386521836725, 16.274634773640653], [-26.265948899716534, 11.454219890423143], [-26.136885488205895, 11.600577867702931], [-17.76512928905706, 4.0057170854618285], [-18.58459218226814, 3.0764457289889813], [-13.38069838382342, -1.429939179294215], [-12.58737000158828, -0.530304372359195], [-10.038449118249329, -2.8952406200621357], [-10.358968186184919, -6.408772289154331], [-12.34304079473957, -8.658711681120474], [-12.918000675605606, -8.115374339276329], [-14.681754333948438, -10.337704989778373], [-14.695962834064861, -10.324640843821149], [-18.37591267549137, -14.831551125439939], [-20.23831620950163, -17.178180677970506], [-19.4767568598673, -18.041789385824956], [-21.094413874426113, -20.269304138400226], [-25.496531393730567, -21.22016196774681], [-27.57243317455487, -19.781561359945687], [-35.31198115539422, -15.534794494033614], [-35.45872134237988, -15.867601394234738], [-40.81422651998768, -13.210600143226802], [-40.71681658913813, -13.017290044914315], [-46.87762454613879, -9.815208609384499], [-46.87762454613879, -9.430112888172356], [-50.96476881885233, -7.402377485794614], [-50.926272869196175, -7.344171582627712], [-55.82351591149269, -4.6785030014798865], [-56.143111080575636, -4.5068298528509425], [-56.14209163826828, -4.50509578067269], [-60.72946237171887, -2.008096973665995], [-64.9473170565342, 0.1754690811444291], [-65.14374203722481, -0.1586499674466775], [-69.02899570757407, 1.8554664787897743]]]}, "properties": {"id": 3, "height_median_m": 9.0, "building_count": 42, "area_m2": 1505.607058336143}}, {"type": "Feature", "geometry": {"type": "Polygon", "coordinates": [[[-78.33072999681352, 68.84525987760516], [-78.32927121893897, 68.84696749555077], [-80.14737408081632, 70.49635118487782], [-80.26090541717564, 72.55626471822626], [-75.3688840369511, 78.55668118265011], [-73.11252787768953, 81.52478371903001], [-73.11755196892076, 81.52934157672712], [-72.91613158311905, 81.78313138176827], [-72.68729821967837, 82.08414808236704], [-72.68305966980081, 82.08030286811936], [-67.41070038320201, 88.69520984829497], [-67.31403956229535, 88.80482327055718], [-65.06829530208054, 91.69877234367638], [-63.72312959412321, 91.82589056276515], [-62.38410598642156, 91.82589056276515], [-59.59998251680439, 89.05371715351764], [-57.030613334372234, 86.55628913856702], [-56.17801865986889, 85.72756672683218], [-56.18685933252749, 85.7153135487857], [-51.25963795724901, 80.69799206058487], [-60.774587243036194, 69.18870401033202], [-56.80357845724005, 65.68602340176913], [-46.7156078818503, 76.4108021448623], [-46.03679585194927, 75.64102894231453], [-45.466216221721936, 76.28806654613051], [-41.57720875584444, 72.47389441033695], [-40.69148681079008, 71.69268728882423], [-36.95602958467698, 67.90257264979037], [-32.888952307384905, 64.00005374753601], [-33.00448514893732, 63.869039443881704], [-32.72608545487871, 60.39628003039722], [-33.04908402984038, 58.80906428927786], [-35.39976845182591, 56.143386905872056], [-36.18509436259392, 56.81130690585242], [-40.40139340466463, 52.030021552104316], [-40.347848456216205, 51.9794215520904], [-41.083443845049985, 51.145255989974515], [-40.452762310023076, 50.53223325082992], [-44.049922522853116, 46.3255772339388], [-44.31826539753159, 46.586406630281154], [-47.437544697486906, 43.049142248060164], [-50.28591696111777, 42.80067642778678], [-52.38573808397308, 44.785008318489034], [-52.590993719617764, 44.5522483184817], [-54.89046591653863, 46.72525056271279], [-54.81193332532137, 46.79946389614261], [-60.37952934599851, 52.06084460011386], [-60.58310896477033, 52.035193556105746], [-66.70710379212802, 57.59088426633477], [-66.70710379212802, 58.46232739550605], [-67.47163881393452, 59.040316142780426], [-67.40122482167354, 59.11351152202097], [-70.81016529194426, 62.159246307249575], [-71.62173878923527, 62.870406362228636], [-73.42371562045743, 64.45203471701456], [-73.86935416856038, 64.8450881005764], [-73.89475657578197, 64.87389444391269], [-74.33484166775847, 65.26788659766916], [-74.63026010748189, 65.49122304246906], [-78.07680853605643, 68.61793324229613], [-78.33072999681352, 68.84525987760516]]]}, "properties": {"id": 4, "height_median_m": 12.0, "building_count": 31, "area_m2": 1133.2131352002414}}, {"type": "Feature", "geometry": {"type": "Polygon", "coordinates": [[[-51.93430042583832, 93.38717886287357], [-59.08475127860801, 100.24831468793397], [-49.439976862539105, 111.34400384454263], [-46.44308429975017, 115.21826848924093], [-46.446452523694376, 115.22056022988598], [-46.21430753116635, 115.51402208316614], [-46.01399323316265, 115.77298051638441], [-46.01104405515354, 115.77097389472713], [-40.128707502500184, 123.20702223486478], [-38.1481336807675, 123.33913822124319], [-31.998466084702663, 117.28300746831422], [-31.926102220880388, 117.3683505547383], [-31.660415170941693, 117.11115240954963], [-31.417072947826224, 116.88630409008141], [-31.422064511754147, 116.88041723648915], [-19.587178602023293, 105.42366499657118], [-17.622263367800794, 103.64109306118416], [-15.069571373956391, 101.10818324356615], [-14.368068267292312, 102.01733169585567], [-6.922561883874708, 94.86405808633707], [-6.508560231937591, 89.4650600150282], [-11.114839728657453, 84.12545832069931], [-12.487085031114828, 84.01430639901258], [-16.020648477983023, 79.83302345021077], [-15.990962391440219, 79.80583326574377], [-16.104387476455898, 79.68524816573591], [-15.810883047901688, 78.4648561797891], [-20.15446166171319, 73.66885731513905], [-23.485766681357802, 69.16467456416008], [-23.783190306341883, 69.38952693025803], [-24.372184739179332, 68.61028693040704], [-24.92682613890726, 69.02959602504835], [-25.32633309862488, 68.35003436799174], [-26.029884296313426, 68.91991110528119], [-26.33672346070908, 68.45597007122046], [-27.40562962899454, 69.42568220157301], [-27.718862322884082, 69.18887817376901], [-32.432291256894544, 74.17757369479392], [-32.44904653314756, 74.32957763204033], [-37.20675739643896, 78.9540747575093], [-37.31384837033529, 78.85692178045696], [-41.11631872176581, 82.72285586238046], [-41.210910832847674, 82.6155883581205], [-45.95825370286834, 87.37309056253824], [-45.6666147376037, 87.37309056253824], [-50.479813810508894, 91.99154235980717], [-51.91970691464501, 93.40372791232004], [-51.93430042583832, 93.38717886287357]]]}, "properties": {"id": 5, "height_median_m": 12.0, "building_count": 41, "area_m2": 1476.6564768131468}}, {"type": "Feature", "geometry": {"type": "Polygon", "coordinates": [[[-39.58521546797414, 39.87628452191467], [-34.92590200380815, 42.518116496145765], [-36.216405066638174, 43.68886142344904], [-32.467164076318404, 48.06934031266703], [-31.658927868059894, 49.01365455038052], [-31.688590243854303, 49.16502172499008], [-29.26896245088097, 51.90888092750279], [-28.47827883230491, 51.68472201681676], [-26.27615848852528, 54.30084221100423], [-25.593035919031596, 55.07550356774018], [-24.5983484458764, 56.34447670603998], [-16.782543991879876, 50.236105806600285], [-17.035977965483937, 49.91278726332357], [-9.975629105200877, 44.29124473526674], [-6.893185105192233, 42.10656152667476], [-6.898961496203053, 42.04760765236344], [-2.1820977447112933, 38.4241416523951], [-2.1947943011557696, 38.294560536767264], [3.355147171702956, 34.02387857223879], [3.394859334258958, 34.06891218567562], [12.704640983298388, 26.76001402989906], [13.127385393804898, 22.68517874678892], [-1.8795580386817385, 3.8640776549168376], [-6.40169316063614, 3.5063029830532737], [-15.682756724051742, 11.833562684494947], [-15.436307000453738, 12.168931625646868], [-20.120974574392914, 16.418864039919118], [-19.83961994148321, 16.737920343117118], [-20.52400942039742, 17.29227608066979], [-20.512309065599815, 17.30580965339833], [-26.733112897185983, 22.890538909496403], [-26.768576418127665, 22.850323257911896], [-27.028339651645663, 23.085980573737352], [-27.29266775545985, 23.314360162457994], [-27.271885055831493, 23.337927754875388], [-31.152624791101207, 26.76074180510591], [-32.134935383280684, 27.651894391995874], [-36.25371588369204, 31.321729536960362], [-37.826197437707314, 32.659125725371126], [-40.14797967719414, 34.78570065443179], [-40.665414836866155, 34.316283257571136], [-41.067028422657486, 34.771713278037225], [-41.49839563934367, 37.706737194999015], [-39.58521546797414, 39.87628452191467]]]}, "properties": {"id": 6, "height_median_m": 12.0, "building_count": 46, "area_m2": 1430.5939733531618}}, {"type": "Feature", "geometry": {"type": "Polygon", "coordinates": [[[-40.909697266473614, -61.169301866092056], [-40.751496003208125, -60.87030133843805], [-40.58519724346333, -60.54860112811379], [-40.58218731115114, -60.550307760532846], [-38.689099445540045, -56.97237001825821], [-36.76580907072848, -53.33734950677958], [-36.14697486611462, -53.62974880533664], [-32.96432530422316, -50.020622511270005], [-32.807892830143636, -49.786208339048066], [-32.790468852810015, -49.79467639599808], [-31.11813938786805, -47.2661130602449], [-30.76022595131343, -46.657302019616765], [-29.134162500950904, -47.476838382540116], [-25.57083564333822, -40.51765776920186], [-23.50721086603144, -41.62615062948353], [-19.59348371268826, -33.970309671761385], [-18.892563931370496, -34.28824703386016], [-18.597944946751472, -33.73141689218626], [1.8378716047048747, -44.53737659219669], [1.9932109647545948, -44.18506675870265], [12.643242616010538, -49.75002413972936], [12.270420184645051, -50.48989060130893], [12.873220827994622, -50.71774935104488], [12.850181836734874, -50.75955131636993], [19.896473534671763, -54.48845063001446], [26.57239813399225, -57.93970891401615], [34.265071054250285, -62.05221378419543], [34.78466900082919, -60.87376508924936], [41.006903371351434, -64.33987874357592], [41.0069033713515, -64.33987874357598], [41.0286560827927, -64.35199615440547], [41.026646774808114, -64.35541398888851], [46.62702859325808, -68.76211649003862], [46.04866970919752, -69.52728565226319], [46.81604007016345, -70.07115965023459], [46.80810711996757, -70.08315427655084], [52.50173522060327, -74.50081242316696], [53.21891297045874, -73.45516677375514], [58.2121266856278, -76.9783800218493], [58.15825439348706, -77.05474403173886], [63.336861204269795, -81.01529620278758], [65.77597193476491, -82.90117315571561], [65.62139421892249, -83.09837576903294], [73.84591072000157, -89.47973782455675], [75.19314966099259, -90.59084304271656], [65.34643522339289, -103.15279487198586], [65.07465166179699, -102.9473264031976], [58.774196059465766, -111.28283306983955], [58.127959389137494, -110.79427791803786], [56.328349333175886, -113.28853862405396], [56.28977913729515, -113.25996272394396], [54.35364381586255, -115.85473729460132], [47.035706073636966, -110.0571234635539], [46.120807723020896, -110.52871219773469], [42.45099293825583, -108.15067110316623], [39.6639081515687, -111.91323732803863], [34.95922655085686, -109.35682976568592], [34.9544012549686, -109.36372029144334], [34.68060324396609, -109.20543275538122], [34.3402029240718, -109.02046764491054], [34.346098095880194, -109.01204933562322], [29.342174127630727, -106.11919122947306], [31.7903598125183, -102.56559907904463], [21.134418938354628, -96.78637000344446], [21.12269631643655, -96.80536065984793], [20.25973738859863, -96.26169628083848], [19.96486886118659, -96.81899805861202], [15.107074325458397, -93.74435159305466], [15.446053316744976, -93.28306876581871], [9.75669521708168, -90.73238279305127], [7.297879277956984, -89.28246753052697], [6.357076437110442, -88.8252371356237], [6.461348287626391, -88.4705041337654], [2.859421669429089, -86.37584428833112], [2.390375032302747, -86.05670480706418], [-5.125025258673984, -83.0806048973085], [-5.655483500153189, -83.98291478915448], [-8.306676742142072, -82.60495645596231], [-15.429253716244997, -78.87710749936328], [-18.5260693373388, -77.25628108725869], [-18.82784282222879, -77.0983374139412], [-18.826816058574966, -77.09639682972603], [-38.840923992732044, -66.46106892661382], [-42.57762388108733, -64.40289366380625], [-40.90688479956276, -61.1708965355762], [-40.909697266473614, -61.169301866092056]]]}, "properties": {"id": 7, "height_median_m": 12.0, "building_count": 76, "area_m2": 4121.023661651464}}, {"type": "Feature", "geometry": {"type": "Polygon", "coordinates": [[[-32.60880255918501, 129.4445062299117], [-32.44726093640872, 129.59105685877958], [-32.44726093640872, 134.32135333116233], [-31.971673223905956, 134.91830695104176], [-31.971673223905952, 134.91830695104176], [-19.001624734353737, 151.19820063270427], [-15.057670528399793, 151.976017356434], [-13.742427625308105, 150.11165966884042], [-12.974362574159299, 150.98264584464377], [7.428952427738992, 131.1363672226006], [10.066691412816326, 128.57064185761948], [10.302465601638922, 128.34130460321626], [10.301913280183626, 128.34067827039252], [15.995526132922533, 122.77467827020686], [15.25713743995486, 121.93734510008959], [16.92683936373528, 120.72013182759277], [17.15276723169583, 118.28620976632618], [16.078666309059823, 117.18998185099119], [16.762929372604997, 116.41402717339493], [2.7040093033574304, 100.12711464415864], [1.8213312609492116, 100.79441955672097], [1.1719301262277295, 100.04933454574137], [-2.4997805940013142, 100.39631137172177], [-6.540044874117859, 104.34601985468828], [-9.175125975526473, 106.92204000038977], [-9.412550301074647, 107.15414285497164], [-9.412495289333453, 107.15420523831538], [-16.839864140082902, 114.41873243039419], [-17.035686949727566, 114.30770084510995], [-25.56774511230731, 122.61712637121981], [-32.60880255918501, 129.4445062299117]]]}, "properties": {"id": 8, "height_median_m": 12.0, "building_count": 27, "area_m2": 1406.17177573465}}, {"type": "Feature", "geometry": {"type": "Polygon", "coordinates": [[[-14.027193248, -26.349126821], [-1.639626919, -10.588509437], [-0.442467712, -10.588509437], [4.05003146, -5.041168861], [8.78907595, 0.832824431], [8.575957885, 1.07450043], [12.859590586, 6.360757638], [12.72599979, 6.436503655], [16.937256147, 11.714761859], [17.040543536, 11.626915893], [21.245598966, 16.578856181], [24.987882851, 16.457606126], [34.056213677, 7.445107541], [33.721459514, 7.065496142], [36.56623533, 4.453990719], [40.071509873, 0.96082367], [39.890881324, 0.796957373], [45.245879311, -5.275613189], [45.337500667, -5.156871856], [45.609751865, -5.465604859], [46.827069838, -6.661985524], [52.20730681, -11.878946443], [52.49651485, -11.550984372], [57.181741262, -15.89802466], [57.39497897, -19.40429393], [57.39497897, -19.404293931], [55.216782959, -22.033729069], [53.778765758, -23.769648583], [53.560649835, -23.582632711], [50.040909124, -27.97315933], [49.354316382, -28.751755864], [47.593176218, -30.97079351], [45.042350894, -34.197196622], [43.666347669, -35.980497638], [39.359489833, -41.255195037], [39.965045866, -41.712995613], [36.813061663, -45.612288443], [36.900674323, -45.976582052], [34.169561599, -49.431021094], [30.884278049, -50.272266031], [16.58131555, -43.013159089], [16.369592212, -42.052781578], [13.554393128, -40.601673734], [11.019956914, -39.295286455], [4.93944707, -36.161058549], [4.664499397, -36.680709894], [-3.829368063, -32.203841484], [-4.914480839, -32.477290032], [-8.171300929, -29.636339484], [-8.660753112, -29.969362906], [-11.056158141, -27.904906068], [-11.545493913, -28.459813094], [-14.027193248, -26.349126821]]]}, "properties": {"id": 9, "height_median_m": 12.0, "building_count": 62, "area_m2": 2551.8410112034644}}, {"type": "Feature", "geometry": {"type": "Polygon", "coordinates": [[[64.349337643, -24.865272277], [64.740080873, -24.33354864], [65.418256037, -24.948789437], [67.192446591, -24.948789437], [70.705615787, -28.371607462], [72.001085191, -29.633760174], [74.502679443, -32.071018792], [73.633145053, -33.057071252], [76.42359697, -35.734618446], [80.672536959, -39.924444711], [80.690272393, -39.903573776], [81.208908321, -40.491707193], [81.767373375, -39.96395747], [85.409768794, -43.190893673], [84.950803931, -43.711360072], [91.325199772, -49.885762136], [91.328130845, -49.883546244], [91.542099174, -50.095856418], [91.834021209, -50.378619532], [91.830076316, -50.381601872], [96.781475458, -55.294629972], [96.781475466, -55.29462998], [99.488963989, -58.085805819], [99.336877599, -58.344504888], [99.336877597, -58.344504891], [99.246828577, -58.497678347], [99.056075526, -58.822149438], [98.974266183, -58.822149438], [93.048842801, -66.586827875], [89.212951322, -71.717482666], [88.538646324, -72.482144892], [88.349046691, -72.804654019], [86.479256567, -75.278387512], [89.540534896, -77.448069545], [93.64565318, -80.551540421], [90.011021679, -85.615311401], [88.251909449, -88.079518358], [85.994771704, -88.335477898], [85.294223568, -87.805863259], [84.117000979, -86.915882565], [80.081105983, -83.899416541], [79.851095877, -84.21241444], [74.262812488, -79.941749086], [74.079611005, -80.030785049], [70.309507243, -77.221302408], [70.337568856, -76.998549222], [64.768858889, -72.720700148], [64.565397722, -72.997570233], [61.757685356, -70.782650362], [62.359902771, -69.963152519], [57.320508008, -67.105814351], [50.872511042, -62.112231531], [50.952214914, -61.99171922], [43.272716978, -56.18601606], [43.541181551, -55.881577091], [42.930566166, -51.726948064], [42.328321771, -51.157826844], [50.620875933, -40.813689937], [50.77316217, -40.957600498], [55.398309928, -35.293086882], [55.869783674, -35.613877769], [57.310554684, -33.571583905], [58.727178532, -31.87063452], [58.942600656, -31.590154784], [59.035827522, -31.666272691], [60.984679191, -29.087940724], [64.452744238, -24.967877519], [64.349337643, -24.865272277]]]}, "properties": {"id": 10, "height_median_m": 12.0, "building_count": 50, "area_m2": 1851.8402840237256}}, {"type": "Feature", "geometry": {"type": "Polygon", "coordinates": [[[102.470910935, -49.261283254], [99.024692495, -45.874338183], [99.069221283, -45.836466431], [94.840049088, -41.68003405], [95.140881223, -41.33889025], [90.612018157, -36.936833287], [90.607753197, -36.941324292], [90.359220512, -36.675145662], [87.926610305, -34.284375231], [85.771318454, -32.654973827], [85.588018428, -32.689617548], [79.854344298, -27.116483683], [79.854344298, -27.072617339], [77.036963783, -24.277070213], [77.376768264, -23.988066367], [72.361070782, -19.01123821], [72.001085191, -19.397976596], [72.001085191, -18.65404234], [71.863921146, -18.517941253], [71.985182986, -18.387667682], [71.267498708, -15.810462231], [71.638696362, -14.337178054], [77.912480565, -6.872811239], [78.191480292, -7.12591991], [82.660883349, -2.057614469], [82.368900168, -1.064287221], [84.929728781, 2.081692204], [88.471586991, 2.527966548], [88.623691204, 2.700452806], [88.766848111, 2.565169466], [89.521543601, 2.660261142], [89.132761076, 2.219381552], [96.814752432, -5.04010368], [97.081495006, -4.775428237], [98.903703214, -6.477157123], [100.123341476, -7.616156307], [100.898181577, -8.339766143], [100.890810455, -8.349319121], [105.345698438, -12.60350467], [104.606487786, -13.336986783], [105.096299615, -13.670254907], [105.051792128, -13.714669839], [106.823965617, -15.389374571], [106.809576494, -15.403181494], [113.375411695, -21.581495613], [113.375923366, -21.580977545], [113.624486277, -21.815869606], [114.728663625, -22.854877484], [116.190459207, -23.07590108], [118.447116334, -25.096204012], [117.791785577, -25.839349438], [118.631695985, -25.839349438], [118.2994382, -26.180246085], [122.36092308, -30.053242959], [125.695968943, -33.147560598], [125.917880947, -35.412395567], [122.562029171, -40.200007508], [121.478743758, -39.125117053], [118.088399129, -35.583989649], [113.021783102, -40.371944036], [112.729785768, -40.592694124], [110.588698152, -42.689598459], [109.605788829, -43.692756185], [107.25052912, -45.952719522], [107.309254476, -46.01147945], [107.059232505, -46.247750323], [106.823214779, -46.51539455], [106.736400871, -46.428529534], [104.117086639, -49.027545298], [103.587298193, -49.628325677], [102.864922548, -48.926176221], [102.470910936, -49.261283254], [102.470910935, -49.261283254]]]}, "properties": {"id": 11, "height_median_m": 9.0, "building_count": 53, "area_m2": 1364.5567058749066}}, {"type": "Feature", "geometry": {"type": "Polygon", "coordinates": [[[124.525971279, -18.981556361], [123.549923523, -17.874717687], [122.620553166, -17.980108335], [120.910114538, -16.816325347], [120.798758833, -15.932383349], [116.962400773, -12.605582348], [116.809271146, -12.721348401], [114.554509795, -10.837316402], [114.649180199, -10.515247536], [112.315334744, -8.750859545], [112.351838419, -8.543883611], [109.145742415, -5.817097682], [109.344788104, -5.252802888], [107.326414963, -3.421733917], [106.732076074, -2.882549424], [103.553648519, 0.167275492], [103.167674935, -0.160995195], [100.190726208, 2.539693955], [100.62447121, 2.908594252], [99.538845166, 3.922441731], [99.699502254, 3.942684534], [94.286930581, 8.852971857], [93.909906833, 9.280516988], [93.579545242, 11.653175043], [95.344976, 13.772939132], [100.839026541, 20.670722818], [107.215301749, 28.805259726], [110.275837914, 29.053163271], [115.970846236, 23.470701142], [116.231170453, 23.765908942], [116.653871397, 23.286565847], [117.70211929, 23.502695605], [119.170593725, 22.253757513], [119.071353776, 21.803604892], [124.457696686, 17.023340414], [124.589640202, 17.053265218], [126.718288716, 14.893470203], [126.610103213, 14.280058114], [130.579580513, 11.148656815], [130.379172751, 10.921394306], [132.758099586, 8.979047213], [132.668262346, 8.775296257], [135.841666716, 5.896382463], [135.820491571, 5.72829408], [138.546875759, 3.495384383], [138.645582769, 2.823781571], [139.1933582, 2.357898348], [139.870173127, -2.86115936], [139.870173127, -2.861159361], [137.688621803, -5.798892289], [137.886586685, -6.02338457], [128.801331047, -18.04318341], [124.525971279, -18.981556361]]]}, "properties": {"id": 12, "height_median_m": 9.0, "building_count": 19, "area_m2": 1189.8812489963902}}, {"type": "Feature", "geometry": {"type": "Polygon", "coordinates": [[[-13.446953092372201, 70.17275869543275], [-6.804354491517534, 78.06416953054874], [-6.634625371557795, 77.91019120080952], [-4.198752431559452, 80.67247240890093], [-4.198752431559447, 80.67247240890094], [-1.3420323491773942, 83.91199450004355], [4.0603140750673505, 84.2654327912521], [9.024111276514198, 79.51600735658306], [9.24191046144575, 79.71359486967039], [15.418470662753695, 73.55470952439127], [15.172756647415595, 73.30702968086761], [20.82981049005479, 67.99165940052931], [20.774546044411657, 67.93794233417493], [36.91645648773513, 52.299951490382774], [35.261017209597675, 50.57912155498727], [34.81799402432569, 50.98103237667632], [30.903079834226926, 46.171558041167245], [25.422376294803637, 39.313493792260694], [25.426520635341998, 39.309969028981286], [25.303183617747, 39.16056858708417], [25.50036626172831, 37.595332026043245], [21.215441012570707, 32.73622451720426], [20.208085166952944, 32.355443828788594], [19.000704405859942, 32.23097379051583], [17.696555791190203, 32.723942197890466], [3.3996516873477494, 43.75758310900684], [3.3672392473500117, 44.08838462693126], [-2.655474430553741, 48.722864973711175], [-2.7681832419277126, 48.56310015882363], [-6.072066022816803, 51.105439149536096], [-6.056653922385351, 51.127285812136705], [-17.522746025250502, 59.79565550304807], [-17.626720517423777, 65.21938344835462], [-13.414577754947645, 70.14522345806103], [-13.446953092372201, 70.17275869543275]]]}, "properties": {"id": 13, "height_median_m": 15.0, "building_count": 28, "area_m2": 1482.957006218335}}, {"type": "Feature", "geometry": {"type": "Polygon", "coordinates": [[[31.009027244395867, 20.636127576812033], [28.70999436183825, 22.982521636016617], [28.70999436183825, 26.913742664649586], [29.76118039981004, 28.34419729512253], [34.93542000421441, 35.16697690018163], [34.18088590122197, 35.90038439198593], [40.957946168656825, 44.16778569492756], [44.029549320109155, 44.416585667010935], [46.045326377201945, 42.13069340926285], [46.2335573950699, 42.32635964401966], [46.482137125702685, 42.078987184749714], [46.73712045008891, 41.840123129077256], [46.729806689768616, 41.832520471661944], [51.26266548326724, 37.32167630743027], [51.469141201764444, 37.20460451998608], [51.59638338427772, 37.060311817927285], [57.02126392017849, 31.86308676464344], [57.524315247980105, 32.410728818728806], [60.6667546008096, 29.495115085995174], [60.646848495718025, 29.472541552238912], [63.24042504762795, 27.021610562491446], [62.65609080565216, 26.4694144454138], [68.5055329853796, 20.841184896696223], [68.52793079452334, 20.865568059065012], [68.83662664363546, 20.515506802167625], [69.49601569893036, 21.156433264460457], [74.0576119560329, 17.01815120049005], [74.19967573616555, 17.179251602604477], [78.73750583602215, 12.660898851447508], [77.93216304409438, 11.861797091700662], [78.492863782709, 10.272209753850941], [78.492863782709, 9.781017268540008], [78.66929801238402, 7.580175654699339], [79.32369110809138, 7.023614066214992], [74.5584382039459, 1.433476833603959], [74.5747539732323, 1.1929496499319967], [70.95779750972461, -3.2602492342101237], [70.65685257512342, -3.2846257853580174], [65.36237307599586, -9.488699768900402], [63.36858590649235, -9.72669510656223], [62.505119918128074, -9.86657666235397], [60.81039573967096, -8.064872175736888], [53.18026941515912, -0.3892076305597943], [52.81269213488184, -0.7365683232225689], [50.271587361625706, 1.7333866736299732], [50.76873098091928, 2.2971478018316165], [46.384799351659375, 6.735880656382553], [43.5389004945671, 9.517993428682088], [39.287166882418084, 13.760885423130738], [38.93171973841112, 13.223449090238864], [37.641477472470825, 14.517761188101396], [37.21021585990283, 14.762286636336473], [31.232972586103987, 20.83929088602807], [31.009027244395867, 20.636127576812033]]]}, "properties": {"id": 14, "height_median_m": 12.0, "building_count": 46, "area_m2": 1368.826691606566}}, {"type": "Feature", "geometry": {"type": "Polygon", "coordinates": [[[62.341201538278845, 37.654586366710674], [62.36051514162136, 37.675611937704616], [60.27002666882662, 39.707567685192714], [60.271027734165905, 39.708576759527574], [50.31036415887816, 49.46867775930005], [50.2044643536405, 53.43166212372818], [55.64066281163997, 59.00355906887806], [55.7742786567224, 58.889918739428424], [63.362546060651745, 66.89466224386985], [66.31446644018364, 69.89585056276485], [70.2343809735025, 69.89585056276485], [100.08932632792002, 41.150594426920385], [100.08932632792002, 41.15059442692038], [101.66714295863636, 39.631424230930534], [101.45709885297987, 35.22490687421952], [96.67237883786488, 30.138149025372595], [97.0744612514417, 29.682187354656435], [91.08872654122668, 23.500416936696904], [90.80308096229972, 23.82433917495817], [85.85572280176086, 18.775063071764563], [83.4524367078274, 18.656570562621617], [81.92742096956738, 18.656570562621617], [63.272219872064994, 36.78943452455659], [62.9698834144583, 37.0833056990232], [62.341201538278845, 37.654586366710674]]]}, "properties": {"id": 15, "height_median_m": 15.0, "building_count": 10, "area_m2": 1409.5057521139056}}, {"type": "Feature", "geometry": {"type": "Polygon", "coordinates": [[[17.975059282919574, 80.54794667348663], [18.058122600400843, 80.64214051967383], [7.41208024422166, 90.99009853766508], [7.306273513202741, 94.8296149878629], [21.922827169662117, 111.85581989561197], [26.844694329632254, 112.0933262773176], [35.029309049499595, 103.68993508083604], [35.43582045618538, 104.10482081675136], [56.00381886342586, 83.93565327720987], [57.184989406378456, 82.81944659120806], [58.23517208766905, 81.73680321066021], [58.86990381140404, 81.37691015437233], [56.05771976561298, 75.5894326764741], [51.68231346787763, 70.27331153417421], [50.898048330591216, 70.94032934628083], [48.67074466503259, 68.21250472280659], [46.71044489202873, 65.76722564050228], [46.022325400753694, 64.87542236188538], [44.54778362567373, 63.06952071314615], [44.547783625673574, 63.06952071314595], [41.70764151320297, 59.59114023573544], [41.721706061111426, 59.57766590754204], [41.24530520989744, 58.98340320741583], [41.01330786594916, 59.246488318708984], [40.44380904077109, 58.70831167706588], [17.975059282919574, 80.54794667348663]]]}, "properties": {"id": 16, "height_median_m": 18.0, "building_count": 12, "area_m2": 1406.5480203240033}}]}