{"type": "FeatureCollection", "crs": {"type": "name", "properties": {"name": "EPSG:32628_local_enu_m_section_centroid", "lng0": -16.586070251783557, "lat0": 28.102346507014072}}, "features": [{"type": "Feature", "geometry": {"type": "Point", "coordinates": [836.6564784256171, -739.1083591936443]}, "properties": {"osm_id": null, "category": "restauracion", "name": "El Mirador Asador & Terraza Chill Out", "extrude": false}}, {"type": "Feature", "geometry": {"type": "Point", "coordinates": [-717.2986284689496, -1017.742319193339]}, "properties": {"osm_id": null, "category": "restauracion", "name": "Bar Rimavi", "extrude": false}}, {"type": "Feature", "geometry": {"type": "Point", "coordinates": [-695.1062838142724, -1026.981879193345]}, "properties": {"osm_id": null, "category": "restauracion", "name": "Bar Cafeteria", "extrude": false}}]}