{"type": "FeatureCollection", "crs": {"type": "name", "properties": {"name": "EPSG:32628_local_enu_m_section_centroid", "lng0": -15.422404860033977, "lat0": 28.10463072605068}}, "features": [{"type": "Feature", "geometry": {"type": "Polygon", "coordinates": [[[-174.9014839411418, -181.4573866273363], [-172.6409274757756, -178.3375399649703], [-172.64442529198533, -178.3351095715114], [-172.43024815962394, -178.0467765306586], [-171.55441927117545, -176.83802466964852], [-168.8927789187111, -173.36798126627113], [-163.6852661867339, -166.30679457712648], [-155.5479870222351, -171.9376456724479], [-160.6592747878696, -178.84650536216353], [-160.65628854324694, -178.8486817061965], [-160.870018337234, -179.13136461482785], [-163.90022249968564, -183.2272512777405], [-158.6070038204075, -187.77956531540312], [-161.28370029500942, -191.20986713225608], [-168.15388697606122, -185.9703017124838], [-168.25700254772966, -186.1126139161653], [-168.65175226061277, -185.77697618200995], [-169.12269661097946, -186.41765229465432], [-174.2830055137128, -182.80801525637037], [-173.89239250237722, -182.14377428657355], [-174.9014839411418, -181.4573866273363]]]}, "properties": {"id": 0, "height_median_m": 3.0, "building_count": 5, "area_m2": 222.9275165708835}}, {"type": "Feature", "geometry": {"type": "Polygon", "coordinates": [[[-268.90340365109876, -123.36239151049304], [-268.7076751750436, -122.91860744453433], [-268.02282620272786, -120.58942366199844], [-260.94930095114427, -122.92831691489243], [-260.9375176417395, -122.88972593426033], [-259.8925279078514, -123.36359647412182], [-259.6227645539126, -122.8538908841112], [-257.19095544195784, -123.48045352975369], [-256.352896329497, -123.71797471707015], [-255.42130410800803, -124.30470843035104], [-254.21135062502395, -125.12772318077242], [-254.39230545885448, -125.64058207556], [-253.19130578569096, -126.20789064241251], [-254.1920785277453, -128.47698814687894], [-248.02940392458783, -131.47118359767003], [-246.7677857279504, -128.61065934347923], [-242.76474726203676, -130.04958035234563], [-242.76281589469258, -130.04417949080602], [-242.4321657878868, -130.1691291586809], [-242.10382186749408, -130.28715474579673], [-238.81252408522528, -132.7746577424888], [-236.26986267592224, -134.54853212071455], [-235.59027797229143, -134.98877591304426], [-232.5550532128135, -136.87574931387852], [-230.0884740936809, -138.27389603821], [-229.58602853321818, -138.27389603821], [-229.71965457239546, -138.51449493572935], [-218.58833325349812, -144.54980049922847], [-217.66474131109732, -142.70843497302164], [-206.95471326856975, -148.5007896696774], [-206.35973573519897, -147.37660667613244], [-203.20046403659597, -149.22914812080538], [-198.67389870811078, -151.73529965058756], [-200.3955220272439, -154.80234696770157], [-200.46336462338738, -154.76256526069434], [-205.6884417130136, -164.36828526172815], [-212.32696591063183, -160.75584665933908], [-212.35530159234452, -160.81244501180203], [-212.66855297149672, -160.6412242506391], [-212.97508355609205, -160.48677742383813], [-212.9699340591, -160.4764916982743], [-218.17142974917246, -157.63339471447114], [-220.03555454454983, -156.6323543578229], [-226.73397024563383, -153.05879618469143], [-228.39314105372577, -156.14356513276095], [-228.7356873063892, -156.92023581443624], [-231.09528701180128, -155.67189603836883], [-232.99413250334416, -155.67189603836883], [-233.3198642758973, -155.54880496383515], [-233.95054555784566, -155.42964060384807], [-234.5382338483997, -155.02989289537916], [-234.7471710209919, -154.79302652352632], [-235.1658318056575, -154.43705829211572], [-235.93184109532905, -153.13445254504876], [-238.24483134315886, -151.88579829009828], [-237.74487784034457, -151.13008676289564], [-236.08530984695102, -148.25846724617017], [-241.00430654582146, -145.4702010806592], [-241.7840778462908, -145.80170312348196], [-245.01483136461576, -144.09248180319483], [-245.21045481841864, -143.31627640088206], [-247.0256529201117, -142.39024814800106], [-247.51352015771192, -142.1690154377861], [-248.88823790330156, -141.50109543785948], [-258.07617377551304, -137.33465055327233], [-259.64312863295515, -141.07446943426345], [-260.2595849930688, -140.84151618252042], [-260.5440942359351, -141.37908345903938], [-262.7263450761332, -140.7280418181801], [-265.0923164761294, -139.323060416019], [-264.89849716870623, -138.8836050948355], [-265.6522674798937, -138.45634067691054], [-264.62314959428363, -135.06235415144997], [-267.1424948235258, -134.29340066552464], [-267.14233262035714, -134.29284900960454], [-271.86690884850015, -132.8422323197475], [-271.46079854570957, -131.61450919986922], [-270.08735212118296, -127.25480073443308], [-269.8919426315686, -126.61236255486769], [-269.7922900439578, -126.27344229541079], [-269.78914913128307, -126.27441341368417], [-268.90340365109876, -123.36239151049304]]]}, "properties": {"id": 1, "height_median_m": 9.0, "building_count": 27, "area_m2": 1010.6731165025568}}, {"type": "Feature", "geometry": {"type": "Polygon", "coordinates": [[[-339.9807901736401, -109.0692380749407], [-339.9801423989003, -109.06931339438157], [-338.8021016567254, -97.27228500968664], [-334.32914545338235, -97.75522485794099], [-329.37243989884263, -98.23346161091423], [-330.347490811041, -110.0611197975048], [-325.3895121933128, -110.66876575257173], [-322.1988863022604, -111.00368478194198], [-321.45661611841956, -104.41200171841936], [-321.4243378708975, -104.08266500169651], [-321.4195570081028, -104.08290065098838], [-320.7788711526856, -98.3933307421728], [-320.24672490792796, -98.99661042166154], [-311.24705210605873, -100.09367316412448], [-305.0953693164193, -100.83333929348827], [-304.6939987433815, -100.87037603851866], [-304.33454390487384, -100.87037603851866], [-304.33686939828317, -100.90333039388447], [-295.9025768874026, -101.68161052257727], [-295.8861673198789, -101.48627819335238], [-295.5060453645173, -101.6496160385287], [-295.195827052238, -101.6496160385287], [-295.20715592611464, -101.77804839063582], [-283.27097248028304, -106.90700886285315], [-282.721535389279, -107.11463614277814], [-283.6447436403538, -113.62691350770118], [-284.11601040589153, -116.83248715196065], [-283.22054663451337, -116.94528302379024], [-284.55831666404583, -132.34453890453653], [-292.1386602755183, -131.23964378214214], [-292.0972381876288, -130.91093014583305], [-298.293536461417, -129.5060152861311], [-299.5874302440392, -129.3158677944977], [-304.0083562504845, -128.87622891823042], [-304.0100068066702, -128.89082420423583], [-304.21056311135885, -128.8624035528853], [-304.99544153982106, -129.5297499974232], [-308.5376157482425, -129.04300257261025], [-309.06278201420366, -128.3285625724149], [-314.4225471157218, -127.74431070169605], [-315.11024316129465, -128.3011837325602], [-320.4159261615292, -127.71148686461986], [-321.94566314005914, -125.63042157401739], [-323.51597544500595, -127.41064178981803], [-326.4181269771796, -127.15755794273505], [-326.8987531590671, -126.39473603833028], [-327.6930955085559, -126.39473603833028], [-327.6878202564847, -126.354069254823], [-330.99396668509115, -125.99466355617623], [-334.51448947156445, -125.6119533589733], [-334.84599993740534, -125.5759154056772], [-334.8457260690286, -125.57319873099583], [-341.5219787806954, -124.79406933696343], [-340.350841374862, -112.84489062705791], [-340.01523952108005, -109.42072664233606], [-339.9807901736401, -109.0692380749407]]]}, "properties": {"id": 2, "height_median_m": 6.0, "building_count": 35, "area_m2": 1479.3917666631971}}, {"type": "Feature", "geometry": {"type": "Polygon", "coordinates": [[[-93.43084058403352, 14.818896295738861], [-92.05427219002186, 14.707426436374492], [-91.07262137864082, 30.51019096145538], [-84.49442631395037, 30.064965871070154], [-84.49376994644162, 30.075941433626344], [-84.13711625053637, 30.040782428087], [-83.79600261799243, 30.01769519117969], [-83.79662923315982, 30.007217137533562], [-81.54712827191817, 29.78546080172353], [-81.65632464763685, 26.443051100261442], [-81.98040738780124, 22.646545578261154], [-84.23154819275814, 22.757504574444994], [-84.77657335426227, 14.210162432298043], [-84.76801606562483, 14.209583258289111], [-84.89540541990229, 12.76540490517676], [-65.92921472752573, 11.53993349585023], [-66.02737191220686, 9.42564917422446], [-66.02239626485363, 9.425339242595514], [-66.0434653063426, 9.079000979153719], [-66.05983901583011, 8.726314852623636], [-66.06490132919836, 8.726630182653494], [-66.45772006981927, 2.269375800897105], [-85.48540882168865, 3.4924834678664016], [-85.48540882168865, 3.2753875130277352], [-88.11291269528078, 3.404897489331072], [-94.06020478287896, 3.759754477260563], [-93.43084058403352, 14.818896295738861]]]}, "properties": {"id": 3, "height_median_m": 6.0, "building_count": 5, "area_m2": 404.08068316339694}}, {"type": "Feature", "geometry": {"type": "Polygon", "coordinates": [[[-110.84770057919086, 7.546045940951156], [-110.73924511529066, 9.882152947929159], [-132.45599502971535, 11.218968523318352], [-131.62671428082885, 24.498346565298856], [-109.05199874765336, 23.00641648505279], [-109.05199874765336, 20.096627335266618], [-104.86227658287496, 19.799766478787863], [-100.78414912105957, 19.556436908305887], [-101.5119314490285, 6.944698966755264], [-110.84770057919086, 7.546045940951156]]]}, "properties": {"id": 4, "height_median_m": 9.0, "building_count": 3, "area_m2": 409.37685578386595}}, {"type": "Feature", "geometry": {"type": "Polygon", "coordinates": [[[-51.34289365987887, 7.658472784974695], [-51.244830943221594, 9.6595512595033], [-58.712003432118266, 10.105094928708631], [-57.98153706908264, 21.935234721007483], [-50.318342871581685, 21.489719122155126], [-50.2198706498549, 22.829342373218466], [-38.34902781933296, 22.00875391997683], [-38.34700105422542, 22.050112309434848], [-29.393663706357504, 21.445936460113828], [-29.49165419892788, 20.001777537465422], [-21.932626156940664, 19.556610584254056], [-22.663559561928746, 7.837283932980309], [-30.219837016799925, 8.28228889837007], [-30.31817978749351, 6.275495613849277], [-42.40949336449535, 7.091423727127784], [-42.412977255935566, 7.055877393100743], [-51.34289365987887, 7.658472784974695]]]}, "properties": {"id": 5, "height_median_m": 9.0, "building_count": 2, "area_m2": 497.53834392274683}}, {"type": "Feature", "geometry": {"type": "Polygon", "coordinates": [[[-138.0319066587761, 58.23539009093483], [-137.71239891271864, 59.44278080489171], [-136.98213207914196, 60.62547163964596], [-135.74947530879686, 62.02290098844383], [-135.66071071064874, 64.23676105666864], [-127.96593616833621, 63.80059325902565], [-126.58408281365057, 65.05384881543752], [-126.02307007098138, 65.30825075096477], [-124.88735429093414, 65.65939529479061], [-123.62085389294164, 65.77904503995317], [-122.4353695305265, 65.53469026260507], [-121.36638445205833, 64.92875065394165], [-119.68535459193295, 63.29526120854628], [-114.77214186525511, 62.99144437835489], [-113.793906545554, 62.88054450948766], [-106.9619740497302, 62.60393109971844], [-107.50641696651296, 54.45662604355891], [-109.34893018897087, 54.688715706568004], [-109.95705797677624, 44.34744749324728], [-122.35091171409849, 45.173951835821306], [-121.90443766080345, 50.235506358085765], [-136.37550693172744, 51.06968210753356], [-136.270523253072, 53.807076142420286], [-137.07759609355688, 54.518708943689], [-137.71542247584873, 55.723852888351594], [-138.0319066587761, 56.91981783222501], [-138.0319066587761, 58.23539009093483]]]}, "properties": {"id": 6, "height_median_m": 6.0, "building_count": 3, "area_m2": 455.263294375747}}, {"type": "Feature", "geometry": {"type": "Polygon", "coordinates": [[[-106.7327023585065, 66.03486270257443], [-112.29499285721847, 71.4064845701738], [-113.4709021355309, 72.51739812422626], [-118.37898979742731, 77.08001348019711], [-119.95427029290389, 78.5310186502999], [-122.5602663243441, 81.11607192354839], [-118.78667305412507, 85.03759001001922], [-117.51195146749626, 86.37154424000256], [-115.74294584895462, 88.26560245456434], [-114.76110167932072, 89.26738340636172], [-110.89005986210469, 93.41866197730955], [-89.20125105721755, 72.8306146756777], [-83.01517838053769, 79.36543863590276], [-88.09901779758783, 84.11177631427842], [-61.16004442796884, 112.64547941208895], [-64.53895105304179, 116.91383357578339], [-53.035091877838376, 143.45067738108895], [-42.51265106415697, 139.8831247671462], [-25.117626831221862, 174.86709657110643], [-18.987715731567874, 172.06495424719822], [-14.97446536665713, 180.0811142597991], [-41.33290491121514, 193.4005407325939], [-33.751793807216416, 208.38284271710708], [1.7316000636998985, 190.8191353904469], [-5.843303901847166, 175.50096002108532], [-6.779703367647605, 175.95132327425787], [-10.92478065057214, 167.89561866886487], [-9.449529818905148, 167.22663802230377], [-18.35904647020766, 150.2033639704945], [-25.66603010671242, 135.59784358054418], [-7.509943017946533, 126.18218822007718], [-5.494755938126117, 125.10709993316858], [-14.849512116865393, 111.37611554920379], [1.9535230625125717, 99.44303201484331], [4.694517959971511, 97.57859733736403], [1.7449760556881078, 93.23163760262622], [4.106818444963273, 91.55816493075723], [-0.2367224332943598, 85.40297270185458], [-2.7092947909685137, 87.38162292759915], [-5.82160995958088, 82.97118944105206], [-8.46416551526167, 84.84356014938368], [-25.360272641756044, 96.77417423986738], [-35.01390317057346, 82.92659123347948], [-51.35411038438578, 98.32643278716688], [-60.11672929762833, 88.99195282375344], [-62.50477519918034, 86.44805962921303], [-62.74491806571289, 86.1922446955501], [-62.7449534757354, 86.19227814836376], [-75.7078377522542, 72.38725648669383], [-77.57209248218916, 74.16700783168392], [-83.78276086216462, 67.47818580874144], [-82.00436735319433, 65.77224133276997], [-93.48036444966812, 53.57534308941068], [-106.72633156668194, 66.13019828844399], [-106.7327023585065, 66.03486270257443]]]}, "properties": {"id": 7, "height_median_m": 9.0, "building_count": 14, "area_m2": 5196.7853997707325}}, {"type": "Feature", "geometry": {"type": "Polygon", "coordinates": [[[-270.72593920705197, 90.56618092585724], [-270.7222202157908, 90.57250510424011], [-276.41071114811353, 93.95552777324855], [-282.0046161527848, 97.18198508663743], [-283.9673577086642, 98.29453836142507], [-286.45472038605044, 99.70446596206443], [-284.06894543816605, 101.12798594311523], [-282.29805758837415, 102.13178956230497], [-275.8394456269921, 105.79276564279476], [-265.01148132019875, 99.5414209805162], [-265.0114813201987, 99.54142098051611], [-264.76160893532744, 99.39716132513144], [-264.785072070819, 99.35536208486754], [-261.1326174415806, 97.23193225984791], [-230.20015683057022, 79.30865072041426], [-225.88248723259605, 76.8015456329802], [-228.49725669890202, 71.9401054384677], [-229.6764351929618, 69.7121012958723], [-230.1756631412385, 68.80656352954963], [-230.4685940503378, 68.36377982379653], [-230.92713734005466, 67.49738313035415], [-233.3053019035878, 68.90960518098905], [-235.36556023294878, 70.13304542900065], [-266.3952215670343, 88.0557490662077], [-270.09277139444487, 90.26196556827847], [-270.1205692254337, 90.21469510446597], [-270.41974225398775, 90.39261736005106], [-270.72593920705197, 90.56618092585724]]]}, "properties": {"id": 8, "height_median_m": 6.0, "building_count": 2, "area_m2": 644.0541337158865}}, {"type": "Feature", "geometry": {"type": "Polygon", "coordinates": [[[-221.00103809988568, 80.50185104649677], [-214.78175379024572, 79.75967915895889], [-215.81858577723284, 66.59488405579252], [-222.31498478036366, 67.34384578110074], [-221.00103809988568, 80.50185104649677]]]}, "properties": {"id": 9, "height_median_m": 3.0, "building_count": 1, "area_m2": 84.55442961983603}}, {"type": "Feature", "geometry": {"type": "Polygon", "coordinates": [[[-266.5117447271863, 104.31978989572143], [-268.97983524453343, 108.67224504113068], [-269.4346500388509, 109.53159691319051], [-241.24915051535902, 125.79244333866677], [-239.25949339046275, 122.40901334457646], [-218.17820240332827, 134.5253947393562], [-216.4995857426689, 135.47689569346866], [-214.87487788167482, 132.6432234277616], [-216.25467959942907, 131.86110164754913], [-215.76625645009486, 130.9751624508379], [-224.04122849349847, 126.1150693034345], [-224.12370993898531, 126.21578790592253], [-242.29650143262342, 115.70456449536223], [-242.8557255202047, 116.73477726672341], [-256.72884182465395, 108.69226812423454], [-257.22147868099, 109.58585046439921], [-266.5117447271863, 104.31978989572143]]]}, "properties": {"id": 10, "height_median_m": 6.0, "building_count": 1, "area_m2": 336.83740969412224}}, {"type": "Feature", "geometry": {"type": "Polygon", "coordinates": [[[-226.11640009389814, 122.10358396170125], [-212.54860617259206, 122.10358396170125], [-212.54860617259206, 120.11235222084849], [-206.5536733067436, 121.62263929199372], [-205.29269460797758, 116.42432239865434], [-208.47147959086357, 116.19909103566579], [-208.37555434952364, 115.54660406218406], [-208.40201595360782, 115.5436041823246], [-208.13076295005766, 111.64845054565495], [-207.9087266846436, 108.62785307428497], [-214.0887399766089, 108.18302053761565], [-213.79386584108067, 104.95154317135871], [-224.92106588371917, 104.25073188849902], [-224.92106588371917, 103.02376485419134], [-234.7921340696448, 112.26814106533473], [-226.11640009389814, 122.10358396170125]]]}, "properties": {"id": 11, "height_median_m": 3.0, "building_count": 4, "area_m2": 376.60244393712276}}, {"type": "Feature", "geometry": {"type": "Polygon", "coordinates": [[[-201.88825626751571, 98.59891723597052], [-201.5628248288417, 104.40960793495529], [-201.56282482884157, 104.40960793495717], [-201.29993769079857, 109.10354855155302], [-201.2999376907986, 109.10354855155302], [-201.15024932407212, 111.77628602224055], [-194.44907870315225, 111.27812639621777], [-195.00316394673735, 105.37350396143805], [-195.20479057081207, 105.37350396143805], [-195.36501092879018, 101.9223924402352], [-195.4634779817306, 99.80143362397588], [-195.58952549559834, 98.22957072467776], [-201.88825626751571, 98.59891723597052]]]}, "properties": {"id": 12, "height_median_m": 3.0, "building_count": 1, "area_m2": 84.82060695650225}}, {"type": "Feature", "geometry": {"type": "Polygon", "coordinates": [[[-189.50048799589214, 74.06313193391509], [-192.40536234720386, 74.31645322560729], [-194.14375830716307, 74.45722265923602], [-194.0009489969945, 75.59051578743818], [-193.28856405683223, 85.28185222386074], [-182.90662164291905, 84.504606243175], [-182.90662164291905, 88.48494396155021], [-176.40608134504026, 88.48494396155021], [-176.50471188331656, 83.56509495033158], [-176.48037636009585, 83.56356225484959], [-176.51167898768605, 83.2175646403242], [-176.51875518802242, 82.86459244898818], [-176.54347177449316, 82.86614914452625], [-176.90529685035074, 78.86678478568949], [-177.32290387646415, 73.18562848758539], [-179.9298124960884, 73.3141233213779], [-182.39575740864055, 73.5377692784556], [-189.4796393420797, 74.3408496461941], [-189.50048799589214, 74.06313193391509]]]}, "properties": {"id": 13, "height_median_m": 3.0, "building_count": 3, "area_m2": 209.69615442275511}}, {"type": "Feature", "geometry": {"type": "Polygon", "coordinates": [[[77.060700552, -243.507356561], [79.008529152, -241.432986734], [79.768355292, -237.413147303], [81.20136231, -229.29034252], [78.056392749, -227.660460836], [82.626899149, -223.042204434], [82.360459474, -222.833890372], [82.366450313, -222.82678283], [79.110504249, -220.14229031], [84.216562874, -214.723176027], [87.049729726, -217.270532271], [87.058939298, -217.259606019], [88.750767378, -218.903588305], [88.800534618, -218.84471551], [92.429838238, -222.107894038], [96.90629816, -215.241937545], [98.86808514, -212.239504641], [100.737791965, -209.295566289], [95.644510519, -206.087725063], [97.169549604, -203.494382261], [100.511481971, -205.388711031], [102.481648889, -202.275313272], [102.884214416, -202.503502049], [105.862797508, -196.763046798], [106.196598673, -194.39791384], [106.196598673, -194.397913839], [109.05563476, -188.23961255], [110.187891121, -185.672396262], [113.126666331, -187.227147256], [113.796040037, -182.977583298], [116.401970248, -183.362923121], [135.104875065, -186.624918951], [135.795691627, -184.385389461], [117.222043606, -175.962814264], [117.607292532, -175.307694971], [119.421798594, -171.42214472], [123.364666214, -169.593540494], [123.966522765, -167.794727571], [124.974380172, -164.470857189], [124.698435296, -164.262303071], [126.378977952, -156.046191221], [127.975977131, -156.253102581], [127.975977131, -152.107019443], [127.754384719, -149.218066822], [131.179397638, -148.885251648], [130.632404935, -145.474642779], [129.611039006, -140.071134243], [128.815275519, -140.103353363], [129.153782904, -137.161219529], [129.104414279, -137.15655554], [129.154306627, -136.817185981], [129.154306627, -136.458152162], [129.206326929, -136.463066662], [129.690350207, -132.073274792], [135.910890736, -133.483686207], [135.904841803, -133.367108523], [136.361406961, -133.496507389], [140.457808921, -134.304155934], [141.744041601, -128.179854974], [140.536358813, -127.837575717], [141.437391623, -125.340633618], [136.7158591, -123.221867382], [137.599001351, -120.969180267], [137.599001351, -120.285048631], [140.246978578, -120.746885482], [142.45341204, -112.528087117], [141.749318458, -112.213003558], [142.610806062, -109.283068583], [135.740388843, -107.243143583], [137.738464433, -100.924528826], [125.667499107, -98.643774819], [121.983530866, -114.566354264], [122.784657585, -114.78259605], [121.978330768, -117.220224617], [117.59972221, -116.175191132], [117.700309813, -115.719057448], [114.819900799, -114.930847525], [115.696203553, -112.234366106], [112.132784613, -111.132615881], [94.851493895, -107.340745987], [96.114540336, -104.357659968], [99.024822636, -105.22589882], [101.444452562, -96.800760075], [101.379201837, -96.781462779], [102.363442537, -93.434042296], [106.173920098, -94.612178962], [106.192023961, -94.550607397], [106.523840897, -94.649599978], [112.316102408, -96.194665587], [114.293329477, -88.72290432], [114.326993799, -88.293555682], [114.326993799, -87.875039044], [114.359270855, -87.881899972], [114.718498623, -83.30037438], [114.363552848, -79.477647138], [111.876294747, -79.911452776], [110.618904538, -75.635045857], [107.22974993, -77.075867898], [106.27261601, -74.905714677], [108.332965597, -73.793447005], [105.545701035, -67.575685943], [103.993299002, -68.0156649], [101.596186117, -63.486429112], [100.494796168, -64.062713297], [98.000738854, -59.564505777], [102.877286481, -56.800301281], [97.082122992, -47.051538005], [95.518804646, -48.048451892], [94.638402789, -46.651129302], [94.638402786, -46.651129297], [94.34222623, -46.181055104], [93.453696563, -44.502218704], [91.715923315, -41.350112915], [89.986227585, -42.439506724], [87.090073579, -39.68154247], [88.202794846, -38.42008073], [85.127245154, -33.625913919], [84.051732207, -32.18494702], [83.638959697, -31.600010855], [81.450539272, -26.992527593], [76.152660298, -28.750399059], [74.672287466, -23.973817774], [79.471532775, -22.197238684], [79.085766043, -21.103905638], [81.590517444, -19.992770208], [80.442459268, -17.715106305], [80.524175507, -17.663639933], [78.897148476, -14.666301184], [82.792595781, -10.628667058], [85.875378468, -14.600106399], [85.917792533, -14.572982279], [90.531591211, -21.982910656], [91.054986247, -10.709095913], [91.054986247, -8.856684866], [95.848290727, -8.147897235], [96.945486256, -7.836932076], [97.311550394, -9.081922854], [97.548487371, -8.947618361], [98.226849136, -12.485203394], [106.852493841, -15.846617101], [109.578796595, -16.950451046], [112.595974953, -17.654670148], [112.601319783, -17.64103675], [112.898848664, -17.725361844], [116.857809096, -18.649395902], [122.993514229, -19.04127655], [122.994687822, -19.025310901], [123.330997794, -19.050176038], [127.485006507, -19.050176038], [127.485006507, -18.40547849], [132.890914498, -18.034052405], [132.328968891, -15.591979864], [132.374647067, -15.579033839], [131.562677326, -11.283330109], [137.125659233, -8.947552032], [145.28700808, -5.491874275], [145.287008083, -5.491874274], [149.683348177, -3.996671029], [153.643488798, -2.649820016], [151.705185216, -1.551119074], [153.545595182, 1.578514772], [156.479170593, 8.000583961], [156.98624644, 8.000583961], [161.977440201, 5.397729076], [162.571933077, 5.060748899], [162.895163329, 4.87753024], [162.70229725, 4.580170304], [166.627633652, 2.800151592], [163.676316573, -2.285506432], [180.424893329, -14.039613976], [183.032892543, -11.310428544], [186.224974198, -7.804739411], [178.580828544, -1.752323348], [172.448634796, 3.078658522], [174.500410319, 5.533925003], [177.567778024, 9.397692864], [173.369207455, 13.059081247], [170.481417155, 15.362872816], [171.328788212, 16.735217741], [172.556109741, 18.875803788], [172.556109741, 19.404700777], [172.715178517, 19.34312402], [175.727721589, 26.515123581], [169.429131462, 27.229177559], [155.748113671, 28.840584996], [155.813897961, 28.616851433], [155.606422241, 28.640372389], [155.161941979, 26.524012778], [155.04115266, 26.387077223], [152.838827125, 21.081554935], [152.885732774, 21.061189791], [152.697511381, 20.741117605], [152.570424259, 20.4349578], [152.521930534, 20.456012443], [149.89508158, 14.39368179], [149.899935484, 14.391454491], [149.757785435, 14.076825113], [149.616707481, 13.751240651], [149.611719876, 13.753529301], [147.695240739, 9.51166909], [144.59388504, 2.479824417], [142.806261873, 3.493114222], [139.589259328, 2.71950222], [135.281346867, 4.510215253], [128.226998921, 0.737893652], [120.925432292, 0.302231186], [120.492477406, -0.384929612], [113.03174996, 3.723253058], [113.879320962, 5.370455549], [114.277099483, 6.046881534], [117.248182386, 11.099234969], [115.694956036, 12.089713282], [118.463058082, 17.581426368], [117.938062781, 17.851959481], [119.000347395, 19.932084808], [115.012370314, 21.475861669], [115.722948612, 23.355509203], [116.241098521, 24.82404024], [128.7460827, 19.19225638], [131.959333072, 22.134497142], [132.266404703, 22.552239618], [136.899436539, 28.855049757], [131.750262012, 31.139280541], [128.8439316, 31.798246039], [126.899753923, 32.165589571], [120.540826807, 32.005390855], [120.503144707, 32.475301719], [120.535922731, 32.461568841], [120.318144825, 34.782324221], [119.491620056, 45.089418598], [118.982620244, 43.830423981], [118.17443892, 47.495276444], [113.942137353, 43.359030918], [111.923255026, 41.307046536], [111.882288646, 41.19868078], [110.295048797, 42.398287788], [112.571927466, 43.394218289], [107.574473078, 59.954845375], [105.494995193, 64.259749215], [99.335072596, 62.164748361], [98.338178814, 65.42962984], [98.225065594, 65.763036605], [98.235381728, 65.766295901], [97.357800186, 68.640423288], [101.983196472, 70.428043368], [109.765146999, 73.368771697], [107.203269801, 79.045417245], [110.332665651, 79.636702361], [112.071662686, 80.435940263], [114.640524002, 81.702135039], [115.194537546, 80.571608969], [115.242624105, 80.595310891], [115.368122623, 80.3107624], [118.548384166, 76.705386654], [124.912467093, 80.312780241], [125.982281461, 76.371117323], [126.215957701, 75.510152095], [128.685582145, 66.41097808], [130.823606747, 66.695965667], [130.823606747, 74.594681763], [134.518522632, 73.860557737], [132.482599514, 84.631553362], [130.823606747, 84.242431672], [130.823606747, 84.98585919], [129.09893492, 94.301875945], [131.399783737, 94.823557851], [131.734158074, 94.899372064], [131.734556287, 94.897566292], [135.418377463, 95.712443864], [140.072229599, 96.74694292], [140.046092527, 96.847687931], [139.56669611, 100.217255482], [139.524652205, 100.487351643], [139.528068515, 100.488759999], [139.077740109, 103.654015165], [138.697987127, 105.232572345], [143.044046021, 105.89838429], [143.8182651, 101.63521635], [145.619426956, 97.658830143], [147.403136469, 95.074981001], [147.811542367, 93.570235475], [148.973445649, 89.31460793], [153.668524342, 91.771230675], [154.326733135, 92.268692908], [154.641081965, 91.342134308], [165.259701283, 96.339056157], [165.2332412, 96.394435371], [166.282744198, 96.632393954], [162.950985966, 105.770595735], [163.479244933, 106.070032124], [164.022936458, 106.378216248], [164.98129869, 106.921450805], [166.260745458, 107.590900294], [170.435394536, 109.854358699], [165.175136705, 120.11142524], [165.961189418, 120.556988497], [164.899953415, 122.635060473], [165.530299217, 123.111464365], [165.022356658, 124.838986228], [168.145582453, 126.2815001], [180.628554926, 116.173210603], [174.230013797, 128.262963097], [173.932258243, 130.625864533], [173.482451214, 137.509972932], [169.153886632, 137.768245329], [167.142872468, 137.888236481], [165.680275268, 139.546343022], [164.354631149, 140.505606788], [163.844986543, 140.873278724], [163.845970413, 140.873684319], [159.163694937, 144.26187663], [159.225986058, 144.280399317], [158.452535646, 144.938029039], [168.994955729, 148.315670387], [167.695651029, 153.074973233], [153.410181616, 149.835963853], [152.094588589, 154.683182591], [152.37720391, 155.00357587], [158.866589344, 157.319617842], [155.264712265, 167.527992264], [162.516055176, 169.377638427], [163.333809611, 169.586228252], [163.533732919, 169.637223962], [163.737268465, 169.637223962], [165.122074974, 169.931583466], [168.417302287, 170.632028959], [168.770573364, 170.707121543], [168.77067071, 170.706555958], [172.954201257, 171.588928877], [173.150076065, 170.9227551], [173.840780172, 166.560146015], [174.429298745, 163.001812952], [175.053639307, 159.563937631], [175.063974137, 159.565812241], [175.246842414, 158.356487713], [181.490984156, 158.74975511], [181.614851177, 155.379563202], [181.013445591, 155.33945749], [181.013445591, 148.848481522], [188.4784286, 149.425493855], [188.284686569, 150.194234045], [192.827960442, 151.029464147], [193.861469381, 151.322379368], [197.455135801, 154.491078366], [194.744706097, 157.358969222], [194.744705937, 157.358969392], [194.744705934, 157.358969395], [192.752313759, 159.492205562], [196.210033935, 163.159230324], [200.795184959, 160.560200018], [203.218628957, 166.97078214], [203.709599581, 168.08398214], [205.286885204, 172.256275383], [208.054222955, 171.628824322], [210.120908691, 170.9594114], [213.178147682, 170.176786916], [214.356281398, 169.691107625], [214.645722201, 169.362976484], [211.672179631, 161.176203717], [212.951795183, 161.005537219], [211.76504697, 157.642077045], [211.434079942, 156.704056321], [211.434079939, 156.704056311], [210.629659849, 154.424183542], [210.644537516, 154.41662274], [210.420878495, 153.768645962], [208.71775866, 154.613362425], [200.643472244, 146.588290023], [204.051518251, 139.914783962], [210.815089826, 139.914783962], [213.848219836, 134.642299633], [219.980263903, 127.02849896], [221.809334173, 132.788407461], [223.062023519, 133.498477327], [234.776681726, 145.795318423], [232.429680743, 148.461310845], [221.625185189, 140.516168046], [218.756392042, 144.679076869], [222.22294196, 146.812469102], [221.329218047, 148.433573767], [222.162407668, 151.031125703], [223.422096519, 154.601312904], [227.011624853, 154.714350413], [230.924090828, 160.855750928], [235.518687925, 158.127347926], [236.998377282, 177.897688612], [244.079737205, 177.41601194], [244.53240314, 180.6661204], [244.53240314, 181.814157905], [248.618417527, 181.339060158], [251.390818587, 183.317983213], [255.065029092, 179.946031432], [259.239947095, 185.090586465], [261.699252354, 188.213199409], [262.807043071, 189.46907152], [266.781467632, 186.379450936], [263.317305596, 181.976197562], [263.122527324, 181.75538275], [260.569480082, 178.41578275], [260.208269783, 178.006288488], [257.359014302, 170.940393991], [263.292805011, 168.308098789], [264.184017823, 169.99200487], [265.796438331, 169.078026302], [267.58610651, 172.730042674], [279.612198948, 168.319154981], [281.37003657, 172.333806148], [269.16870065, 178.59128498], [271.185381575, 182.955955796], [271.24971077, 182.905947851], [271.922113743, 184.212721973], [274.173762706, 183.213865584], [276.292885745, 187.568201031], [276.539607965, 187.468307371], [277.114796032, 190.185286613], [277.51426016, 190.100375066], [278.572271047, 195.240823962], [280.631787223, 195.240823962], [286.731913549, 195.006398647], [287.606995335, 187.400633338], [292.68119444, 185.155762673], [293.943105548, 188.834433454], [294.541466092, 188.72137595], [297.386794536, 196.24794214], [297.483019828, 196.466118114], [299.619307092, 202.630828692], [299.619307092, 202.742570224], [301.504450093, 208.141648587], [303.987670606, 215.29684525], [307.116054313, 213.851949109], [312.553866183, 212.991758557], [312.410048118, 212.201628954], [317.454712714, 210.586852875], [317.7151697, 210.506323881], [317.71500565, 210.503534193], [326.11058259, 207.816145061], [326.023945245, 207.445937268], [335.656873841, 205.036983962], [335.870328279, 205.036983962], [336.032452026, 204.979547941], [336.382618937, 204.855493355], [336.382618944, 204.855493353], [339.378271437, 203.794215385], [338.754050211, 201.582769844], [347.465420326, 198.889358221], [348.152779199, 201.004438221], [353.137973679, 199.463098504], [351.267061568, 193.453592798], [351.16702135, 193.1133542], [351.165070479, 193.107825078], [351.11700124, 192.971588116], [346.473703655, 179.811638658], [346.65322077, 179.750584561], [344.506663203, 172.774569152], [344.506663203, 172.540865639], [344.506663203, 172.540865638], [341.326247761, 166.456499657], [339.171144581, 162.12540487], [338.875096207, 161.454160941], [337.009407838, 157.891920941], [336.90556328, 157.656469458], [336.790180439, 157.473340527], [336.758642626, 157.413124008], [334.836136233, 154.416321074], [331.764804112, 148.613178697], [331.77005531, 148.610337426], [331.601181544, 148.304021296], [331.009744706, 147.186528285], [329.433186173, 144.505576196], [328.45268154, 142.899973134], [324.111221115, 135.243847222], [324.118468064, 135.239739388], [323.936517888, 134.935759672], [322.329871509, 132.102453419], [322.052179544, 131.787641614], [321.893167869, 131.521984692], [321.870938366, 131.534585183], [320.018346961, 128.384236691], [319.783594246, 127.851971195], [319.677154243, 127.902094879], [315.176024077, 119.992741767], [315.18039001, 119.990266997], [315.001386751, 119.685870331], [314.829799599, 119.384358638], [314.825509919, 119.386790184], [311.269897931, 113.340439736], [308.372885659, 108.264759364], [308.124604418, 107.829760785], [308.01284054, 107.633946039], [307.264314037, 106.785361964], [304.836236827, 102.514016455], [304.836236827, 101.94558564], [302.982347289, 102.810993164], [298.948656149, 94.427369585], [301.082254874, 93.573674528], [300.889092827, 92.916726902], [297.578488488, 84.874280165], [297.583577415, 84.872182282], [297.444288863, 84.548269193], [297.312031815, 84.226977321], [297.307016552, 84.229044836], [292.45625216, 72.948677162], [292.33241455, 72.621097417], [292.142794046, 72.298646029], [292.047831269, 71.975675903], [291.188890127, 70.271599163], [290.756686486, 69.274988581], [289.58145325, 66.943411334], [286.265121233, 59.746395527], [286.46523964, 59.595149675], [286.100040392, 59.388141464], [285.965241622, 59.095604748], [285.838161525, 59.191649574], [282.04108357, 54.026077162], [281.585063692, 53.767588515], [273.625481382, 59.466679858], [274.299755998, 60.231086593], [269.711928432, 63.698483217], [268.235286706, 64.797064378], [264.065287771, 66.316590312], [264.018408456, 66.215130147], [258.764031945, 68.047974235], [258.315993668, 67.095607791], [258.308612311, 67.098493323], [255.980909246, 62.449084855], [255.000302647, 60.225710963], [253.749061121, 57.236330119], [261.172253107, 49.856610082], [257.793424227, 46.026123969], [262.030875669, 41.986495012], [257.096716935, 34.671628916], [258.317754857, 33.933358315], [258.313185682, 33.925389163], [264.229009583, 30.12497788], [261.770995656, 26.558151225], [261.775452106, 26.555189617], [261.567535669, 26.262910219], [258.839381493, 22.304082759], [266.696354989, 16.711166829], [266.706069394, 16.724933023], [266.98933873, 16.502608988], [267.266631874, 16.305220357], [267.236108702, 16.261966247], [270.706936496, 13.695803571], [269.969450965, 10.470972845], [269.674652115, 9.02274939], [269.284075292, 7.362300812], [269.180695307, 6.659106406], [269.113662716, 6.514028822], [269.016397109, 6.303518398], [267.12559159, 2.211277747], [267.144242613, 2.199000495], [266.994008093, 1.926493653], [266.828680211, 1.568677117], [266.805246162, 1.584102851], [263.067719376, -5.195308575], [262.944649614, -5.474350239], [262.884898352, -5.526923306], [262.856888573, -5.577729581], [262.84151557, -5.565094314], [256.088111643, -11.507180703], [255.173646396, -10.781487693], [250.076888642, -15.698981484], [249.891585787, -15.877766838], [249.871155878, -15.858262981], [244.266680821, -20.197334513], [240.74198216, -16.756459629], [233.774819645, -22.680321165], [236.444219577, -26.030785522], [233.698989251, -28.105580668], [219.483866683, -15.493609413], [215.638870981, -21.305565038], [230.858683604, -30.252232012], [230.85201774, -30.257269951], [230.893160188, -30.281523828], [230.46206855, -30.589234423], [230.462068549, -30.589234424], [230.269683385, -30.726557787], [230.248000262, -30.713775373], [229.57495613, -31.222449886], [227.805424906, -32.485530536], [226.233349449, -33.638731099], [226.041433185, -34.291441796], [226.017505684, -34.277232962], [223.983276545, -38.151565083], [223.825062302, -38.461374195], [223.821550932, -38.45958286], [221.068182126, -43.703566933], [220.187428739, -47.073457468], [219.603736595, -51.815754452], [219.603736595, -55.567315402], [219.70138081, -57.00637097], [219.795572438, -59.035238072], [219.800124845, -59.037540645], [219.800124845, -59.262988963], [220.254866209, -59.984727991], [220.665328006, -61.031719006], [220.771255739, -61.391981149], [220.872048284, -61.849044182], [220.970242408, -62.29432418], [221.072939715, -62.760024717], [221.173173567, -63.782716165], [221.273036715, -64.801625305], [221.273036715, -66.801571965], [217.719959658, -73.221239226], [217.769628595, -73.247382374], [214.2388178, -79.604744978], [214.053217939, -79.815154477], [213.622424422, -80.79191219], [210.395037338, -79.118693544], [208.080174016, -83.784111123], [207.287715323, -85.468590122], [205.575968441, -88.240819744], [206.375949489, -88.92100726], [201.464323924, -95.520326837], [205.686293361, -97.674176038], [205.528155164, -97.674176038], [202.917804636, -100.454108715], [202.787501338, -100.601830008], [202.780443244, -100.600393829], [199.937868469, -103.627637265], [198.262028663, -107.047374219], [198.093088964, -107.417650718], [194.972322013, -113.540988238], [195.032185721, -113.553827724], [194.824371949, -113.95139058], [194.707368418, -114.216678002], [192.84168005, -117.890237999], [192.660567237, -118.300883309], [192.459330777, -118.643087734], [190.609713329, -122.285003923], [189.444012237, -125.698939687], [189.052718553, -127.251536094], [186.91619784, -134.297689517], [187.034886349, -134.308453831], [186.888250741, -134.7240458], [186.80978434, -134.990911453], [186.718981013, -134.982676153], [183.644136808, -145.315781842], [183.651032172, -145.318446758], [183.550829222, -145.62934477], [183.443854536, -145.988836392], [183.435949184, -145.985781137], [181.684686222, -151.419395346], [180.790448464, -154.333992571], [178.439249954, -153.445496038], [178.341055828, -153.445496038], [177.445898497, -153.107224223], [177.448786559, -153.071208929], [177.611077769, -151.047372647], [176.938604195, -150.938463369], [178.650419355, -136.189613501], [176.198682368, -135.599068061], [169.210375569, -154.324865458], [169.253669187, -154.340446662], [168.919096989, -155.099037408], [169.911224239, -155.436461686], [167.714790986, -162.035058281], [166.733517301, -161.590081], [166.2655342, -163.004853462], [163.711846272, -170.242469282], [163.027510281, -172.237417103], [162.536107817, -173.9086858], [161.405089565, -177.114197135], [161.350240092, -177.269650512], [160.624941476, -178.914153016], [160.601404535, -178.905872027], [156.352497481, -188.250599824], [154.959673514, -191.313872491], [154.809834935, -191.643416233], [154.809412454, -191.643203364], [152.015521598, -197.766761842], [150.66977135, -200.81804252], [150.692072963, -200.831025544], [150.537920596, -201.116993724], [150.537920594, -201.116993728], [145.660964356, -210.164239184], [145.907185484, -210.303806271], [141.386729439, -217.292057653], [140.211619728, -219.179326561], [138.508855523, -222.024093138], [138.513442184, -222.027559653], [138.345886561, -222.296361404], [138.147244255, -222.628228253], [138.141653591, -222.624002931], [133.313590691, -230.369441393], [133.325583931, -230.378028598], [133.135861924, -230.65456345], [132.688556664, -231.372154633], [131.068130047, -233.668446437], [130.370033542, -234.685977386], [130.270305471, -234.799036379], [128.703729793, -237.019016507], [126.102556218, -240.248741687], [126.206844433, -240.324586516], [126.024735764, -240.512269815], [126.024735764, -241.057689448], [125.714463327, -240.832040175], [123.763835975, -242.842379273], [122.098630898, -244.508083004], [118.657394147, -248.297855324], [116.267053093, -250.515017134], [114.182873526, -248.879248088], [110.205395175, -252.201786065], [110.000868315, -252.423113199], [109.969813903, -252.398576005], [98.872775336, -261.668351682], [99.554745355, -262.209543244], [95.169010177, -265.218904589], [91.924487051, -261.303372256], [86.74895015, -255.436007282], [85.264305678, -257.359551202], [83.798080323, -256.029775458], [83.295494157, -256.713497326], [79.671636525, -253.088554511], [77.806477833, -251.30794018], [74.409926072, -247.938684378], [78.031507816, -244.387818727], [77.060700552, -243.507356561]]]}, "properties": {"id": 14, "height_median_m": 6.0, "building_count": 926, "area_m2": 42117.909787735145}}, {"type": "Feature", "geometry": {"type": "Polygon", "coordinates": [[[99.865287672, 59.896265582], [100.738632631, 58.48185508], [110.118061095, 42.532051873], [102.591699295, 48.22033922], [102.628341495, 48.266033509], [98.340527976, 52.694923844], [98.032565919, 52.927675965], [97.96322936, 53.014412478], [97.956062945, 53.023377299], [97.641171908, 53.41728999], [94.910945685, 56.832664309], [99.865287672, 59.896265582]]]}, "properties": {"id": 15, "height_median_m": 3.0, "building_count": 2, "area_m2": 70.79661044727851}}, {"type": "Feature", "geometry": {"type": "Polygon", "coordinates": [[[111.419692471, 39.975004568], [110.214143765, 36.786043325], [115.277064596, 34.664851617], [113.395027088, 30.00969255], [110.802067772, 31.112030261], [110.470481943, 30.109604109], [104.271755384, 32.786681127], [103.488634762, 30.678150232], [96.645783825, 33.479488962], [99.481334429, 39.616426546], [100.387166865, 39.205659539], [100.941875857, 42.475723477], [111.419692471, 39.975004568]]]}, "properties": {"id": 16, "height_median_m": 6.0, "building_count": 3, "area_m2": 138.99293975368656}}, {"type": "Feature", "geometry": {"type": "Polygon", "coordinates": [[[109.477418569, -117.501452185], [108.328227545, -123.067989089], [105.808259121, -126.724717981], [101.463876466, -130.521155461], [100.847514988, -136.344090385], [99.99003057, -136.236078531], [99.413344851, -143.100693606], [99.217504226, -146.764009966], [99.127979734, -150.316211558], [99.138251547, -150.316793802], [99.119302756, -150.660501434], [98.974011521, -156.42544626], [99.656665304, -156.636511524], [98.653805603, -162.573732636], [95.27781762, -161.448066322], [95.273868115, -161.462441279], [94.920907136, -161.329060535], [94.612800308, -161.226327504], [94.61620976, -161.213918168], [91.37815592, -159.990287071], [92.924240641, -154.184289232], [91.852048686, -154.082996335], [91.731922023, -150.814572652], [92.596348631, -150.61857728], [92.233315743, -147.326093438], [92.233315743, -146.985742503], [91.945692151, -143.072890276], [91.938733369, -143.072475066], [91.938733369, -142.754596675], [91.859333826, -141.584426433], [92.429703992, -138.480683574], [92.429703992, -138.366518552], [92.681463217, -137.110703269], [92.804813154, -136.439478672], [93.426832911, -133.618811361], [94.819435374, -130.339857805], [97.060444307, -130.622143436], [98.553896818, -124.370747628], [97.08601975, -123.816050234], [98.634465563, -116.794327157], [97.180188925, -116.244769242], [97.965741923, -112.905169242], [97.612858961, -112.77181798], [97.834446618, -112.269402218], [93.496308976, -110.541446335], [93.817567155, -109.782692934], [109.477418569, -117.501452185]]]}, "properties": {"id": 17, "height_median_m": 3.0, "building_count": 11, "area_m2": 378.600076234804}}, {"type": "Feature", "geometry": {"type": "Polygon", "coordinates": [[[80.559651049, -2.873180427], [81.538036507, 0.824049235], [82.133160721, 4.197429652], [89.813806985, 10.486063453], [90.678623786, 11.13967626], [91.976799994, 9.534177772], [92.467115462, 8.867149051], [93.952487211, 7.053690902], [88.336855813, 2.139363248], [89.835371834, 1.183773214], [86.408675534, -3.843553033], [84.903809973, -3.593890834], [80.559651049, -2.873180427]]]}, "properties": {"id": 18, "height_median_m": 3.0, "building_count": 2, "area_m2": 96.86463766866204}}, {"type": "Feature", "geometry": {"type": "Polygon", "coordinates": [[[91.350138186, 18.139290877], [85.816508365, 23.551571395], [89.673573339, 27.924220718], [92.843657531, 31.278469475], [94.883392393, 29.665172898], [94.926961002, 29.759467754], [102.780194528, 23.52737015], [100.495881936, 20.262143067], [98.765288719, 17.69654712], [97.352051354, 15.593727028], [97.352051354, 15.383953102], [97.256677972, 15.460039095], [97.235436707, 15.428549025], [97.091241201, 15.592019536], [92.292047341, 19.420670929], [91.350138186, 18.139290877]]]}, "properties": {"id": 19, "height_median_m": 6.0, "building_count": 4, "area_m2": 138.3222237690439}}, {"type": "Feature", "geometry": {"type": "Polygon", "coordinates": [[[44.510971142875846, -24.93936049844865], [44.6339121735509, -25.00494868298137], [48.17418503262185, -19.437820873396035], [47.82327931985281, -16.653135244952324], [52.478474855198094, -13.960549446618188], [48.37839448806753, -8.980389541976606], [53.51623789857236, -5.313028091573743], [52.13994306388479, -3.41841706659138], [53.77483725674992, -2.0945349669007722], [56.60134034352743, 0.1238469463849988], [57.76998445689571, -1.3214548121735024], [61.97919388434999, 1.7461732545399233], [63.512938288610414, 2.816181982686054], [63.80496011755938, 3.023092720112957], [63.8064141046967, 3.0209238443938218], [65.07844389195012, 3.9083487445546354], [68.51736210477536, -1.0535156631768656], [71.65242214590147, -5.436945167983742], [69.8738405439049, -6.893183093063045], [69.87560213489145, -6.895893399142847], [69.62984875353311, -7.092954696541104], [69.32894771603293, -7.339321521662638], [69.32677524721873, -7.335979057106304], [61.30551835830444, -13.767952772207607], [59.51173822523962, -11.564929878041612], [56.295260521126764, -16.66993609715044], [54.934929230972834, -17.286804284285488], [55.4392474082683, -26.243935154577482], [50.71390025092303, -27.315334583301883], [55.13766995890259, -32.858347603552716], [55.39926822088839, -33.11784356414281], [55.36626671005035, -33.14478086107818], [57.263620487144095, -35.522177828981405], [55.66693727139973, -36.496855781409764], [51.79740085739041, -39.57946346288265], [49.7153055818094, -37.343281205127774], [47.46259125115623, -35.09590132519561], [46.50482143808927, -35.699122161015445], [45.42220972673233, -33.78994626958944], [44.510971142875846, -30.920373158596533], [44.510971142875846, -24.93936049844865]]]}, "properties": {"id": 20, "height_median_m": 3.0, "building_count": 7, "area_m2": 433.92978737489983}}, {"type": "Feature", "geometry": {"type": "Polygon", "coordinates": [[[-16.10487408811482, 48.29842396176648], [-15.9068620562499, 48.29842396176648], [-12.77182463778697, 52.76971908956381], [-11.593158936832689, 51.99025675435482], [-6.985282384320373, 58.545643640282044], [-9.439656889698616, 60.21511808680162], [-3.7338810457632943, 68.36061443696924], [11.47256789152708, 57.83201443784244], [8.620110001094524, 53.75988017042537], [5.0860893148139885, 48.64056211177368], [1.0626152797041464, 42.7760300227464], [4.10633600474873, 40.89389376494731], [6.953050428306101, 38.907898397762594], [0.1833324017025226, 29.107967576220044], [-1.1971960500191776, 29.961640725030094], [-2.1860349733574473, 30.74635452036281], [-10.922787545065557, 36.77525244166927], [-10.925272830229524, 36.77166653260242], [-11.212059675143996, 36.974868045912125], [-14.922116676825121, 39.53503611314066], [-15.079481168084882, 39.35663628314579], [-19.942337380509546, 42.739544465275856], [-16.10487408811482, 48.29842396176648]]]}, "properties": {"id": 21, "height_median_m": 6.0, "building_count": 3, "area_m2": 602.1457570796994}}, {"type": "Feature", "geometry": {"type": "Polygon", "coordinates": [[[65.97095822068663, 118.45940616468909], [63.02539951240918, 120.438250336249], [63.619671007509915, 121.28038706100385], [65.88831472080774, 124.85868198834078], [66.40535145182841, 125.44483242328776], [68.78694616561329, 123.82486305542717], [74.5321387591247, 132.43154945977332], [74.85285130343954, 132.7951325201839], [78.72469877602899, 130.08402767847087], [75.59621890677505, 125.27068674141312], [74.44258821170062, 126.05539052717842], [68.32458390740372, 116.80763778767651], [65.97095822068663, 118.45940616468909]]]}, "properties": {"id": 22, "height_median_m": 3.0, "building_count": 2, "area_m2": 84.095791513278}}, {"type": "Feature", "geometry": {"type": "Polygon", "coordinates": [[[53.87033079817108, 129.8151868743635], [53.183510101997896, 130.37135107684855], [49.76097272492846, 125.3827317648931], [45.35258701493391, 128.47652537427743], [43.9700024861345, 129.37218157821025], [42.69135522197243, 130.37572832058336], [40.52537110078726, 131.82671569821767], [39.86552772522757, 132.38775052165735], [40.64953945456428, 133.42469867918112], [43.49389854861265, 137.538808163076], [44.2720492983463, 138.64151850516947], [44.8606608975405, 139.64245787045058], [50.76060561458689, 148.11469257995748], [51.362511771754754, 148.96764831458538], [51.93970400949786, 148.53141692069244], [62.04186011509134, 141.54536828566836], [60.36337424125362, 139.13508700957286], [59.67656722636833, 138.24524201095429], [53.87033079817108, 129.8151868743635]]]}, "properties": {"id": 23, "height_median_m": 6.0, "building_count": 1, "area_m2": 257.21730577045383}}, {"type": "Feature", "geometry": {"type": "Polygon", "coordinates": [[[72.66090643647499, 154.28147475771254], [76.0934816805404, 159.42818743002778], [80.59263452481564, 156.24033316536767], [77.16005928075022, 151.09362049305244], [72.66090643647499, 154.28147475771254]]]}, "properties": {"id": 24, "height_median_m": 3.0, "building_count": 1, "area_m2": 34.09839658887508}}, {"type": "Feature", "geometry": {"type": "Polygon", "coordinates": [[[46.139594720458454, 219.04849190001755], [47.11719346845795, 220.04594122461396], [40.733851658788645, 226.3919006914066], [44.97339065480898, 230.6922293584029], [47.27334597805313, 228.08483276122718], [49.72291260495139, 230.54141574423235], [51.487699717349905, 232.20865824245067], [53.78913810837353, 234.61703785225683], [52.70145045590858, 235.625922973596], [57.0399968720738, 239.91383881252986], [61.91187414463559, 234.98248672502044], [62.829492168841085, 235.90717874037722], [72.45510004899829, 226.28559056781464], [71.47339583049875, 225.28395240949493], [76.38752734341, 220.38145760996733], [72.15325433551176, 216.21279359098335], [71.0755514604832, 217.3234866319618], [64.69455068143077, 210.9162591767999], [67.15128624688741, 208.3539358233065], [62.83004411014006, 204.08312232407906], [56.54802052604489, 210.3146612180713], [55.659148795416385, 209.4189371037807], [49.96387188545271, 215.30581890554683], [49.86661842059225, 215.20737819161712], [46.139594720458454, 219.04849190001755]]]}, "properties": {"id": 25, "height_median_m": 12.0, "building_count": 2, "area_m2": 611.8422367974094}}, {"type": "Feature", "geometry": {"type": "Polygon", "coordinates": [[[-22.85085150362665, 214.2799700018631], [-24.621370318629726, 215.0605434525735], [-26.101335575844292, 215.89944156905307], [-22.912791754368374, 222.42933987404527], [-18.98405338371115, 230.44636616986065], [-15.681010782826638, 236.99936240139618], [-14.096657938882037, 236.1703758210577], [-12.43118193954568, 235.39292094496847], [-10.166583316657272, 234.2766976098786], [-9.089748171931856, 233.72179823611668], [-7.421890019292047, 232.94323135559023], [-6.340944320182848, 232.3985919572346], [-6.340944320182848, 231.9899730958923], [-9.123210459516496, 226.35751022146513], [-10.584196466903606, 223.04495027046156], [-9.760360289946355, 222.67136603200245], [-11.134109888888554, 219.69818137690575], [-12.113401525979283, 220.14225986083824], [-16.300770964257843, 211.75570507454185], [-16.67785503948418, 211.11447018334638], [-17.173920920378666, 211.3956583607636], [-17.947450308373252, 211.83412294172504], [-19.60248142547462, 212.60670207981084], [-20.59400391785398, 213.0563268785162], [-22.85085150362665, 214.2799700018631]]]}, "properties": {"id": 26, "height_median_m": 6.0, "building_count": 2, "area_m2": 254.9478227521913}}, {"type": "Feature", "geometry": {"type": "Polygon", "coordinates": [[[194.62865415611122, 197.14306201946326], [196.77723341915066, 202.01463339530136], [197.6976681316035, 201.6668094888257], [199.37934522262321, 200.7696464607211], [202.0279082493297, 199.51856161115128], [198.36705423328354, 190.5264392647643], [197.05438837612013, 187.42616120832034], [192.49417540933302, 189.23558736471205], [195.2417216536709, 196.9113893879887], [194.62865415611122, 197.14306201946326]]]}, "properties": {"id": 27, "height_median_m": 3.0, "building_count": 1, "area_m2": 71.91735177821161}}]}