{"type": "FeatureCollection", "crs": {"type": "name", "properties": {"name": "EPSG:32628_local_enu_m_section_centroid", "lng0": -16.31985425889185, "lat0": 28.484394148538964}}, "features": [{"type": "Feature", "geometry": {"type": "Polygon", "coordinates": [[[-78.93508766220347, 229.11309535748728], [-70.226937387999, 239.13189535750348], [-71.49891439457001, 240.24509535746134], [-70.32478177320007, 241.80357535748144], [-75.54722582796236, 246.47901535754173], [-89.4815001444336, 246.47901535754173], [-89.50228125279489, 245.8110953576461], [-85.00143953841247, 229.00177535737285], [-78.93508766220347, 229.11309535748728]]]}, "properties": {"name": "", "kind": "garden", "category": "parque", "extrude": false}}, {"type": "Feature", "geometry": {"type": "Polygon", "coordinates": [[[-189.79277598099313, 244.92053535752163], [-190.28199790630322, 241.80357535748144], [-211.70991824343685, 241.80357535748144], [-211.3185407029802, 221.9886153576779], [-217.5805813495913, 221.76597535744904], [-219.1460915110703, 221.76597535744904], [-220.61375728769582, 221.6546553573346], [-222.66848937483252, 221.54333535761566], [-246.54251933921188, 220.65277535749118], [-246.54251933921188, 216.3112953573787], [-252.80455998547538, 215.7546953575975], [-251.92396051970863, 212.63773535755732], [-251.33689420919745, 211.6358553573184], [-250.55413912828416, 210.85661535730836], [-225.40813215768142, 186.5888553576734], [-224.03831076625696, 185.3643353576011], [-214.8409385667424, 176.68137535737614], [-168.0713224886039, 178.4624953576251], [-164.3532358547872, 178.4624953576251], [-162.0049706123949, 178.23985535739624], [-159.55886098480156, 178.1285353576773], [-134.80423155430785, 177.68325535761505], [-134.80423155430785, 178.35117535751067], [-134.80423155430785, 181.46813535755086], [-135.1956090947645, 186.03225535749672], [-135.9783641756778, 188.70393535747468], [-137.0546524118467, 189.92845535754697], [-138.32662941807007, 190.15109535738034], [-145.17573637519237, 190.26241535749477], [-162.10281499759597, 190.3737353576092], [-161.7114374571393, 207.07173535737255], [-142.24040482194133, 206.6264553573103], [-142.33824920714238, 197.60953535753302], [-130.59692299518102, 197.2755753575852], [-129.46132864381963, 246.47901535754173], [-136.47887583845048, 246.47901535754173], [-153.88388664904923, 242.3601753576581], [-154.47095295956038, 231.0055353574552], [-157.79766205292046, 231.0055353574552], [-157.79766205292046, 227.77725535730056], [-158.58041713383375, 227.77725535730056], [-158.58041713383375, 225.7734953576137], [-158.7761059042359, 221.09805535755342], [-160.63514922097045, 219.09429535747108], [-162.0049706123949, 216.9792153576698], [-173.1592305138451, 216.6452553573265], [-173.1592305138451, 208.40757535755927], [-181.67169201764742, 208.40757535755927], [-181.57384763244636, 216.9792153576698], [-186.66175565768754, 216.86789535755537], [-186.56391127248648, 225.32821535755147], [-181.28031447719079, 225.55085535738485], [-181.4760032472453, 245.25449535746944], [-186.75960004288862, 245.25449535746944], [-186.7211611773608, 246.47901535754173], [-188.83985675194938, 246.47901535754173], [-189.79277598099313, 244.92053535752163]]]}, "properties": {"name": "", "kind": "garden", "category": "parque", "extrude": false}}, {"type": "Feature", "geometry": {"type": "Polygon", "coordinates": [[[-302.3138188464628, 188.03601535757906], [-300.5526199145817, 186.5888553576734], [-301.0500245945645, 207.24456027775759], [-302.2169972640995, 205.77967575036084], [-302.58115906826197, 205.22103532431785], [-302.3138188464628, 188.03601535757906]]]}, "properties": {"name": "", "kind": "garden", "category": "parque", "extrude": false}}, {"type": "Feature", "geometry": {"type": "Polygon", "coordinates": [[[-297.5194439764772, 210.7452953575894], [-275.3087685587779, 190.0397753576614], [-254.76144768775865, 211.74717535743284], [-296.46041012203636, 213.00583935677395], [-298.22658581620817, 210.78878362388465], [-297.5194439764772, 210.7452953575894]]]}, "properties": {"name": "", "kind": "garden", "category": "parque", "extrude": false}}, {"type": "Feature", "geometry": {"type": "Polygon", "coordinates": [[[-48.21195074070183, -63.10190464232605], [11.96234609642568, -49.74350464243628], [-2.5186228987322026, 7.697615357682963], [17.637320432178033, 13.040975357638871], [0.025331114062197648, 103.87809535768028], [-82.84886306607471, 80.72353535760769], [-71.98813631988011, 41.87285535761518], [-87.05617162554915, 36.75213535749265], [-82.45748552561807, 9.924015357598677], [-73.35795771130458, 11.816455357566582], [-52.61494806988318, -61.20946464235814], [-48.21195074070183, -63.10190464232605]]]}, "properties": {"name": "Cementerio de San Juan Bautista", "kind": "cemetery", "category": "parque", "extrude": false}}, {"type": "Feature", "geometry": {"type": "Polygon", "coordinates": [[[-251.43473859439857, -7.219264642622392], [-239.20419045677946, -9.779624642485913], [-221.88573429391923, 8.476855357693012], [-225.70166531293702, 13.82021535764892], [-243.2158102458518, 17.493775357470298], [-244.0964097116185, 16.82585535757468], [-241.9438332396284, 13.486255357305623], [-250.35845035822967, 8.142895357349715], [-244.19425409681958, -0.09478464241752249], [-251.14120543879534, -4.770224642477814], [-253.48947068118758, -4.881544642592246], [-251.43473859439857, -7.219264642622392]]]}, "properties": {"name": "", "kind": "orchard", "category": "parque", "extrude": false}}, {"type": "Feature", "geometry": {"type": "Polygon", "coordinates": [[[130.6475852233054, 27.62389535760093], [62.25436003797878, 5.025935357309521], [74.09353063514119, -30.59646464252836], [142.48675582046783, -7.887184642518008], [130.6475852233054, 27.62389535760093]]]}, "properties": {"name": "", "kind": "pitch", "category": "parque", "extrude": false}}, {"type": "Feature", "geometry": {"type": "Polygon", "coordinates": [[[-175.99671768189506, -22.915384642542307], [-158.87395028908935, -20.243704642564353], [-159.95023852525821, -13.230544642473916], [-162.7877256933082, -13.675824642536156], [-164.64676901004276, -1.7645846425520517], [-161.5157486867372, -1.3193046424898114], [-162.49419253805263, 5.137255357423953], [-171.78940912242064, 3.690095357518288], [-178.9320492347985, -3.879664642353333], [-175.99671768189506, -22.915384642542307]]]}, "properties": {"name": "", "kind": "pitch", "category": "parque", "extrude": false}}, {"type": "Feature", "geometry": {"type": "Polygon", "coordinates": [[[-150.75286632574364, -179.87658464253244], [-149.18735616426468, -167.74270464231947], [-124.92194865942868, -162.39934464236356], [-123.64997165285767, -160.28426464256228], [-152.02484333231465, -143.4749446426845], [-156.62352943189813, -150.9333846424417], [-154.66664172996252, -159.05974464249], [-153.9817310342503, -163.62386464243585], [-153.78604226384815, -167.29742464265271], [-154.27526418950586, -172.08418464243195], [-155.9386187361859, -176.31434464243], [-158.4825727486327, -179.765264642418], [-161.61359307193825, -183.216184642406], [-150.75286632574364, -179.87658464253244]]]}, "properties": {"name": "", "kind": "garden", "category": "parque", "extrude": false}}, {"type": "Feature", "geometry": {"type": "Polygon", "coordinates": [[[-126.8788363613643, -177.76150464233567], [-129.32494598895764, -165.62762464251819], [-147.71969038763916, -165.961584642466], [-148.20891231329688, -181.21242464232367], [-126.8788363613643, -177.76150464233567]]]}, "properties": {"name": "", "kind": "playground", "category": "parque", "extrude": false}}, {"type": "Feature", "geometry": {"type": "Polygon", "coordinates": [[[243.1686280887751, -208.48582464267537], [244.53844948019957, -213.38390464256904], [263.6181045745933, -208.81978464262318], [271.0542778422268, -178.65206464246015], [271.1521222274278, -174.31058464234766], [271.44565538268347, -165.4049846426848], [266.4555917426433, -144.3655046424135], [228.49197032356273, -154.7182646423775], [243.1686280887751, -208.48582464267537]]]}, "properties": {"name": "", "kind": "park", "category": "parque", "extrude": false}}, {"type": "Feature", "geometry": {"type": "Polygon", "coordinates": [[[255.10564307113856, -188.33690464252854], [252.5616890583442, -179.20866464263682], [244.34276070979743, -181.54638464266696], [246.88671472259182, -190.67462464255868], [255.10564307113856, -188.33690464252854]]]}, "properties": {"name": "", "kind": "playground", "category": "parque", "extrude": false}}, {"type": "Feature", "geometry": {"type": "Polygon", "coordinates": [[[-149.0895117790636, -216.83482464255704], [-149.77442247477583, -215.61030464248475], [-148.50244546855245, -214.94238464258913], [-146.74124653667135, -200.1368246423982], [-149.28520054946574, -185.88786464238396], [-158.67826151903483, -188.33690464252854], [-153.1011315681359, -212.04806464238231], [-175.53531880422443, -223.2913846424708], [-161.20697747145994, -223.2913846424708], [-149.0895117790636, -216.83482464255704]]]}, "properties": {"name": "", "kind": "garden", "category": "parque", "extrude": false}}]}