{"type": "FeatureCollection", "crs": {"type": "name", "properties": {"name": "EPSG:32628_local_enu_m_section_centroid", "lng0": -16.366275325399453, "lat0": 28.36635886585041}}, "features": [{"type": "Feature", "geometry": {"type": "Point", "coordinates": [174.29123895495349, 92.04670646764455]}, "properties": {"osm_id": null, "category": "restauracion", "name": "Taka Tuka", "extrude": false}}, {"type": "Feature", "geometry": {"type": "Point", "coordinates": [3.6561553706272285, 89.93162646784327]}, "properties": {"osm_id": null, "category": "restauracion", "name": "Restaurante Pizzería Da Canio", "extrude": false}}, {"type": "Feature", "geometry": {"type": "Point", "coordinates": [175.66258865082673, 84.58826646788737]}, "properties": {"osm_id": null, "category": "restauracion", "name": "¿Q'damos?", "extrude": false}}, {"type": "Feature", "geometry": {"type": "Point", "coordinates": [18.838955574689574, 60.765786467919156]}, "properties": {"osm_id": null, "category": "finanzas", "name": "Bancaja", "extrude": false}}, {"type": "Feature", "geometry": {"type": "Point", "coordinates": [193.0003669481556, 50.74698646790296]}, "properties": {"osm_id": null, "category": "salud", "name": "FarmaPeciña", "extrude": false}}, {"type": "Feature", "geometry": {"type": "Point", "coordinates": [207.39953875482468, 25.477346468029083]}, "properties": {"osm_id": null, "category": "restauracion", "name": "El 48 Taquería", "extrude": false}}, {"type": "Feature", "geometry": {"type": "Point", "coordinates": [58.41218965505634, -23.503453532094056]}, "properties": {"osm_id": null, "category": "finanzas", "name": "Banco Santander", "extrude": false}}, {"type": "Feature", "geometry": {"type": "Point", "coordinates": [263.4289691853224, -90.51809353216726]}, "properties": {"osm_id": null, "category": "restauracion", "name": "La Cofradía de Caletillas", "extrude": false}}, {"type": "Feature", "geometry": {"type": "Point", "coordinates": [270.08981056542723, -102.98593353232803]}, "properties": {"osm_id": null, "category": "restauracion", "name": "Aqui y Ahora", "extrude": false}}, {"type": "Feature", "geometry": {"type": "Point", "coordinates": [272.5386493081078, -108.10665353205508]}, "properties": {"osm_id": null, "category": "restauracion", "name": "La Tapadera", "extrude": false}}, {"type": "Feature", "geometry": {"type": "Point", "coordinates": [275.67316289837686, -114.56321353196884]}, "properties": {"osm_id": null, "category": "restauracion", "name": "Fujiyama", "extrude": false}}, {"type": "Feature", "geometry": {"type": "Point", "coordinates": [279.68925843619195, -123.24617353219381]}, "properties": {"osm_id": null, "category": "restauracion", "name": "Verona", "extrude": false}}, {"type": "Feature", "geometry": {"type": "Point", "coordinates": [283.3135397754844, -130.25933353228424]}, "properties": {"osm_id": null, "category": "restauracion", "name": "Cosechas", "extrude": false}}, {"type": "Feature", "geometry": {"type": "Point", "coordinates": [285.66442496836027, -134.93477353234454]}, "properties": {"osm_id": null, "category": "restauracion", "name": "Icatri", "extrude": false}}, {"type": "Feature", "geometry": {"type": "Point", "coordinates": [287.62349596236544, -139.4988935322904]}, "properties": {"osm_id": null, "category": "restauracion", "name": "Taberna O Caminero", "extrude": false}}, {"type": "Feature", "geometry": {"type": "Point", "coordinates": [293.794569593795, -152.18937353228455]}, "properties": {"osm_id": null, "category": "restauracion", "name": "Con Limón y Sal", "extrude": false}}, {"type": "Feature", "geometry": {"type": "Point", "coordinates": [123.45334665853478, -174.34205353211823]}, "properties": {"osm_id": null, "category": "restauracion", "name": "Need you", "extrude": false}}, {"type": "Feature", "geometry": {"type": "Point", "coordinates": [321.22156351091195, -197.162653532243]}, "properties": {"osm_id": null, "category": "restauracion", "name": "Fusion Burger", "extrude": false}}, {"type": "Feature", "geometry": {"type": "Point", "coordinates": [325.33561259853167, -202.3946935320845]}, "properties": {"osm_id": null, "category": "restauracion", "name": "El Bodegón", "extrude": false}}, {"type": "Feature", "geometry": {"type": "Point", "coordinates": [329.6455687854127, -207.7380535320404]}, "properties": {"osm_id": null, "category": "restauracion", "name": "Pastelería Díaz", "extrude": false}}, {"type": "Feature", "geometry": {"type": "Point", "coordinates": [333.9555249722938, -214.3059335320686]}, "properties": {"osm_id": null, "category": "restauracion", "name": "100 Montaditos", "extrude": false}}, {"type": "Feature", "geometry": {"type": "Point", "coordinates": [338.26548115917484, -219.76061353213893]}, "properties": {"osm_id": null, "category": "restauracion", "name": "Pizzeria kebab Habibi", "extrude": false}}, {"type": "Feature", "geometry": {"type": "Point", "coordinates": [105.72375416198727, -222.7662535320647]}, "properties": {"osm_id": null, "category": "restauracion", "name": "CerViTapas", "extrude": false}}, {"type": "Feature", "geometry": {"type": "Point", "coordinates": [346.59153288421896, -230.44733353205075]}, "properties": {"osm_id": null, "category": "restauracion", "name": "Taberna Girón", "extrude": false}}, {"type": "Feature", "geometry": {"type": "Point", "coordinates": [354.6237239598491, -241.46801353230586]}, "properties": {"osm_id": null, "category": "restauracion", "name": "Table N07", "extrude": false}}, {"type": "Feature", "geometry": {"type": "Point", "coordinates": [115.42115558290463, -245.58685353218948]}, "properties": {"osm_id": null, "category": "restauracion", "name": "Hawaii", "extrude": false}}, {"type": "Feature", "geometry": {"type": "Point", "coordinates": [358.8357265972735, -248.92645353206305]}, "properties": {"osm_id": null, "category": "restauracion", "name": "La Bohème d'Émilie", "extrude": false}}, {"type": "Feature", "geometry": {"type": "Point", "coordinates": [362.8518221350886, -256.9414935319969]}, "properties": {"osm_id": null, "category": "restauracion", "name": "Venecia", "extrude": false}}, {"type": "Feature", "geometry": {"type": "Point", "coordinates": [121.59222921398624, -260.8376935320472]}, "properties": {"osm_id": null, "category": "restauracion", "name": "Marytierra", "extrude": false}}, {"type": "Feature", "geometry": {"type": "Point", "coordinates": [366.6720105732943, -264.7338935320974]}, "properties": {"osm_id": null, "category": "restauracion", "name": "Cofradía La Laguna... Y el mar", "extrude": false}}, {"type": "Feature", "geometry": {"type": "Point", "coordinates": [371.5696880586553, -273.5281735320413]}, "properties": {"osm_id": null, "category": "restauracion", "name": "El Rinconcito", "extrude": false}}, {"type": "Feature", "geometry": {"type": "Point", "coordinates": [374.9980622983384, -278.9828535321117]}, "properties": {"osm_id": null, "category": "restauracion", "name": "Duci", "extrude": false}}, {"type": "Feature", "geometry": {"type": "Point", "coordinates": [378.2305294384122, -284.99413353235866]}, "properties": {"osm_id": null, "category": "restauracion", "name": "Mar y Tierra", "extrude": false}}, {"type": "Feature", "geometry": {"type": "Point", "coordinates": [173.60556410701685, -285.1054535320776]}, "properties": {"osm_id": null, "category": "restauracion", "name": "Don Quijote", "extrude": false}}, {"type": "Feature", "geometry": {"type": "Point", "coordinates": [369.0228957665182, -289.4469335321901]}, "properties": {"osm_id": null, "category": "restauracion", "name": "Mi bar", "extrude": false}}]}