{"type": "FeatureCollection", "crs": {"type": "name", "properties": {"name": "wgs84_and_EPSG:32628_local_enu_m_section_centroid", "lng0": -16.313933945693627, "lat0": 28.487062328735924}}, "features": [{"type": "Feature", "geometry": {"type": "Polygon", "coordinates": [[[-16.31436, 28.48925], [-16.31348, 28.4888], [-16.31264, 28.48858], [-16.31232, 28.4885], [-16.31219, 28.48855], [-16.31204, 28.48594], [-16.31209, 28.485], [-16.31209, 28.48383], [-16.31232, 28.48367], [-16.31243, 28.48374], [-16.3126, 28.4839], [-16.31284, 28.48419], [-16.31342, 28.48501], [-16.31366, 28.48536], [-16.31374, 28.48537], [-16.31404, 28.48463], [-16.31417, 28.48505], [-16.31451, 28.48569], [-16.31495, 28.4865], [-16.31512, 28.4868], [-16.31523, 28.48699], [-16.31528, 28.48704], [-16.3158, 28.48739], [-16.31589, 28.48745], [-16.31706, 28.48821], [-16.31677, 28.48877], [-16.31659, 28.48938], [-16.31458, 28.48867], [-16.31436, 28.48925]]]}, "properties": {"cusec": "3802301001", "mun": "023", "nmun": "San Cristóbal de La Laguna", "area_m2": 156992.7641853637, "perimeter_m": 2043.9169111237536, "coords_system": "wgs84"}}, {"type": "Feature", "geometry": {"type": "Polygon", "coordinates": [[[-41.685968224191114, -243.53156511679657], [44.41491489939864, -193.43756511711106], [126.60212151718108, -168.94716511685175], [157.9115335619016, -160.0415651167934], [170.63098220499327, -165.60756511697818], [185.3072691011624, 124.93763488309611], [180.41517346899016, 229.57843488308953], [180.41517346899016, 359.82283488290466], [157.9115335619016, 377.6340348830213], [147.1489231715398, 369.84163488292086], [130.51579802264078, 352.03043488319963], [107.03373898883969, 319.74763488283986], [50.28542965758821, 228.46523488313167], [26.80337062413472, 189.50323488302473], [18.976017612867686, 188.39003488306687], [-10.376556179122984, 270.7668348831122], [-23.096004822562264, 224.01243488290476], [-56.36225512001265, 152.7676348828335], [-99.41269668180752, 62.5984348830832], [-116.04582183070652, 29.202434883161033], [-126.80843222106833, 8.051634883170777], [-131.70052785324057, 2.4856348829860053], [-182.5783224259549, -36.476365117120935], [-191.38409456358684, -43.155565116868075], [-305.8591323528023, -127.7587651168291], [-277.48497768717664, -190.097965116842], [-259.8734334119127, -258.00316511703966], [-63.21118900491475, -178.96596511686795], [-41.685968224191114, -243.53156511679657]]]}, "properties": {"cusec": "3802301001", "mun": "023", "nmun": "San Cristóbal de La Laguna", "area_m2": 156992.7641853637, "perimeter_m": 2043.9169111237536, "coords_system": "local_m_enu"}}]}