{"type": "FeatureCollection", "crs": {"type": "name", "properties": {"name": "EPSG:32628_local_enu_m_section_centroid", "lng0": -15.428507092198588, "lat0": 28.09556052009457}}, "features": [{"type": "Feature", "geometry": {"type": "LineString", "coordinates": [[-169.45922303475382, 213.0699940934977], [-117.53924875335792, 150.33989692738857], [-103.5945043853068, 129.52305692734612], [-94.36347642319285, 117.94577692730982], [-84.6414363354568, 112.93637692730172]]}, "properties": {"osm_id": null, "type": "residential", "width_m": 5, "extrude": false}}, {"type": "Feature", "geometry": {"type": "LineString", "coordinates": [[-181.23257689292913, 185.1203691780121], [-149.84784662058232, 143.99465692758923], [-90.53358184327077, 68.4083769274055], [-36.522248022747554, 9.8540569273284]]}, "properties": {"osm_id": null, "type": "residential", "width_m": 5, "extrude": false}}, {"type": "Feature", "geometry": {"type": "LineString", "coordinates": [[-171.6980166640499, 208.83585596663366], [-129.22533734375676, 154.90401692733442], [-124.41341851241607, 154.2360969274388], [-105.46035046274052, 127.96457692732602]]}, "properties": {"osm_id": null, "type": "footway", "width_m": 2, "extrude": false}}, {"type": "Feature", "geometry": {"type": "LineString", "coordinates": [[-185.88813664249972, 131.06813190137942], [-177.8355377820881, 120.50613692756883], [-129.71634946937886, 57.387696927545875], [-118.71767785506027, 42.804776927583816], [-85.52525816164633, 3.620136927248012], [-62.34948583148125, -24.09854307237495], [-55.76992334776148, -29.775863072674156], [-10.891415064297579, -68.4039030724378], [1.7766977771710057, -72.5227430727169]]}, "properties": {"osm_id": null, "type": "residential", "width_m": 5, "extrude": false}}, {"type": "Feature", "geometry": {"type": "LineString", "coordinates": [[-116.55722450211375, 131.6381369275429], [-126.18106216479515, 124.17969692739021], [-135.31388770168002, 136.09093692737432], [-134.1354586001521, 136.9814969274988], [-126.67207429041723, 142.77013692751694], [-125.69005003899862, 143.549376927527], [-116.55722450211375, 131.6381369275429]]}, "properties": {"osm_id": null, "type": "pedestrian", "width_m": 4, "extrude": false}}, {"type": "Feature", "geometry": {"type": "LineString", "coordinates": [[-179.04752051831193, 192.04292314930427], [-135.31388770168002, 136.09093692737432], [-126.18106216479515, 124.17969692739021], [-83.16839995859053, 71.08005692738345], [-79.63311265400682, 74.19701692742365], [-58.71599610166846, 46.923616927467435], [-57.63576942519519, 44.02929692726062], [-60.680044604331265, 41.914216927459336], [-56.26093547355801, 36.68217692761786], [-53.90407727032776, 38.01801692740909], [-55.278911222139385, 41.58025692751153], [-50.95800451659522, 43.138736927531625]]}, "properties": {"osm_id": null, "type": "footway", "width_m": 2, "extrude": false}}, {"type": "Feature", "geometry": {"type": "LineString", "coordinates": [[-185.88813664249972, 114.09410492738445], [-177.8355377820881, 120.50613692756883]]}, "properties": {"osm_id": null, "type": "footway", "width_m": 2, "extrude": false}}, {"type": "Feature", "geometry": {"type": "LineString", "coordinates": [[-185.88813664249972, 33.56248403054664], [-141.598842909887, -15.081623072597665], [-132.95702949862422, -31.445663072413197], [-123.43139426117189, -68.84918307250004], [-118.6194754298312, -83.4321030724621], [-114.9859857000184, -94.45278307271721]]}, "properties": {"osm_id": null, "type": "residential", "width_m": 5, "extrude": false}}, {"type": "Feature", "geometry": {"type": "LineString", "coordinates": [[5.2137826567000785, -117.38470307256094], [-29.255268563296404, -87.88490307268901], [-43.003608081238255, -74.41518307268481], [-92.7922376210975, -30.443783072569772], [-105.6567553128498, -18.866503072533476], [-108.21001836618933, -15.081623072597665], [-110.9596862698126, -10.962783072714046], [-112.82553234724631, -3.838303072509177], [-149.06222721962186, 42.13685692729271], [-166.05124676680907, 63.621616927230775], [-185.88813664249972, 89.01422271145947]]}, "properties": {"osm_id": null, "type": "residential", "width_m": 5, "extrude": false}}, {"type": "Feature", "geometry": {"type": "LineString", "coordinates": [[-149.06222721962186, 42.13685692729271], [-129.71634946937886, 57.387696927545875]]}, "properties": {"osm_id": null, "type": "footway", "width_m": 2, "extrude": false}}, {"type": "Feature", "geometry": {"type": "LineString", "coordinates": [[37.28249964834243, 262.77309692748247], [65.90288138599772, 226.37145692723905]]}, "properties": {"osm_id": null, "type": "residential", "width_m": 5, "extrude": false}}, {"type": "Feature", "geometry": {"type": "LineString", "coordinates": [[-7.523163660701235, 262.77309692748247], [10.123903913095422, 252.97693692729965], [49.60127881471633, 233.27329692761055], [65.90288138599772, 226.37145692723905]]}, "properties": {"osm_id": null, "type": "residential", "width_m": 5, "extrude": false}}, {"type": "Feature", "geometry": {"type": "LineString", "coordinates": [[-56.62082016286876, 262.77309692748247], [-8.829164136580134, 234.0525369276206], [48.521052138243064, 204.55273692735318], [115.49510607557323, 159.02285692761353]]}, "properties": {"osm_id": null, "type": "residential", "width_m": 5, "extrude": false}}, {"type": "Feature", "geometry": {"type": "LineString", "coordinates": [[172.4525126500034, 85.77429692745994], [161.25743618540113, 87.77805692754228], [101.25575443200928, 137.09281692761323], [49.895886090054695, 175.8321769274913], [29.371579238283786, 185.07173692749745], [-19.04221634993827, 209.11685692729904], [-50.466992390973125, 226.92805692741572], [-60.97465187966963, 227.4846569275924], [-67.35780951293124, 221.91865692740762], [-67.7506192134987, 218.80169692736743]]}, "properties": {"osm_id": null, "type": "residential", "width_m": 5, "extrude": false}}, {"type": "Feature", "geometry": {"type": "LineString", "coordinates": [[-105.46035046274052, 127.96457692732602], [-103.5945043853068, 129.52305692734612], [-100.05921708054865, 131.86077692737626]]}, "properties": {"osm_id": null, "type": "footway", "width_m": 2, "extrude": false}}, {"type": "Feature", "geometry": {"type": "LineString", "coordinates": [[187.2810788442441, -36.186143971443414], [184.33500609051154, -34.785263072682255], [156.54371977911504, -13.411823072463136], [133.17154259866624, 7.293696927464879], [120.50342975719764, 20.429456927521272], [86.13258096225582, 62.73105692750178], [77.88357725156048, 73.97437692759027], [38.30799992488493, 123.40045692738016], [3.347936579266359, 155.57193692723004], [-47.32451478678242, 200.65653692730294], [-56.26093547355801, 208.44893692740342], [-67.7506192134987, 218.80169692736743], [-93.9706667226254, 244.29397692747017], [-106.48454596710197, 260.69456574960714]]}, "properties": {"osm_id": null, "type": "residential", "width_m": 5, "extrude": false}}, {"type": "Feature", "geometry": {"type": "LineString", "coordinates": [[-32.69235344265103, 114.60617692743625], [-51.350814216988226, 103.14021692751439]]}, "properties": {"osm_id": null, "type": "footway", "width_m": 2, "extrude": false}}, {"type": "Feature", "geometry": {"type": "LineString", "coordinates": [[158.11495858121037, 53.3801769273812], [130.22546984493368, 79.9856569274418], [82.30268638233373, 118.72501692731987], [33.79068836905704, 153.45685692742876], [23.283028880360536, 159.35681692756134], [10.909523314230318, 158.80021692738467], [3.347936579266359, 155.57193692723004]]}, "properties": {"osm_id": null, "type": "residential", "width_m": 5, "extrude": false}}, {"type": "Feature", "geometry": {"type": "LineString", "coordinates": [[1.7766977771710057, -72.5227430727169], [-19.926038176127808, -23.20798307264596], [-28.56785158739059, -5.842063072591515], [-36.522248022747554, 9.8540569273284], [-50.95800451659522, 43.138736927531625], [-84.6414363354568, 112.93637692730172], [-92.20302307042076, 132.75133692750074], [-133.3498391990172, 219.58093692737748], [-143.19451177369072, 243.21322873489848]]}, "properties": {"osm_id": null, "type": "residential", "width_m": 5, "extrude": false}}, {"type": "Feature", "geometry": {"type": "LineString", "coordinates": [[-139.66430366990858, 245.76508049909833], [-130.69837372062307, 238.28269692761864], [-114.7895808499091, 221.58469692745982], [-68.24163133912079, 149.67197692749295], [-32.69235344265103, 114.60617692743625], [7.472438434701246, 34.9010569273689], [47.53902788699889, -35.00790307251563], [85.052354285957, -96.01126307273731]]}, "properties": {"osm_id": null, "type": "residential", "width_m": 5, "extrude": false}}, {"type": "Feature", "geometry": {"type": "LineString", "coordinates": [[110.68318724440697, -84.21134307247215], [74.44649237203141, -25.434383072561673], [33.00506896792214, 47.25757692741524], [-8.829164136580134, 127.96457692732602], [-13.837487818204561, 133.75321692734417], [-45.94968083497079, 164.03225692762163], [-56.55554274889637, 177.3906569275114], [-59.69802035291264, 190.5264169275678], [-59.992627628425446, 201.435776927313], [-56.26093547355801, 208.44893692740342]]}, "properties": {"osm_id": null, "type": "residential", "width_m": 5, "extrude": false}}, {"type": "Feature", "geometry": {"type": "LineString", "coordinates": [[7.472438434701246, 34.9010569273689], [33.00506896792214, 47.25757692741524], [77.88357725156048, 73.97437692759027]]}, "properties": {"osm_id": null, "type": "footway", "width_m": 2, "extrude": false}}, {"type": "Feature", "geometry": {"type": "LineString", "coordinates": [[-85.52525816164633, 3.620136927248012], [-108.21001836618933, -15.081623072597665]]}, "properties": {"osm_id": null, "type": "footway", "width_m": 2, "extrude": false}}, {"type": "Feature", "geometry": {"type": "LineString", "coordinates": [[-55.76992334776148, -29.775863072674156], [-48.3065390380266, -23.096663072531527], [-53.118457869367305, -16.86274307245114], [-41.72697655448126, -7.28922307249718], [-37.50427227399174, -11.742023072724095], [-28.56785158739059, -5.842063072591515]]}, "properties": {"osm_id": null, "type": "footway", "width_m": 2, "extrude": false}}, {"type": "Feature", "geometry": {"type": "LineString", "coordinates": [[186.70177050566997, -160.83555649022827], [149.374942744893, -145.771303072475], [138.17986628029064, -143.32226307272592], [127.86861164170345, -144.10150307273597], [119.03039338015695, -143.99018307262153], [108.32632904135116, -141.429823072758], [101.55036170734765, -137.86758307265558], [87.50741491406744, -127.18086307274376], [76.50874329974886, -119.94506307242446], [67.08131048752561, -104.13762307239011], [31.924842291623317, -44.9153830724174], [-11.971641740770842, 27.44261692761171], [-48.3065390380266, 99.57797692741195], [-51.350814216988226, 103.14021692751439], [-54.198684545840564, 106.59113692750239], [-83.46300723392889, 129.85701692729393], [-92.20302307042076, 132.75133692750074]]}, "properties": {"osm_id": null, "type": "residential", "width_m": 5, "extrude": false}}, {"type": "Feature", "geometry": {"type": "LineString", "coordinates": [[31.924842291623317, -44.9153830724174], [47.53902788699889, -35.00790307251563]]}, "properties": {"osm_id": null, "type": "footway", "width_m": 2, "extrude": false}}, {"type": "Feature", "geometry": {"type": "LineString", "coordinates": [[-36.522248022747554, 9.8540569273284], [-15.506929045354555, -13.523143072577568], [9.829296637757055, -53.598343072642365], [36.44215384745121, -101.57726307252659], [52.35094671816515, -117.49602307267537]]}, "properties": {"osm_id": null, "type": "residential", "width_m": 5, "extrude": false}}, {"type": "Feature", "geometry": {"type": "LineString", "coordinates": [[-10.891415064297579, -68.4039030724378], [-29.255268563296404, -87.88490307268901]]}, "properties": {"osm_id": null, "type": "footway", "width_m": 2, "extrude": false}}, {"type": "Feature", "geometry": {"type": "LineString", "coordinates": [[-105.6567553128498, -18.866503072533476], [-105.1657431872277, -37.01166307259797], [-86.31087756260679, -80.76042307248414], [-57.63576942519519, -141.9864230725392], [-51.841826342784756, -146.10526307242282]]}, "properties": {"osm_id": null, "type": "residential", "width_m": 5, "extrude": false}}, {"type": "Feature", "geometry": {"type": "LineString", "coordinates": [[-114.9859857000184, -94.45278307271721], [-86.31087756260679, -80.76042307248414]]}, "properties": {"osm_id": null, "type": "residential", "width_m": 5, "extrude": false}}, {"type": "Feature", "geometry": {"type": "LineString", "coordinates": [[5.2137826567000785, -117.38470307256094], [10.222106338324505, -113.37718307239626], [13.659191217679135, -106.80930307276356], [12.873571816718679, -96.56786307251849], [1.7766977771710057, -72.5227430727169]]}, "properties": {"osm_id": null, "type": "residential", "width_m": 5, "extrude": false}}, {"type": "Feature", "geometry": {"type": "LineString", "coordinates": [[67.08131048752561, -104.13762307239011], [73.16986084544887, -101.35462307269322], [85.052354285957, -113.71114307273956], [85.052354285957, -96.01126307273731], [90.55169009302907, -112.48662307266727], [95.85462104999186, -97.12446307269516], [116.77173760233023, -100.24142307273536], [114.61128424955812, -91.55846307251039], [110.68318724440697, -84.21134307247215]]}, "properties": {"osm_id": null, "type": "footway", "width_m": 2, "extrude": false}}, {"type": "Feature", "geometry": {"type": "LineString", "coordinates": [[-51.841826342784756, -146.10526307242282], [-29.255268563296404, -87.88490307268901]]}, "properties": {"osm_id": null, "type": "residential", "width_m": 5, "extrude": false}}, {"type": "Feature", "geometry": {"type": "LineString", "coordinates": [[62.95680863209073, -137.3109830724789], [58.14488980075003, -124.28654307253694], [52.35094671816515, -117.49602307267537]]}, "properties": {"osm_id": null, "type": "footway", "width_m": 2, "extrude": false}}, {"type": "Feature", "geometry": {"type": "LineString", "coordinates": [[-17.961989673465006, -179.05598307267823], [-11.284224764865028, -157.6825430724591], [-0.18735072531735433, -124.73182307259918], [5.2137826567000785, -117.38470307256094]]}, "properties": {"osm_id": null, "type": "residential", "width_m": 5, "extrude": false}}, {"type": "Feature", "geometry": {"type": "LineString", "coordinates": [[-11.284224764865028, -157.6825430724591], [-51.841826342784756, -146.10526307242282]]}, "properties": {"osm_id": null, "type": "residential", "width_m": 5, "extrude": false}}, {"type": "Feature", "geometry": {"type": "LineString", "coordinates": [[80.04403060433256, -146.9958230725473], [74.74109964736978, -165.92022307262184]]}, "properties": {"osm_id": null, "type": "residential", "width_m": 5, "extrude": false}}, {"type": "Feature", "geometry": {"type": "LineString", "coordinates": [[-51.841826342784756, -146.10526307242282], [-57.43936457508591, -167.7013430724753]]}, "properties": {"osm_id": null, "type": "residential", "width_m": 5, "extrude": false}}, {"type": "Feature", "geometry": {"type": "LineString", "coordinates": [[-91.90841579490795, -159.2410230724792], [-86.90009211345797, -158.9070630725314], [-57.43936457508591, -167.7013430724753], [-17.961989673465006, -179.05598307267823], [62.858606206861644, -204.99354307244772], [134.44817412542324, -228.37074307274918]]}, "properties": {"osm_id": null, "type": "residential", "width_m": 5, "extrude": false}}, {"type": "Feature", "geometry": {"type": "LineString", "coordinates": [[-185.88813664249972, -105.35005080392395], [-164.87281766528116, -96.9018230724663], [-118.6194754298312, -83.4321030724621]]}, "properties": {"osm_id": null, "type": "footway", "width_m": 2, "extrude": false}}, {"type": "Feature", "geometry": {"type": "LineString", "coordinates": [[-174.3002504775044, -198.75962307276282], [-175.38047715397767, -183.73142307273852], [-166.93506859282417, -167.3673830725275], [-164.18540068937534, -155.4561430725434], [-167.91709284424277, -145.21470307269382], [-185.88813664249972, -125.64345435882544]]}, "properties": {"osm_id": null, "type": "residential", "width_m": 5, "extrude": false}}, {"type": "Feature", "geometry": {"type": "LineString", "coordinates": [[-121.07453605811608, -189.74270307259005], [-118.6194754298312, -183.50878307250966], [-100.25562193083236, -134.63930307250095], [-101.33584860730564, -125.17710307266142], [-114.9859857000184, -94.45278307271721]]}, "properties": {"osm_id": null, "type": "residential", "width_m": 5, "extrude": false}}, {"type": "Feature", "geometry": {"type": "LineString", "coordinates": [[-179.30857415895437, -163.47118307247726], [-184.89163873854005, -164.0237002391305]]}, "properties": {"osm_id": null, "type": "residential", "width_m": 5, "extrude": false}}, {"type": "Feature", "geometry": {"type": "LineString", "coordinates": [[-95.44370309966611, -190.1879830726523], [-103.00528983445562, -189.85402307270448], [-118.6194754298312, -183.50878307250966]]}, "properties": {"osm_id": null, "type": "footway", "width_m": 2, "extrude": false}}, {"type": "Feature", "geometry": {"type": "LineString", "coordinates": [[-175.36312517773862, -199.02081437488846], [-174.3002504775044, -198.75962307276282], [-121.07453605811608, -189.74270307259005]]}, "properties": {"osm_id": null, "type": "footway", "width_m": 2, "extrude": false}}, {"type": "Feature", "geometry": {"type": "LineString", "coordinates": [[28.78236468743261, -111.59606307254279], [48.324647287959344, -129.07330307271167], [62.95680863209073, -137.3109830724789], [80.04403060433256, -146.9958230725473], [138.17986628029064, -165.58626307267403], [184.19520218653813, -176.25417265385053]]}, "properties": {"osm_id": null, "type": "footway", "width_m": 2, "extrude": false}}, {"type": "Feature", "geometry": {"type": "LineString", "coordinates": [[178.20992145299812, -195.53629403016615], [134.7427814007616, -184.62198307246751], [74.74109964736978, -165.92022307262184], [65.41186926020117, -162.80326307258164], [36.73676112278958, -146.55054307248506], [17.19447852243729, -128.1827430725872], [5.2137826567000785, -117.38470307256094]]}, "properties": {"osm_id": null, "type": "residential", "width_m": 5, "extrude": false}}, {"type": "Feature", "geometry": {"type": "LineString", "coordinates": [[134.7427814007616, -184.62198307246751], [129.4398504437988, -203.10110307247982], [148.68752576898714, -223.13870307251221]]}, "properties": {"osm_id": null, "type": "footway", "width_m": 2, "extrude": false}}, {"type": "Feature", "geometry": {"type": "LineString", "coordinates": [[134.44817412542324, -228.37074307274918], [125.82506848004857, -252.29545396839114]]}, "properties": {"osm_id": null, "type": "residential", "width_m": 5, "extrude": false}}, {"type": "Feature", "geometry": {"type": "LineString", "coordinates": [[-17.961989673465006, -179.05598307267823], [-29.15706613806732, -214.6783830725161]]}, "properties": {"osm_id": null, "type": "residential", "width_m": 5, "extrude": false}}, {"type": "Feature", "geometry": {"type": "LineString", "coordinates": [[99.60995716093026, -259.7425592839332], [51.17251761663724, -242.06310307258676], [-29.15706613806732, -214.6783830725161], [-95.44370309966611, -190.1879830726523], [-98.48797827862774, -185.28990307275862], [-91.90841579490795, -159.2410230724792]]}, "properties": {"osm_id": null, "type": "residential", "width_m": 5, "extrude": false}}, {"type": "Feature", "geometry": {"type": "LineString", "coordinates": [[45.2444443923186, -260.43090307288014], [51.17251761663724, -242.06310307258676], [62.858606206861644, -204.99354307244772], [74.74109964736978, -165.92022307262184]]}, "properties": {"osm_id": null, "type": "residential", "width_m": 5, "extrude": false}}, {"type": "Feature", "geometry": {"type": "LineString", "coordinates": [[-34.85280679559756, -232.93486307269504], [-29.15706613806732, -214.6783830725161]]}, "properties": {"osm_id": null, "type": "residential", "width_m": 5, "extrude": false}}, {"type": "Feature", "geometry": {"type": "LineString", "coordinates": [[-41.03955957857545, -251.97058307248852], [-34.85280679559756, -232.93486307269504]]}, "properties": {"osm_id": null, "type": "footway", "width_m": 2, "extrude": false}}, {"type": "Feature", "geometry": {"type": "LineString", "coordinates": [[-9.602880212059873, -260.43090307288014], [-41.03955957857545, -251.97058307248852], [-115.77160510115331, -230.81978307249827], [-125.19903791337654, -222.35946307250217], [-127.65409854166144, -210.5595430726325], [-121.07453605811608, -189.74270307259005]]}, "properties": {"osm_id": null, "type": "residential", "width_m": 5, "extrude": false}}, {"type": "Feature", "geometry": {"type": "LineString", "coordinates": [[65.90288138599772, 226.37145692723905], [115.49510607557323, 159.02285692761353], [172.4525126500034, 85.77429692745994]]}, "properties": {"osm_id": null, "type": "residential", "width_m": 5, "extrude": false}}, {"type": "Feature", "geometry": {"type": "LineString", "coordinates": [[187.2810788442441, 72.57434011786614], [172.4525126500034, 85.77429692745994]]}, "properties": {"osm_id": null, "type": "residential", "width_m": 5, "extrude": false}}, {"type": "Feature", "geometry": {"type": "LineString", "coordinates": [[116.77173760233023, -100.24142307273536], [120.69983460748138, -108.70174307273146], [136.01941292734412, -111.59606307254279], [187.2810788442441, -145.48080554113454]]}, "properties": {"osm_id": null, "type": "footway", "width_m": 2, "extrude": false}}]}