{"type": "FeatureCollection", "crs": {"type": "name", "properties": {"name": "EPSG:32628_local_enu_m_section_centroid", "lng0": -15.45062171055068, "lat0": 28.080955188312412}}, "features": [{"type": "Feature", "geometry": {"type": "Polygon", "coordinates": [[[683.946303567069, 523.4476029375905], [691.1160559276981, 562.4096029376974], [663.8120674853701, 567.4190029377055], [656.6423151245666, 528.4570029375986], [683.946303567069, 523.4476029375905]]]}, "properties": {"name": "", "kind": "water", "category": "agua", "extrude": false}}, {"type": "Feature", "geometry": {"type": "Polygon", "coordinates": [[[470.523401102142, 672.7277229375945], [489.08618461157414, 689.7596829377012], [455.98746480915423, 725.9386829377158], [437.42468129972207, 708.9067229376092], [470.523401102142, 672.7277229375945]]]}, "properties": {"name": "", "kind": "water", "category": "agua", "extrude": false}}, {"type": "Feature", "geometry": {"type": "Polygon", "coordinates": [[[-551.3136339848752, 590.3509229375493], [-549.0546709124271, 604.5998829375635], [-559.6619757748351, 605.6017629378025], [-561.0369967755469, 591.4641229379026], [-551.3136339848752, 590.3509229375493]]]}, "properties": {"name": "", "kind": "water", "category": "agua", "extrude": false}}, {"type": "Feature", "geometry": {"type": "Polygon", "coordinates": [[[-412.24008134336725, 548.1606429376832], [-399.17738183678154, 545.7116029375386], [-401.4363449092296, 571.2038829376413], [-414.6954759873705, 570.5359629377458], [-412.24008134336725, 548.1606429376832]]]}, "properties": {"name": "", "kind": "water", "category": "agua", "extrude": false}}, {"type": "Feature", "geometry": {"type": "Polygon", "coordinates": [[[-72.41346260040767, 473.46492293762395], [-72.60989417196282, 473.9102029376862], [-72.02059945729737, 474.244162937634], [-71.82416788574221, 474.80076293781065], [-72.02059945729737, 475.35736293759186], [-72.41346260040767, 475.8026429376541], [-73.10097310076347, 475.91396293776853], [-73.59205202956412, 475.5800029378207], [-73.88669938680961, 476.1366029376019], [-79.28856760379122, 473.2422829377906], [-77.81533081738927, 470.45928293769816], [-72.41346260040767, 473.46492293762395]]]}, "properties": {"name": "", "kind": "water", "category": "agua", "extrude": false}}, {"type": "Feature", "geometry": {"type": "Polygon", "coordinates": [[[-73.49383624387377, 426.59920293769756], [-71.43130474280638, 427.37844293770763], [-68.58304695569282, 428.8256029376133], [-67.30624174067155, 430.2727629379144], [-67.4044575263619, 431.60860293770565], [-68.09196802671771, 432.61048293754914], [-68.77947852707351, 433.05576293761135], [-70.35093109934026, 432.83312293777794], [-72.80632574351797, 431.7199229378201], [-75.26172038752122, 429.71616293773775], [-75.85101510218668, 428.6029629377799], [-75.16350460183088, 427.2671229375932], [-74.47599410147507, 426.710522937812], [-73.49383624387377, 426.59920293769756]]]}, "properties": {"name": "", "kind": "water", "category": "agua", "extrude": false}}, {"type": "Feature", "geometry": {"type": "Polygon", "coordinates": [[[-448.1870589329007, 317.9508829375395], [-421.07950206212786, 322.0697229378186], [-437.5797540703182, 343.9997629378189], [-450.1513746481033, 341.5507229376743], [-448.1870589329007, 317.9508829375395]]]}, "properties": {"name": "", "kind": "water", "category": "agua", "extrude": false}}, {"type": "Feature", "geometry": {"type": "Polygon", "coordinates": [[[219.58206847558918, 207.29880293769455], [226.94825240777334, 225.88924293782128], [205.34077953984692, 245.59288293790587], [192.76915896206182, 218.7647629376164], [219.58206847558918, 207.29880293769455]]]}, "properties": {"name": "", "kind": "water", "category": "agua", "extrude": false}}, {"type": "Feature", "geometry": {"type": "Polygon", "coordinates": [[[-376.7841826826344, 57.68472293774266], [-348.30160481097556, 77.94496293760844], [-360.0874991027145, 100.54292293789985], [-408.01680255554214, 85.73736293770892], [-406.83821312638565, 79.16948293768073], [-376.7841826826344, 57.68472293774266]]]}, "properties": {"name": "", "kind": "water", "category": "agua", "extrude": false}}, {"type": "Feature", "geometry": {"type": "Polygon", "coordinates": [[[-651.7883828212914, 47.331962937778655], [-650.0204986776439, 41.2093629378127], [-644.4221988891072, 40.31880293768822], [-640.6899990300826, 43.992362937905085], [-641.672156887684, 58.68660293758609], [-651.7883828212914, 47.331962937778655]]]}, "properties": {"name": "", "kind": "water", "category": "agua", "extrude": false}}, {"type": "Feature", "geometry": {"type": "Polygon", "coordinates": [[[-686.7532025532236, -24.580757062188212], [-683.5120816229996, -18.012877062160015], [-686.7532025532236, -16.343077062420974], [-690.0925392693122, -22.91095706244917], [-686.7532025532236, -24.580757062188212]]]}, "properties": {"name": "", "kind": "water", "category": "agua", "extrude": false}}, {"type": "Feature", "geometry": {"type": "Polygon", "coordinates": [[[-242.91606668637846, -403.51403706215933], [-231.42481975205942, -361.4350770624077], [-255.29125569260842, -354.8671970623795], [-266.88071841279225, -396.94615706213114], [-242.91606668637846, -403.51403706215933]]]}, "properties": {"name": "", "kind": "water", "category": "agua", "extrude": false}}, {"type": "Feature", "geometry": {"type": "Polygon", "coordinates": [[[-649.0383408198682, -432.12327706230224], [-641.4757253161288, -425.5553970622741], [-656.6991721094723, -413.53283706217553], [-660.9224508972975, -419.8780770623704], [-649.0383408198682, -432.12327706230224]]]}, "properties": {"name": "", "kind": "water", "category": "agua", "extrude": false}}, {"type": "Feature", "geometry": {"type": "Polygon", "coordinates": [[[226.0643103358624, -627.4898770622226], [237.35912569880077, -621.9238770624333], [227.24289976501885, -601.4409970623387], [215.948084402255, -607.006997062128], [226.0643103358624, -627.4898770622226]]]}, "properties": {"name": "", "kind": "water", "category": "agua", "extrude": false}}, {"type": "Feature", "geometry": {"type": "Polygon", "coordinates": [[[-180.35261115487282, -634.8369970622609], [-217.96925710236334, -645.6350370622872], [-216.00494138716076, -651.5349970624197], [-204.41547866697695, -651.3123570621908], [-197.04929473479277, -656.4330770623134], [-190.17418973123475, -665.783957062434], [-178.09364808225027, -668.4556370624119], [-175.44182186669187, -666.7858370622774], [-180.35261115487282, -634.8369970622609]]]}, "properties": {"name": "", "kind": "water", "category": "agua", "extrude": false}}]}