{"type": "FeatureCollection", "crs": {"type": "name", "properties": {"name": "EPSG:32628_local_enu_m_section_centroid", "lng0": -15.419188946819597, "lat0": 28.073373548835594}}, "features": [{"type": "Feature", "geometry": {"type": "Polygon", "coordinates": [[[-125.82852626084667, -14.076543621591213], [-123.86407188563462, -15.18974362154907], [-120.91739032264205, -17.41614362186027], [-116.9884815720435, -21.8689436216917], [-112.07734563383889, -25.20854362156527], [-109.13066407084634, -28.548143621834328], [-107.16620969563428, -29.661343621792184], [-104.21952813264173, -31.887743621707898], [-100.29061938221763, -35.22734362158147], [-95.37948344383855, -29.661343621792184], [-98.3261650068311, -27.434943621480983], [-98.3261650068311, -27.434943621480983], [-102.25507375742968, -22.982143621649556], [-101.27284656982366, -21.8689436216917], [-96.36171063161906, -25.20854362156527], [-96.36171063161906, -25.20854362156527], [-93.41502906862651, -27.434943621480983], [-88.5038931304219, -21.8689436216917], [-93.41502906862651, -18.52934362181813], [-96.36171063161906, -16.302943621506927], [-97.34393781922508, -17.41614362186027], [-99.30839219443713, -16.302943621506927], [-97.34393781922508, -14.076543621591213], [-100.29061938221763, -11.8501436216755], [-105.20175532042224, -8.51054362180193], [-109.13066407084634, -4.057743621575014], [-112.07734563383889, -1.8313436216593004], [-114.04180000905093, -4.057743621575014], [-116.00625438443747, -2.944543621617157], [-114.04180000905093, -0.7181436217014436], [-116.9884815720435, 2.6214563781721267], [-120.91739032264205, 5.961056378441185], [-125.82852626084667, 0.39505637825641315], [-122.8818446978541, -1.8313436216593004], [-123.86407188563462, -2.944543621617157], [-118.95293594743, -6.284143621490728], [-119.93516313503605, -7.3973436218440725], [-124.84629907324064, -4.057743621575014], [-124.84629907324064, -4.057743621575014], [-127.79298063605872, -1.8313436216593004], [-132.7041165744378, -7.3973436218440725], [-128.77520782383922, -10.736943621717643], [-125.82852626084667, -14.076543621591213]]]}, "properties": {"id": 0, "height_m": 9.4, "levels": null, "category": "residencial", "extrude": true, "manzana_id": 1}}, {"type": "Feature", "geometry": {"type": "Polygon", "coordinates": [[[-138.5974797002484, -43.019743621681954], [-138.5974797002484, -43.019743621681954], [-137.61525251264243, -46.359343621555524], [-136.6330253248619, -46.359343621555524], [-136.6330253248619, -48.585743621866726], [-136.6330253248619, -48.585743621866726], [-134.66857094964985, -51.925343621740296], [-134.66857094964985, -51.925343621740296], [-132.7041165744378, -57.49134362152958], [-125.82852626084667, -54.15174362165601], [-126.8107534484527, -50.81214362178244], [-126.8107534484527, -50.81214362178244], [-128.77520782383922, -45.24614362159767], [-126.8107534484527, -44.13294362163981], [-124.84629907324064, -49.69894362182458], [-124.84629907324064, -49.69894362182458], [-122.8818446978541, -53.03854362169815], [-116.00625438443747, -50.81214362178244], [-117.97070875964951, -45.24614362159767], [-117.97070875964951, -45.24614362159767], [-119.93516313503605, -40.79334362176624], [-119.93516313503605, -40.79334362176624], [-120.91739032264205, -39.680143621808384], [-119.93516313503605, -39.680143621808384], [-121.8996175102481, -35.22734362158147], [-121.8996175102481, -35.22734362158147], [-124.84629907324064, -30.77454362175004], [-131.7218893866573, -33.000943621665755], [-129.75743501144524, -37.45374362149718], [-129.75743501144524, -37.45374362149718], [-127.79298063605872, -43.019743621681954], [-129.75743501144524, -43.019743621681954], [-131.7218893866573, -38.56694362185053], [-132.7041165744378, -38.56694362185053], [-134.66857094964985, -34.11414362162361], [-140.56193407546047, -37.45374362149718], [-138.5974797002484, -43.019743621681954]]]}, "properties": {"id": 1, "height_m": 6.8, "levels": null, "category": "residencial", "extrude": true, "manzana_id": 0}}, {"type": "Feature", "geometry": {"type": "Polygon", "coordinates": [[[-93.41502906862651, 32.677856378220724], [-94.39725625623252, 31.564656378262868], [-91.45057469341445, 29.338256378347154], [-90.46834750563394, 29.338256378347154], [-89.48612031802793, 28.225056378389297], [-89.48612031802793, 28.225056378389297], [-86.53943875520984, 24.885456378515727], [-86.53943875520984, 25.998656378473584], [-81.62830281683077, 21.54585637824667], [-77.69939406640667, 18.206256378373098], [-77.69939406640667, 18.206256378373098], [-74.75271250341412, 14.866656378499528], [-74.75271250341412, 15.979856378457384], [-72.78825812820207, 13.753456378146183], [-72.78825812820207, 13.753456378146183], [-69.84157656520951, 11.52705637823047], [-69.84157656520951, 11.52705637823047], [-65.91266781461094, 8.187456378356899], [-64.93044062700491, 8.187456378356899], [-64.93044062700491, 8.187456378356899], [-61.00153187640633, 13.753456378146183], [-63.948213439398884, 15.979856378457384], [-63.948213439398884, 15.979856378457384], [-67.87712218982298, 20.43265637828881], [-66.89489500221696, 21.54585637824667], [-61.98375906401236, 18.206256378373098], [-61.98375906401236, 18.206256378373098], [-59.03707750119428, 15.979856378457384], [-54.1259415628152, 21.54585637824667], [-58.05485031341378, 24.885456378515727], [-58.05485031341378, 25.998656378473584], [-60.01930468880031, 27.11185637843144], [-61.00153187640633, 28.225056378389297], [-61.00153187640633, 28.225056378389297], [-62.96598625161838, 25.998656378473584], [-64.93044062700491, 27.11185637843144], [-62.96598625161838, 29.338256378347154], [-62.96598625161838, 29.338256378347154], [-65.91266781461094, 32.677856378220724], [-65.91266781461094, 31.564656378262868], [-70.82380375281554, 36.01745637848978], [-74.75271250341412, 39.35705637836335], [-74.75271250341412, 39.35705637836335], [-77.69939406640667, 42.69665637823692], [-77.69939406640667, 41.58345637827907], [-79.66384844161873, 39.35705637836335], [-80.64607562922474, 41.58345637827907], [-79.66384844161873, 43.80985637819478], [-78.6816212540127, 43.80985637819478], [-81.62830281683077, 46.03625637850598], [-82.61053000461128, 46.03625637850598], [-86.53943875520984, 49.37585637837955], [-91.45057469341445, 43.80985637819478], [-88.5038931304219, 41.58345637827907], [-88.5038931304219, 41.58345637827907], [-84.57498437982332, 37.13065637844764], [-85.55721156742935, 36.01745637848978], [-90.46834750563394, 39.35705637836335], [-90.46834750563394, 39.35705637836335], [-93.41502906862651, 41.58345637827907], [-98.3261650068311, 36.01745637848978], [-93.41502906862651, 32.677856378220724]]]}, "properties": {"id": 2, "height_m": 10.1, "levels": null, "category": "residencial", "extrude": true, "manzana_id": 2}}, {"type": "Feature", "geometry": {"type": "Polygon", "coordinates": [[[-3.0501278053826497, -18.52934362181813], [31.32782376204957, -29.661343621792184], [32.31005094965559, -26.321743621523126], [34.27450532504212, -19.642543621775985], [36.23895970025417, -12.963343621633356], [1.861008132821953, -1.8313436216593004], [-45.2858968741865, 12.640256378188326], [-46.26812406179253, 11.52705637823047], [-50.19703281239111, -2.944543621617157], [-39.392533748201394, -6.284143621490728], [-3.0501278053826497, -18.52934362181813]]]}, "properties": {"id": 3, "height_m": 3.6, "levels": null, "category": "publico", "extrude": true, "manzana_id": 6}}, {"type": "Feature", "geometry": {"type": "Polygon", "coordinates": [[[33.29227813726162, 0.39505637825641315], [33.29227813726162, 0.39505637825641315], [43.1145500138453, -1.8313436216593004], [46.061231576663374, 1.50825637821427], [45.07900438905735, 1.50825637821427], [46.061231576663374, 2.6214563781721267], [40.16786845085275, 7.074256378399042], [39.18564126324672, 7.074256378399042], [35.25673251264815, 9.300656378314756], [35.25673251264815, 10.413856378272612], [29.36336938683752, 2.6214563781721267], [33.29227813726162, 0.39505637825641315]]]}, "properties": {"id": 4, "height_m": 8.9, "levels": null, "category": "residencial", "extrude": true, "manzana_id": 2}}, {"type": "Feature", "geometry": {"type": "Polygon", "coordinates": [[[32.31005094965559, 5.961056378441185], [33.29227813726162, 7.074256378399042], [35.25673251264815, 10.413856378272612], [27.398915011450992, 15.979856378457384], [23.47000626085241, 11.52705637823047], [22.487779073246386, 9.300656378314756], [20.523324698034337, 8.187456378356899], [18.55887032264781, 5.961056378441185], [29.36336938683752, 2.6214563781721267], [32.31005094965559, 5.961056378441185]]]}, "properties": {"id": 5, "height_m": 7.1, "levels": null, "category": "residencial", "extrude": true, "manzana_id": 2}}, {"type": "Feature", "geometry": {"type": "Polygon", "coordinates": [[[19.541097510253834, 11.52705637823047], [22.487779073246386, 9.300656378314756], [27.398915011450992, 15.979856378457384], [22.487779073246386, 19.319456378330955], [21.50555188564036, 20.43265637828881], [14.629961572049233, 21.54585637824667], [14.629961572049233, 19.319456378330955], [12.665507196837183, 14.866656378499528], [15.612188759829737, 13.753456378146183], [14.629961572049233, 11.52705637823047], [11.683280009231158, 12.640256378188326], [10.701052821625133, 8.187456378356899], [18.55887032264781, 5.961056378441185], [20.523324698034337, 8.187456378356899], [18.55887032264781, 10.413856378272612], [19.541097510253834, 11.52705637823047]]]}, "properties": {"id": 6, "height_m": 10.3, "levels": null, "category": "residencial", "extrude": true, "manzana_id": 2}}, {"type": "Feature", "geometry": {"type": "Polygon", "coordinates": [[[13.647734384443208, 17.09305637841524], [14.629961572049233, 19.319456378330955], [14.629961572049233, 21.54585637824667], [7.75437125863258, 24.885456378515727], [6.772144071026555, 21.54585637824667], [5.78991688342053, 20.43265637828881], [5.78991688342053, 19.319456378330955], [8.736598446238606, 18.206256378373098], [7.75437125863258, 14.866656378499528], [4.807689695640027, 15.979856378457384], [3.8254625080340023, 13.753456378146183], [3.8254625080340023, 11.52705637823047], [2.843235320427978, 10.413856378272612], [10.701052821625133, 8.187456378356899], [11.683280009231158, 12.640256378188326], [12.665507196837183, 14.866656378499528], [13.647734384443208, 17.09305637841524]]]}, "properties": {"id": 7, "height_m": 6.8, "levels": null, "category": "residencial", "extrude": true, "manzana_id": 2}}, {"type": "Feature", "geometry": {"type": "Polygon", "coordinates": [[[4.807689695640027, 14.866656378499528], [4.807689695640027, 15.979856378457384], [4.807689695640027, 17.09305637841524], [5.78991688342053, 19.319456378330955], [5.78991688342053, 20.43265637828881], [6.772144071026555, 21.54585637824667], [6.772144071026555, 22.659056378204525], [7.75437125863258, 23.772256378162382], [-0.10344624256457526, 27.11185637843144], [-1.0856734301706001, 24.885456378515727], [-2.067900617776625, 21.54585637824667], [-2.067900617776625, 21.54585637824667], [-3.0501278053826497, 18.206256378373098], [-3.0501278053826497, 17.09305637841524], [-4.032354993163153, 13.753456378146183], [-4.032354993163153, 12.640256378188326], [-5.014582180769178, 10.413856378272612], [-1.0856734301706001, 9.300656378314756], [1.861008132821953, 8.187456378356899], [2.843235320427978, 8.187456378356899], [2.843235320427978, 10.413856378272612], [3.8254625080340023, 11.52705637823047], [3.8254625080340023, 13.753456378146183], [4.807689695640027, 14.866656378499528]]]}, "properties": {"id": 8, "height_m": 7.9, "levels": null, "category": "residencial", "extrude": true, "manzana_id": 2}}, {"type": "Feature", "geometry": {"type": "Polygon", "coordinates": [[[-6.979036555981227, 17.09305637841524], [-6.979036555981227, 17.09305637841524], [-5.996809368375202, 19.319456378330955], [-5.996809368375202, 20.43265637828881], [-3.0501278053826497, 19.319456378330955], [-3.0501278053826497, 19.319456378330955], [-2.067900617776625, 19.319456378330955], [-2.067900617776625, 21.54585637824667], [-0.10344624256457526, 27.11185637843144], [-0.10344624256457526, 27.11185637843144], [-0.10344624256457526, 27.11185637843144], [-5.996809368375202, 28.225056378389297], [-7.961263743587252, 29.338256378347154], [-9.92571811897378, 21.54585637824667], [-10.907945306579805, 18.206256378373098], [-11.89017249418583, 15.979856378457384], [-12.872399681966334, 12.640256378188326], [-5.996809368375202, 10.413856378272612], [-5.014582180769178, 10.413856378272612], [-5.014582180769178, 10.413856378272612], [-5.014582180769178, 10.413856378272612], [-4.032354993163153, 12.640256378188326], [-3.0501278053826497, 15.979856378457384], [-4.032354993163153, 15.979856378457384], [-4.032354993163153, 15.979856378457384], [-6.979036555981227, 17.09305637841524]]]}, "properties": {"id": 9, "height_m": 6.4, "levels": null, "category": "residencial", "extrude": true, "manzana_id": 2}}, {"type": "Feature", "geometry": {"type": "Polygon", "coordinates": [[[-17.783535620170937, 14.866656378499528], [-15.819081244784408, 13.753456378146183], [-14.836854057178384, 13.753456378146183], [-12.872399681966334, 12.640256378188326], [-11.89017249418583, 15.979856378457384], [-10.907945306579805, 18.206256378373098], [-9.92571811897378, 21.54585637824667], [-7.961263743587252, 29.338256378347154], [-12.872399681966334, 31.564656378262868], [-15.819081244784408, 31.564656378262868], [-16.80130843239043, 29.338256378347154], [-17.783535620170937, 25.998656378473584], [-18.765762807776962, 22.659056378204525], [-18.765762807776962, 20.43265637828881], [-19.747989995382987, 19.319456378330955], [-20.730217182989012, 14.866656378499528], [-17.783535620170937, 14.866656378499528]]]}, "properties": {"id": 10, "height_m": 6.2, "levels": null, "category": "residencial", "extrude": true, "manzana_id": 2}}, {"type": "Feature", "geometry": {"type": "Polygon", "coordinates": [[[-17.783535620170937, 25.998656378473584], [-16.80130843239043, 29.338256378347154], [-15.819081244784408, 31.564656378262868], [-15.819081244784408, 31.564656378262868], [-15.819081244784408, 32.677856378220724], [-18.765762807776962, 33.79105637817858], [-19.747989995382987, 32.677856378220724], [-22.69467155837554, 33.79105637817858], [-24.65912593358759, 30.45145637830501], [-25.641353121193614, 27.11185637843144], [-22.69467155837554, 25.998656378473584], [-23.676898745981564, 22.659056378204525], [-26.623580308974116, 23.772256378162382], [-26.623580308974116, 22.659056378204525], [-27.60580749658014, 18.206256378373098], [-26.623580308974116, 17.09305637841524], [-22.69467155837554, 15.979856378457384], [-20.730217182989012, 15.979856378457384], [-20.730217182989012, 14.866656378499528], [-19.747989995382987, 19.319456378330955], [-22.69467155837554, 20.43265637828881], [-21.712444370595033, 23.772256378162382], [-18.765762807776962, 22.659056378204525], [-17.783535620170937, 25.998656378473584]]]}, "properties": {"id": 11, "height_m": 10.2, "levels": null, "category": "residencial", "extrude": true, "manzana_id": 2}}, {"type": "Feature", "geometry": {"type": "Polygon", "coordinates": [[[-32.51694343478474, 19.319456378330955], [-32.51694343478474, 19.319456378330955], [-27.60580749658014, 18.206256378373098], [-26.623580308974116, 22.659056378204525], [-30.552489059398216, 23.772256378162382], [-28.588034684186166, 27.11185637843144], [-25.641353121193614, 25.998656378473584], [-25.641353121193614, 27.11185637843144], [-24.65912593358759, 30.45145637830501], [-22.69467155837554, 33.79105637817858], [-22.69467155837554, 36.01745637848978], [-25.641353121193614, 37.13065637844764], [-30.552489059398216, 38.243856378405496], [-31.534716247178718, 36.01745637848978], [-31.534716247178718, 36.01745637848978], [-32.51694343478474, 32.677856378220724], [-28.588034684186166, 31.564656378262868], [-29.57026187179219, 28.225056378389297], [-33.49917062239077, 29.338256378347154], [-34.48139780999679, 24.885456378515727], [-35.46362499760282, 20.43265637828881], [-32.51694343478474, 19.319456378330955]]]}, "properties": {"id": 12, "height_m": 8.0, "levels": null, "category": "residencial", "extrude": true, "manzana_id": 2}}, {"type": "Feature", "geometry": {"type": "Polygon", "coordinates": [[[-42.339215311193946, 22.659056378204525], [-42.339215311193946, 21.54585637824667], [-42.339215311193946, 21.54585637824667], [-36.44585218538332, 19.319456378330955], [-36.44585218538332, 20.43265637828881], [-36.44585218538332, 20.43265637828881], [-35.46362499760282, 20.43265637828881], [-34.48139780999679, 24.885456378515727], [-33.49917062239077, 29.338256378347154], [-32.51694343478474, 32.677856378220724], [-31.534716247178718, 36.01745637848978], [-31.534716247178718, 36.01745637848978], [-30.552489059398216, 38.243856378405496], [-30.552489059398216, 38.243856378405496], [-30.552489059398216, 39.35705637836335], [-36.44585218538332, 41.58345637827907], [-37.428079372989345, 40.47025637832121], [-37.428079372989345, 40.47025637832121], [-38.41030656059537, 38.243856378405496], [-38.41030656059537, 37.13065637844764], [-39.392533748201394, 33.79105637817858], [-40.3747609359819, 31.564656378262868], [-40.3747609359819, 30.45145637830501], [-41.356988123587925, 27.11185637843144], [-42.339215311193946, 24.885456378515727], [-42.339215311193946, 22.659056378204525], [-42.339215311193946, 22.659056378204525]]]}, "properties": {"id": 13, "height_m": 9.8, "levels": null, "category": "residencial", "extrude": true, "manzana_id": 2}}, {"type": "Feature", "geometry": {"type": "Polygon", "coordinates": [[[-44.303669686405996, 28.225056378389297], [-41.356988123587925, 27.11185637843144], [-40.3747609359819, 30.45145637830501], [-40.3747609359819, 31.564656378262868], [-39.392533748201394, 33.79105637817858], [-38.41030656059537, 37.13065637844764], [-43.321442498799975, 39.35705637836335], [-45.2858968741865, 37.13065637844764], [-48.23257843700458, 30.45145637830501], [-46.26812406179253, 29.338256378347154], [-48.23257843700458, 27.11185637843144], [-49.2148056246106, 28.225056378389297], [-49.2148056246106, 28.225056378389297], [-50.19703281239111, 27.11185637843144], [-51.17925999999713, 24.885456378515727], [-50.19703281239111, 24.885456378515727], [-44.303669686405996, 22.659056378204525], [-42.339215311193946, 22.659056378204525], [-42.339215311193946, 24.885456378515727], [-45.2858968741865, 25.998656378473584], [-44.303669686405996, 28.225056378389297]]]}, "properties": {"id": 14, "height_m": 10.0, "levels": null, "category": "residencial", "extrude": true, "manzana_id": 2}}, {"type": "Feature", "geometry": {"type": "Polygon", "coordinates": [[[-45.2858968741865, 37.13065637844764], [-43.321442498799975, 39.35705637836335], [-43.321442498799975, 40.47025637832121], [-47.25035124939855, 43.80985637819478], [-53.14371437520918, 36.01745637848978], [-55.10816875059571, 33.79105637817858], [-52.16148718760316, 31.564656378262868], [-53.14371437520918, 30.45145637830501], [-56.09039593820173, 32.677856378220724], [-58.05485031341378, 29.338256378347154], [-53.14371437520918, 25.998656378473584], [-51.17925999999713, 24.885456378515727], [-50.19703281239111, 27.11185637843144], [-50.19703281239111, 27.11185637843144], [-50.19703281239111, 28.225056378389297], [-49.2148056246106, 28.225056378389297], [-49.2148056246106, 28.225056378389297], [-48.23257843700458, 30.45145637830501], [-45.2858968741865, 37.13065637844764]]]}, "properties": {"id": 15, "height_m": 11.1, "levels": null, "category": "residencial", "extrude": true, "manzana_id": 2}}, {"type": "Feature", "geometry": {"type": "Polygon", "coordinates": [[[-60.01930468880031, 39.35705637836335], [-60.01930468880031, 40.47025637832121], [-59.03707750119428, 41.58345637827907], [-54.1259415628152, 48.262656378421696], [-54.1259415628152, 48.262656378421696], [-53.14371437520918, 49.37585637837955], [-57.07262312580776, 52.71545637825312], [-58.05485031341378, 51.602256378295266], [-59.03707750119428, 51.602256378295266], [-60.01930468880031, 52.71545637825312], [-60.01930468880031, 52.71545637825312], [-61.00153187640633, 51.602256378295266], [-61.98375906401236, 51.602256378295266], [-62.96598625161838, 49.37585637837955], [-62.96598625161838, 49.37585637837955], [-63.948213439398884, 48.262656378421696], [-63.948213439398884, 48.262656378421696], [-64.93044062700491, 47.14945637846384], [-65.91266781461094, 46.03625637850598], [-67.87712218982298, 42.69665637823692], [-67.87712218982298, 42.69665637823692], [-69.84157656520951, 40.47025637832121], [-70.82380375281554, 39.35705637836335], [-63.948213439398884, 34.90425637813644], [-61.98375906401236, 38.243856378405496], [-60.01930468880031, 39.35705637836335]]]}, "properties": {"id": 16, "height_m": 8.3, "levels": null, "category": "residencial", "extrude": true, "manzana_id": 2}}, {"type": "Feature", "geometry": {"type": "Polygon", "coordinates": [[[-69.84157656520951, 44.92305637815264], [-67.87712218982298, 42.69665637823692], [-65.91266781461094, 46.03625637850598], [-64.93044062700491, 47.14945637846384], [-63.948213439398884, 48.262656378421696], [-65.91266781461094, 50.48905637833741], [-63.948213439398884, 52.71545637825312], [-61.98375906401236, 51.602256378295266], [-60.01930468880031, 52.71545637825312], [-66.89489500221696, 58.281456378437895], [-69.84157656520951, 53.82865637821098], [-70.82380375281554, 52.71545637825312], [-69.84157656520951, 51.602256378295266], [-71.80603094042156, 49.37585637837955], [-71.80603094042156, 50.48905637833741], [-73.77048531580809, 48.262656378421696], [-74.75271250341412, 48.262656378421696], [-75.73493969102014, 46.03625637850598], [-76.71716687862617, 44.92305637815264], [-72.78825812820207, 41.58345637827907], [-69.84157656520951, 44.92305637815264]]]}, "properties": {"id": 17, "height_m": 9.1, "levels": null, "category": "residencial", "extrude": true, "manzana_id": 2}}, {"type": "Feature", "geometry": {"type": "Polygon", "coordinates": [[[-66.89489500221696, 58.281456378437895], [-66.89489500221696, 60.50785637835361], [-70.82380375281554, 62.73425637826932], [-70.82380375281554, 61.621056378311465], [-75.73493969102014, 64.96065637818504], [-77.69939406640667, 61.621056378311465], [-77.69939406640667, 61.621056378311465], [-82.61053000461128, 54.941856378168836], [-78.6816212540127, 51.602256378295266], [-73.77048531580809, 48.262656378421696], [-71.80603094042156, 50.48905637833741], [-70.82380375281554, 52.71545637825312], [-69.84157656520951, 53.82865637821098], [-66.89489500221696, 58.281456378437895]]]}, "properties": {"id": 18, "height_m": 8.7, "levels": null, "category": "residencial", "extrude": true, "manzana_id": 2}}, {"type": "Feature", "geometry": {"type": "Polygon", "coordinates": [[[-77.69939406640667, 61.621056378311465], [-87.52166594281587, 69.41345637841195], [-89.48612031802793, 70.52665637836981], [-88.5038931304219, 71.63985637832766], [-89.48612031802793, 74.97945637820123], [-89.48612031802793, 80.545456378386], [-90.46834750563394, 87.22465637813315], [-94.39725625623252, 99.46985637846055], [-96.36171063161906, 105.03585637824983], [-97.34393781922508, 108.37545637851889], [-99.30839219443713, 110.6018563784346], [-100.29061938221763, 111.71505637839246], [-101.27284656982366, 112.82825637835032], [-104.21952813264173, 117.28105637818175], [-115.02402719683144, 125.07345637828223], [-129.75743501144524, 137.31865637821414], [-162.17093220366542, 162.9222563784313], [-164.13538657887747, 165.14865637834703], [-167.08206814187, 158.4694563782044], [-169.04652251708205, 158.4694563782044], [-167.08206814187, 155.12985637833083], [-166.099840954264, 152.90345637841511], [-166.099840954264, 151.79025637845726], [-165.11761376665797, 149.56385637814606], [-164.13538657887747, 137.31865637821414], [-164.13538657887747, 129.52625637850915], [-163.15315939127143, 123.96025637832437], [-159.22425064067286, 106.14905637820769], [-157.25979626546084, 96.13025637819149], [-155.2953418900743, 88.33785637848649], [-150.3842059518697, 73.86625637824338], [-146.4552972014456, 62.73425637826932], [-150.3842059518697, 61.621056378311465], [-147.4375243890516, 53.82865637821098], [-146.4552972014456, 51.602256378295266], [-146.4552972014456, 51.602256378295266], [-143.50861563845302, 52.71545637825312], [-140.56193407546047, 52.71545637825312], [-139.57970688785446, 52.71545637825312], [-137.61525251264243, 52.71545637825312], [-136.6330253248619, 52.71545637825312], [-136.6330253248619, 52.71545637825312], [-135.65079813725586, 52.71545637825312], [-135.65079813725586, 52.71545637825312], [-134.66857094964985, 52.71545637825312], [-132.7041165744378, 52.71545637825312], [-129.75743501144524, 52.71545637825312], [-127.79298063605872, 52.71545637825312], [-127.79298063605872, 52.71545637825312], [-125.82852626084667, 52.71545637825312], [-123.86407188563462, 51.602256378295266], [-119.93516313503605, 50.48905637833741], [-116.9884815720435, 49.37585637837955], [-115.02402719683144, 48.262656378421696], [-114.04180000905093, 48.262656378421696], [-111.09511844623286, 46.03625637850598], [-110.11289125862683, 46.03625637850598], [-108.14843688324031, 44.92305637815264], [-100.29061938221763, 38.243856378405496], [-87.52166594281587, 51.602256378295266], [-86.53943875520984, 51.602256378295266], [-85.55721156742935, 52.71545637825312], [-82.61053000461128, 54.941856378168836], [-77.69939406640667, 61.621056378311465], [-77.69939406640667, 61.621056378311465]]]}, "properties": {"id": 19, "height_m": 8.4, "levels": null, "category": "publico", "extrude": true, "manzana_id": 2}}, {"type": "Feature", "geometry": {"type": "Polygon", "coordinates": [[[-5.996809368375202, 37.13065637844764], [1.861008132821953, 34.90425637813644], [3.8254625080340023, 33.79105637817858], [4.807689695640027, 36.01745637848978], [3.8254625080340023, 37.13065637844764], [-2.067900617776625, 41.58345637827907], [-5.014582180769178, 43.80985637819478], [-9.92571811897378, 38.243856378405496], [-5.996809368375202, 37.13065637844764]]]}, "properties": {"id": 20, "height_m": 10.9, "levels": null, "category": "residencial", "extrude": true, "manzana_id": 2}}, {"type": "Feature", "geometry": {"type": "Polygon", "coordinates": [[[-16.80130843239043, 40.47025637832121], [-9.92571811897378, 38.243856378405496], [-5.014582180769178, 43.80985637819478], [-10.907945306579805, 49.37585637837955], [-13.854626869572359, 51.602256378295266], [-14.836854057178384, 49.37585637837955], [-18.765762807776962, 44.92305637815264], [-19.747989995382987, 43.80985637819478], [-20.730217182989012, 41.58345637827907], [-16.80130843239043, 40.47025637832121]]]}, "properties": {"id": 21, "height_m": 7.5, "levels": null, "category": "residencial", "extrude": true, "manzana_id": 2}}, {"type": "Feature", "geometry": {"type": "Polygon", "coordinates": [[[-16.80130843239043, 52.71545637825312], [-15.819081244784408, 52.71545637825312], [-19.747989995382987, 56.05505637812669], [-19.747989995382987, 54.941856378168836], [-21.712444370595033, 52.71545637825312], [-18.765762807776962, 50.48905637833741], [-21.712444370595033, 47.14945637846384], [-18.765762807776962, 44.92305637815264], [-14.836854057178384, 49.37585637837955], [-17.783535620170937, 51.602256378295266], [-16.80130843239043, 52.71545637825312]]]}, "properties": {"id": 22, "height_m": 15.4, "levels": null, "category": "residencial", "extrude": true, "manzana_id": 2}}, {"type": "Feature", "geometry": {"type": "Polygon", "coordinates": [[[-33.49917062239077, 46.03625637850598], [-28.588034684186166, 43.80985637819478], [-26.623580308974116, 46.03625637850598], [-27.60580749658014, 47.14945637846384], [-26.623580308974116, 49.37585637837955], [-25.641353121193614, 48.262656378421696], [-22.69467155837554, 51.602256378295266], [-21.712444370595033, 52.71545637825312], [-19.747989995382987, 54.941856378168836], [-19.747989995382987, 56.05505637812669], [-22.69467155837554, 58.281456378437895], [-25.641353121193614, 61.621056378311465], [-26.623580308974116, 59.39465637839575], [-27.60580749658014, 59.39465637839575], [-28.588034684186166, 57.16825637848004], [-30.552489059398216, 54.941856378168836], [-31.534716247178718, 52.71545637825312], [-32.51694343478474, 52.71545637825312], [-36.44585218538332, 47.14945637846384], [-33.49917062239077, 46.03625637850598]]]}, "properties": {"id": 23, "height_m": 5.8, "levels": null, "category": "residencial", "extrude": true, "manzana_id": 2}}, {"type": "Feature", "geometry": {"type": "Polygon", "coordinates": [[[-34.48139780999679, 53.82865637821098], [-33.49917062239077, 52.71545637825312], [-32.51694343478474, 52.71545637825312], [-32.51694343478474, 52.71545637825312], [-32.51694343478474, 52.71545637825312], [-31.534716247178718, 52.71545637825312], [-30.552489059398216, 54.941856378168836], [-29.57026187179219, 56.05505637812669], [-28.588034684186166, 57.16825637848004], [-27.60580749658014, 59.39465637839575], [-33.49917062239077, 64.96065637818504], [-36.44585218538332, 61.621056378311465], [-39.392533748201394, 57.16825637848004], [-39.392533748201394, 57.16825637848004], [-39.392533748201394, 57.16825637848004], [-34.48139780999679, 53.82865637821098]]]}, "properties": {"id": 24, "height_m": 10.2, "levels": null, "category": "residencial", "extrude": true, "manzana_id": 2}}, {"type": "Feature", "geometry": {"type": "Polygon", "coordinates": [[[-41.356988123587925, 53.82865637821098], [-37.428079372989345, 59.39465637839575], [-33.49917062239077, 64.96065637818504], [-39.392533748201394, 69.41345637841195], [-47.25035124939855, 60.50785637835361], [-48.23257843700458, 58.281456378437895], [-49.2148056246106, 58.281456378437895], [-51.17925999999713, 56.05505637812669], [-44.303669686405996, 50.48905637833741], [-41.356988123587925, 53.82865637821098]]]}, "properties": {"id": 25, "height_m": 9.5, "levels": null, "category": "residencial", "extrude": true, "manzana_id": 2}}, {"type": "Feature", "geometry": {"type": "Polygon", "coordinates": [[[-48.23257843700458, 58.281456378437895], [-47.25035124939855, 60.50785637835361], [-39.392533748201394, 69.41345637841195], [-46.26812406179253, 74.97945637820123], [-49.2148056246106, 71.63985637832766], [-50.19703281239111, 69.41345637841195], [-53.14371437520918, 64.96065637818504], [-55.10816875059571, 63.84745637822718], [-57.07262312580776, 60.50785637835361], [-51.17925999999713, 56.05505637812669], [-49.2148056246106, 58.281456378437895], [-48.23257843700458, 58.281456378437895]]]}, "properties": {"id": 26, "height_m": 3.0, "levels": null, "category": "residencial", "extrude": true, "manzana_id": 2}}, {"type": "Feature", "geometry": {"type": "Polygon", "coordinates": [[[-53.14371437520918, 64.96065637818504], [-50.19703281239111, 69.41345637841195], [-49.2148056246106, 71.63985637832766], [-47.25035124939855, 73.86625637824338], [-46.26812406179253, 74.97945637820123], [-46.26812406179253, 74.97945637820123], [-46.26812406179253, 76.09265637815909], [-46.26812406179253, 77.20585637851244], [-49.2148056246106, 79.43225637842815], [-50.19703281239111, 78.3190563784703], [-52.16148718760316, 80.545456378386], [-54.1259415628152, 77.20585637851244], [-55.10816875059571, 76.09265637815909], [-61.98375906401236, 67.18705637849624], [-62.96598625161838, 66.07385637814289], [-61.00153187640633, 63.84745637822718], [-57.07262312580776, 60.50785637835361], [-55.10816875059571, 63.84745637822718], [-53.14371437520918, 64.96065637818504]]]}, "properties": {"id": 27, "height_m": 7.3, "levels": null, "category": "residencial", "extrude": true, "manzana_id": 2}}, {"type": "Feature", "geometry": {"type": "Polygon", "coordinates": [[[-40.3747609359819, 48.262656378421696], [-36.44585218538332, 47.14945637846384], [-32.51694343478474, 52.71545637825312], [-39.392533748201394, 57.16825637848004], [-39.392533748201394, 57.16825637848004], [-42.339215311193946, 53.82865637821098], [-44.303669686405996, 50.48905637833741], [-44.303669686405996, 50.48905637833741], [-41.356988123587925, 49.37585637837955], [-40.3747609359819, 48.262656378421696]]]}, "properties": {"id": 28, "height_m": 3.0, "levels": null, "category": "residencial", "extrude": true, "manzana_id": 2}}, {"type": "Feature", "geometry": {"type": "Polygon", "coordinates": [[[-103.23730094503571, 3.7346563781299835], [-103.23730094503571, 3.7346563781299835], [-100.29061938221763, 1.50825637821427], [-100.29061938221763, 1.50825637821427], [-98.3261650068311, 0.39505637825641315], [-98.3261650068311, 0.39505637825641315], [-95.37948344383855, -2.944543621617157], [-95.37948344383855, -1.8313436216593004], [-90.46834750563394, -6.284143621490728], [-86.53943875520984, -9.623743621759786], [-86.53943875520984, -9.623743621759786], [-83.59275719221729, -12.963343621633356], [-83.59275719221729, -11.8501436216755], [-81.62830281683077, -12.963343621633356], [-81.62830281683077, -14.076543621591213], [-78.6816212540127, -16.302943621506927], [-78.6816212540127, -16.302943621506927], [-73.77048531580809, -19.642543621775985], [-69.84157656520951, -14.076543621591213], [-72.78825812820207, -11.8501436216755], [-72.78825812820207, -10.736943621717643], [-76.71716687862617, -7.3973436218440725], [-75.73493969102014, -5.170943621532871], [-70.82380375281554, -9.623743621759786], [-70.82380375281554, -8.51054362180193], [-67.87712218982298, -11.8501436216755], [-62.96598625161838, -6.284143621490728], [-64.93044062700491, -4.057743621575014], [-66.89489500221696, -1.8313436216593004], [-66.89489500221696, -1.8313436216593004], [-69.84157656520951, 0.39505637825641315], [-70.82380375281554, 0.39505637825641315], [-71.80603094042156, -1.8313436216593004], [-73.77048531580809, -0.7181436217014436], [-71.80603094042156, 1.50825637821427], [-71.80603094042156, 2.6214563781721267], [-74.75271250341412, 4.847856378483328], [-74.75271250341412, 3.7346563781299835], [-78.6816212540127, 7.074256378399042], [-79.66384844161873, 8.187456378356899], [-83.59275719221729, 11.52705637823047], [-83.59275719221729, 11.52705637823047], [-86.53943875520984, 14.866656378499528], [-87.52166594281587, 13.753456378146183], [-88.5038931304219, 12.640256378188326], [-90.46834750563394, 13.753456378146183], [-88.5038931304219, 15.979856378457384], [-88.5038931304219, 15.979856378457384], [-91.45057469341445, 18.206256378373098], [-91.45057469341445, 18.206256378373098], [-96.36171063161906, 21.54585637824667], [-99.30839219443713, 18.206256378373098], [-101.27284656982366, 15.979856378457384], [-97.34393781922508, 13.753456378146183], [-98.3261650068311, 12.640256378188326], [-93.41502906862651, 9.300656378314756], [-95.37948344383855, 8.187456378356899], [-99.30839219443713, 11.52705637823047], [-99.30839219443713, 11.52705637823047], [-103.23730094503571, 13.753456378146183], [-107.16620969563428, 8.187456378356899], [-103.23730094503571, 3.7346563781299835]]]}, "properties": {"id": 29, "height_m": 8.3, "levels": null, "category": "residencial", "extrude": true, "manzana_id": 7}}, {"type": "Feature", "geometry": {"type": "Polygon", "coordinates": [[[3.8254625080340023, -66.39694362158792], [3.8254625080340023, -66.39694362158792], [6.772144071026555, -68.62334362150364], [7.75437125863258, -67.51014362154578], [8.736598446238606, -68.62334362150364], [8.736598446238606, -69.73654362185698], [12.665507196837183, -70.84974362181484], [12.665507196837183, -70.84974362181484], [17.576643135041785, -73.07614362173055], [22.487779073246386, -76.41574362160412], [22.487779073246386, -76.41574362160412], [26.416687823844967, -78.64214362151984], [26.416687823844967, -78.64214362151984], [28.381142199057017, -78.64214362151984], [28.381142199057017, -79.75534362187318], [31.32782376204957, -80.86854362183104], [31.32782376204957, -80.86854362183104], [37.2211868878602, -84.20814362170461], [40.16786845085275, -77.52894362156198], [36.23895970025417, -75.30254362164627], [37.2211868878602, -75.30254362164627], [32.31005094965559, -71.9629436217727], [33.29227813726162, -69.73654362185698], [38.2034140756407, -73.07614362173055], [38.2034140756407, -71.9629436217727], [42.1323228260648, -74.18934362168841], [45.07900438905735, -67.51014362154578], [40.16786845085275, -65.28374362163007], [40.16786845085275, -65.28374362163007], [37.2211868878602, -63.05734362171435], [36.23895970025417, -63.05734362171435], [35.25673251264815, -65.28374362163007], [33.29227813726162, -65.28374362163007], [35.25673251264815, -61.944143621756496], [35.25673251264815, -61.944143621756496], [31.32782376204957, -59.71774362184078], [31.32782376204957, -60.83094362179864], [26.416687823844967, -57.49134362152958], [20.523324698034337, -55.26494362161387], [21.50555188564036, -54.15174362165601], [17.576643135041785, -53.03854362169815], [17.576643135041785, -53.03854362169815], [16.59441594743576, -55.26494362161387], [14.629961572049233, -54.15174362165601], [15.612188759829737, -51.925343621740296], [15.612188759829737, -51.925343621740296], [12.665507196837183, -49.69894362182458], [11.683280009231158, -49.69894362182458], [6.772144071026555, -47.47254362151338], [3.8254625080340023, -54.15174362165601], [6.772144071026555, -56.37814362157172], [6.772144071026555, -56.37814362157172], [11.683280009231158, -58.60454362148744], [10.701052821625133, -60.83094362179864], [5.78991688342053, -58.60454362148744], [5.78991688342053, -58.60454362148744], [1.861008132821953, -56.37814362157172], [-1.0856734301706001, -63.05734362171435], [3.8254625080340023, -66.39694362158792]]]}, "properties": {"id": 30, "height_m": 10.3, "levels": null, "category": "residencial", "extrude": true, "manzana_id": 8}}, {"type": "Feature", "geometry": {"type": "Polygon", "coordinates": [[[31.32782376204957, -43.019743621681954], [28.381142199057017, -41.9065436217241], [23.47000626085241, -49.69894362182458], [27.398915011450992, -51.925343621740296], [31.32782376204957, -43.019743621681954]]]}, "properties": {"id": 31, "height_m": 8.2, "levels": null, "category": "residencial", "extrude": true, "manzana_id": 8}}, {"type": "Feature", "geometry": {"type": "Polygon", "coordinates": [[[137.40836002751325, -60.83094362179864], [137.40836002751325, -60.83094362179864], [137.40836002751325, -60.83094362179864], [137.40836002751325, -60.83094362179864], [137.40836002751325, -60.83094362179864], [137.40836002751325, -60.83094362179864], [137.40836002751325, -61.944143621756496], [137.40836002751325, -61.944143621756496], [137.40836002751325, -61.944143621756496], [137.40836002751325, -61.944143621756496], [137.40836002751325, -61.944143621756496], [137.40836002751325, -61.944143621756496], [144.28395034110437, -68.62334362150364], [144.28395034110437, -69.73654362185698], [145.26617752871041, -69.73654362185698], [146.24840471631643, -69.73654362185698], [146.24840471631643, -69.73654362185698], [147.23063190392247, -69.73654362185698], [148.21285909152846, -69.73654362185698], [148.21285909152846, -68.62334362150364], [149.19508627930898, -68.62334362150364], [149.19508627930898, -67.51014362154578], [149.19508627930898, -67.51014362154578], [150.17731346691502, -66.39694362158792], [150.17731346691502, -66.39694362158792], [150.17731346691502, -65.28374362163007], [149.19508627930898, -64.17054362167221], [149.19508627930898, -64.17054362167221], [148.21285909152846, -63.05734362171435], [148.21285909152846, -63.05734362171435], [147.23063190392247, -61.944143621756496], [146.24840471631643, -60.83094362179864], [142.31949596571786, -48.585743621866726], [140.3550415905058, -49.69894362182458], [140.3550415905058, -50.81214362178244], [140.3550415905058, -51.925343621740296], [136.42613283990724, -55.26494362161387], [135.4439056523012, -56.37814362157172], [135.4439056523012, -55.26494362161387], [133.4794512769147, -57.49134362152958], [137.40836002751325, -60.83094362179864]]]}, "properties": {"id": 32, "height_m": 11.0, "levels": null, "category": "residencial", "extrude": true, "manzana_id": 3}}, {"type": "Feature", "geometry": {"type": "Polygon", "coordinates": [[[123.65717940050547, -48.585743621866726], [126.60386096349801, -50.81214362178244], [128.56831533871005, -48.585743621866726], [130.5327697140966, -45.24614362159767], [134.4616784645207, -40.79334362176624], [137.40836002751325, -36.340543621539325], [134.4616784645207, -33.000943621665755], [132.49722408930865, -31.887743621707898], [123.65717940050547, -43.019743621681954], [124.6394065881115, -45.24614362159767], [122.67495221289944, -47.47254362151338], [123.65717940050547, -48.585743621866726]]]}, "properties": {"id": 33, "height_m": 8.9, "levels": null, "category": "residencial", "extrude": true, "manzana_id": 3}}, {"type": "Feature", "geometry": {"type": "Polygon", "coordinates": [[[121.69272502529343, -41.9065436217241], [123.65717940050547, -43.019743621681954], [132.49722408930865, -31.887743621707898], [127.58608815110406, -27.434943621480983], [126.60386096349801, -28.548143621834328], [124.6394065881115, -30.77454362175004], [122.67495221289944, -34.11414362162361], [119.72827064990688, -36.340543621539325], [115.79936189930831, -41.9065436217241], [118.74604346230088, -44.13294362163981], [121.69272502529343, -41.9065436217241]]]}, "properties": {"id": 34, "height_m": 6.4, "levels": null, "category": "residencial", "extrude": true, "manzana_id": 3}}, {"type": "Feature", "geometry": {"type": "Polygon", "coordinates": [[[113.83490752409627, -39.680143621808384], [115.79936189930831, -41.9065436217241], [119.72827064990688, -36.340543621539325], [119.72827064990688, -36.340543621539325], [117.76381627469483, -35.22734362158147], [120.71049783751293, -31.887743621707898], [122.67495221289944, -34.11414362162361], [122.67495221289944, -34.11414362162361], [124.6394065881115, -30.77454362175004], [126.60386096349801, -28.548143621834328], [125.62163377589201, -27.434943621480983], [120.71049783751293, -22.982143621649556], [118.74604346230088, -25.20854362156527], [115.79936189930831, -29.661343621792184], [112.85268033649024, -33.000943621665755], [109.90599877349769, -37.45374362149718], [113.83490752409627, -39.680143621808384]]]}, "properties": {"id": 35, "height_m": 10.0, "levels": null, "category": "residencial", "extrude": true, "manzana_id": 3}}, {"type": "Feature", "geometry": {"type": "Polygon", "coordinates": [[[112.85268033649024, -33.000943621665755], [115.79936189930831, -29.661343621792184], [118.74604346230088, -25.20854362156527], [120.71049783751293, -22.982143621649556], [117.76381627469483, -20.755743621733842], [114.8171347117023, -18.52934362181813], [109.90599877349769, -24.095343621607412], [108.92377158589166, -25.20854362156527], [106.95931721050513, -27.434943621480983], [105.9770900228991, -28.548143621834328], [105.9770900228991, -29.661343621792184], [104.01263564768706, -31.887743621707898], [109.90599877349769, -37.45374362149718], [112.85268033649024, -33.000943621665755]]]}, "properties": {"id": 36, "height_m": 6.5, "levels": null, "category": "residencial", "extrude": true, "manzana_id": 3}}, {"type": "Feature", "geometry": {"type": "Polygon", "coordinates": [[[106.95931721050513, -27.434943621480983], [108.92377158589166, -25.20854362156527], [109.90599877349769, -24.095343621607412], [114.8171347117023, -18.52934362181813], [107.94154439828564, -12.963343621633356], [103.03040846008103, -19.642543621775985], [104.99486283529309, -20.755743621733842], [103.03040846008103, -22.982143621649556], [101.06595408469451, -21.8689436216917], [100.08372689708848, -22.982143621649556], [99.10149970948245, -24.095343621607412], [97.13704533409593, -27.434943621480983], [101.06595408469451, -30.77454362175004], [104.01263564768706, -27.434943621480983], [105.9770900228991, -28.548143621834328], [106.95931721050513, -27.434943621480983]]]}, "properties": {"id": 37, "height_m": 5.9, "levels": null, "category": "residencial", "extrude": true, "manzana_id": 3}}, {"type": "Feature", "geometry": {"type": "Polygon", "coordinates": [[[96.1548181464899, -15.18974362154907], [91.2436822082853, -21.8689436216917], [97.13704533409593, -27.434943621480983], [99.10149970948245, -24.095343621607412], [96.1548181464899, -21.8689436216917], [97.13704533409593, -20.755743621733842], [100.08372689708848, -22.982143621649556], [101.06595408469451, -21.8689436216917], [103.03040846008103, -19.642543621775985], [107.94154439828564, -12.963343621633356], [102.04818127230054, -8.51054362180193], [99.10149970948245, -11.8501436216755], [101.06595408469451, -14.076543621591213], [99.10149970948245, -16.302943621506927], [97.13704533409593, -14.076543621591213], [96.1548181464899, -15.18974362154907]]]}, "properties": {"id": 38, "height_m": 8.7, "levels": null, "category": "residencial", "extrude": true, "manzana_id": 3}}, {"type": "Feature", "geometry": {"type": "Polygon", "coordinates": [[[96.1548181464899, -15.18974362154907], [97.13704533409593, -14.076543621591213], [99.10149970948245, -11.8501436216755], [102.04818127230054, -8.51054362180193], [95.17259095888387, -2.944543621617157], [92.22590939589132, -6.284143621490728], [91.2436822082853, -8.51054362180193], [89.27922783307325, -9.623743621759786], [88.29700064529275, -12.963343621633356], [84.36809189486866, -17.41614362186027], [91.2436822082853, -21.8689436216917], [96.1548181464899, -15.18974362154907]]]}, "properties": {"id": 39, "height_m": 6.1, "levels": null, "category": "residencial", "extrude": true, "manzana_id": 3}}, {"type": "Feature", "geometry": {"type": "Polygon", "coordinates": [[[89.27922783307325, -7.3973436218440725], [94.19036377127786, -1.8313436216593004], [89.27922783307325, 1.50825637821427], [87.31477345768673, -1.8313436216593004], [85.35031908247467, -2.944543621617157], [82.40363751948212, -7.3973436218440725], [78.47472876888355, -11.8501436216755], [84.36809189486866, -17.41614362186027], [88.29700064529275, -12.963343621633356], [89.27922783307325, -9.623743621759786], [91.2436822082853, -8.51054362180193], [89.27922783307325, -7.3973436218440725]]]}, "properties": {"id": 40, "height_m": 6.8, "levels": null, "category": "residencial", "extrude": true, "manzana_id": 3}}, {"type": "Feature", "geometry": {"type": "Polygon", "coordinates": [[[75.52804720606547, -10.736943621717643], [78.47472876888355, -11.8501436216755], [82.40363751948212, -7.3973436218440725], [80.43918314427007, -6.284143621490728], [83.38586470708815, -1.8313436216593004], [85.35031908247467, -2.944543621617157], [87.31477345768673, -1.8313436216593004], [89.27922783307325, 1.50825637821427], [83.38586470708815, 5.961056378441185], [81.4214103318761, 3.7346563781299835], [81.4214103318761, 2.6214563781721267], [79.45695595648957, 1.50825637821427], [78.47472876888355, -0.7181436217014436], [76.5102743936715, -2.944543621617157], [75.52804720606547, -4.057743621575014], [72.58136564307291, -8.51054362180193], [75.52804720606547, -10.736943621717643]]]}, "properties": {"id": 41, "height_m": 9.7, "levels": null, "category": "residencial", "extrude": true, "manzana_id": 3}}, {"type": "Feature", "geometry": {"type": "Polygon", "coordinates": [[[68.65245689247433, -5.170943621532871], [72.58136564307291, -8.51054362180193], [73.56359283067894, -6.284143621490728], [75.52804720606547, -5.170943621532871], [75.52804720606547, -4.057743621575014], [76.5102743936715, -2.944543621617157], [74.54582001828497, -0.7181436217014436], [77.49250158127752, 2.6214563781721267], [79.45695595648957, 1.50825637821427], [79.45695595648957, 1.50825637821427], [81.4214103318761, 2.6214563781721267], [81.4214103318761, 3.7346563781299835], [83.38586470708815, 5.961056378441185], [80.43918314427007, 8.187456378356899], [77.49250158127752, 10.413856378272612], [75.52804720606547, 8.187456378356899], [75.52804720606547, 8.187456378356899], [69.63468408008036, 1.50825637821427], [69.63468408008036, 0.39505637825641315], [66.68800251726229, -2.944543621617157], [68.65245689247433, -5.170943621532871]]]}, "properties": {"id": 42, "height_m": 6.7, "levels": null, "category": "residencial", "extrude": true, "manzana_id": 3}}, {"type": "Feature", "geometry": {"type": "Polygon", "coordinates": [[[75.52804720606547, 8.187456378356899], [75.52804720606547, 8.187456378356899], [77.49250158127752, 10.413856378272612], [73.56359283067894, 13.753456378146183], [71.59913845546689, 14.866656378499528], [68.65245689247433, 12.640256378188326], [64.72354814187577, 7.074256378399042], [60.79463939127719, 1.50825637821427], [64.72354814187577, -0.7181436217014436], [67.67022970486832, 2.6214563781721267], [69.63468408008036, 1.50825637821427], [75.52804720606547, 8.187456378356899]]]}, "properties": {"id": 43, "height_m": 10.9, "levels": null, "category": "residencial", "extrude": true, "manzana_id": 3}}, {"type": "Feature", "geometry": {"type": "Polygon", "coordinates": [[[57.84795782845911, 9.300656378314756], [54.90127626546656, 5.961056378441185], [60.79463939127719, 1.50825637821427], [64.72354814187577, 7.074256378399042], [71.59913845546689, 14.866656378499528], [72.58136564307291, 17.09305637841524], [66.68800251726229, 21.54585637824667], [65.70577532965626, 20.43265637828881], [63.74132095426974, 17.09305637841524], [61.77686657905769, 14.866656378499528], [60.79463939127719, 12.640256378188326], [58.83018501606514, 11.52705637823047], [57.84795782845911, 9.300656378314756]]]}, "properties": {"id": 44, "height_m": 4.1, "levels": null, "category": "residencial", "extrude": true, "manzana_id": 3}}, {"type": "Feature", "geometry": {"type": "Polygon", "coordinates": [[[63.74132095426974, 17.09305637841524], [65.70577532965626, 20.43265637828881], [59.81241220367116, 24.885456378515727], [57.84795782845911, 21.54585637824667], [55.88350345307258, 19.319456378330955], [53.91904907786053, 17.09305637841524], [49.007913139655926, 10.413856378272612], [54.90127626546656, 5.961056378441185], [57.84795782845911, 9.300656378314756], [55.88350345307258, 11.52705637823047], [56.86573064085309, 12.640256378188326], [58.83018501606514, 11.52705637823047], [60.79463939127719, 12.640256378188326], [57.84795782845911, 14.866656378499528], [59.81241220367116, 17.09305637841524], [61.77686657905769, 14.866656378499528], [63.74132095426974, 17.09305637841524]]]}, "properties": {"id": 45, "height_m": 9.4, "levels": null, "category": "residencial", "extrude": true, "manzana_id": 3}}, {"type": "Feature", "geometry": {"type": "Polygon", "coordinates": [[[50.972367514867976, 13.753456378146183], [53.91904907786053, 17.09305637841524], [50.972367514867976, 19.319456378330955], [52.93682189025451, 20.43265637828881], [52.93682189025451, 21.54585637824667], [55.88350345307258, 19.319456378330955], [57.84795782845911, 21.54585637824667], [59.81241220367116, 24.885456378515727], [57.84795782845911, 25.998656378473584], [52.93682189025451, 30.45145637830501], [49.990140327261955, 27.11185637843144], [49.990140327261955, 27.11185637843144], [49.007913139655926, 24.885456378515727], [48.025685952049905, 24.885456378515727], [47.0434587642694, 23.772256378162382], [46.061231576663374, 22.659056378204525], [46.061231576663374, 22.659056378204525], [44.096777201451324, 19.319456378330955], [42.1323228260648, 17.09305637841524], [45.07900438905735, 13.753456378146183], [49.007913139655926, 10.413856378272612], [50.972367514867976, 13.753456378146183]]]}, "properties": {"id": 46, "height_m": 11.6, "levels": null, "category": "residencial", "extrude": true, "manzana_id": 3}}, {"type": "Feature", "geometry": {"type": "Polygon", "coordinates": [[[39.18564126324672, 19.319456378330955], [42.1323228260648, 17.09305637841524], [46.061231576663374, 22.659056378204525], [46.061231576663374, 22.659056378204525], [48.025685952049905, 24.885456378515727], [49.007913139655926, 24.885456378515727], [49.990140327261955, 27.11185637843144], [49.990140327261955, 27.11185637843144], [52.93682189025451, 30.45145637830501], [50.972367514867976, 31.564656378262868], [46.061231576663374, 36.01745637848978], [43.1145500138453, 32.677856378220724], [42.1323228260648, 30.45145637830501], [36.23895970025417, 23.772256378162382], [35.25673251264815, 22.659056378204525], [39.18564126324672, 19.319456378330955]]]}, "properties": {"id": 47, "height_m": 6.3, "levels": null, "category": "residencial", "extrude": true, "manzana_id": 3}}, {"type": "Feature", "geometry": {"type": "Polygon", "coordinates": [[[36.23895970025417, 23.772256378162382], [42.1323228260648, 30.45145637830501], [43.1145500138453, 32.677856378220724], [46.061231576663374, 36.01745637848978], [38.2034140756407, 41.58345637827907], [37.2211868878602, 40.47025637832121], [36.23895970025417, 39.35705637836335], [36.23895970025417, 38.243856378405496], [36.23895970025417, 38.243856378405496], [35.25673251264815, 37.13065637844764], [33.29227813726162, 34.90425637813644], [35.25673251264815, 33.79105637817858], [34.27450532504212, 32.677856378220724], [32.31005094965559, 33.79105637817858], [32.31005094965559, 33.79105637817858], [30.345596574443544, 30.45145637830501], [28.381142199057017, 28.225056378389297], [31.32782376204957, 25.998656378473584], [31.32782376204957, 25.998656378473584], [33.29227813726162, 28.225056378389297], [34.27450532504212, 27.11185637843144], [33.29227813726162, 24.885456378515727], [35.25673251264815, 22.659056378204525], [36.23895970025417, 23.772256378162382]]]}, "properties": {"id": 48, "height_m": 6.8, "levels": null, "category": "residencial", "extrude": true, "manzana_id": 3}}, {"type": "Feature", "geometry": {"type": "Polygon", "coordinates": [[[35.25673251264815, 37.13065637844764], [36.23895970025417, 38.243856378405496], [36.23895970025417, 38.243856378405496], [36.23895970025417, 39.35705637836335], [37.2211868878602, 40.47025637832121], [38.2034140756407, 41.58345637827907], [38.2034140756407, 41.58345637827907], [38.2034140756407, 41.58345637827907], [32.31005094965559, 46.03625637850598], [32.31005094965559, 46.03625637850598], [29.36336938683752, 42.69665637823692], [31.32782376204957, 40.47025637832121], [33.29227813726162, 39.35705637836335], [33.29227813726162, 39.35705637836335], [32.31005094965559, 38.243856378405496], [31.32782376204957, 37.13065637844764], [27.398915011450992, 39.35705637836335], [26.416687823844967, 38.243856378405496], [25.434460636238942, 37.13065637844764], [26.416687823844967, 36.01745637848978], [24.452233448632917, 34.90425637813644], [24.452233448632917, 34.90425637813644], [23.47000626085241, 34.90425637813644], [23.47000626085241, 34.90425637813644], [22.487779073246386, 32.677856378220724], [26.416687823844967, 30.45145637830501], [28.381142199057017, 28.225056378389297], [28.381142199057017, 28.225056378389297], [30.345596574443544, 30.45145637830501], [32.31005094965559, 33.79105637817858], [32.31005094965559, 33.79105637817858], [33.29227813726162, 34.90425637813644], [35.25673251264815, 37.13065637844764]]]}, "properties": {"id": 49, "height_m": 8.6, "levels": null, "category": "residencial", "extrude": true, "manzana_id": 3}}, {"type": "Feature", "geometry": {"type": "Polygon", "coordinates": [[[18.55887032264781, 36.01745637848978], [22.487779073246386, 32.677856378220724], [23.47000626085241, 34.90425637813644], [23.47000626085241, 34.90425637813644], [25.434460636238942, 37.13065637844764], [26.416687823844967, 38.243856378405496], [26.416687823844967, 38.243856378405496], [23.47000626085241, 40.47025637832121], [23.47000626085241, 40.47025637832121], [25.434460636238942, 42.69665637823692], [27.398915011450992, 40.47025637832121], [28.381142199057017, 40.47025637832121], [29.36336938683752, 42.69665637823692], [29.36336938683752, 42.69665637823692], [29.36336938683752, 42.69665637823692], [32.31005094965559, 46.03625637850598], [32.31005094965559, 46.03625637850598], [32.31005094965559, 46.03625637850598], [32.31005094965559, 46.03625637850598], [25.434460636238942, 50.48905637833741], [23.47000626085241, 47.14945637846384], [20.523324698034337, 44.92305637815264], [20.523324698034337, 44.92305637815264], [15.612188759829737, 38.243856378405496], [18.55887032264781, 36.01745637848978]]]}, "properties": {"id": 50, "height_m": 6.8, "levels": null, "category": "residencial", "extrude": true, "manzana_id": 3}}, {"type": "Feature", "geometry": {"type": "Polygon", "coordinates": [[[18.55887032264781, 56.05505637812669], [14.629961572049233, 50.48905637833741], [13.647734384443208, 49.37585637837955], [17.576643135041785, 47.14945637846384], [14.629961572049233, 42.69665637823692], [10.701052821625133, 44.92305637815264], [8.736598446238606, 43.80985637819478], [15.612188759829737, 38.243856378405496], [20.523324698034337, 44.92305637815264], [25.434460636238942, 50.48905637833741], [25.434460636238942, 51.602256378295266], [18.55887032264781, 56.05505637812669]]]}, "properties": {"id": 51, "height_m": 6.2, "levels": null, "category": "residencial", "extrude": true, "manzana_id": 3}}, {"type": "Feature", "geometry": {"type": "Polygon", "coordinates": [[[12.665507196837183, 48.262656378421696], [13.647734384443208, 49.37585637837955], [14.629961572049233, 50.48905637833741], [18.55887032264781, 56.05505637812669], [16.59441594743576, 57.16825637848004], [15.612188759829737, 58.281456378437895], [8.736598446238606, 62.73425637826932], [6.772144071026555, 56.05505637812669], [2.843235320427978, 51.602256378295266], [10.701052821625133, 44.92305637815264], [12.665507196837183, 48.262656378421696]]]}, "properties": {"id": 52, "height_m": 11.3, "levels": null, "category": "residencial", "extrude": true, "manzana_id": 3}}, {"type": "Feature", "geometry": {"type": "Polygon", "coordinates": [[[1.861008132821953, 63.84745637822718], [-1.0856734301706001, 51.602256378295266], [1.861008132821953, 49.37585637837955], [2.843235320427978, 51.602256378295266], [6.772144071026555, 56.05505637812669], [8.736598446238606, 62.73425637826932], [1.861008132821953, 63.84745637822718]]]}, "properties": {"id": 53, "height_m": 3.0, "levels": null, "category": "residencial", "extrude": true, "manzana_id": 3}}, {"type": "Feature", "geometry": {"type": "Polygon", "coordinates": [[[-12.872399681966334, 61.621056378311465], [-6.979036555981227, 57.16825637848004], [-6.979036555981227, 58.281456378437895], [-3.0501278053826497, 57.16825637848004], [-4.032354993163153, 53.82865637821098], [-1.0856734301706001, 51.602256378295266], [-0.10344624256457526, 56.05505637812669], [1.861008132821953, 63.84745637822718], [-0.10344624256457526, 64.96065637818504], [-10.907945306579805, 67.18705637849624], [-11.89017249418583, 68.3002563784541], [-14.836854057178384, 67.18705637849624], [-15.819081244784408, 63.84745637822718], [-12.872399681966334, 61.621056378311465]]]}, "properties": {"id": 54, "height_m": 10.9, "levels": null, "category": "residencial", "extrude": true, "manzana_id": 3}}, {"type": "Feature", "geometry": {"type": "Polygon", "coordinates": [[[134.4616784645207, -40.79334362176624], [130.5327697140966, -45.24614362159767], [128.56831533871005, -48.585743621866726], [126.60386096349801, -50.81214362178244], [133.4794512769147, -57.49134362152958], [135.4439056523012, -55.26494362161387], [135.4439056523012, -56.37814362157172], [136.42613283990724, -55.26494362161387], [140.3550415905058, -51.925343621740296], [140.3550415905058, -50.81214362178244], [140.3550415905058, -49.69894362182458], [142.31949596571786, -48.585743621866726], [139.37281440272528, -39.680143621808384], [137.40836002751325, -36.340543621539325], [134.4616784645207, -40.79334362176624]]]}, "properties": {"id": 55, "height_m": 10.0, "levels": null, "category": "residencial", "extrude": true, "manzana_id": 3}}, {"type": "Feature", "geometry": {"type": "Polygon", "coordinates": [[[164.91072128152882, -79.75534362187318], [161.96403971853627, -79.75534362187318], [161.96403971853627, -79.75534362187318], [163.92849409392278, -86.43454362162032], [163.92849409392278, -86.43454362162032], [168.8396300321274, -90.88734362184724], [169.82185721973343, -88.66094362153603], [169.82185721973343, -87.54774362157818], [170.80408440733945, -86.43454362162032], [169.82185721973343, -78.64214362151984], [164.91072128152882, -79.75534362187318]]]}, "properties": {"id": 56, "height_m": 7.2, "levels": null, "category": "residencial", "extrude": true, "manzana_id": 10}}, {"type": "Feature", "geometry": {"type": "Polygon", "coordinates": [[[165.89294846913484, -68.62334362150364], [158.03513096811216, -68.62334362150364], [159.0173581557182, -69.73654362185698], [159.0173581557182, -71.9629436217727], [166.87517565674088, -70.84974362181484], [165.89294846913484, -68.62334362150364]]]}, "properties": {"id": 57, "height_m": 3.8, "levels": null, "category": "residencial", "extrude": true, "manzana_id": 4}}, {"type": "Feature", "geometry": {"type": "Polygon", "coordinates": [[[169.82185721973343, -58.60454362148744], [161.96403971853627, -60.83094362179864], [158.03513096811216, -61.944143621756496], [156.07067659272565, -61.944143621756496], [158.03513096811216, -66.39694362158792], [158.03513096811216, -68.62334362150364], [158.03513096811216, -68.62334362150364], [165.89294846913484, -68.62334362150364], [171.78631159511997, -67.51014362154578], [169.82185721973343, -58.60454362148744]]]}, "properties": {"id": 58, "height_m": 6.0, "levels": null, "category": "residencial", "extrude": true, "manzana_id": 4}}, {"type": "Feature", "geometry": {"type": "Polygon", "coordinates": [[[140.3550415905058, -27.434943621480983], [145.26617752871041, -30.77454362175004], [146.24840471631643, -31.887743621707898], [146.24840471631643, -31.887743621707898], [147.23063190392247, -31.887743621707898], [153.1239950297331, -38.56694362185053], [162.9462669063168, -30.77454362175004], [161.96403971853627, -22.982143621649556], [159.0173581557182, -17.41614362186027], [158.03513096811216, -16.302943621506927], [155.0884494051196, -11.8501436216755], [153.1239950297331, -11.8501436216755], [145.26617752871041, -15.18974362154907], [138.3905872151193, -24.095343621607412], [137.40836002751325, -25.20854362156527], [140.3550415905058, -27.434943621480983]]]}, "properties": {"id": 59, "height_m": 6.1, "levels": null, "category": "residencial", "extrude": true, "manzana_id": 5}}, {"type": "Feature", "geometry": {"type": "Polygon", "coordinates": [[[153.1239950297331, -11.8501436216755], [155.0884494051196, -11.8501436216755], [158.03513096811216, -10.736943621717643], [155.0884494051196, -8.51054362180193], [152.14176784212705, -5.170943621532871], [150.17731346691502, -8.51054362180193], [150.17731346691502, -8.51054362180193], [146.24840471631643, -12.963343621633356], [145.26617752871041, -15.18974362154907], [153.1239950297331, -11.8501436216755]]]}, "properties": {"id": 60, "height_m": 13.4, "levels": null, "category": "residencial", "extrude": true, "manzana_id": 5}}, {"type": "Feature", "geometry": {"type": "Polygon", "coordinates": [[[146.24840471631643, -12.963343621633356], [150.17731346691502, -8.51054362180193], [150.17731346691502, -8.51054362180193], [150.17731346691502, -7.3973436218440725], [150.17731346691502, -7.3973436218440725], [150.17731346691502, -7.3973436218440725], [145.26617752871041, -2.944543621617157], [145.26617752871041, -2.944543621617157], [144.28395034110437, -2.944543621617157], [144.28395034110437, -4.057743621575014], [143.30172315332388, -4.057743621575014], [143.30172315332388, -4.057743621575014], [142.31949596571786, -4.057743621575014], [140.3550415905058, -8.51054362180193], [139.37281440272528, -9.623743621759786], [137.40836002751325, -11.8501436216755], [130.5327697140966, -20.755743621733842], [137.40836002751325, -25.20854362156527], [138.3905872151193, -24.095343621607412], [145.26617752871041, -15.18974362154907], [146.24840471631643, -12.963343621633356]]]}, "properties": {"id": 61, "height_m": 6.0, "levels": null, "category": "residencial", "extrude": true, "manzana_id": 5}}, {"type": "Feature", "geometry": {"type": "Polygon", "coordinates": [[[137.40836002751325, -11.8501436216755], [139.37281440272528, -9.623743621759786], [140.3550415905058, -8.51054362180193], [142.31949596571786, -4.057743621575014], [143.30172315332388, -4.057743621575014], [142.31949596571786, -2.944543621617157], [143.30172315332388, -2.944543621617157], [138.3905872151193, 1.50825637821427], [137.40836002751325, 0.39505637825641315], [136.42613283990724, 1.50825637821427], [136.42613283990724, 1.50825637821427], [135.4439056523012, 0.39505637825641315], [134.4616784645207, -1.8313436216593004], [132.49722408930865, -4.057743621575014], [132.49722408930865, -4.057743621575014], [131.51499690170263, -6.284143621490728], [130.5327697140966, -7.3973436218440725], [127.58608815110406, -11.8501436216755], [124.6394065881115, -16.302943621506927], [130.5327697140966, -20.755743621733842], [137.40836002751325, -11.8501436216755]]]}, "properties": {"id": 62, "height_m": 7.3, "levels": null, "category": "residencial", "extrude": true, "manzana_id": 5}}, {"type": "Feature", "geometry": {"type": "Polygon", "coordinates": [[[134.4616784645207, -1.8313436216593004], [135.4439056523012, 0.39505637825641315], [136.42613283990724, 1.50825637821427], [130.5327697140966, 5.961056378441185], [127.58608815110406, 2.6214563781721267], [126.60386096349801, 0.39505637825641315], [124.6394065881115, -1.8313436216593004], [124.6394065881115, -1.8313436216593004], [122.67495221289944, -5.170943621532871], [118.74604346230088, -10.736943621717643], [124.6394065881115, -16.302943621506927], [127.58608815110406, -11.8501436216755], [130.5327697140966, -7.3973436218440725], [131.51499690170263, -6.284143621490728], [129.55054252631612, -5.170943621532871], [130.5327697140966, -2.944543621617157], [132.49722408930865, -4.057743621575014], [134.4616784645207, -1.8313436216593004]]]}, "properties": {"id": 63, "height_m": 6.8, "levels": null, "category": "residencial", "extrude": true, "manzana_id": 5}}, {"type": "Feature", "geometry": {"type": "Polygon", "coordinates": [[[121.69272502529343, -6.284143621490728], [122.67495221289944, -5.170943621532871], [124.6394065881115, -1.8313436216593004], [124.6394065881115, -1.8313436216593004], [122.67495221289944, -0.7181436217014436], [124.6394065881115, 1.50825637821427], [126.60386096349801, 0.39505637825641315], [127.58608815110406, 2.6214563781721267], [130.5327697140966, 5.961056378441185], [124.6394065881115, 9.300656378314756], [121.69272502529343, 5.961056378441185], [119.72827064990688, 3.7346563781299835], [118.74604346230088, 2.6214563781721267], [116.78158908708883, -0.7181436217014436], [114.8171347117023, -2.944543621617157], [112.85268033649024, -6.284143621490728], [118.74604346230088, -10.736943621717643], [121.69272502529343, -6.284143621490728]]]}, "properties": {"id": 64, "height_m": 6.5, "levels": null, "category": "residencial", "extrude": true, "manzana_id": 5}}, {"type": "Feature", "geometry": {"type": "Polygon", "coordinates": [[[107.94154439828564, -2.944543621617157], [106.95931721050513, -2.944543621617157], [111.87045314888421, -6.284143621490728], [111.87045314888421, -6.284143621490728], [112.85268033649024, -6.284143621490728], [114.8171347117023, -2.944543621617157], [116.78158908708883, -0.7181436217014436], [118.74604346230088, 2.6214563781721267], [118.74604346230088, 2.6214563781721267], [121.69272502529343, 5.961056378441185], [124.6394065881115, 9.300656378314756], [117.76381627469483, 13.753456378146183], [114.8171347117023, 10.413856378272612], [114.8171347117023, 10.413856378272612], [114.8171347117023, 9.300656378314756], [116.78158908708883, 7.074256378399042], [115.79936189930831, 4.847856378483328], [112.85268033649024, 5.961056378441185], [110.88822596110371, 3.7346563781299835], [108.92377158589166, 1.50825637821427], [106.95931721050513, -1.8313436216593004], [107.94154439828564, -2.944543621617157]]]}, "properties": {"id": 65, "height_m": 9.5, "levels": null, "category": "residencial", "extrude": true, "manzana_id": 5}}, {"type": "Feature", "geometry": {"type": "Polygon", "coordinates": [[[104.99486283529309, 8.187456378356899], [106.95931721050513, 10.413856378272612], [109.90599877349769, 14.866656378499528], [111.87045314888421, 18.206256378373098], [110.88822596110371, 19.319456378330955], [106.95931721050513, 21.54585637824667], [105.9770900228991, 22.659056378204525], [104.01263564768706, 20.43265637828881], [98.11927252187644, 11.52705637823047], [95.17259095888387, 7.074256378399042], [101.06595408469451, 2.6214563781721267], [104.99486283529309, 8.187456378356899]]]}, "properties": {"id": 66, "height_m": 11.7, "levels": null, "category": "residencial", "extrude": true, "manzana_id": 3}}, {"type": "Feature", "geometry": {"type": "Polygon", "coordinates": [[[104.99486283529309, 22.659056378204525], [105.9770900228991, 23.772256378162382], [103.03040846008103, 25.998656378473584], [101.06595408469451, 27.11185637843144], [101.06595408469451, 25.998656378473584], [100.08372689708848, 27.11185637843144], [98.11927252187644, 23.772256378162382], [95.17259095888387, 20.43265637828881], [93.20813658349735, 18.206256378373098], [91.2436822082853, 14.866656378499528], [89.27922783307325, 11.52705637823047], [91.2436822082853, 10.413856378272612], [94.19036377127786, 8.187456378356899], [95.17259095888387, 7.074256378399042], [98.11927252187644, 11.52705637823047], [104.01263564768706, 20.43265637828881], [105.9770900228991, 22.659056378204525], [104.99486283529309, 22.659056378204525]]]}, "properties": {"id": 67, "height_m": 9.3, "levels": null, "category": "residencial", "extrude": true, "manzana_id": 3}}, {"type": "Feature", "geometry": {"type": "Polygon", "coordinates": [[[97.13704533409593, 28.225056378389297], [94.19036377127786, 31.564656378262868], [94.19036377127786, 31.564656378262868], [92.22590939589132, 29.338256378347154], [90.26145502067928, 25.998656378473584], [92.22590939589132, 23.772256378162382], [91.2436822082853, 21.54585637824667], [88.29700064529275, 23.772256378162382], [88.29700064529275, 22.659056378204525], [86.3325462700807, 21.54585637824667], [88.29700064529275, 20.43265637828881], [86.3325462700807, 18.206256378373098], [85.35031908247467, 19.319456378330955], [83.38586470708815, 15.979856378457384], [88.29700064529275, 12.640256378188326], [89.27922783307325, 11.52705637823047], [91.2436822082853, 14.866656378499528], [88.29700064529275, 15.979856378457384], [90.26145502067928, 19.319456378330955], [93.20813658349735, 18.206256378373098], [95.17259095888387, 20.43265637828881], [98.11927252187644, 23.772256378162382], [100.08372689708848, 27.11185637843144], [100.08372689708848, 27.11185637843144], [97.13704533409593, 28.225056378389297]]]}, "properties": {"id": 68, "height_m": 11.1, "levels": null, "category": "residencial", "extrude": true, "manzana_id": 3}}, {"type": "Feature", "geometry": {"type": "Polygon", "coordinates": [[[86.3325462700807, 20.43265637828881], [86.3325462700807, 21.54585637824667], [88.29700064529275, 22.659056378204525], [88.29700064529275, 23.772256378162382], [90.26145502067928, 25.998656378473584], [90.26145502067928, 25.998656378473584], [92.22590939589132, 29.338256378347154], [94.19036377127786, 31.564656378262868], [92.22590939589132, 32.677856378220724], [93.20813658349735, 33.79105637817858], [89.27922783307325, 36.01745637848978], [88.29700064529275, 34.90425637813644], [87.31477345768673, 34.90425637813644], [86.3325462700807, 33.79105637817858], [84.36809189486866, 30.45145637830501], [83.38586470708815, 29.338256378347154], [82.40363751948212, 28.225056378389297], [77.49250158127752, 20.43265637828881], [83.38586470708815, 15.979856378457384], [85.35031908247467, 19.319456378330955], [86.3325462700807, 20.43265637828881]]]}, "properties": {"id": 69, "height_m": 7.8, "levels": null, "category": "residencial", "extrude": true, "manzana_id": 3}}, {"type": "Feature", "geometry": {"type": "Polygon", "coordinates": [[[72.58136564307291, 24.885456378515727], [71.59913845546689, 23.772256378162382], [73.56359283067894, 22.659056378204525], [74.54582001828497, 22.659056378204525], [77.49250158127752, 20.43265637828881], [82.40363751948212, 28.225056378389297], [83.38586470708815, 29.338256378347154], [84.36809189486866, 30.45145637830501], [87.31477345768673, 34.90425637813644], [87.31477345768673, 36.01745637848978], [85.35031908247467, 37.13065637844764], [85.35031908247467, 38.243856378405496], [82.40363751948212, 39.35705637836335], [82.40363751948212, 38.243856378405496], [81.4214103318761, 39.35705637836335], [78.47472876888355, 34.90425637813644], [77.49250158127752, 32.677856378220724], [75.52804720606547, 31.564656378262868], [75.52804720606547, 30.45145637830501], [71.59913845546689, 24.885456378515727], [72.58136564307291, 24.885456378515727]]]}, "properties": {"id": 70, "height_m": 7.9, "levels": null, "category": "residencial", "extrude": true, "manzana_id": 3}}, {"type": "Feature", "geometry": {"type": "Polygon", "coordinates": [[[71.59913845546689, 37.13065637844764], [66.68800251726229, 31.564656378262868], [65.70577532965626, 29.338256378347154], [69.63468408008036, 27.11185637843144], [71.59913845546689, 24.885456378515727], [75.52804720606547, 30.45145637830501], [75.52804720606547, 31.564656378262868], [74.54582001828497, 32.677856378220724], [75.52804720606547, 33.79105637817858], [77.49250158127752, 32.677856378220724], [78.47472876888355, 34.90425637813644], [81.4214103318761, 39.35705637836335], [75.52804720606547, 43.80985637819478], [74.54582001828497, 41.58345637827907], [71.59913845546689, 38.243856378405496], [71.59913845546689, 37.13065637844764]]]}, "properties": {"id": 71, "height_m": 7.9, "levels": null, "category": "residencial", "extrude": true, "manzana_id": 3}}, {"type": "Feature", "geometry": {"type": "Polygon", "coordinates": [[[71.59913845546689, 38.243856378405496], [74.54582001828497, 41.58345637827907], [75.52804720606547, 43.80985637819478], [64.72354814187577, 46.03625637850598], [63.74132095426974, 42.69665637823692], [69.63468408008036, 41.58345637827907], [68.65245689247433, 40.47025637832121], [67.67022970486832, 38.243856378405496], [63.74132095426974, 40.47025637832121], [62.75909376666371, 38.243856378405496], [61.77686657905769, 32.677856378220724], [64.72354814187577, 30.45145637830501], [65.70577532965626, 29.338256378347154], [66.68800251726229, 31.564656378262868], [71.59913845546689, 37.13065637844764], [71.59913845546689, 38.243856378405496], [71.59913845546689, 38.243856378405496]]]}, "properties": {"id": 72, "height_m": 10.0, "levels": null, "category": "residencial", "extrude": true, "manzana_id": 3}}, {"type": "Feature", "geometry": {"type": "Polygon", "coordinates": [[[57.84795782845911, 36.01745637848978], [61.77686657905769, 32.677856378220724], [62.75909376666371, 38.243856378405496], [63.74132095426974, 40.47025637832121], [63.74132095426974, 42.69665637823692], [64.72354814187577, 46.03625637850598], [56.86573064085309, 48.262656378421696], [56.86573064085309, 47.14945637846384], [54.90127626546656, 38.243856378405496], [57.84795782845911, 36.01745637848978]]]}, "properties": {"id": 73, "height_m": 8.0, "levels": null, "category": "residencial", "extrude": true, "manzana_id": 3}}, {"type": "Feature", "geometry": {"type": "Polygon", "coordinates": [[[49.007913139655926, 49.37585637837955], [47.0434587642694, 43.80985637819478], [48.025685952049905, 43.80985637819478], [50.972367514867976, 40.47025637832121], [54.90127626546656, 38.243856378405496], [56.86573064085309, 47.14945637846384], [50.972367514867976, 49.37585637837955], [50.972367514867976, 49.37585637837955], [49.007913139655926, 50.48905637833741], [49.007913139655926, 49.37585637837955]]]}, "properties": {"id": 74, "height_m": 6.1, "levels": null, "category": "residencial", "extrude": true, "manzana_id": 3}}, {"type": "Feature", "geometry": {"type": "Polygon", "coordinates": [[[49.007913139655926, 49.37585637837955], [49.007913139655926, 50.48905637833741], [49.007913139655926, 50.48905637833741], [49.990140327261955, 52.71545637825312], [46.061231576663374, 52.71545637825312], [42.1323228260648, 53.82865637821098], [41.15009563845877, 53.82865637821098], [40.16786845085275, 54.941856378168836], [38.2034140756407, 54.941856378168836], [38.2034140756407, 54.941856378168836], [37.2211868878602, 53.82865637821098], [36.23895970025417, 52.71545637825312], [36.23895970025417, 52.71545637825312], [42.1323228260648, 48.262656378421696], [47.0434587642694, 43.80985637819478], [49.007913139655926, 49.37585637837955]]]}, "properties": {"id": 75, "height_m": 9.7, "levels": null, "category": "residencial", "extrude": true, "manzana_id": 3}}, {"type": "Feature", "geometry": {"type": "Polygon", "coordinates": [[[94.19036377127786, -130.96254362151655], [95.17259095888387, -129.8493436215587], [98.11927252187644, -134.3021436217856], [99.10149970948245, -134.3021436217856], [101.06595408469451, -137.64174362165917], [106.95931721050513, -133.18894362182775], [103.03040846008103, -128.73614362160083], [104.01263564768706, -127.62294362164297], [101.06595408469451, -125.39654362172726], [101.06595408469451, -125.39654362172726], [99.10149970948245, -126.50974362168512], [97.13704533409593, -125.39654362172726], [99.10149970948245, -123.17014362181155], [100.08372689708848, -123.17014362181155], [97.13704533409593, -119.83054362154249], [97.13704533409593, -120.94374362150035], [90.26145502067928, -110.92494362148415], [90.26145502067928, -110.92494362148415], [87.31477345768673, -107.58534362161058], [87.31477345768673, -107.58534362161058], [85.35031908247467, -109.81174362152629], [84.36809189486866, -108.69854362156843], [86.3325462700807, -106.47214362165272], [86.3325462700807, -106.47214362165272], [84.36809189486866, -103.13254362177915], [83.38586470708815, -103.13254362177915], [80.43918314427007, -98.67974362155223], [74.54582001828497, -103.13254362177915], [76.5102743936715, -106.47214362165272], [76.5102743936715, -106.47214362165272], [80.43918314427007, -110.92494362148415], [79.45695595648957, -112.03814362183749], [78.47472876888355, -113.15134362179535], [74.54582001828497, -108.69854362156843], [74.54582001828497, -108.69854362156843], [71.59913845546689, -105.35894362169486], [65.70577532965626, -109.81174362152629], [69.63468408008036, -114.2645436217532], [72.58136564307291, -117.60414362162678], [74.54582001828497, -115.37774362171106], [75.52804720606547, -117.60414362162678], [73.56359283067894, -118.71734362158463], [75.52804720606547, -122.05694362185369], [79.45695595648957, -126.50974362168512], [83.38586470708815, -130.96254362151655], [85.35031908247467, -134.3021436217856], [87.31477345768673, -133.18894362182775], [89.27922783307325, -134.3021436217856], [87.31477345768673, -136.52854362170132], [89.27922783307325, -139.8681436215749], [93.20813658349735, -144.3209436218018], [99.10149970948245, -139.8681436215749], [96.1548181464899, -136.52854362170132], [96.1548181464899, -135.41534362174346], [93.20813658349735, -130.96254362151655], [94.19036377127786, -130.96254362151655]]]}, "properties": {"id": 76, "height_m": 11.3, "levels": null, "category": "residencial", "extrude": true, "manzana_id": 9}}]}