{"type": "FeatureCollection", "crs": {"type": "name", "properties": {"name": "EPSG:32628_local_enu_m_section_centroid", "lng0": -15.44725818022747, "lat0": 28.093956430446184}}, "features": [{"type": "Feature", "geometry": {"type": "Polygon", "coordinates": [[[-41.520562233696374, -5.976704492216734], [-41.22517046070822, -5.783122640595399], [-40.93740801116033, -5.58944377247902], [-40.93501756609305, -5.59297403210607], [-34.651736610500514, -1.4752927936056974], [-27.582902998589887, -11.777652819994403], [-20.512366083338065, -22.241520645622405], [-13.540037589849096, -32.37142577026038], [-8.326072647484573, -40.06296653087555], [-6.3643897231553055, -42.9568034359313], [-6.175782839837617, -43.23503268119982], [-6.177541195925905, -43.23624728869441], [0.40588008465308145, -53.07836245480734], [5.482029095548965, -60.51076645642313], [7.4820195715629865, -63.43911571985356], [7.671060826325017, -63.71590644749924], [7.669219955540606, -63.717190593589784], [14.448724668269083, -73.78342549738164], [21.71367336796451, -84.42062973874259], [15.526828119849695, -88.76210973885516], [15.530661230085478, -88.76772210834916], [15.241148669293638, -88.9625788909501], [14.953785177282779, -89.16422978139508], [14.949929471384172, -89.15858432774723], [11.806540857498973, -91.27424587310755], [9.590778977125378, -88.0090372646137], [9.497790088686791, -85.79545918546953], [7.445684686850781, -84.94957391260196], [4.637536459359232, -80.7431967110439], [1.636263658244936, -76.32043726445238], [1.5428334476055454, -74.09635361667587], [-0.5130528066203818, -73.14297939381504], [-2.4311610426039856, -70.2820706053369], [-4.452440693005307, -67.41801852700603], [-4.545801379003478, -65.08975996204374], [-6.595227857998635, -64.244978950934], [-9.406333398613068, -60.147977529789536], [-12.206376811484393, -55.84038292723497], [-12.393475509797439, -53.6134632181249], [-14.357658543380955, -52.65924069312045], [-16.17630811202152, -50.08230529665068], [-16.183192029720445, -50.08693852586475], [-16.376113823916747, -49.79919060524561], [-16.580031596497175, -49.51024932970094], [-16.573006005734648, -49.505520747258394], [-18.299371520934148, -46.93060126085867], [-18.39210036604474, -44.618099749211886], [-20.438047824551493, -43.88017117125569], [-23.44998079848038, -39.441702596190254], [-26.253994342149287, -35.12800033306058], [-26.346615684923197, -32.81817974934279], [-28.392563143432834, -32.08025117138555], [-30.420470736226935, -29.09186988873179], [-32.44048715232585, -26.115117264655236], [-32.53391736296658, -23.891033616847206], [-34.58796740313278, -22.938510899527447], [-37.39247995148816, -18.851118331340857], [-40.39500247120596, -14.426517264501708], [-40.488432681845055, -12.202433616732606], [-42.54431893624249, -11.249059393869214], [-44.65931935401379, -8.09448074740719], [-41.518128627760476, -5.980298492723692], [-41.520562233696374, -5.976704492216734]]]}, "properties": {"id": 0, "height_median_m": 12.0, "building_count": 8, "area_m2": 1194.4204833477388}}, {"type": "Feature", "geometry": {"type": "Polygon", "coordinates": [[[-34.1286991612, 43.1429935411], [-33.0632833535, 43.8017459181], [-35.1279264014, 47.2566171979], [-27.8492596558, 51.6246904989], [-24.9969334492, 46.830512618], [-24.6026034039, 47.0540109917], [-21.8769343206, 42.4194470203], [-19.3113429185, 38.2994238274], [-19.8079769737, 38.0742380369], [-13.9426021945, 28.322732242], [-13.5114913033, 28.581450499], [-10.6957788483, 23.8488128576], [-10.3013365127, 24.1841558836], [-6.5697230035, 17.8391444398], [-6.5071306965, 17.8675252928], [-5.1092349056, 15.274545627], [-5.489181393, 15.0591995659], [-0.1513485642, 6.0873926181], [0.2354872257, 6.306643398], [2.7722427803, 2.2329270169], [2.7722427804, 2.2329270168], [5.5250885465, -2.4478465527], [5.0322987885, -2.6712892466], [7.8585042298, -7.5320349481], [3.1463915365, -10.3808148076], [0.687135224, -11.901386335], [-1.4733504181, -8.3391463349], [-2.5542317732, -9.0074611438], [-4.1926328402, -6.2930541554], [-3.4724941956, -5.8477885222], [-6.9089947326, 0.1724977956], [-7.7658792161, -0.3131671715], [-9.404395589, 2.4014308492], [-8.2245735577, 3.0701303514], [-11.9831333188, 9.3595178489], [-13.05218278, 8.6985187642], [-14.8162288319, 11.4123321344], [-14.0691825771, 11.8357429929], [-17.5014581112, 17.8486276755], [-18.2668546252, 17.375378856], [-19.9052556925, 20.0897858449], [-18.8175567238, 20.7623160213], [-23.6310554554, 29.2197195751], [-24.2621725642, 28.8464626642], [-26.3209016714, 32.291437849], [-27.4066396126, 31.620120186], [-29.031687475, 34.4541035337], [-28.3180790808, 34.8953314776], [-31.7065688254, 40.8315093513], [-32.6286057916, 40.308917262], [-34.1286991612, 43.1429935411]]]}, "properties": {"id": 1, "height_median_m": 15.0, "building_count": 2, "area_m2": 632.9171026141637}}, {"type": "Feature", "geometry": {"type": "Polygon", "coordinates": [[[-76.193661848, 112.045612134], [-75.009743482, 112.716633357], [-77.163171333, 116.156280025], [-69.887236094, 120.64400393], [-66.934440947, 115.846393133], [-66.543159896, 116.068163397], [-64.994375642, 113.581007009], [-65.054151925, 113.547127009], [-61.295914703, 107.511861804], [-61.693397087, 107.17393422], [-56.229410738, 97.990088966], [-56.134179742, 98.048826489], [-53.264546818, 93.225559551], [-52.779286664, 93.445588142], [-51.227608087, 90.953783827], [-51.290674807, 90.925187864], [-47.529202015, 84.884726732], [-48.018736557, 84.551776681], [-44.104693872, 78.340253831], [-39.516001823, 70.62759955], [-39.030741668, 70.847628141], [-36.509314354, 66.798527024], [-33.773474199, 62.146668774], [-34.164718098, 61.924919566], [-31.323451267, 57.149330236], [-38.596588158, 52.663332325], [-40.658670024, 56.113917849], [-41.73758501, 55.446818856], [-43.375986077, 58.161225845], [-42.68146584, 58.590651478], [-46.142541071, 64.653989351], [-47.047436346, 64.141112829], [-48.67899629, 66.844185845], [-47.597459492, 67.512905918], [-52.308098202, 75.395455111], [-52.345133154, 75.372612324], [-54.40721502, 78.823197849], [-55.476264481, 78.162198764], [-57.240310533, 80.876012134], [-56.410014095, 81.346607529], [-60.03614802, 87.169731141], [-60.795981342, 86.739072829], [-62.427541286, 89.442145845], [-61.346004487, 90.110865918], [-66.058573466, 97.996645126], [-66.095879973, 97.974256746], [-68.142298508, 101.39863203], [-69.228192189, 100.615315747], [-70.866545819, 103.472503534], [-70.225522911, 103.868851478], [-73.627117728, 109.827987675], [-74.429615796, 109.331798763], [-76.193661848, 112.045612134]]]}, "properties": {"id": 2, "height_median_m": 12.0, "building_count": 3, "area_m2": 680.8342645476362}}, {"type": "Feature", "geometry": {"type": "Polygon", "coordinates": [[[43.723513929746204, -138.34138506006465], [43.73025740953958, -138.33679857688904], [42.002113247587275, -135.65612329665834], [41.816282804133444, -133.44429883583211], [39.752595425434045, -132.5936394302569], [36.94657001370035, -128.27684210368014], [33.945440836886924, -123.96769296746677], [33.851914187252916, -121.7413136166198], [31.796027933010762, -120.78793939375146], [29.87613113547883, -117.92436291877036], [27.856703042870777, -114.94847726462596], [27.763272832063613, -112.7243936168064], [25.7092227920577, -111.77187089948407], [22.904346152175403, -107.68394769210502], [20.004752076601257, -103.37702281755969], [19.817401337081325, -101.14710321798127], [17.8501306944426, -100.19138069765181], [15.638117668878182, -96.93169650560131], [19.163156783032843, -94.50997337378115], [25.541998788127742, -89.96156702604961], [32.715134723544736, -100.6122670966862], [39.78517842888156, -111.07540500864606], [46.85536804596507, -121.42744658374544], [51.96723260032228, -128.9121446272637], [53.93246087817841, -131.78959571970296], [54.12497076133659, -132.07146514924483], [54.12307466699986, -132.07273883019582], [60.89916597489347, -142.13390549724392], [68.16748017233822, -152.7760374384983], [64.69740105816778, -155.12347421885656], [61.77798119195215, -157.09840140229673], [61.498824952478536, -157.28724482702756], [61.49751885941342, -157.28532944984946], [58.16318865054534, -159.50866073817153], [55.94316247607837, -156.36299478459176], [55.849586180358926, -154.13543361669102], [53.79614923511478, -153.18319520960904], [50.891199590292416, -148.98186488522347], [48.09081338370244, -144.67374292758194], [47.904590800345076, -142.45725107077507], [45.94116753090204, -141.60938136159862], [44.116575417405784, -138.9206114492886], [44.109656332141256, -138.9253173680618], [43.917518656410124, -138.62727584521133], [43.723513929746204, -138.34138506006465]]]}, "properties": {"id": 3, "height_median_m": 12.0, "building_count": 6, "area_m2": 902.623292418982}}]}