{"type": "FeatureCollection", "crs": {"type": "name", "properties": {"name": "EPSG:32628_local_enu_m_section_centroid", "lng0": -16.73039195468857, "lat0": 28.120015258944928}}, "features": [{"type": "Feature", "geometry": {"type": "Polygon", "coordinates": [[[303.8627756953279, 235.24798574930813], [345.89254760851964, 243.2039898773118], [342.0027378417012, 250.56230408894265], [336.2632152678338, 259.3368861422847], [329.79279008520064, 267.4313526308458], [322.65377602550893, 274.7677494175231], [314.9149256966761, 281.2754229906602], [306.6507684581186, 286.89170089655465], [297.9408926612034, 291.5624953084598], [289.3982090011647, 295.02820034384115], [299.24831380676227, 234.02346574923584], [303.8627756953279, 235.24798574930813]]]}, "properties": {"name": "", "kind": "park", "category": "parque", "extrude": false}}, {"type": "Feature", "geometry": {"type": "Polygon", "coordinates": [[[-7.073411571399299, 244.5988657494287], [-6.484331330031211, 245.4894257495532], [0.48645152296043365, 266.4175857493146], [-0.20080875834499656, 268.4213457493969], [-1.1826091601600675, 269.0892657492925], [-2.8516698432805687, 269.4232257492404], [-16.891415589898813, 264.4138257492323], [-18.560476273019315, 262.9666657493266], [-19.640456715120536, 260.9629057492442], [-19.640456715120536, 257.6233057493707], [-19.149556514038597, 255.73086574940277], [-9.822452696621019, 244.8215057492621], [-8.251572053437862, 244.15358574936647], [-7.073411571399299, 244.5988657494287]]]}, "properties": {"name": "", "kind": "park", "category": "parque", "extrude": false}}, {"type": "Feature", "geometry": {"type": "Polygon", "coordinates": [[[291.0011904310971, 167.2314657493915], [292.2775309534218, 165.56166574925697], [293.2593313552369, 165.0050657494758], [294.92839203835734, 165.11638574959022], [296.59745272147785, 166.00694574931921], [297.18653296284594, 167.78806574956818], [291.29573055160665, 205.63686574932177], [285.0122079799205, 211.75946574928773], [271.7201657352773, 299.20958974051814], [269.9923446697797, 299.50018952253504], [260.36901789321115, 300.03622574946564], [231.84798198150025, 300.03622574946564], [291.0011904310971, 167.2314657493915]]]}, "properties": {"name": "Plaza de los Derechos Humanos", "kind": "park", "category": "parque", "extrude": false}}, {"type": "Feature", "geometry": {"type": "Polygon", "coordinates": [[[322.7133434107354, 135.95054574927062], [333.8076879519084, 105.00358574949303], [338.5203298807603, 101.99794574956726], [348.9274141402791, 108.12054574953322], [358.5490580785551, 112.2675969824607], [358.5490580785551, 149.31206920610109], [322.7133434107354, 135.95054574927062]]]}, "properties": {"name": "Parque de Pedro Zerolo", "kind": "park", "category": "parque", "extrude": false}}, {"type": "Feature", "geometry": {"type": "Polygon", "coordinates": [[[-46.836327846130494, 155.76550574946964], [-16.891415589898813, 169.90314574936946], [-80.61026167003392, 241.1479457494407], [-108.78793320320774, 225.22918574929193], [-46.836327846130494, 155.76550574946964]]]}, "properties": {"name": "", "kind": "park", "category": "parque", "extrude": false}}, {"type": "Feature", "geometry": {"type": "Polygon", "coordinates": [[[-258.807034606271, -14.888054250753555], [-278.05032248247426, 7.153305749361181], [-291.79552810858286, 23.628665749291144], [-327.14034257497184, -6.650374250590829], [-308.19159481927824, -22.791774250572985], [-285.90472569734357, -49.174614250404716], [-280.79936360769597, -40.60297425068967], [-272.35588015180736, -31.02945425073571], [-259.8870150483722, -26.910614250456604], [-249.67629086907695, -24.68421425054089], [-258.807034606271, -14.888054250753555]]]}, "properties": {"name": "Plaza Antonio Moreira Bua", "kind": "park", "category": "parque", "extrude": false}}, {"type": "Feature", "geometry": {"type": "Polygon", "coordinates": [[[-286.9847061394448, -103.49877425048376], [-293.1700486708449, -135.5589342506147], [-276.87216200043565, -118.86093425045587], [-257.62887412388363, -136.56081425045812], [-251.73807171299322, -155.81917425048047], [-201.3717110978221, -141.2362542505184], [-201.07717097731248, -137.89665425064484], [-177.808501453214, -128.54577425052426], [-180.65572261872185, -122.20053425072493], [-198.13176977186725, -104.05537425066044], [-220.22227881322956, -81.12345425042122], [-247.02542978379256, -53.29345425068382], [-252.03261183350284, -50.73309425042481], [-256.05799348104927, -49.39725425063358], [-259.59247492751376, -49.39725425063358], [-263.02877633404097, -52.068934250611534], [-266.07235757977224, -55.29721425076616], [-271.37407974999223, -57.189654250734065], [-276.87216200043565, -73.66501425066403], [-286.9847061394448, -103.49877425048376]]]}, "properties": {"name": "", "kind": "park", "category": "parque", "extrude": false}}, {"type": "Feature", "geometry": {"type": "Polygon", "coordinates": [[[358.5490580785551, -106.1909149357831], [358.5490580785551, -94.31993425068384], [340.1893905638808, -65.76129425044911], [308.37905754395626, -86.35549425065818], [332.4331673892976, -122.97977425073498], [358.5490580785551, -106.1909149357831]]]}, "properties": {"name": "", "kind": "pitch", "category": "parque", "extrude": false}}, {"type": "Feature", "geometry": {"type": "Polygon", "coordinates": [[[-31.12752141674055, -153.81541425079362], [-9.626092616048721, -140.79097425045617], [1.1737118042658639, -133.77781425076122], [3.9227529294875847, -131.32877425061665], [10.402635581746097, -120.97601425065264], [11.67897610407081, -116.41189425070678], [12.268056345090091, -106.50441425040952], [-22.880398041075388, -91.69885425061409], [-28.77120045231462, -94.92713425076872], [-31.12752141674055, -153.81541425079362]]]}, "properties": {"name": "Plaza César Manrique", "kind": "park", "category": "parque", "extrude": false}}, {"type": "Feature", "geometry": {"type": "Polygon", "coordinates": [[[158.94903638191235, -148.13809425049442], [185.06492707116988, -160.6059342506552], [195.17747121017905, -141.68153425058065], [191.64298976371455, -135.78157425044807], [172.3997018871625, -124.53825425075507], [167.78523999859678, -132.4419742505745], [158.94903638191235, -148.13809425049442]]]}, "properties": {"name": "La Postura", "kind": "playground", "category": "parque", "extrude": false}}]}