{"type": "FeatureCollection", "crs": {"type": "name", "properties": {"name": "EPSG:32628_local_enu_m_section_centroid", "lng0": -16.296235751389855, "lat0": 28.436085173724443}}, "features": [{"type": "Feature", "geometry": {"type": "Point", "coordinates": [-176.32263008324804, -322.2520609950837]}, "properties": {"osm_id": null, "category": "publico", "name": "Colegio de Educación Infantil y Primaria San Matías", "extrude": false}}, {"type": "Feature", "geometry": {"type": "Point", "coordinates": [-88.12453859794734, -334.719900994849]}, "properties": {"osm_id": null, "category": "restauracion", "name": "Los Tilos", "extrude": false}}, {"type": "Feature", "geometry": {"type": "Point", "coordinates": [-194.53000523992253, -409.8609009949705]}, "properties": {"osm_id": null, "category": "salud", "name": "Farmacia San Matías", "extrude": false}}, {"type": "Feature", "geometry": {"type": "Point", "coordinates": [-137.5585410396691, -462.73790099514383]}, "properties": {"osm_id": null, "category": "finanzas", "name": "Caja de Canarias", "extrude": false}}]}