{"type": "FeatureCollection", "crs": {"type": "name", "properties": {"name": "EPSG:32628_local_enu_m_section_centroid", "lng0": -16.258238113560374, "lat0": 28.468832778641634}}, "features": [{"type": "Feature", "geometry": {"type": "LineString", "coordinates": [[314.9471517820901, 185.90022317446326], [310.41922890664284, 183.5420383867138], [303.6669716539139, 179.64583838666357], [297.5018672056793, 175.86095838672776], [288.6945751368721, 170.85155838671966], [284.4866467038508, 168.5138383866895], [280.3765770720421, 166.51007838660718]]}, "properties": {"osm_id": null, "type": "residential", "width_m": 5, "extrude": false}}, {"type": "Feature", "geometry": {"type": "LineString", "coordinates": [[209.277096654556, 198.45891838662368], [209.33108771709018, 198.01363838656144]]}, "properties": {"osm_id": null, "type": "footway", "width_m": 2, "extrude": false}}, {"type": "Feature", "geometry": {"type": "LineString", "coordinates": [[18.60428502736468, 140.34987838660882], [17.429979418028147, 144.3573983867735], [16.74496781266875, 147.4743583868137], [15.766379805062137, 153.37431838655078], [10.482004563916895, 194.34007838674006], [10.090569360804716, 197.79099838672806], [10.01561368379795, 198.45891838662368]]}, "properties": {"osm_id": null, "type": "residential", "width_m": 5, "extrude": false}}, {"type": "Feature", "geometry": {"type": "LineString", "coordinates": [[-205.59022752375859, 117.64059838659847], [-206.1773803286007, 120.98019838647204], [-206.7645331330951, 123.87451838667886], [-207.25382713707225, 126.65751838677124], [-208.23241514467887, 132.33483838667496], [-212.1467671751053, 175.19303838683214], [-212.63606117908247, 180.53639838678805], [-214.42726321908336, 198.45891838662368]]}, "properties": {"osm_id": null, "type": "residential", "width_m": 5, "extrude": false}}, {"type": "Feature", "geometry": {"type": "LineString", "coordinates": [[211.58184013455065, 171.51947838661528], [211.6796989354156, 171.18551838666747], [211.7775577359329, 170.6289183864908], [215.59405096584206, 170.85155838671966], [222.34630821857104, 171.51947838661528], [237.61228113786004, 173.07795838663537], [249.55105483121693, 174.63643838665547], [254.8354300723622, 175.3043583865511], [260.5112405166196, 176.19491838667557], [265.5998981563826, 177.30811838663342], [270.00354419078616, 178.30999838647685], [272.7435906122238, 179.20055838660133], [274.2114726238075, 179.757158386778], [274.79862542830193, 179.97979838661138], [275.0922018305492, 180.42507838667362], [275.0922018305492, 181.42695838651704], [274.70076662743696, 182.8741183868182], [271.96072020634705, 190.55519838680425], [269.3340467856614, 198.45891838662368]]}, "properties": {"osm_id": null, "type": "footway", "width_m": 2, "extrude": false}}, {"type": "Feature", "geometry": {"type": "LineString", "coordinates": [[209.55476497586244, 198.45891838662368], [209.33108771709018, 198.01363838656144], [208.93965251397802, 197.01175838671801], [211.58184013455065, 171.51947838661528]]}, "properties": {"osm_id": null, "type": "footway", "width_m": 2, "extrude": false}}, {"type": "Feature", "geometry": {"type": "LineString", "coordinates": [[132.69755818252762, 198.45891838662368], [132.9033643201281, 196.56647838665577], [134.56696393309412, 180.0911183867258], [135.9369871438129, 167.73459838667947], [136.3284223469251, 163.28179838684804], [150.4200896568775, 164.7289583867537], [166.86036818515532, 166.51007838660718], [170.67686141506448, 166.84403838655498], [192.49937398535252, 169.18175838658513], [200.9152308513952, 170.0723183867096], [200.42593684741806, 175.19303838683214], [199.74092524205867, 180.75903838662143], [198.1751844299576, 196.12119838659353], [197.9323955066095, 198.45891838662368]]}, "properties": {"osm_id": null, "type": "footway", "width_m": 2, "extrude": false}}, {"type": "Feature", "geometry": {"type": "LineString", "coordinates": [[-318.225707203556, 113.29911838648599], [-317.9321308013088, 119.42171838684743], [-318.02998960217377, 122.4273583867732], [-318.5192836061509, 124.98771838663671], [-319.20429521151027, 127.54807838650024], [-325.86026116871244, 145.91189567305676]]}, "properties": {"osm_id": null, "type": "secondary", "width_m": 9, "extrude": false}}, {"type": "Feature", "geometry": {"type": "LineString", "coordinates": [[-311.37559115030973, 165.0629183867015], [-217.03970721348605, 174.63643838665547], [-215.86540160414953, 174.7477583867699], [-212.1467671751053, 175.19303838683214], [-206.37309792998295, 175.86095838672776], [-105.87210954492473, 185.87975838674396], [-103.13206312348714, 186.21371838669177], [-97.1626762769825, 186.88163838658738], [6.371934931760522, 197.45703838678025], [10.090569360804716, 197.79099838672806], [14.787791797455524, 198.34759838650925], [15.944700287650377, 198.45891838662368]]}, "properties": {"osm_id": null, "type": "residential", "width_m": 5, "extrude": false}}, {"type": "Feature", "geometry": {"type": "LineString", "coordinates": [[-311.76037306381613, 166.174362296953], [-311.37559115030973, 165.0629183867015], [-299.92611146092986, 132.55747838650834], [-298.55608825021113, 128.66127838685358], [-294.4460186180547, 117.08399838681729], [-292.58670140335886, 112.18591838652813], [-291.41239579436996, 108.62367838682118]]}, "properties": {"osm_id": null, "type": "secondary", "width_m": 9, "extrude": false}}, {"type": "Feature", "geometry": {"type": "LineString", "coordinates": [[128.31066123074498, 198.45891838662368], [132.12049391390374, 166.6213983867216], [133.0012231206454, 158.82899838662112], [133.0012231206454, 155.60071838686198], [132.60978791788088, 152.03847838675955]]}, "properties": {"osm_id": null, "type": "residential", "width_m": 5, "extrude": false}}, {"type": "Feature", "geometry": {"type": "LineString", "coordinates": [[203.87556367929002, 198.45891838662368], [205.80817088942825, 173.85719838664542], [206.00388849115816, 170.74023838660523], [206.19960609254042, 167.28931838661723], [206.19960609254042, 160.9440783868179], [205.90602969029322, 157.60447838654883]]}, "properties": {"osm_id": null, "type": "secondary", "width_m": 9, "extrude": false}}, {"type": "Feature", "geometry": {"type": "LineString", "coordinates": [[200.9152308513952, 170.0723183867096], [206.00388849115816, 170.74023838660523], [211.6796989354156, 171.18551838666747]]}, "properties": {"osm_id": null, "type": "footway", "width_m": 2, "extrude": false}}, {"type": "Feature", "geometry": {"type": "LineString", "coordinates": [[280.3765770720421, 166.51007838660718], [278.3215422559639, 165.73083838659713], [274.99434303003187, 164.61763838663927], [272.05857900686436, 164.17235838657703], [243.48380918384734, 161.2780383867657], [221.07414380871722, 158.94031838673556], [218.7255325903918, 158.7176783865067], [215.691909766707, 158.38371838655888], [205.90602969029322, 157.60447838654883]]}, "properties": {"osm_id": null, "type": "residential", "width_m": 5, "extrude": false}}, {"type": "Feature", "geometry": {"type": "LineString", "coordinates": [[244.26667958972405, 149.0328383868338], [243.67952678522963, 156.82523838653879], [243.48380918384734, 161.2780383867657]]}, "properties": {"osm_id": null, "type": "footway", "width_m": 2, "extrude": false}}, {"type": "Feature", "geometry": {"type": "LineString", "coordinates": [[205.90602969029322, 157.60447838654883], [193.08652679019463, 157.38183838671546], [186.43212833798293, 157.38183838671546], [179.0927182807595, 156.93655838665322], [170.48114381368222, 156.2686383867576], [162.06528694763958, 155.37807838663312], [147.68004323543994, 153.93091838672746], [142.9828207987891, 153.48563838666522], [138.87275116663275, 152.92903838648854], [136.23056354606013, 152.4837583868218], [132.60978791788088, 152.03847838675955], [125.2703778603098, 151.37055838686393], [121.16030822815343, 151.03659838652064], [116.85452099461479, 150.70263838657283], [112.25515735882895, 150.36867838662502]]}, "properties": {"osm_id": null, "type": "tertiary", "width_m": 7, "extrude": false}}, {"type": "Feature", "geometry": {"type": "LineString", "coordinates": [[112.25515735882895, 150.36867838662502], [109.4172521365264, 150.14603838679164], [105.40504130523499, 149.92339838656278], [37.29531597310295, 143.1328783867012], [33.3809639426765, 142.57627838652454], [30.836635122621175, 142.01967838674335], [28.58588270516073, 141.35175838684773], [26.628706689947503, 140.9064783867855], [23.986519069374882, 140.5725183868377], [18.60428502736468, 140.34987838660882]]}, "properties": {"osm_id": null, "type": "tertiary", "width_m": 7, "extrude": false}}, {"type": "Feature", "geometry": {"type": "LineString", "coordinates": [[238.88444554771382, 132.22351838656053], [221.36772021096442, 146.47247838657478], [218.7255325903918, 151.5931983866973], [216.0833449698192, 156.6025983867054], [215.691909766707, 158.38371838655888]]}, "properties": {"osm_id": null, "type": "footway", "width_m": 2, "extrude": false}}, {"type": "Feature", "geometry": {"type": "LineString", "coordinates": [[259.33693490763073, 150.70263838657283], [259.92408771212513, 142.7989183867534], [252.87825405714895, 133.114078386685]]}, "properties": {"osm_id": null, "type": "footway", "width_m": 2, "extrude": false}}, {"type": "Feature", "geometry": {"type": "LineString", "coordinates": [[18.60428502736468, 140.34987838660882], [14.200638992961089, 140.34987838660882], [10.188428161669677, 140.12723838677545], [5.784782127266086, 139.90459838654658], [-0.3803223209684728, 139.3479983867654], [-74.85086970271733, 132.00087838672715], [-79.54809213936814, 131.5555983866649], [-82.77743256478286, 130.8876783867693], [-85.7131965876027, 129.88579838653038], [-89.13825461439967, 129.55183838658257], [-96.86909987473528, 129.10655838652033], [-100.39201670239721, 129.21787838663477], [-103.62135712746428, 128.9952383868014], [-106.55712115028412, 128.77259838657253], [-109.2971675717217, 128.43863838662472], [-118.20231844139384, 127.43675838678129], [-128.3796337209198, 126.32355838682344], [-142.8627362339844, 124.87639838652228], [-171.04607085423692, 122.09339838682538], [-181.41910373514514, 120.98019838647204], [-192.57500702227773, 119.6443583866808], [-196.6850766544341, 119.08775838650413], [-200.69728748572552, 118.53115838672295], [-205.59022752375859, 117.64059838659847]]}, "properties": {"osm_id": null, "type": "tertiary", "width_m": 7, "extrude": false}}, {"type": "Feature", "geometry": {"type": "LineString", "coordinates": [[280.3765770720421, 166.51007838660718], [280.8658710756715, 170.6289183864908], [280.7680122748066, 172.74399838668757], [280.08300066979484, 175.86095838672776], [277.3429542483573, 183.7646783865472], [272.2799829277169, 198.32623169453598]]}, "properties": {"osm_id": null, "type": "residential", "width_m": 5, "extrude": false}}, {"type": "Feature", "geometry": {"type": "LineString", "coordinates": [[357.031553881339, 137.6374917225155], [342.1254803542096, 134.89519838653848], [303.37339525166664, 128.43863838662472], [283.89949389935634, 126.212238386709]]}, "properties": {"osm_id": null, "type": "pedestrian", "width_m": 4, "extrude": false}}, {"type": "Feature", "geometry": {"type": "LineString", "coordinates": [[280.9637298765365, 160.38747838664122], [283.89949389935634, 163.39311838656698], [286.34596391854666, 165.6195183864827], [289.8688807462087, 168.06855838662727], [294.7618207842417, 170.6289183864908], [297.89330240879144, 171.6307983867297], [301.7097956387006, 172.1873983865109], [309.24492329730634, 172.96663838652094], [329.8977058135277, 174.95282286359924]]}, "properties": {"osm_id": null, "type": "residential", "width_m": 5, "extrude": false}}, {"type": "Feature", "geometry": {"type": "LineString", "coordinates": [[280.9637298765365, 160.38747838664122], [280.5722946734244, 163.83839838662922], [280.3765770720421, 166.51007838660718]]}, "properties": {"osm_id": null, "type": "residential", "width_m": 5, "extrude": false}}, {"type": "Feature", "geometry": {"type": "LineString", "coordinates": [[280.9637298765365, 160.38747838664122], [279.00655386132325, 160.0535183866934], [271.07999099925775, 154.26487838667526], [267.4592153710785, 151.5931983866973]]}, "properties": {"osm_id": null, "type": "footway", "width_m": 2, "extrude": false}}, {"type": "Feature", "geometry": {"type": "LineString", "coordinates": [[-305.50406310432237, 126.32355838682344], [-298.55608825021113, 128.66127838685358]]}, "properties": {"osm_id": null, "type": "footway", "width_m": 2, "extrude": false}}, {"type": "Feature", "geometry": {"type": "LineString", "coordinates": [[205.90602969029322, 157.60447838654883], [205.71031208856328, 152.4837583868218], [205.90602969029322, 147.36303838669926], [206.39532369392268, 141.5743983866811], [208.93965251397802, 114.3009983867249], [210.21181692383183, 101.94447838667855], [210.40753452556177, 99.82939838648178], [210.79896972832628, 95.15395838681698]]}, "properties": {"osm_id": null, "type": "secondary", "width_m": 9, "extrude": false}}, {"type": "Feature", "geometry": {"type": "LineString", "coordinates": [[221.36772021096442, 146.47247838657478], [223.8141902301548, 123.98583838679329], [226.45637785072742, 100.71995838660627], [249.1596196281048, 103.28031838686528], [272.45001420997653, 105.8406783867288], [270.00354419078616, 128.43863838662472], [267.4592153710785, 151.5931983866973], [259.33693490763073, 150.70263838657283], [244.26667958972405, 149.0328383868338], [221.36772021096442, 146.47247838657478]]}, "properties": {"osm_id": null, "type": "footway", "width_m": 2, "extrude": false}}, {"type": "Feature", "geometry": {"type": "LineString", "coordinates": [[253.95470086562054, 119.86699838651418], [256.4990296853282, 122.87263838683543], [256.205453283081, 127.21411838655243], [255.91187688083374, 130.44239838670705], [252.87825405714895, 133.114078386685], [250.13820763571138, 135.67443838654853], [240.84162156327474, 134.78387838681954], [238.88444554771382, 132.22351838656053], [236.73155193111833, 128.9952383868014], [237.0251283333656, 125.32167838658452], [237.31870473561276, 121.42547838653428], [240.2544687584326, 118.75379838655633], [243.09237398073518, 116.1934383866928], [251.50823084643017, 117.08399838681729], [253.95470086562054, 119.86699838651418]]}, "properties": {"osm_id": null, "type": "footway", "width_m": 2, "extrude": false}}, {"type": "Feature", "geometry": {"type": "LineString", "coordinates": [[237.0251283333656, 125.32167838658452], [223.8141902301548, 123.98583838679329], [218.23623858641466, 123.31791838650219], [215.691909766707, 123.09527838666881]]}, "properties": {"osm_id": null, "type": "footway", "width_m": 2, "extrude": false}}, {"type": "Feature", "geometry": {"type": "LineString", "coordinates": [[205.90602969029322, 157.60447838654883], [213.53901614976385, 147.36303838669926], [213.63687495062882, 147.02907838675145], [215.691909766707, 123.09527838666881], [217.55122698105527, 102.83503838680303], [217.84480338365015, 100.38599838665846], [218.23623858641466, 96.1558383866604], [218.4319561881446, 93.37283838656802], [218.82339139125676, 91.03511838653787], [219.60626179713347, 89.14267838656997], [220.78056740647, 88.02947838661211], [225.08635464000864, 85.35779838663416]]}, "properties": {"osm_id": null, "type": "service", "width_m": 3.5, "extrude": false}}, {"type": "Feature", "geometry": {"type": "LineString", "coordinates": [[-205.59022752375859, 117.64059838659847], [-210.38530876127436, 116.75003838647399], [-215.96326040501447, 115.859478386745], [-231.7185273279329, 114.52363838655828], [-269.1005892201048, 110.73875838662246], [-291.41239579436996, 108.62367838682118]]}, "properties": {"osm_id": null, "type": "tertiary", "width_m": 7, "extrude": false}}, {"type": "Feature", "geometry": {"type": "LineString", "coordinates": [[112.25515735882895, 150.36867838662502], [111.57014575346955, 148.1422783867093], [111.17871055035738, 145.35927838661692], [111.27656935122234, 142.91023838647234], [119.2031322129402, 84.13327838656187], [120.57315542365899, 74.33711838677453]]}, "properties": {"osm_id": null, "type": "residential", "width_m": 5, "extrude": false}}, {"type": "Feature", "geometry": {"type": "LineString", "coordinates": [[-318.32356600442097, 109.95951838661242], [-318.225707203556, 112.63119838659037], [-318.225707203556, 113.29911838648599]]}, "properties": {"osm_id": null, "type": "secondary", "width_m": 9, "extrude": false}}, {"type": "Feature", "geometry": {"type": "LineString", "coordinates": [[-318.1278484030387, 106.06331838656217], [-318.32356600442097, 109.95951838661242]]}, "properties": {"osm_id": null, "type": "secondary", "width_m": 9, "extrude": false}}, {"type": "Feature", "geometry": {"type": "LineString", "coordinates": [[309.24492329730634, 172.96663838652094], [342.1254803542096, 134.89519838653848], [343.78907996717567, 133.00275838657058]]}, "properties": {"osm_id": null, "type": "residential", "width_m": 5, "extrude": false}}, {"type": "Feature", "geometry": {"type": "LineString", "coordinates": [[283.89949389935634, 126.212238386709], [283.6059174971091, 129.663158386697], [281.55088268103094, 154.93279838657088], [281.55088268103094, 155.60071838686198], [280.9637298765365, 160.38747838664122]]}, "properties": {"osm_id": null, "type": "residential", "width_m": 5, "extrude": false}}, {"type": "Feature", "geometry": {"type": "LineString", "coordinates": [[256.205453283081, 127.21411838655243], [270.00354419078616, 128.43863838662472], [276.0707898381558, 128.9952383868014], [283.6059174971091, 129.663158386697]]}, "properties": {"osm_id": null, "type": "footway", "width_m": 2, "extrude": false}}, {"type": "Feature", "geometry": {"type": "LineString", "coordinates": [[343.78907996717567, 133.00275838657058], [359.9357820932063, 114.85759838650608]]}, "properties": {"osm_id": null, "type": "residential", "width_m": 5, "extrude": false}}, {"type": "Feature", "geometry": {"type": "LineString", "coordinates": [[285.46523471180507, 99.49543838653398], [286.0523875162995, 101.61051838673075], [285.95452871543455, 104.05955838647984], [285.46523471180507, 110.96139838685133], [283.89949389935634, 126.212238386709]]}, "properties": {"osm_id": null, "type": "residential", "width_m": 5, "extrude": false}}, {"type": "Feature", "geometry": {"type": "LineString", "coordinates": [[359.9357820932063, 114.85759838650608], [365.90389522808954, 108.70500272074068]]}, "properties": {"osm_id": null, "type": "residential", "width_m": 5, "extrude": false}}, {"type": "Feature", "geometry": {"type": "LineString", "coordinates": [[285.46523471180507, 99.49543838653398], [278.4194010564812, 102.94635838652198], [272.45001420997653, 105.8406783867288], [253.95470086562054, 119.86699838651418]]}, "properties": {"osm_id": null, "type": "footway", "width_m": 2, "extrude": false}}, {"type": "Feature", "geometry": {"type": "LineString", "coordinates": [[-318.225707203556, 113.29911838648599], [-321.4550476289707, 114.07835838649603], [-324.7822468549027, 114.63495838667271], [-329.5773280924185, 114.85759838650608], [-334.4702681304516, 114.85759838650608], [-337.6143490101514, 114.48111708388922]]}, "properties": {"osm_id": null, "type": "residential", "width_m": 5, "extrude": false}}, {"type": "Feature", "geometry": {"type": "LineString", "coordinates": [[340.85331594435576, 85.46911838674859], [303.37339525166664, 128.43863838662472]]}, "properties": {"osm_id": null, "type": "residential", "width_m": 5, "extrude": false}}, {"type": "Feature", "geometry": {"type": "LineString", "coordinates": [[316.5843333548774, 63.53907838674829], [340.85331594435576, 85.46911838674859], [365.9704646775719, 108.19449566625707]]}, "properties": {"osm_id": null, "type": "pedestrian", "width_m": 4, "extrude": false}}, {"type": "Feature", "geometry": {"type": "LineString", "coordinates": [[-291.41239579436996, 108.62367838682118], [-298.16465304709897, 107.95575838653008], [-308.14625072489497, 106.95387838668665], [-318.1278484030387, 106.06331838656217]]}, "properties": {"osm_id": null, "type": "tertiary", "width_m": 7, "extrude": false}}, {"type": "Feature", "geometry": {"type": "LineString", "coordinates": [[240.2544687584326, 118.75379838655633], [226.45637785072742, 100.71995838660627], [221.17200260958217, 94.04075838685912], [218.82339139125676, 91.03511838653787]]}, "properties": {"osm_id": null, "type": "footway", "width_m": 2, "extrude": false}}, {"type": "Feature", "geometry": {"type": "LineString", "coordinates": [[217.84480338365015, 100.38599838665846], [210.40753452556177, 99.82939838648178]]}, "properties": {"osm_id": null, "type": "footway", "width_m": 2, "extrude": false}}, {"type": "Feature", "geometry": {"type": "LineString", "coordinates": [[249.1596196281048, 103.28031838686528], [250.13820763571138, 94.48603838652588], [250.7253604402058, 88.14079838672654]]}, "properties": {"osm_id": null, "type": "footway", "width_m": 2, "extrude": false}}, {"type": "Feature", "geometry": {"type": "LineString", "coordinates": [[225.08635464000864, 85.35779838663416], [227.8264010614462, 85.58043838686302], [250.7253604402058, 88.14079838672654], [258.1626292982942, 89.03135838685102], [270.3949793938983, 90.47851838675669], [275.77721343590855, 91.48039838660011], [280.18085947031216, 93.03887838662021], [281.9423178841431, 94.59735838664031], [283.31234109486195, 96.1558383866604], [285.46523471180507, 99.49543838653398]]}, "properties": {"osm_id": null, "type": "residential", "width_m": 5, "extrude": false}}, {"type": "Feature", "geometry": {"type": "LineString", "coordinates": [[210.79896972832628, 95.15395838681698], [214.51760415737047, 87.25023838660206], [216.27906257120145, 84.13327838656187]]}, "properties": {"osm_id": null, "type": "secondary", "width_m": 9, "extrude": false}}, {"type": "Feature", "geometry": {"type": "LineString", "coordinates": [[208.15678210775366, 83.46535838666625], [210.79896972832628, 95.15395838681698]]}, "properties": {"osm_id": null, "type": "secondary", "width_m": 9, "extrude": false}}, {"type": "Feature", "geometry": {"type": "LineString", "coordinates": [[-142.8627362339844, 124.87639838652228], [-143.74346544072606, 123.20659838678324], [-144.2327594447032, 121.42547838653428], [-144.13490064383825, 117.52927838648404], [-138.36123139871586, 56.30327838682447], [-138.1655137973336, 54.52215838657551], [-137.9697961956037, 51.51651838664975], [-137.77407859422144, 49.06747838650517]]}, "properties": {"osm_id": null, "type": "residential", "width_m": 5, "extrude": false}}, {"type": "Feature", "geometry": {"type": "LineString", "coordinates": [[216.27906257120145, 84.13327838656187], [225.08635464000864, 85.35779838663416]]}, "properties": {"osm_id": null, "type": "residential", "width_m": 5, "extrude": false}}, {"type": "Feature", "geometry": {"type": "LineString", "coordinates": [[208.15678210775366, 83.46535838666625], [216.27906257120145, 84.13327838656187]]}, "properties": {"osm_id": null, "type": "residential", "width_m": 5, "extrude": false}}, {"type": "Feature", "geometry": {"type": "LineString", "coordinates": [[-318.1278484030387, 106.06331838656217], [-332.6109509161033, 104.83879838648988], [-339.4455214914962, 104.31169898803546]]}, "properties": {"osm_id": null, "type": "tertiary", "width_m": 7, "extrude": false}}, {"type": "Feature", "geometry": {"type": "LineString", "coordinates": [[-197.4679470603108, 42.944878386539216], [-198.15295866567018, 48.399558386609556], [-199.42512307587168, 61.64663838678038], [-204.22020431338746, 110.51611838678909], [-205.59022752375859, 117.64059838659847]]}, "properties": {"osm_id": null, "type": "residential", "width_m": 5, "extrude": false}}, {"type": "Feature", "geometry": {"type": "LineString", "coordinates": [[120.57315542365899, 74.33711838677453], [125.2703778603098, 74.78239838683677], [155.21517089439328, 78.12199838671035], [197.78374922684543, 82.3521583867084], [202.08953646038407, 82.79743838677064], [208.15678210775366, 83.46535838666625]]}, "properties": {"osm_id": null, "type": "residential", "width_m": 5, "extrude": false}}, {"type": "Feature", "geometry": {"type": "LineString", "coordinates": [[-231.7185273279329, 114.52363838655828], [-224.47697607157446, 39.939238386613454]]}, "properties": {"osm_id": null, "type": "pedestrian", "width_m": 4, "extrude": false}}, {"type": "Feature", "geometry": {"type": "LineString", "coordinates": [[-104.28273805640437, 198.45891838662368], [-103.62135712746428, 191.6683983867621], [-103.13206312348714, 186.21371838669177], [-99.11985229219573, 143.80079838659682], [-98.04340548372416, 135.8970783867774], [-97.45625267922972, 132.7801183867372], [-96.86909987473528, 129.10655838652033], [-95.89051186712867, 119.6443583866808], [-89.92112502027636, 62.09191838684262], [-89.52968981751185, 59.53155838658361], [-88.94253701266976, 53.854238386679896], [-88.15966660679307, 46.84107838658946], [-83.26672656841234, -2.696321613314865], [-81.60312695544633, -19.505641613192637], [-80.91811535008694, -26.852761613230882], [-80.62453894783971, -29.969721613271076], [-79.64595094023309, -39.20928161327723], [-75.34016370669447, -79.28448161334202], [-71.03437647280818, -123.81248161323825], [-70.83865887142592, -125.81624161332059], [-69.56649446157209, -135.6124016135034]]}, "properties": {"osm_id": null, "type": "residential", "width_m": 5, "extrude": false}}, {"type": "Feature", "geometry": {"type": "LineString", "coordinates": [[-236.31789096406644, 38.60339838682222], [-231.03351572257353, 39.159998386603405], [-224.47697607157446, 39.939238386613454], [-202.5566047000738, 42.38827838675803], [-197.4679470603108, 42.944878386539216], [-144.2327594447032, 48.399558386609556], [-137.77407859422144, 49.06747838650517], [-93.83547705105049, 53.742918386565464], [-88.94253701266976, 53.854238386679896], [-84.14745577550165, 53.96555838679433], [19.191437831859115, 64.54095838659171], [32.01094073195771, 65.87679838677843], [106.87292331681874, 74.2257983866601], [113.82089817093, 74.55975838660791], [120.57315542365899, 74.33711838677453]]}, "properties": {"osm_id": null, "type": "residential", "width_m": 5, "extrude": false}}, {"type": "Feature", "geometry": {"type": "LineString", "coordinates": [[215.4961921649771, 17.897878386498718], [217.15979177829075, 17.007318386769725], [220.68270860560503, 17.341278386717534], [222.444167019436, 19.456358386518815], [217.15979177829075, 68.10319838669415], [215.4961921649771, 69.43903838648538], [212.07113413852778, 69.10507838653757], [210.70111092780897, 67.3239583866841], [215.4961921649771, 17.897878386498718]]}, "properties": {"osm_id": null, "type": "pedestrian", "width_m": 4, "extrude": false}}, {"type": "Feature", "geometry": {"type": "LineString", "coordinates": [[155.21517089439328, 78.12199838671035], [170.38328501281728, 12.777158386771674], [172.3404610280305, 4.8734383865567565]]}, "properties": {"osm_id": null, "type": "footway", "width_m": 2, "extrude": false}}, {"type": "Feature", "geometry": {"type": "LineString", "coordinates": [[-135.22974977451378, 28.361958386577157], [-136.99120818799707, 41.16375838668574], [-137.77407859422144, 49.06747838650517]]}, "properties": {"osm_id": null, "type": "service", "width_m": 3.5, "extrude": false}}, {"type": "Feature", "geometry": {"type": "LineString", "coordinates": [[-340.73323137955106, 40.93991141416197], [-296.9903474377624, 64.42963838647728], [-293.9567246140776, 66.21075838672624], [-290.53166658728065, 68.43715838664195]]}, "properties": {"osm_id": null, "type": "residential", "width_m": 5, "extrude": false}}, {"type": "Feature", "geometry": {"type": "LineString", "coordinates": [[-291.41239579436996, 108.62367838682118], [-289.650937380539, 102.7237183866886], [-287.98733776757297, 99.05015838647174], [-285.83444415062985, 95.37659838665036], [-236.31789096406644, 38.60339838682222], [-172.70967046720293, -33.42064161325908], [-169.3824712412709, -37.20552161319489], [-163.51094319528357, -43.99604161345195], [-153.82292191973474, -55.016721613311574], [-143.44988903847886, -69.4883216131592]]}, "properties": {"osm_id": null, "type": "secondary", "width_m": 9, "extrude": false}}, {"type": "Feature", "geometry": {"type": "LineString", "coordinates": [[340.85331594435576, 85.46911838674859], [367.7644861547545, 54.79513631455447]]}, "properties": {"osm_id": null, "type": "residential", "width_m": 5, "extrude": false}}, {"type": "Feature", "geometry": {"type": "LineString", "coordinates": [[367.7644861547545, 4.987293186883477], [316.5843333548774, 63.53907838674829], [285.46523471180507, 99.49543838653398]]}, "properties": {"osm_id": null, "type": "residential", "width_m": 5, "extrude": false}}, {"type": "Feature", "geometry": {"type": "LineString", "coordinates": [[227.72854226058126, -20.618841613150494], [232.81719990034424, -15.832081613371258], [257.96691169691195, 7.879078386482519], [263.44700453978714, 13.111118386719482], [265.1106041527531, 14.66959838673958], [268.5356621795501, 17.897878386498718], [316.5843333548774, 63.53907838674829]]}, "properties": {"osm_id": null, "type": "residential", "width_m": 5, "extrude": false}}, {"type": "Feature", "geometry": {"type": "LineString", "coordinates": [[216.27906257120145, 84.13327838656187], [232.42576469723204, 62.648518386623806], [251.31251324504794, 39.27131838671784], [261.0005345205967, 27.2487583866193], [268.5356621795501, 17.897878386498718], [276.56008384213294, 7.990398386596951], [309.4406408990362, -32.084801613467846], [317.4650625616191, -41.99228161336961], [352.79208963771276, -85.29576161319355]]}, "properties": {"osm_id": null, "type": "tertiary", "width_m": 7, "extrude": false}}, {"type": "Feature", "geometry": {"type": "LineString", "coordinates": [[367.7644861547545, -75.68931597948648], [362.57796971412654, -80.50900161341431], [352.79208963771276, -85.29576161319355]]}, "properties": {"osm_id": null, "type": "pedestrian", "width_m": 4, "extrude": false}}, {"type": "Feature", "geometry": {"type": "LineString", "coordinates": [[-161.94520238318253, -76.0562016131874], [-190.91140740931172, -43.55076161338971], [-196.3915002521869, -37.31684161330932], [-229.36991610960752, -0.3586016132847192], [-262.7397671701403, 37.490198386864364], [-286.51945575598927, 64.09567838652947], [-290.53166658728065, 68.43715838664195], [-305.01476910034523, 85.02383838668635], [-306.9719451159061, 87.13891838648763], [-309.9077091387259, 90.8124783867045], [-311.6691675525569, 93.48415838668245], [-314.70279037624175, 98.60487838680498], [-316.65996639145493, 102.27843838662636], [-318.1278484030387, 106.06331838656217]]}, "properties": {"osm_id": null, "type": "secondary", "width_m": 9, "extrude": false}}, {"type": "Feature", "geometry": {"type": "LineString", "coordinates": [[-130.434668536998, -21.620721613389406], [-131.51111534546956, -10.93400161347759], [-134.25116176655948, 18.565798386789822], [-135.22974977451378, 28.361958386577157]]}, "properties": {"osm_id": null, "type": "pedestrian", "width_m": 4, "extrude": false}}, {"type": "Feature", "geometry": {"type": "LineString", "coordinates": [[-159.7923087662394, -13.049081613278872], [-161.94520238318253, 16.562038386707485], [-139.14410180494022, 18.231838386842014], [-134.25116176655948, 18.565798386789822], [-131.51111534546956, -10.93400161347759], [-137.08906698886204, -11.379281613144343], [-159.7923087662394, -13.049081613278872]]}, "properties": {"osm_id": null, "type": "pedestrian", "width_m": 4, "extrude": false}}, {"type": "Feature", "geometry": {"type": "LineString", "coordinates": [[224.10776663240202, 16.116758386645245], [226.5542366515924, -8.039681613270773], [227.72854226058126, -20.618841613150494], [263.44700453978714, 13.111118386719482], [256.30331208394597, 22.57331838655901], [253.17183045939618, 21.126158386653344], [224.10776663240202, 16.116758386645245]]}, "properties": {"osm_id": null, "type": "pedestrian", "width_m": 4, "extrude": false}}, {"type": "Feature", "geometry": {"type": "LineString", "coordinates": [[261.0005345205967, 27.2487583866193], [258.6519233022713, 24.131798386579106], [256.30331208394597, 22.57331838655901], [253.17183045939618, 21.126158386653344], [232.621482298962, 18.120518386727582], [229.09856547130002, 17.56391838655091], [224.10776663240202, 16.116758386645245], [219.01910899263902, 13.333758386552859], [214.41974535685318, 11.663958386813817], [209.6246641193374, 10.439438386741529], [172.3404610280305, 4.8734383865567565], [128.5975770862418, -0.9152016134613916], [45.906890440527874, -12.269841613268824], [40.72037399989993, -13.049081613278872], [-68.8814828562127, -27.96596161318874], [-80.62453894783971, -29.969721613271076], [-86.78964339607427, -30.748961613281125], [-121.33380006594359, -35.09044161339361], [-129.7496569316386, -35.424401613341416]]}, "properties": {"osm_id": null, "type": "residential", "width_m": 5, "extrude": false}}, {"type": "Feature", "geometry": {"type": "LineString", "coordinates": [[217.0619329774258, 4.8734383865567565], [223.32489622617766, 5.986638386514613], [225.86922504623297, -13.605681613455545], [224.49920183551419, -15.05284161336121], [220.19341460197555, -15.386801613309018], [218.82339139125676, -14.496241613184537], [217.0619329774258, 4.8734383865567565]]}, "properties": {"osm_id": null, "type": "pedestrian", "width_m": 4, "extrude": false}}, {"type": "Feature", "geometry": {"type": "LineString", "coordinates": [[68.51227341704026, -157.31980161327485], [69.88229662775905, -153.31228161350566], [70.86088463536566, -148.97080161339318], [70.46944943225348, -144.9632816132285], [70.27373183087123, -143.62744161343727], [64.89149778886103, -117.35592161332448], [55.49705291555941, -65.36948161327558], [47.570490053493884, -21.509401613274974], [46.49404324502231, -15.386801613309018], [45.906890440527874, -12.269841613268824], [34.750987153395286, 49.95803838662965], [34.26169314941815, 52.74103838672204], [32.01094073195771, 65.87679838677843], [29.760188314497263, 78.78991838660596], [20.463602241712945, 131.2216383867171], [20.170025839465726, 133.00275838657058], [19.77859063635355, 134.89519838653848], [18.60428502736468, 140.34987838660882]]}, "properties": {"osm_id": null, "type": "residential", "width_m": 5, "extrude": false}}, {"type": "Feature", "geometry": {"type": "LineString", "coordinates": [[120.57315542365899, 74.33711838677453], [122.82390784111944, 54.85611838652332], [127.6189890786352, 7.990398386596951], [128.5975770862418, -0.9152016134613916], [134.17552872998195, -57.24312161322729], [136.42628114744238, -73.82980161327168], [138.87275116663275, -86.96556161332808], [139.55776277199215, -92.6428816132318], [139.7534803733744, -99.43340161348885]]}, "properties": {"osm_id": null, "type": "residential", "width_m": 5, "extrude": false}}, {"type": "Feature", "geometry": {"type": "LineString", "coordinates": [[-317.39253340550863, 159.17504815601816], [-305.50406310432237, 126.32355838682344], [-301.393993472166, 115.41419838668276], [-299.92611146092986, 111.51799838663251], [-298.16465304709897, 107.95575838653008], [-297.47964144173955, 106.50859838662441], [-290.82524298952785, 92.7049183866724], [-290.43380778676334, 91.70303838682898], [-153.13791031437535, -71.49208161324154], [-149.22355828360122, -75.49960161340621], [-110.86290838417041, -119.47100161352125], [-85.81105538846766, -149.41608161345542], [-19.560647271031545, -225.00236161324366], [39.49753042588785, -269.0850816134731]]}, "properties": {"osm_id": null, "type": "footway", "width_m": 2, "extrude": false}}, {"type": "Feature", "geometry": {"type": "LineString", "coordinates": [[227.72854226058126, -20.618841613150494], [217.94266218416746, -28.96784161342765]]}, "properties": {"osm_id": null, "type": "residential", "width_m": 5, "extrude": false}}, {"type": "Feature", "geometry": {"type": "LineString", "coordinates": [[-129.7496569316386, -35.424401613341416], [-129.7496569316386, -29.413121613489892], [-130.434668536998, -21.620721613389406]]}, "properties": {"osm_id": null, "type": "service", "width_m": 3.5, "extrude": false}}, {"type": "Feature", "geometry": {"type": "LineString", "coordinates": [[-129.7496569316386, -35.424401613341416], [-151.6700283027916, -37.65080161325713], [-153.23576911489263, -37.98476161320494], [-156.3672507394424, -38.87532161332942], [-160.08588516848658, -40.879081613411756], [-163.51094319528357, -43.99604161345195]]}, "properties": {"osm_id": null, "type": "residential", "width_m": 5, "extrude": false}}, {"type": "Feature", "geometry": {"type": "LineString", "coordinates": [[216.27906257120145, 84.13327838656187], [218.92125019177408, 72.22203838657776], [219.50840299661616, 66.98999838673629], [220.97628500785225, 51.96179838671199], [224.10776663240202, 16.116758386645245], [226.5542366515924, -8.039681613270773], [227.72854226058126, -20.618841613150494], [231.64289429135536, -58.02236161323734], [236.92726953250062, -114.35028161339872], [240.93948036379203, -160.99336161349171], [242.01592717226362, -164.6669216133131], [243.77738558609457, -168.4518016132489]]}, "properties": {"osm_id": null, "type": "secondary", "width_m": 9, "extrude": false}}, {"type": "Feature", "geometry": {"type": "LineString", "coordinates": [[229.58785947527716, -169.34236161337338], [230.957882685996, -166.2254016133332], [231.44717668962545, -163.108441613293], [219.89983819938067, -47.78092161338776], [217.94266218416746, -28.96784161342765], [214.41974535685318, 11.663958386813817], [208.74393491224808, 69.43903838648538], [208.15678210775366, 83.46535838666625]]}, "properties": {"osm_id": null, "type": "secondary", "width_m": 9, "extrude": false}}, {"type": "Feature", "geometry": {"type": "LineString", "coordinates": [[-340.73323137955106, -67.62618361892137], [-326.83728167098093, -59.246881613309625], [-270.2748948290936, -25.739561613273025], [-229.36991610960752, -0.3586016132847192]]}, "properties": {"osm_id": null, "type": "residential", "width_m": 5, "extrude": false}}, {"type": "Feature", "geometry": {"type": "LineString", "coordinates": [[217.94266218416746, -28.96784161342765], [212.85400454440446, -33.08668161331127], [205.612453288046, -38.65268161349604], [163.82674536147053, -77.05808161342631], [155.1173120935283, -85.07312161336017], [139.7534803733744, -99.43340161348885]]}, "properties": {"osm_id": null, "type": "residential", "width_m": 5, "extrude": false}}, {"type": "Feature", "geometry": {"type": "LineString", "coordinates": [[-75.34016370669447, -79.28448161334202], [47.96192525660606, -66.14872161328563], [55.49705291555941, -65.36948161327558], [127.03183627414077, -57.68840161328953], [134.17552872998195, -57.24312161322729]]}, "properties": {"osm_id": null, "type": "residential", "width_m": 5, "extrude": false}}, {"type": "Feature", "geometry": {"type": "LineString", "coordinates": [[-161.94520238318253, -76.0562016131874], [-153.13791031437535, -71.49208161324154], [-148.73426427997177, -69.93360161322144], [-143.44988903847886, -69.4883216131592]]}, "properties": {"osm_id": null, "type": "residential", "width_m": 5, "extrude": false}}, {"type": "Feature", "geometry": {"type": "LineString", "coordinates": [[231.64289429135536, -58.02236161323734], [256.30331208394597, -85.96368161348465], [258.3583469000241, -88.52404161334817], [261.0005345205967, -91.7523216135028]]}, "properties": {"osm_id": null, "type": "residential", "width_m": 5, "extrude": false}}, {"type": "Feature", "geometry": {"type": "LineString", "coordinates": [[-143.44988903847886, -69.4883216131592], [-127.30318691244824, -86.96556161332808], [-123.97598768651622, -90.63912161314946]]}, "properties": {"osm_id": null, "type": "secondary", "width_m": 9, "extrude": false}}, {"type": "Feature", "geometry": {"type": "LineString", "coordinates": [[220.48699100422277, -34.533841613216936], [222.34630821857104, -32.64140161324903], [225.47778984312083, -32.418761613415654], [227.72854226058126, -33.97724161343575], [238.78658674719654, -161.10468161321066], [233.79578790795088, -161.8839216132207], [220.48699100422277, -34.533841613216936]]}, "properties": {"osm_id": null, "type": "pedestrian", "width_m": 4, "extrude": false}}, {"type": "Feature", "geometry": {"type": "LineString", "coordinates": [[-190.91140740931172, -43.55076161338971], [-296.305335832403, -109.00692161344281], [-340.73323137955106, -136.81340943630332]]}, "properties": {"osm_id": null, "type": "residential", "width_m": 5, "extrude": false}}, {"type": "Feature", "geometry": {"type": "LineString", "coordinates": [[-123.97598768651622, -90.63912161314946], [-119.86591805435985, -101.1032016132279], [-112.91794319990093, -108.78428161321395], [-110.56933198157553, -111.4559616131919], [-109.19930877085673, -113.90500161333648], [-108.90573236860952, -116.4653616132], [-109.68860277483388, -118.13516161333453], [-110.86290838417041, -119.47100161352125], [-113.01580200076589, -120.80684161331249], [-114.38582521148469, -121.4747616132081], [-117.12587163292227, -121.69740161343697], [-119.96377685522481, -121.25212161337473]]}, "properties": {"osm_id": null, "type": "service", "width_m": 3.5, "extrude": false}}, {"type": "Feature", "geometry": {"type": "LineString", "coordinates": [[-123.97598768651622, -90.63912161314946], [-115.36441321909129, -98.54284161336437], [-96.96695867560024, -119.47100161352125], [-93.15046544569108, -124.03512161346711], [-86.30034939209713, -132.1614816135154]]}, "properties": {"osm_id": null, "type": "secondary", "width_m": 9, "extrude": false}}, {"type": "Feature", "geometry": {"type": "LineString", "coordinates": [[-227.31488129352928, -117.91252161350116], [-210.77674396438653, -125.37096161325834], [-206.1773803286007, -118.13516161333453], [-203.73091030941032, -108.78428161321395], [-201.8715930947144, -101.54848161329014]]}, "properties": {"osm_id": null, "type": "residential", "width_m": 5, "extrude": false}}, {"type": "Feature", "geometry": {"type": "LineString", "coordinates": [[-247.8652294539635, -185.59508161346997], [-255.20463951153462, -177.2460816131928], [-273.1128000513962, -147.18968161314422], [-296.305335832403, -109.00692161344281], [-326.83728167098093, -59.246881613309625]]}, "properties": {"osm_id": null, "type": "residential", "width_m": 5, "extrude": false}}, {"type": "Feature", "geometry": {"type": "LineString", "coordinates": [[139.7534803733744, -99.43340161348885], [87.88831596848559, -147.41232161337308], [86.5182927577668, -148.63684161344537]]}, "properties": {"osm_id": null, "type": "residential", "width_m": 5, "extrude": false}}, {"type": "Feature", "geometry": {"type": "LineString", "coordinates": [[-303.44902828824416, -177.2460816131928], [-298.75180585159336, -163.55372161335524], [-273.1128000513962, -147.18968161314422], [-227.31488129352928, -117.91252161350116], [-201.8715930947144, -101.54848161329014], [-171.92680006097856, -82.17880161315335], [-166.74028362035062, -78.95052161339422], [-161.94520238318253, -76.0562016131874]]}, "properties": {"osm_id": null, "type": "residential", "width_m": 5, "extrude": false}}, {"type": "Feature", "geometry": {"type": "LineString", "coordinates": [[-184.45272655882994, -146.1878016133008], [-179.8533629230441, -150.3066416131844], [-174.9604228846634, -152.97832161316236], [-170.36105924887752, -154.31416161334909], [-165.761695612744, -154.87076161352576], [-160.28160276986884, -154.42548161346352], [-156.46510954030737, -153.4236016132246], [-152.6486163103982, -151.64248161337113], [-148.34282907685957, -148.7481616131643], [-144.42847704608545, -144.51800161316626], [-141.29699542188337, -139.17464161321035], [-139.6333958085697, -133.49732161330664], [-139.2419606058052, -127.59736161317406], [-140.3184074139291, -121.4747616132081], [-142.17772462862501, -116.91064161326224], [-145.50492385455703, -112.12388161348301], [-149.9085698889606, -108.11636161331833], [-154.21435712249925, -105.55600161345481], [-159.69444996537442, -103.6635616134869], [-165.85955441360898, -103.10696161331023], [-171.43750605700143, -103.88620161332028], [-176.33044609538217, -105.77864161328819], [-181.5169625360101, -109.00692161344281], [-185.72489096868378, -113.45972161327424], [-188.85637259323354, -118.6917616135112], [-190.7156898075818, -125.25964161314391], [-190.91140740931172, -131.38224161350536], [-189.2478077963457, -138.28408161348136], [-187.2906317811325, -142.40292161336498], [-184.45272655882994, -146.1878016133008]]}, "properties": {"osm_id": null, "type": "pedestrian", "width_m": 4, "extrude": false}}, {"type": "Feature", "geometry": {"type": "LineString", "coordinates": [[367.7644861547545, 4.185751284221482], [357.68502967574585, -4.922721613230578], [326.9573662357856, -32.30744161330122], [317.4650625616191, -41.99228161336961], [261.0005345205967, -91.7523216135028], [242.60307997675804, -108.672961613495], [241.03733916465697, -110.2314416135151], [236.92726953250062, -114.35028161339872]]}, "properties": {"osm_id": null, "type": "residential", "width_m": 5, "extrude": false}}, {"type": "Feature", "geometry": {"type": "LineString", "coordinates": [[-340.73323137955106, -5.11097837158232], [-277.71216368718206, 29.36383838681607], [-262.7397671701403, 37.490198386864364]]}, "properties": {"osm_id": null, "type": "residential", "width_m": 5, "extrude": false}}, {"type": "Feature", "geometry": {"type": "LineString", "coordinates": [[352.79208963771276, -85.29576161319355], [367.7644861547545, -103.17060017994407]]}, "properties": {"osm_id": null, "type": "tertiary", "width_m": 7, "extrude": false}}, {"type": "Feature", "geometry": {"type": "LineString", "coordinates": [[352.79208963771276, -85.29576161319355], [345.8441147832538, -92.6428816132318], [341.5383275497152, -96.98436161334428], [305.2327124660149, -129.71244161337083], [298.4804552132859, -135.50108161338898], [263.7405809420343, -166.33672161344762], [259.8262289112602, -171.2348016133413], [256.98832368930533, -176.13288161323496]]}, "properties": {"osm_id": null, "type": "residential", "width_m": 5, "extrude": false}}, {"type": "Feature", "geometry": {"type": "LineString", "coordinates": [[-86.30034939209713, -132.1614816135154], [-76.90590451879552, -141.8463216131883]]}, "properties": {"osm_id": null, "type": "secondary", "width_m": 9, "extrude": false}}, {"type": "Feature", "geometry": {"type": "LineString", "coordinates": [[-76.90590451879552, -141.8463216131883], [-69.56649446157209, -135.6124016135034]]}, "properties": {"osm_id": null, "type": "residential", "width_m": 5, "extrude": false}}, {"type": "Feature", "geometry": {"type": "LineString", "coordinates": [[-86.30034939209713, -132.1614816135154], [-79.93952734248032, -133.71996161314001], [-69.56649446157209, -135.6124016135034], [52.46343009187461, -157.98772161317046], [58.139240536132036, -158.4330016132327]]}, "properties": {"osm_id": null, "type": "residential", "width_m": 5, "extrude": false}}, {"type": "Feature", "geometry": {"type": "LineString", "coordinates": [[-36.68593740466877, -218.76844161316328], [-53.224074733811555, -200.17800161343203], [-92.56331264119665, -155.53868161342137], [-106.55712115028412, -140.06520161333484], [-108.71001476722726, -137.61616161319026], [-113.79867240699025, -131.27092161339093], [-116.14728362531565, -127.37472161334068], [-119.96377685522481, -121.25212161337473], [-124.56314049101066, -113.79368161322205], [-128.3796337209198, -108.33900161315171], [-132.48970335307618, -103.10696161331023], [-136.69763178574985, -98.87680161331218], [-141.78628942551285, -94.31268161336632], [-146.77708826441085, -90.08252161336827], [-150.59358149432, -86.85424161321365], [-154.41007472422916, -83.51464161334007], [-161.94520238318253, -76.0562016131874]]}, "properties": {"osm_id": null, "type": "secondary", "width_m": 9, "extrude": false}}, {"type": "Feature", "geometry": {"type": "LineString", "coordinates": [[-92.56331264119665, -155.53868161342137], [-85.81105538846766, -149.41608161345542], [-79.74380974109806, -144.40668161344732], [-76.90590451879552, -141.8463216131883]]}, "properties": {"osm_id": null, "type": "residential", "width_m": 5, "extrude": false}}, {"type": "Feature", "geometry": {"type": "LineString", "coordinates": [[86.5182927577668, -148.63684161344537], [77.90671829034187, -150.75192161324665], [77.61314188809466, -150.75192161324665], [74.38380146302761, -150.52928161341327], [70.86088463536566, -148.97080161339318]]}, "properties": {"osm_id": null, "type": "residential", "width_m": 5, "extrude": false}}, {"type": "Feature", "geometry": {"type": "LineString", "coordinates": [[86.5182927577668, -148.63684161344537], [85.73542235154244, -154.0915216135157], [84.56111674255358, -158.65564161346157], [84.36539914082365, -158.87828161329494], [82.99537593010486, -160.88204161337728]]}, "properties": {"osm_id": null, "type": "residential", "width_m": 5, "extrude": false}}, {"type": "Feature", "geometry": {"type": "LineString", "coordinates": [[58.139240536132036, -158.4330016132327], [63.325756976412315, -157.87640161345152], [68.51227341704026, -157.31980161327485]]}, "properties": {"osm_id": null, "type": "residential", "width_m": 5, "extrude": false}}, {"type": "Feature", "geometry": {"type": "LineString", "coordinates": [[68.51227341704026, -157.31980161327485], [73.11163705282611, -157.31980161327485], [76.92813028273527, -157.87640161345152], [80.35318830953224, -159.43488161347162], [82.99537593010486, -160.88204161337728]]}, "properties": {"osm_id": null, "type": "residential", "width_m": 5, "extrude": false}}, {"type": "Feature", "geometry": {"type": "LineString", "coordinates": [[-210.77674396438653, -125.37096161325834], [-206.27523912911798, -140.06520161333484], [-193.06430102625487, -164.6669216133131], [-183.76771495347054, -180.69700161318082], [-178.9726337159548, -189.82524161346802], [-175.93901089226998, -195.72520161320512]]}, "properties": {"osm_id": null, "type": "residential", "width_m": 5, "extrude": false}}, {"type": "Feature", "geometry": {"type": "LineString", "coordinates": [[70.76302583450071, -169.00840161342558], [69.0994262215347, -166.8933216132288], [67.82726181168087, -163.88768161330304], [67.82726181168087, -161.2160016133251], [68.51227341704026, -157.31980161327485]]}, "properties": {"osm_id": null, "type": "residential", "width_m": 5, "extrude": false}}, {"type": "Feature", "geometry": {"type": "LineString", "coordinates": [[58.139240536132036, -158.4330016132327], [59.998557750480295, -161.32732161343952], [61.662157363446305, -164.88956161314647], [62.9343217736478, -168.34048161313447], [63.81505098038945, -171.34612161345572]]}, "properties": {"osm_id": null, "type": "residential", "width_m": 5, "extrude": false}}, {"type": "Feature", "geometry": {"type": "LineString", "coordinates": [[82.99537593010486, -160.88204161337728], [80.25532950866727, -164.33296161336528], [77.61314188809466, -166.559361613281], [74.18808386129768, -168.1178416133011], [70.76302583450071, -169.00840161342558]]}, "properties": {"osm_id": null, "type": "residential", "width_m": 5, "extrude": false}}, {"type": "Feature", "geometry": {"type": "LineString", "coordinates": [[229.58785947527716, -169.34236161337338], [234.97009351728738, -168.1178416133011], [236.73155193111833, -167.7838816133533], [240.2544687584326, -167.89520161346772], [243.77738558609457, -168.4518016132489]]}, "properties": {"osm_id": null, "type": "secondary", "width_m": 9, "extrude": false}}, {"type": "Feature", "geometry": {"type": "LineString", "coordinates": [[70.76302583450071, -169.00840161342558], [63.81505098038945, -171.34612161345572], [58.43281693837925, -175.24232161350596]]}, "properties": {"osm_id": null, "type": "residential", "width_m": 5, "extrude": false}}, {"type": "Feature", "geometry": {"type": "LineString", "coordinates": [[-183.76771495347054, -180.69700161318082], [-187.48634938251476, -179.24984161327515], [-212.04890837424037, -175.46496161333934], [-215.76754280328456, -173.57252161337144], [-215.86540160414953, -171.12348161322686], [-205.00307471926416, -163.66504161346967], [-195.41291224458027, -164.55560161319866], [-193.06430102625487, -164.6669216133131]]}, "properties": {"osm_id": null, "type": "service", "width_m": 3.5, "extrude": false}}, {"type": "Feature", "geometry": {"type": "LineString", "coordinates": [[243.77738558609457, -168.4518016132489], [249.1596196281048, -170.12160161338343], [249.45319603035196, -170.12160161338343], [253.4654068616434, -172.7932816133614], [256.98832368930533, -176.13288161323496]]}, "properties": {"osm_id": null, "type": "secondary", "width_m": 9, "extrude": false}}, {"type": "Feature", "geometry": {"type": "LineString", "coordinates": [[358.65587001154324, -204.35690992548416], [305.81986527050935, -143.85008161327065], [298.4804552132859, -135.50108161338898], [266.08919216035974, -96.98436161334428], [261.0005345205967, -91.7523216135028]]}, "properties": {"osm_id": null, "type": "residential", "width_m": 5, "extrude": false}}, {"type": "Feature", "geometry": {"type": "LineString", "coordinates": [[-303.44902828824416, -177.2460816131928], [-339.84135735005117, -171.90228059260676]]}, "properties": {"osm_id": null, "type": "residential", "width_m": 5, "extrude": false}}, {"type": "Feature", "geometry": {"type": "LineString", "coordinates": [[82.99537593010486, -160.88204161337728], [86.81186916001401, -162.7744816133452], [90.82407999130542, -164.55560161319866], [95.81487883020345, -166.0027616134998], [99.72923086097757, -166.67068161339543], [147.58218443457497, -175.24232161350596], [205.22101808493383, -185.48376161335554], [210.60325212694403, -186.2630016133656], [215.4961921649771, -186.9309216132612]]}, "properties": {"osm_id": null, "type": "residential", "width_m": 5, "extrude": false}}, {"type": "Feature", "geometry": {"type": "LineString", "coordinates": [[215.4961921649771, -186.9309216132612], [218.23623858641466, -179.6951216133374], [223.32489622617766, -173.34988161314257], [229.58785947527716, -169.34236161337338]]}, "properties": {"osm_id": null, "type": "secondary", "width_m": 9, "extrude": false}}, {"type": "Feature", "geometry": {"type": "LineString", "coordinates": [[-76.90590451879552, -141.8463216131883], [-59.68275558429333, -160.99336161349171], [-31.988714968017963, -193.05352161322716], [-24.84502251217679, -200.73460161321321], [-17.11417725184118, -208.5270016133137], [-13.591260424179243, -211.86660161318727], [-9.57904959288783, -215.65148161351857], [-6.251850366955814, -218.43448161321547], [4.512617717064592, -226.33820161343039]]}, "properties": {"osm_id": null, "type": "secondary", "width_m": 9, "extrude": false}}, {"type": "Feature", "geometry": {"type": "LineString", "coordinates": [[-230.34850411721413, -199.28744161330755], [-229.85921011358465, -190.49316161336364], [-228.68490450424812, -188.4894016132813]]}, "properties": {"osm_id": null, "type": "residential", "width_m": 5, "extrude": false}}, {"type": "Feature", "geometry": {"type": "LineString", "coordinates": [[256.98832368930533, -176.13288161323496], [259.630511309878, -180.25172161351406], [261.7834049268211, -186.70828161342783], [262.17484012958556, -192.83088161339379], [261.0005345205967, -198.5082016132975], [258.45620570054143, -203.8515616132534], [255.61830047858655, -207.41380161335584], [252.0953836509246, -210.4194416132816], [249.1596196281048, -212.20056161313508]]}, "properties": {"osm_id": null, "type": "secondary", "width_m": 9, "extrude": false}}, {"type": "Feature", "geometry": {"type": "LineString", "coordinates": [[-70.83865887142592, -211.75528161346833], [-89.82326621975908, -208.74964161314708], [-100.09844029980233, -207.19116161352247], [-136.69763178574985, -201.73648161345213], [-167.32743642519273, -197.06104161339184], [-175.93901089226998, -195.72520161320512], [-209.5045795545327, -190.71580161319702], [-228.68490450424812, -188.4894016132813], [-238.27506697927961, -187.04224161337564], [-247.8652294539635, -185.59508161346997], [-265.3819547910606, -182.92340161349202], [-303.44902828824416, -177.2460816131928]]}, "properties": {"osm_id": null, "type": "residential", "width_m": 5, "extrude": false}}, {"type": "Feature", "geometry": {"type": "LineString", "coordinates": [[220.87842620733497, -206.41192161351242], [216.67049777431362, -198.95348161335974], [215.59405096584206, -193.1648416133416], [215.4961921649771, -186.9309216132612]]}, "properties": {"osm_id": null, "type": "secondary", "width_m": 9, "extrude": false}}, {"type": "Feature", "geometry": {"type": "LineString", "coordinates": [[58.43281693837925, -175.24232161350596], [55.39919411469445, -178.1366416133173], [11.852027774635685, -219.21372161322552], [9.894851759074795, -221.10616161319342], [4.512617717064592, -226.33820161343039]]}, "properties": {"osm_id": null, "type": "residential", "width_m": 5, "extrude": false}}, {"type": "Feature", "geometry": {"type": "LineString", "coordinates": [[-136.69763178574985, -201.73648161345213], [-144.42847704608545, -208.74964161314708], [-161.4559083792054, -206.07796161316912], [-167.32743642519273, -197.06104161339184]]}, "properties": {"osm_id": null, "type": "service", "width_m": 3.5, "extrude": false}}, {"type": "Feature", "geometry": {"type": "LineString", "coordinates": [[-70.83865887142592, -211.75528161346833], [-62.91209600936039, -210.97604161345828], [-57.04056796372071, -208.30436161348032], [-54.20266274141817, -203.96288161336784], [-53.224074733811555, -200.17800161343203]]}, "properties": {"osm_id": null, "type": "residential", "width_m": 5, "extrude": false}}, {"type": "Feature", "geometry": {"type": "LineString", "coordinates": [[-171.7310824595963, -220.32692161318337], [-178.77691611457254, -217.98920161315323], [-183.08270334811115, -214.87224161350852], [-191.0092662101767, -212.53452161347838], [-197.1743706580636, -210.19680161344823], [-203.33947510629815, -206.9685216132936], [-207.4495447384545, -203.74024161313898], [-212.83177878046473, -198.8421616132453], [-214.59323719429568, -197.2836816132252]]}, "properties": {"osm_id": null, "type": "footway", "width_m": 2, "extrude": false}}, {"type": "Feature", "geometry": {"type": "LineString", "coordinates": [[234.67651711504016, -214.20432161321742], [231.54503549049042, -213.42508161320737], [226.5542366515924, -211.08736161317722], [220.87842620733497, -206.41192161351242]]}, "properties": {"osm_id": null, "type": "secondary", "width_m": 9, "extrude": false}}, {"type": "Feature", "geometry": {"type": "LineString", "coordinates": [[-190.61783100706452, -229.90044161313733], [-188.9542313940985, -226.56084161326376], [-183.08270334811115, -214.87224161350852], [-177.3090341029888, -199.95536161320317], [-175.93901089226998, -195.72520161320512]]}, "properties": {"osm_id": null, "type": "footway", "width_m": 2, "extrude": false}}, {"type": "Feature", "geometry": {"type": "LineString", "coordinates": [[249.1596196281048, -212.20056161313508], [242.40736237537575, -214.20432161321742], [234.67651711504016, -214.20432161321742]]}, "properties": {"osm_id": null, "type": "secondary", "width_m": 9, "extrude": false}}, {"type": "Feature", "geometry": {"type": "LineString", "coordinates": [[-36.68593740466877, -218.76844161316328], [-61.150637595877086, -215.4288416132897], [-70.83865887142592, -211.75528161346833]]}, "properties": {"osm_id": null, "type": "residential", "width_m": 5, "extrude": false}}, {"type": "Feature", "geometry": {"type": "LineString", "coordinates": [[-81.60312695544633, -228.67592161346053], [-89.72540741889411, -213.202441613374], [-89.82326621975908, -208.74964161314708]]}, "properties": {"osm_id": null, "type": "residential", "width_m": 5, "extrude": false}}, {"type": "Feature", "geometry": {"type": "LineString", "coordinates": [[139.7534803733744, -99.43340161348885], [139.7534803733744, -105.11072161339257], [140.04705677596928, -110.45408161334848], [140.92778598271093, -119.69364161335463], [146.21216122385619, -164.33296161336528], [147.58218443457497, -175.24232161350596], [157.1723469096065, -259.5115616135192], [157.66164091323597, -263.51908161328834], [158.2181496031279, -269.0850816134731]]}, "properties": {"osm_id": null, "type": "residential", "width_m": 5, "extrude": false}}, {"type": "Feature", "geometry": {"type": "LineString", "coordinates": [[-209.5045795545327, -190.71580161319702], [-214.59323719429568, -197.2836816132252], [-221.54121204840695, -205.74400161322131], [-262.8256726712574, -266.70106572264274]]}, "properties": {"osm_id": null, "type": "residential", "width_m": 5, "extrude": false}}, {"type": "Feature", "geometry": {"type": "LineString", "coordinates": [[-318.95694905549624, -227.71601164346464], [-305.2104867020752, -189.49128161352021], [-303.44902828824416, -177.2460816131928]]}, "properties": {"osm_id": null, "type": "residential", "width_m": 5, "extrude": false}}, {"type": "Feature", "geometry": {"type": "LineString", "coordinates": [[-61.150637595877086, -215.4288416132897], [-81.60312695544633, -228.67592161346053], [-86.88750219659157, -231.90420161321967], [-139.33981940632248, -264.6322816132462], [-143.84132424159102, -266.07944161315186]]}, "properties": {"osm_id": null, "type": "residential", "width_m": 5, "extrude": false}}, {"type": "Feature", "geometry": {"type": "LineString", "coordinates": [[220.87842620733497, -206.41192161351242], [215.30047456359483, -210.4194416132816], [210.3096757246968, -214.64960161327966], [202.187395261249, -221.88540161320347], [168.81754420036856, -251.60784161330426], [163.43531015835836, -257.3964816133224], [157.66164091323597, -263.51908161328834], [152.31565087137872, -269.0850816134731]]}, "properties": {"osm_id": null, "type": "residential", "width_m": 5, "extrude": false}}, {"type": "Feature", "geometry": {"type": "LineString", "coordinates": [[4.512617717064592, -226.33820161343039], [59.45643899583005, -269.0850816134731]]}, "properties": {"osm_id": null, "type": "secondary", "width_m": 9, "extrude": false}}, {"type": "Feature", "geometry": {"type": "LineString", "coordinates": [[255.61830047858655, -207.41380161335584], [262.6641341335627, -214.64960161327966], [305.49027547105806, -261.37018804965606]]}, "properties": {"osm_id": null, "type": "residential", "width_m": 5, "extrude": false}}, {"type": "Feature", "geometry": {"type": "LineString", "coordinates": [[26.1471638785759, -269.0850816134731], [-29.24866854658038, -225.67028161313928], [-36.68593740466877, -218.76844161316328]]}, "properties": {"osm_id": null, "type": "secondary", "width_m": 9, "extrude": false}}, {"type": "Feature", "geometry": {"type": "LineString", "coordinates": [[-199.6956738780381, -269.0850816134731], [-177.5047517047187, -240.4758416133302]]}, "properties": {"osm_id": null, "type": "residential", "width_m": 5, "extrude": false}}, {"type": "Feature", "geometry": {"type": "LineString", "coordinates": [[249.1596196281048, -212.20056161313508], [247.691737616521, -215.65148161351857], [247.2024436128915, -218.99108161339214], [252.13129513764002, -269.0850816134731]]}, "properties": {"osm_id": null, "type": "tertiary", "width_m": 7, "extrude": false}}, {"type": "Feature", "geometry": {"type": "LineString", "coordinates": [[238.88444554771382, -220.21560161346443], [240.84162156327474, -218.5458016133299], [242.9945151798702, -218.5458016133299], [245.73456160130777, -219.32504161333995], [250.59868808505414, -269.0850816134731]]}, "properties": {"osm_id": null, "type": "pedestrian", "width_m": 4, "extrude": false}}, {"type": "Feature", "geometry": {"type": "LineString", "coordinates": [[243.75481455673838, -269.0850816134731], [238.88444554771382, -220.21560161346443]]}, "properties": {"osm_id": null, "type": "pedestrian", "width_m": 4, "extrude": false}}, {"type": "Feature", "geometry": {"type": "LineString", "coordinates": [[-143.84132424159102, -266.07944161315186], [-147.85353507288244, -268.8624416132443], [-148.021346889544, -269.0850816134731]]}, "properties": {"osm_id": null, "type": "residential", "width_m": 5, "extrude": false}}, {"type": "Feature", "geometry": {"type": "LineString", "coordinates": [[241.48908985486077, -269.0850816134731], [236.92726953250062, -220.54956161341224], [236.2422579271412, -217.54392161348648], [234.67651711504016, -214.20432161321742]]}, "properties": {"osm_id": null, "type": "tertiary", "width_m": 7, "extrude": false}}, {"type": "Feature", "geometry": {"type": "LineString", "coordinates": [[-139.989633840557, -269.0850816134731], [-143.84132424159102, -266.07944161315186], [-177.5047517047187, -240.4758416133302], [-190.61783100706452, -229.90044161313733], [-218.6054480255871, -208.30436161348032], [-221.54121204840695, -205.74400161322131], [-230.34850411721413, -199.28744161330755], [-237.10076136994311, -194.27804161329945], [-247.8652294539635, -185.59508161346997]]}, "properties": {"osm_id": null, "type": "residential", "width_m": 5, "extrude": false}}]}