{"type": "FeatureCollection", "crs": {"type": "name", "properties": {"name": "wgs84_and_EPSG:32628_local_enu_m_section_centroid", "lng0": -16.31017655227356, "lat0": 28.470482800677733}}, "features": [{"type": "Feature", "geometry": {"type": "Polygon", "coordinates": [[[-16.31139, 28.47389], [-16.31023, 28.47274], [-16.30949, 28.47202], [-16.30769, 28.47026], [-16.30608, 28.46867], [-16.306, 28.4686], [-16.3057, 28.4683], [-16.3054, 28.46801], [-16.30619, 28.46785], [-16.30706, 28.46772], [-16.3079, 28.46758], [-16.30863, 28.46748], [-16.30927, 28.4674], [-16.30974, 28.46734], [-16.31053, 28.46715], [-16.31115, 28.46702], [-16.31118, 28.46706], [-16.31133, 28.46756], [-16.31137, 28.46761], [-16.3115, 28.46797], [-16.31188, 28.46924], [-16.312, 28.46962], [-16.31203, 28.47026], [-16.31208, 28.4705], [-16.31228, 28.47104], [-16.31292, 28.47264], [-16.31297, 28.47281], [-16.31311, 28.47318], [-16.31321, 28.47347], [-16.31324, 28.47362], [-16.31324, 28.47374], [-16.31324, 28.47383], [-16.31322, 28.47391], [-16.31315, 28.47412], [-16.31309, 28.47427], [-16.31308, 28.47436], [-16.31307, 28.47445], [-16.31309, 28.47453], [-16.3134, 28.47504], [-16.31345, 28.47509], [-16.31369, 28.47533], [-16.31385, 28.47546], [-16.31412, 28.47578], [-16.31414, 28.47582], [-16.31414, 28.47587], [-16.31412, 28.4759], [-16.31399, 28.47597], [-16.31374, 28.47619], [-16.31322, 28.47567], [-16.31198, 28.47447], [-16.31139, 28.47389]]]}, "properties": {"cusec": "3802303022", "mun": "023", "nmun": "San Cristóbal de La Laguna", "area_m2": 309031.9932530555, "perimeter_m": 2903.3763954942397, "coords_system": "wgs84"}}, {"type": "Feature", "geometry": {"type": "Polygon", "coordinates": [[[-118.7446849123359, -379.28942855489424], [-5.230248734364949, -251.27142855499486], [67.18413296549502, -171.12102855486526], [243.3272235866163, 24.802171445231807], [400.87743241995446, 201.80097144525433], [408.7060142253917, 209.59337144535482], [438.06319599552063, 242.989371445277], [467.4203777659972, 275.27217144524127], [390.1131324376086, 293.083371445358], [304.9773053041304, 307.55497144520564], [222.7771963475608, 323.1397714450111], [151.34138737333703, 334.27177144538064], [88.7127329301867, 343.1773714450435], [42.719814823547075, 349.8565714451861], [-34.58743050449388, 371.0073714451764], [-95.25893949637181, 385.478971445024], [-98.1946576732804, 381.0261714451926], [-112.8732485585187, 325.36617144532227], [-116.7875394610635, 319.8001714451375], [-129.50898489468173, 279.7249714450727], [-166.69474847024793, 138.34857144528357], [-178.43762117857761, 96.04697144530306], [-181.37333935548622, 24.802171445231807], [-186.26620298401488, -1.9146285549432207], [-205.83765749743415, -62.02742855464493], [-268.46631194023684, -240.1394285546253], [-273.35917556876547, -259.06382855469985], [-287.0591937283676, -300.2522285547225], [-296.84492098507724, -332.53502855468685], [-299.7806391619858, -349.23302855484565], [-299.7806391619858, -362.59142855473544], [-299.7806391619858, -372.61022855475164], [-297.8234937107134, -381.51582855480996], [-290.97348463091237, -404.8930285547159], [-285.1020482767475, -421.59102855487475], [-284.1234755511113, -431.60982855489095], [-283.1449028254751, -441.62862855490715], [-285.1020482767475, -450.53422855496547], [-315.4378027728603, -507.30742855479366], [-320.3306664010413, -512.8734285549784], [-343.81641181735307, -539.5902285547579], [-359.47357542787984, -554.0618285550011], [-385.8950390211002, -589.6842285548389], [-387.85218447237264, -594.1370285546703], [-387.85218447237264, -599.7030285548551], [-385.8950390211002, -603.0426285547287], [-373.17359358748195, -610.8350285548293], [-348.70927544553405, -635.325428554693], [-297.8234937107134, -577.439028554907], [-176.48047572695756, -443.85502855482287], [-118.7446849123359, -379.28942855489424]]]}, "properties": {"cusec": "3802303022", "mun": "023", "nmun": "San Cristóbal de La Laguna", "area_m2": 309031.9932530555, "perimeter_m": 2903.3763954942397, "coords_system": "local_m_enu"}}]}