{"type": "FeatureCollection", "crs": {"type": "name", "properties": {"name": "EPSG:32628_local_enu_m_section_centroid", "lng0": -16.264190108208403, "lat0": 28.461915712779646}}, "features": [{"type": "Feature", "geometry": {"type": "Point", "coordinates": [-136.31564245983563, 382.0182666303832]}, "properties": {"osm_id": null, "category": "salud", "name": "Farmacia Galván Navarro", "extrude": false}}, {"type": "Feature", "geometry": {"type": "Point", "coordinates": [93.47186180035558, 356.63730663039485]}, "properties": {"osm_id": null, "category": "salud", "name": "Farmacia Feria", "extrude": false}}, {"type": "Feature", "geometry": {"type": "Point", "coordinates": [186.73740335094152, 327.47146663007527]}, "properties": {"osm_id": null, "category": "restauracion", "name": "Majorán", "extrude": false}}, {"type": "Feature", "geometry": {"type": "Point", "coordinates": [179.00605205773184, 279.2699066303577]}, "properties": {"osm_id": null, "category": "finanzas", "name": "Caixabank", "extrude": false}}, {"type": "Feature", "geometry": {"type": "Point", "coordinates": [-49.21560890303532, 212.14394663017003]}, "properties": {"osm_id": null, "category": "finanzas", "name": "Cajasiete", "extrude": false}}, {"type": "Feature", "geometry": {"type": "Point", "coordinates": [-112.33866693014683, 211.03074663021218]}, "properties": {"osm_id": null, "category": "restauracion", "name": "Bar Benito Pérez Armas", "extrude": false}}, {"type": "Feature", "geometry": {"type": "Point", "coordinates": [-58.708533908705526, 188.65542663014963]}, "properties": {"osm_id": null, "category": "restauracion", "name": "Caffé & café", "extrude": false}}, {"type": "Feature", "geometry": {"type": "Point", "coordinates": [-32.57852384152636, 182.75546663041254]}, "properties": {"osm_id": null, "category": "restauracion", "name": "Un momento", "extrude": false}}, {"type": "Feature", "geometry": {"type": "Point", "coordinates": [-9.482335167893975, 179.97246663032016]}, "properties": {"osm_id": null, "category": "restauracion", "name": "Picasso", "extrude": false}}, {"type": "Feature", "geometry": {"type": "Point", "coordinates": [3.8273328813827296, 141.01046663021322]}, "properties": {"osm_id": null, "category": "restauracion", "name": "Entre aromas", "extrude": false}}, {"type": "Feature", "geometry": {"type": "Point", "coordinates": [199.3620149561552, 115.07290663004824]}, "properties": {"osm_id": null, "category": "restauracion", "name": "Cafetería Terraza J.M.", "extrude": false}}, {"type": "Feature", "geometry": {"type": "Point", "coordinates": [-136.90283369720657, 113.84838663037144]}, "properties": {"osm_id": null, "category": "salud", "name": "Farmacia Parque la Granja", "extrude": false}}, {"type": "Feature", "geometry": {"type": "Point", "coordinates": [200.53639743124478, 109.50690663025895]}, "properties": {"osm_id": null, "category": "restauracion", "name": "Bar Arepera la Caraqueña", "extrude": false}}, {"type": "Feature", "geometry": {"type": "Point", "coordinates": [206.70190542468274, 85.35046663034294]}, "properties": {"osm_id": null, "category": "restauracion", "name": "La Gula", "extrude": false}}, {"type": "Feature", "geometry": {"type": "Point", "coordinates": [80.55365457645641, 64.97890663036273]}, "properties": {"osm_id": null, "category": "restauracion", "name": "Vulcano", "extrude": false}}, {"type": "Feature", "geometry": {"type": "Point", "coordinates": [-258.54928505845874, 58.63366663016791]}, "properties": {"osm_id": null, "category": "restauracion", "name": "Royma", "extrude": false}}, {"type": "Feature", "geometry": {"type": "Point", "coordinates": [223.4368556921884, 18.335826630269736]}, "properties": {"osm_id": null, "category": "finanzas", "name": "Caixabank", "extrude": false}}, {"type": "Feature", "geometry": {"type": "Point", "coordinates": [64.01443472129185, -59.25421336960085]}, "properties": {"osm_id": null, "category": "restauracion", "name": "Don Juan", "extrude": false}}, {"type": "Feature", "geometry": {"type": "Point", "coordinates": [53.542857653220835, -62.2598533699221]}, "properties": {"osm_id": null, "category": "restauracion", "name": "Leffe", "extrude": false}}, {"type": "Feature", "geometry": {"type": "Point", "coordinates": [48.16027130949491, -63.92965336966114]}, "properties": {"osm_id": null, "category": "restauracion", "name": "Bocaditos", "extrude": false}}, {"type": "Feature", "geometry": {"type": "Point", "coordinates": [67.63544735220957, -65.48813336968124]}, "properties": {"osm_id": null, "category": "restauracion", "name": "Tsuki bar", "extrude": false}}, {"type": "Feature", "geometry": {"type": "Point", "coordinates": [34.85060326056589, -66.15605336997234]}, "properties": {"osm_id": null, "category": "restauracion", "name": "All or nothing", "extrude": false}}, {"type": "Feature", "geometry": {"type": "Point", "coordinates": [23.00891330506423, -72.2786533699383]}, "properties": {"osm_id": null, "category": "restauracion", "name": "Moretti", "extrude": false}}, {"type": "Feature", "geometry": {"type": "Point", "coordinates": [195.6431371188931, -72.50129336977167]}, "properties": {"osm_id": null, "category": "restauracion", "name": "Cafetería olisero", "extrude": false}}, {"type": "Feature", "geometry": {"type": "Point", "coordinates": [13.613853505738408, -73.28053336978172]}, "properties": {"osm_id": null, "category": "restauracion", "name": "El Alivio", "extrude": false}}, {"type": "Feature", "geometry": {"type": "Point", "coordinates": [3.9251980873794285, -74.50505336985401]}, "properties": {"osm_id": null, "category": "restauracion", "name": "La Granja", "extrude": false}}, {"type": "Feature", "geometry": {"type": "Point", "coordinates": [-62.72100736465311, -80.96161336976778]}, "properties": {"osm_id": null, "category": "restauracion", "name": "Kocora", "extrude": false}}, {"type": "Feature", "geometry": {"type": "Point", "coordinates": [-2.533905524743995, -128.82921336993306]}, "properties": {"osm_id": null, "category": "restauracion", "name": "La jefa", "extrude": false}}, {"type": "Feature", "geometry": {"type": "Point", "coordinates": [41.21184166634493, -139.07065336978263]}, "properties": {"osm_id": null, "category": "restauracion", "name": "Maguro", "extrude": false}}, {"type": "Feature", "geometry": {"type": "Point", "coordinates": [143.872443015909, -172.8006133696526]}, "properties": {"osm_id": null, "category": "salud", "name": "Ivi", "extrude": false}}, {"type": "Feature", "geometry": {"type": "Point", "coordinates": [123.8100757361711, -251.3925333697621]}, "properties": {"osm_id": null, "category": "salud", "name": "Farmacia C.Mª.Toste", "extrude": false}}, {"type": "Feature", "geometry": {"type": "Point", "coordinates": [116.2744548553025, -253.61893336967782]}, "properties": {"osm_id": null, "category": "restauracion", "name": "Asador y Arepera Versalles", "extrude": false}}, {"type": "Feature", "geometry": {"type": "Point", "coordinates": [-197.774991980831, -287.0149333696]}, "properties": {"osm_id": null, "category": "publico", "name": "Casa de la Cultura", "extrude": false}}, {"type": "Feature", "geometry": {"type": "Point", "coordinates": [129.4862576982348, -289.0186933696823]}, "properties": {"osm_id": null, "category": "restauracion", "name": "El Pulpete", "extrude": false}}, {"type": "Feature", "geometry": {"type": "Point", "coordinates": [39.64599836657319, -340.559853369669]}, "properties": {"osm_id": null, "category": "restauracion", "name": "Da canio", "extrude": false}}, {"type": "Feature", "geometry": {"type": "Point", "coordinates": [-264.5190626392079, -344.67869336994806]}, "properties": {"osm_id": null, "category": "alojamiento", "name": "Apartamentos Bruja", "extrude": false}}, {"type": "Feature", "geometry": {"type": "Point", "coordinates": [48.16027130949491, -371.0615333697798]}, "properties": {"osm_id": null, "category": "restauracion", "name": "Da canio 2", "extrude": false}}]}