{"type": "FeatureCollection", "crs": {"type": "name", "properties": {"name": "EPSG:32628_local_enu_m_section_centroid", "lng0": -16.57569942216037, "lat0": 28.1112719155786}}, "features": [{"type": "Feature", "geometry": {"type": "Polygon", "coordinates": [[[1132.7334753789023, 1703.1660641169562], [1131.5693567396017, 1703.4966596246074], [1122.0379307531402, 1705.0996059831882], [1112.4138193120984, 1705.635642210119], [1105.6392175063038, 1705.635642210119], [1120.5634270940332, 1691.9432822098859], [1132.7334753789023, 1703.1660641169562]]]}, "properties": {"name": "", "kind": "farmland", "category": "parque", "extrude": false}}, {"type": "Feature", "geometry": {"type": "Polygon", "coordinates": [[[927.2311653758321, 1485.4446822099912], [937.0499699323506, 1468.9693222100614], [1014.4221498378976, 1543.1084422099439], [1081.8773371412597, 1604.7797222100612], [1044.9032198800232, 1705.635642210119], [994.9993538728169, 1705.635642210119], [966.7027596928898, 1683.7056022101185], [946.1814581699022, 1693.6130822100204], [868.0237738997222, 1639.2889222099413], [863.8998759859217, 1622.8135622100112], [808.7181943782949, 1547.1159622101086], [812.0565879274624, 1535.6500022097912], [870.4784750389391, 1549.676322209972], [891.8834689722261, 1524.9632822098795], [865.4708847151879, 1504.369082210066], [886.0903742838418, 1465.7410422099067], [927.2311653758321, 1485.4446822099912]]]}, "properties": {"name": "", "kind": "farmland", "category": "parque", "extrude": false}}, {"type": "Feature", "geometry": {"type": "Polygon", "coordinates": [[[500.8004834850245, 1517.3935222100079], [509.3428434492758, 1515.5010822100398], [533.8898548407464, 1526.1878022099518], [572.3795687021872, 1550.01028220992], [519.4562121424444, 1595.651482209774], [512.4848609074594, 1594.3156422099828], [489.8034223819052, 1539.3235622100083], [500.8004834850245, 1517.3935222100079]]]}, "properties": {"name": "", "kind": "farmland", "category": "parque", "extrude": false}}, {"type": "Feature", "geometry": {"type": "Polygon", "coordinates": [[[1210.601864877632, 1506.9912866543496], [1210.601864877632, 1533.109184278855], [1191.8479481745455, 1563.7026422097576], [1182.1273316636934, 1568.1554422099844], [1165.828116099824, 1564.2592422099342], [1141.0847286173696, 1533.6462422101044], [1166.6136204641082, 1487.3371222099593], [1210.601864877632, 1506.9912866543496]]]}, "properties": {"name": "", "kind": "farmland", "category": "parque", "extrude": false}}, {"type": "Feature", "geometry": {"type": "Polygon", "coordinates": [[[370.40675897441736, 1389.8208022097751], [323.5710612397091, 1459.3958022101074], [276.1462352313516, 1491.5672822099573], [248.26083029106246, 1463.6259622101054], [334.0771821151943, 1360.8776022100799], [370.40675897441736, 1389.8208022097751]]]}, "properties": {"name": "", "kind": "farmland", "category": "parque", "extrude": false}}, {"type": "Feature", "geometry": {"type": "Polygon", "coordinates": [[[-622.0780056010232, 1630.4946422099974], [-643.4829995343101, 1693.1678022099582], [-672.546661021549, 1678.4735622098815], [-668.7173272443987, 1665.115162209992], [-680.3035166211672, 1658.435962209849], [-659.9785911891636, 1615.8004022099208], [-622.0780056010232, 1630.4946422099974]]]}, "properties": {"name": "", "kind": "farmland", "category": "parque", "extrude": false}}, {"type": "Feature", "geometry": {"type": "Polygon", "coordinates": [[[-691.7915179522694, 1610.1230822100172], [-675.0013621607659, 1609.343842210007], [-665.9680619685316, 1613.128722209943], [-679.0270720289, 1641.9606022099192], [-711.9200672932893, 1669.6792822099378], [-716.6330934803901, 1667.2302422097932], [-713.1965118855563, 1656.098242209819], [-710.1526824730391, 1619.4739622101379], [-704.4577758303212, 1607.6740422098726], [-691.7915179522694, 1610.1230822100172]]]}, "properties": {"name": "", "kind": "farmland", "category": "parque", "extrude": false}}, {"type": "Feature", "geometry": {"type": "Polygon", "coordinates": [[[-706.7161008782053, 1602.7759622099788], [-713.7856401588568, 1623.5928022100213], [-715.356648888123, 1642.7398422099293], [-716.2403412980736, 1649.419042210072], [-718.2041022093076, 1648.7511222097808], [-737.743523277027, 1614.1306022097863], [-724.782701262325, 1604.0004822100511], [-724.0953849433582, 1597.9892022098043], [-719.3823587562572, 1590.530762210047], [-706.7161008782053, 1602.7759622099788]]]}, "properties": {"name": "", "kind": "farmland", "category": "parque", "extrude": false}}, {"type": "Feature", "geometry": {"type": "Polygon", "coordinates": [[[-816.2939597291747, 1531.5311622099077], [-821.596114189925, 1542.6631622098816], [-838.9753982550778, 1561.2536022100085], [-852.3289724517476, 1547.6725622098897], [-844.1793646698128, 1525.9651622101185], [-841.1355352572956, 1528.4142022098674], [-833.6732437943275, 1520.0652022099857], [-816.2939597291747, 1531.5311622099077]]]}, "properties": {"name": "", "kind": "farmland", "category": "parque", "extrude": false}}, {"type": "Feature", "geometry": {"type": "Polygon", "coordinates": [[[-906.7251496950902, 1414.9791222099302], [-894.4516439993548, 1426.7790422097999], [-886.6947883997366, 1434.794082210129], [-873.341214202718, 1449.5996422099247], [-858.8093834590986, 1462.2901222099188], [-848.3032625836133, 1462.735402209981], [-854.9800496819482, 1502.476642210098], [-876.1886675242514, 1495.2408422097787], [-905.0559529205063, 1473.3108022097783], [-916.5439542516085, 1459.8410822097742], [-930.7812208585779, 1431.2318422100268], [-906.7251496950902, 1414.9791222099302]]]}, "properties": {"name": "", "kind": "farmland", "category": "parque", "extrude": false}}, {"type": "Feature", "geometry": {"type": "Polygon", "coordinates": [[[-1194.0233710193577, 1084.0247622098432], [-1211.009902902194, 1084.358722209791], [-1210.9117148565276, 1068.3286422099234], [-1217.7848780461952, 1053.4117622100134], [-1173.9930097240042, 1008.1045222101072], [-1169.3781715825698, 1008.5498022097739], [-1158.282922433784, 1051.6306422097646], [-1154.3554006109673, 1058.1985222097928], [-1135.9942360901975, 1067.9946822099755], [-1136.6815524091644, 1085.1379622098011], [-1137.368868728131, 1099.0529622098675], [-1135.5032958625636, 1106.845362209968], [-1142.9655873255315, 1112.5226822098718], [-1155.5336571579169, 1151.1507222100308], [-1163.2905127575352, 1144.9168022099504], [-1177.5277793645046, 1133.8961222100909], [-1188.3284643766399, 1129.6659622100929], [-1214.4464844970278, 1121.2056422100968], [-1233.7895294734144, 1113.6358822098296], [-1224.1671010078799, 1099.2756022100964], [-1208.4570137176597, 1102.2812422100221], [-1206.493252806077, 1097.049202209785], [-1203.2530473025759, 1098.2737222098576], [-1202.1729788012924, 1094.0435622098594], [-1193.7288068827077, 1094.4888422099216], [-1194.0233710193577, 1084.0247622098432]]]}, "properties": {"name": "", "kind": "farmland", "category": "parque", "extrude": false}}, {"type": "Feature", "geometry": {"type": "Polygon", "coordinates": [[[-818.8468489140579, 1000.6460822099546], [-794.201649476921, 1061.983402210124], [-890.033181948904, 1100.6114422098876], [-914.7765694313584, 1039.2741222101135], [-818.8468489140579, 1000.6460822099546]]]}, "properties": {"name": "", "kind": "pitch", "category": "parque", "extrude": false}}, {"type": "Feature", "geometry": {"type": "Polygon", "coordinates": [[[-1252.5434461765008, 1008.1045222101072], [-1254.801771224385, 993.7442422099786], [-1251.4633776752175, 993.2989622099162], [-1251.9543179032005, 990.7386022100527], [-1227.0145543294134, 990.2933222099905], [-1188.5248404676236, 1010.887522209804], [-1217.5885019552113, 1042.3910822097585], [-1252.052505948518, 1070.44372221012], [-1262.3622507330194, 1011.5554422100952], [-1252.5434461765008, 1008.1045222101072]]]}, "properties": {"name": "", "kind": "farmland", "category": "parque", "extrude": false}}, {"type": "Feature", "geometry": {"type": "Polygon", "coordinates": [[[598.8903410048918, 1371.341682209763], [628.7395068567637, 1378.3548422098534], [646.6097311498993, 1395.6094422097933], [582.1983732590545, 1420.6564422098338], [579.4491079831873, 1400.8414822100303], [527.4094438333954, 1379.9133222098735], [528.9804525623127, 1373.4567622099596], [598.8903410048918, 1371.341682209763]]]}, "properties": {"name": "", "kind": "farmland", "category": "parque", "extrude": false}}, {"type": "Feature", "geometry": {"type": "Polygon", "coordinates": [[[584.3585102612723, 1186.5504822100354], [616.4660011613772, 1313.455282209977], [528.9804525623127, 1373.4567622099596], [469.4784969499015, 1396.7226422097513], [437.86194627777945, 1394.0509622097734], [412.03849029404165, 1320.3571222099529], [426.27575690101094, 1309.225122209979], [510.5210999962254, 1349.3003222100438], [554.3129683184164, 1159.6110422100269], [584.3585102612723, 1186.5504822100354]]]}, "properties": {"name": "", "kind": "farmland", "category": "parque", "extrude": false}}, {"type": "Feature", "geometry": {"type": "Polygon", "coordinates": [[[772.8795577470547, 1227.6275622099436], [727.6148687412639, 1176.5316822100192], [763.3553173271865, 1103.8397222100423], [811.3692716084955, 1121.2056422100968], [844.4586429642175, 1061.204162210114], [886.6795025571422, 1072.7814422097547], [893.4544777011434, 1086.91908221005], [871.3621674488896, 1142.2451222099726], [882.9483568256583, 1148.590362209772], [803.4160399178935, 1290.857322210081], [772.8795577470547, 1227.6275622099436]]]}, "properties": {"name": "", "kind": "farmland", "category": "parque", "extrude": false}}, {"type": "Feature", "geometry": {"type": "Polygon", "coordinates": [[[205.84359460680497, 979.8292422099121], [267.5056872217828, 999.75552220983], [262.49809689803163, 1059.5343622099795], [283.0193984210192, 1067.438082209799], [273.5933460468173, 1107.2906422100302], [251.89378797688005, 1108.8491222100504], [237.95108550656107, 1104.0623622098756], [231.9616147271929, 1088.811522210018], [231.6670505901939, 1070.3324022100057], [190.32988340721974, 1052.521202209889], [184.24222458218526, 996.8612022100187], [190.62444754386993, 981.8330022099944], [205.84359460680497, 979.8292422099121]]]}, "properties": {"name": "", "kind": "orchard", "category": "parque", "extrude": false}}, {"type": "Feature", "geometry": {"type": "Polygon", "coordinates": [[[994.0972244058938, 889.9940022101096], [1047.3151451022868, 888.8808022097562], [1092.0888938800945, 894.6694422097744], [1133.1314969264185, 923.7239622099796], [1119.48335859275, 942.6483622100541], [1046.7260168289863, 976.3783222099241], [1021.9826293465318, 971.5915622097493], [976.7179403407409, 994.7461222098219], [981.430966527842, 1049.5155622099633], [962.6770498247556, 1058.9777622098027], [940.388363481518, 1037.938282209927], [980.9400263002079, 957.3426022101306], [941.9593722104354, 939.9766822100762], [918.2960532292643, 938.418202210056], [890.9015885166091, 955.7841222101105], [850.8408659259022, 923.1673622098028], [882.4574165980241, 860.9394822099044], [994.0972244058938, 889.9940022101096]]]}, "properties": {"name": "", "kind": "farmland", "category": "parque", "extrude": false}}, {"type": "Feature", "geometry": {"type": "Polygon", "coordinates": [[[885.1084938282249, 796.1512422097469], [861.9361150746878, 843.57356220985], [825.0174099421644, 838.3415222100085], [803.9069801455275, 827.7661222098156], [817.1623662968798, 798.2663222099437], [785.5458156247578, 782.0136022098471], [799.783082231727, 745.0553622098225], [885.1084938282249, 796.1512422097469]]]}, "properties": {"name": "", "kind": "farmland", "category": "parque", "extrude": false}}, {"type": "Feature", "geometry": {"type": "Polygon", "coordinates": [[[-851.1507159051467, 683.9406822098819], [-813.2501303166575, 766.2061622098128], [-804.0204540337883, 795.2606822100179], [-830.2366621994938, 813.294522209968], [-835.9315688422116, 801.160642209755], [-860.3803921880159, 766.8740822101039], [-873.8321544307009, 752.6251222100896], [-886.5966003540703, 744.3874422099269], [-900.6374908700556, 740.0459622098144], [-901.7175593713389, 736.9290022097742], [-885.6147198984532, 724.6838022098423], [-852.8199126797305, 683.4954022098196], [-851.1507159051467, 683.9406822098819]]]}, "properties": {"name": "", "kind": "farmland", "category": "parque", "extrude": false}}, {"type": "Feature", "geometry": {"type": "Polygon", "coordinates": [[[-1060.487629050567, 667.1313622100041], [-1034.0750447935288, 669.2464422098054], [-1030.638463198695, 683.9406822098819], [-1021.408786915477, 688.3934822101088], [-1005.9932637615582, 692.1783622100446], [-948.1605049237306, 724.1272022100611], [-921.7479206666925, 736.2610822098786], [-918.8022792994926, 739.823322209981], [-918.5077151628424, 747.1704422100192], [-938.2435123215457, 771.883482210112], [-983.2136371903376, 754.8515222100053], [-984.6864578739375, 759.8609222100134], [-976.9296022743192, 770.5476422099252], [-961.9068313027169, 776.0023222099956], [-969.8600629936678, 790.5852422099576], [-951.1061462905815, 798.2663222099437], [-963.2814639406505, 828.7680022100545], [-974.8676533174191, 824.5378422100565], [-992.3451254282381, 810.9568022099379], [-1005.3059474425913, 795.4833222098513], [-1011.688170404625, 769.8797222100296], [-1033.4859165198795, 732.8101622098906], [-1035.84242961343, 720.008362209782], [-1042.322840620781, 720.008362209782], [-1045.8576102612813, 711.3254022099525], [-1064.3169628273686, 680.6010822100084], [-1062.1568258251507, 668.1332422098476], [-1060.487629050567, 667.1313622100041]]]}, "properties": {"name": "", "kind": "farmland", "category": "parque", "extrude": false}}, {"type": "Feature", "geometry": {"type": "Polygon", "coordinates": [[[-903.7795083282392, 656.7786022100402], [-896.0226527282722, 669.6917222098676], [-868.6281880156171, 654.4408822100099], [-855.9619301375652, 679.4878822100504], [-864.2097259651663, 690.0632822098478], [-872.4575217927674, 697.0764422099383], [-881.2944458936689, 712.1046422099625], [-890.033181948904, 721.789482210031], [-907.5106540597233, 732.6988422097761], [-912.3218682921417, 728.9139622098403], [-903.3867561459227, 709.9895622097658], [-907.3142779683905, 707.8744822099645], [-902.9940039636061, 698.3009622100105], [-914.6783813856922, 692.401002209878], [-929.0138360383278, 720.5649622099587], [-937.556196002579, 712.9952022100871], [-943.545666781947, 682.1595622100284], [-936.4761275012957, 664.4596822100261], [-903.7795083282392, 656.7786022100402]]]}, "properties": {"name": "", "kind": "farmland", "category": "parque", "extrude": false}}, {"type": "Feature", "geometry": {"type": "Polygon", "coordinates": [[[-946.6876842401307, 665.5728822099841], [-946.0985559668304, 669.8030422099821], [-948.2586929690481, 685.9444422099642], [-942.8583504629803, 704.3122422098621], [-980.6607480058032, 684.6086022097775], [-988.7121677420716, 697.6330422101149], [-1000.9856734378069, 689.3953622099523], [-1013.7501193611763, 678.2633622099781], [-1019.6414020952269, 668.9124822098576], [-946.6876842401307, 665.5728822099841]]]}, "properties": {"name": "", "kind": "farmland", "category": "parque", "extrude": false}}, {"type": "Feature", "geometry": {"type": "Polygon", "coordinates": [[[-1079.143357707987, 665.9068422099318], [-1068.440860741169, 665.1276022099217], [-1065.5934074199845, 666.6860822099419], [-1068.0481085588524, 680.8237222098417], [-1081.0089305735546, 689.0614022100044], [-1096.9153939551077, 700.4160422098118], [-1107.028762648625, 683.1614422098719], [-1079.143357707987, 665.9068422099318]]]}, "properties": {"name": "", "kind": "farmland", "category": "parque", "extrude": false}}, {"type": "Feature", "geometry": {"type": "Polygon", "coordinates": [[[-1221.712399869012, 650.6560022100741], [-1220.6323313677287, 656.5559622098112], [-1202.1729788012924, 653.3276822100521], [-1205.020432122826, 683.7180422100485], [-1247.5358558527498, 689.0614022100044], [-1257.256472363602, 690.1746022099622], [-1259.514797411486, 683.7180422100485], [-1258.4347289102027, 654.9974822097911], [-1221.712399869012, 650.6560022100741]]]}, "properties": {"name": "", "kind": "farmland", "category": "parque", "extrude": false}}, {"type": "Feature", "geometry": {"type": "Polygon", "coordinates": [[[-982.329944780387, 624.941082210138], [-982.2317567347205, 622.380722209879], [-971.8238239049017, 616.0354822100796], [-967.5035499001174, 611.0260822100715], [-960.5321986647833, 609.6902422098849], [-958.2738736168992, 611.1374022097905], [-957.5865572979326, 614.3656822099451], [-949.0441973336812, 621.9354422098168], [-945.5094276935299, 639.635322209819], [-944.3311711465803, 661.3427222099859], [-949.4369495159976, 663.0125222101206], [-992.9342537015386, 665.3502422097552], [-995.8798950683894, 625.6090022100336], [-982.329944780387, 624.941082210138]]]}, "properties": {"name": "", "kind": "farmland", "category": "parque", "extrude": false}}, {"type": "Feature", "geometry": {"type": "Polygon", "coordinates": [[[-1029.656582743078, 608.3544022100937], [-1019.5432140495607, 611.0260822100715], [-1010.0189736296924, 610.8034422098427], [-997.1563396606566, 612.2506022097484], [-995.8798950683894, 625.6090022100336], [-992.9342537015386, 665.3502422097552], [-1023.5689239180437, 665.9068422099318], [-1039.3771992539303, 640.0806022098812], [-1049.1960038104487, 630.061802209865], [-1055.3818506811494, 624.7184422099092], [-1060.9785692782011, 620.0430022098489], [-1062.942330189784, 612.2506022097484], [-1059.3093725036174, 606.3506422100113], [-1029.656582743078, 608.3544022100937]]]}, "properties": {"name": "", "kind": "farmland", "category": "parque", "extrude": false}}, {"type": "Feature", "geometry": {"type": "Polygon", "coordinates": [[[-920.9624163020593, 606.1280022097824], [-909.2780388796243, 604.5695222097623], [-904.2704485558733, 617.0373622099231], [-885.3201557618031, 613.9204022098829], [-872.6538978837513, 642.7522822098592], [-902.3066876446393, 652.9937222101044], [-940.4036493241124, 663.0125222101206], [-942.26922218968, 643.4202022097548], [-946.6876842401307, 620.71092221014], [-947.0804364224473, 607.5751622100836], [-920.9624163020593, 606.1280022097824]]]}, "properties": {"name": "", "kind": "farmland", "category": "parque", "extrude": false}}, {"type": "Feature", "geometry": {"type": "Polygon", "coordinates": [[[-1127.353688080629, 619.15244221012], [-1119.6950205263279, 601.4525622101177], [-1113.8037377926264, 594.5507222097461], [-1070.4046216527518, 657.7804822098835], [-1081.6962468925212, 659.1163222100703], [-1094.067940633923, 667.2426822101186], [-1132.65584254103, 626.9448422098249], [-1127.353688080629, 619.15244221012]]]}, "properties": {"name": "", "kind": "farmland", "category": "parque", "extrude": false}}, {"type": "Feature", "geometry": {"type": "Polygon", "coordinates": [[[-1093.380624314956, 588.4281222097802], [-1067.7535444222024, 580.0791222098985], [-1039.1808231629464, 606.1280022097824], [-1065.1024671920015, 603.6789622100333], [-1076.590468523104, 603.0110422101377], [-1077.4741609334033, 604.5695222097623], [-1070.699185789402, 613.8090822097685], [-1076.197716340787, 616.8147222100897], [-1072.9575108372862, 623.8278822097847], [-1068.8336129234856, 625.831642209867], [-1066.8698520122516, 623.0486422097747], [-1062.7459540984512, 624.3844822099613], [-1047.7231831268489, 635.8504422098832], [-1038.100754661663, 649.7654422099497], [-1036.2351817957467, 652.548442210042], [-1029.7547707883955, 662.7898822098916], [-1055.1854745898167, 663.1238422098395], [-1061.0767573238675, 658.3370822100602], [-1073.644827156253, 643.5315222098693], [-1070.6009977437357, 640.6372022100579], [-1075.412211976503, 634.2919622098632], [-1078.8487935713367, 635.8504422098832], [-1090.336794902439, 619.0411222100055], [-1109.3852757421755, 592.2130022101114], [-1093.380624314956, 588.4281222097802]]]}, "properties": {"name": "", "kind": "farmland", "category": "parque", "extrude": false}}, {"type": "Feature", "geometry": {"type": "Polygon", "coordinates": [[[-1245.5720949411668, 600.895962209941], [-1212.3845355401274, 581.4149622100853], [-1200.2092178900587, 578.0753622098161], [-1173.4038814507037, 599.5601222097542], [-1160.737623572652, 611.3600422100194], [-1129.8083892194968, 640.7485222097769], [-1202.1729788012924, 653.3276822100521], [-1220.6323313677287, 656.5559622098112], [-1221.712399869012, 650.6560022100741], [-1226.916366283747, 633.9580022099153], [-1229.17469133198, 633.9580022099153], [-1251.561565720884, 608.6883622100414], [-1245.5720949411668, 600.895962209941]]]}, "properties": {"name": "", "kind": "farmland", "category": "parque", "extrude": false}}, {"type": "Feature", "geometry": {"type": "Polygon", "coordinates": [[[-1286.90926212449, 575.9602822100148], [-1284.0618088029566, 573.6225622099847], [-1270.5118585149542, 590.0979222099147], [-1292.2114165848914, 605.511047993167], [-1292.2114165848914, 568.2212091563399], [-1286.90926212449, 575.9602822100148]]]}, "properties": {"name": "", "kind": "farmland", "category": "parque", "extrude": false}}, {"type": "Feature", "geometry": {"type": "Polygon", "coordinates": [[[-1272.671995517172, 514.5116422101264], [-1254.2126429510847, 523.5285622099037], [-1244.4920264402326, 534.32660220993], [-1234.378657746715, 544.5680422097796], [-1226.0326738737963, 550.5793222100266], [-1225.8362977824636, 552.8057222099424], [-1233.396777291098, 558.9283222099083], [-1230.3529478785808, 562.0452822099485], [-1246.2594112601337, 572.286722209798], [-1236.0478545212986, 590.4318822098626], [-1244.0010862122497, 595.2186422100373], [-1254.0162668597518, 604.2355622098146], [-1261.282182231736, 594.4394022100272], [-1266.6825247378038, 589.7639622099668], [-1291.7204763569084, 562.9358422100729], [-1292.2114165848914, 562.2765684233292], [-1292.2114165848914, 537.8577325804533], [-1272.671995517172, 514.5116422101264]]]}, "properties": {"name": "", "kind": "farmland", "category": "parque", "extrude": false}}, {"type": "Feature", "geometry": {"type": "Polygon", "coordinates": [[[-1272.671995517172, 514.5116422101264], [-1292.2114165848914, 537.8577325804533], [-1292.2114165848914, 496.08763112065856], [-1272.671995517172, 514.5116422101264]]]}, "properties": {"name": "", "kind": "farmland", "category": "parque", "extrude": false}}, {"type": "Feature", "geometry": {"type": "Polygon", "coordinates": [[[805.3798008291275, 713.106522209806], [768.7556598332542, 800.9380022099217], [728.6949372425472, 780.1211622098792], [685.3940091479903, 769.4344422099674], [713.3776021342946, 666.352122209994], [805.3798008291275, 713.106522209806]]]}, "properties": {"name": "", "kind": "farmland", "category": "parque", "extrude": false}}, {"type": "Feature", "geometry": {"type": "Polygon", "coordinates": [[[1209.129044194032, 726.910202209758], [1203.9250777789482, 747.9496822100293], [1186.6439817594617, 785.687162210064], [1146.8778233057537, 914.8183622099212], [1090.419697105511, 878.0827622101255], [1028.5612283992004, 869.7337622098484], [905.7279833968788, 850.2527622099926], [964.5426226906719, 673.8105622097512], [1041.7184265048863, 528.4266422097974], [1104.5587756668137, 429.6858022099366], [1146.3868830777708, 460.96672221005747], [1169.3628857399751, 499.5947622098211], [1188.8041187620283, 528.8719222098597], [1168.6755694210085, 558.7056822100749], [1147.9578918066882, 596.5544822098285], [1166.1226802364743, 613.1411622098728], [1159.0531409558225, 623.2712822100035], [1164.846235644207, 628.1693622098971], [1186.6439817594617, 603.2336822099711], [1201.9613168677142, 594.2167622097984], [1204.2196419159472, 594.8846822100894], [1210.601864877632, 605.9857599876557], [1210.601864877632, 723.6025601040637], [1209.129044194032, 726.910202209758]]]}, "properties": {"name": "", "kind": "farmland", "category": "parque", "extrude": false}}, {"type": "Feature", "geometry": {"type": "Polygon", "coordinates": [[[535.8536157519803, 657.1125622099879], [530.0605210635961, 684.4972822100585], [494.81101270565637, 667.4653222099519], [494.81101270565637, 657.891802209998], [501.88055198630775, 656.110682209749], [505.02256944449135, 650.5446822099598], [535.8536157519803, 657.1125622099879]]]}, "properties": {"name": "", "kind": "pitch", "category": "parque", "extrude": false}}, {"type": "Feature", "geometry": {"type": "Polygon", "coordinates": [[[596.4356398660237, 546.571802209862], [641.2093886438316, 557.592482210117], [695.9983180691419, 544.4567222100607], [709.1555161748278, 540.7831622098438], [720.1525772782959, 548.130282209882], [721.8217740528796, 560.7094422097617], [709.1555161748278, 583.9753222099488], [707.7808835368942, 588.3168022100613], [702.2823529855091, 605.4600822098869], [699.0421474816591, 615.7015222101319], [694.9182495678587, 624.4958022100758], [644.8423463296492, 637.6315622101322], [610.6729064729928, 754.0722822099953], [602.5232986910581, 787.5796022100319], [534.0862309317303, 780.0098422097648], [546.0651724908153, 738.9327622098565], [544.003223533915, 719.3404422098864], [541.6467104403646, 682.1595622100284], [563.2480804646354, 655.3314422101345], [554.5093444094003, 640.6372022100579], [445.02967360409724, 607.3525222098547], [439.43295500669683, 593.1035622098404], [464.17634248915124, 527.5360822100685], [486.85778101470544, 518.0738822098334], [596.4356398660237, 546.571802209862]]]}, "properties": {"name": "", "kind": "orchard", "category": "parque", "extrude": false}}, {"type": "Feature", "geometry": {"type": "Polygon", "coordinates": [[[1153.161858221772, 361.2240022099577], [1165.4353639175074, 338.7373622097807], [1210.601864877632, 289.29213038181433], [1210.601864877632, 428.902018536283], [1153.161858221772, 361.2240022099577]]]}, "properties": {"name": "", "kind": "farmland", "category": "parque", "extrude": false}}, {"type": "Feature", "geometry": {"type": "Polygon", "coordinates": [[[-320.14976548712093, 161.4046022098104], [-317.30231216593637, 140.03116220998677], [-309.4472685206518, 116.20868221001857], [-312.8838501154856, 96.83900220988178], [-307.09075542710127, 72.01464221007015], [-288.33683872401497, 58.322282209837084], [-274.394136253696, 57.32040220999366], [-268.1101013376777, 71.90332220995572], [-266.931844790728, 103.07292220996217], [-256.81847609755926, 120.66148220984999], [-249.94531290789175, 160.1800822101336], [-227.3620624280039, 178.77052220986485], [-227.9511907013043, 198.69680220978282], [-224.8091732431207, 217.39856221002398], [-241.8938931716233, 214.83820220976497], [-272.33218729679567, 179.77240221010376], [-294.71906168569967, 174.5403622098668], [-306.010686925818, 183.11200220997733], [-320.14976548712093, 161.4046022098104]]]}, "properties": {"name": "", "kind": "forest", "category": "parque", "extrude": false}}, {"type": "Feature", "geometry": {"type": "Polygon", "coordinates": [[[-486.1857505383331, 33.72056220985883], [-472.24304806801405, 59.99208220997161], [-452.801815045961, 96.72768220976735], [-447.4014725398933, 106.96912221001242], [-478.52708298438125, 129.7897222101372], [-523.2026437165229, 56.42984220986918], [-486.1857505383331, 33.72056220985883]]]}, "properties": {"name": "", "kind": "farmland", "category": "parque", "extrude": false}}, {"type": "Feature", "geometry": {"type": "Polygon", "coordinates": [[[-379.1607808722469, 88.49000221000011], [-402.72591180775163, 112.08984221013495], [-422.0689567841384, 109.52948220987594], [-444.8485833553589, 101.95972221000432], [-452.801815045961, 96.72768220976735], [-472.24304806801405, 59.99208220997161], [-433.0660178876065, 26.150802209987205], [-379.1607808722469, 88.49000221000011]]]}, "properties": {"name": "", "kind": "farmland", "category": "parque", "extrude": false}}, {"type": "Feature", "geometry": {"type": "Polygon", "coordinates": [[[-1071.1901260170362, -8.80367778995506], [-1062.8441421441175, 17.13388220981443], [-1132.4594664500462, 43.07144220997941], [-1140.8054503229648, 16.799922209866622], [-1071.1901260170362, -8.80367778995506]]]}, "properties": {"name": "", "kind": "pitch", "category": "parque", "extrude": false}}, {"type": "Feature", "geometry": {"type": "Polygon", "coordinates": [[[-903.6813202825728, -51.43923778988338], [-893.0770113614213, -14.592317789973208], [-1005.9932637615582, 17.356522210043295], [-1012.0809225865926, -4.796157790185873], [-1007.3678963994918, -9.2489577900173], [-1010.6081019033417, -21.048877789886973], [-903.6813202825728, -51.43923778988338]]]}, "properties": {"name": "", "kind": "pitch", "category": "parque", "extrude": false}}, {"type": "Feature", "geometry": {"type": "Polygon", "coordinates": [[[230.19422990694287, -186.24775779003983], [204.9599021965055, -127.24815778990049], [143.395997627194, -165.208277790164], [118.94717428138976, -144.1687977898927], [28.81054845212462, -203.16839779003203], [49.82279020309508, -245.24735779017917], [79.37739191831683, -239.34739779004659], [71.71872436436499, -228.4380377899059], [107.16460881328852, -198.0476777899095], [121.5000634659241, -214.9683177899017], [125.722149425391, -241.9077577899101], [171.18321452216568, -258.71707779018334], [238.6384018255278, -231.77763779017496], [230.19422990694287, -186.24775779003983]]]}, "properties": {"name": "", "kind": "farmland", "category": "parque", "extrude": false}}, {"type": "Feature", "geometry": {"type": "Polygon", "coordinates": [[[-3.9842587665982325, -262.39063779000475], [12.80589702490533, -226.76823779016686], [27.534103859857453, -199.0495577901484], [32.14894200129206, -190.47791779003788], [-9.18822518168209, -135.7084777898966], [-27.647577747769375, -143.2782377901637], [-34.42255289177061, -179.5685577898972], [-46.20511835987184, -218.30791779017076], [-41.19752803577184, -238.56815779003654], [-43.75041722065502, -269.737757790043], [-33.53886048181999, -277.30751778991464], [-14.195815505433256, -283.98671779005724], [-3.9842587665982325, -262.39063779000475]]]}, "properties": {"name": "", "kind": "farmland", "category": "parque", "extrude": false}}, {"type": "Feature", "geometry": {"type": "Polygon", "coordinates": [[[-1266.9770888744538, -216.5267977899218], [-1272.475619426188, -228.54935779002034], [-1291.3277241745918, -219.643757789962], [-1292.2114165848914, -220.48404424186458], [-1292.2114165848914, -276.61890368762886], [-1226.0326738737963, -300.90735779004945], [-1203.3512353482422, -263.8377977899104], [-1194.9070634296572, -247.8077177900427], [-1174.680326042971, -242.13039779013897], [-1123.2297901668283, -251.81523779020736], [-1104.3776854180755, -222.5380777901688], [-1090.2386068567728, -190.47791779003788], [-1113.6073617012935, -175.7836777899614], [-1155.4354691122508, -154.29891779002332], [-1191.2741057434907, -139.4933577902279], [-1234.5750338380476, -134.70659779005317], [-1255.5872755890182, -170.2176777901721], [-1276.5995173399886, -205.6174377901766], [-1280.9197913447729, -209.73627779006023], [-1266.9770888744538, -216.5267977899218]]]}, "properties": {"name": "", "kind": "farmland", "category": "parque", "extrude": false}}, {"type": "Feature", "geometry": {"type": "Polygon", "coordinates": [[[-1271.5919270162374, -370.816317789934], [-1234.4768457923813, -383.5067977899281], [-1209.2425180819441, -342.9863177901966], [-1235.3605382023318, -332.07695779005587], [-1269.0390378313543, -345.54667779006013], [-1282.5889881193568, -343.8768777899256], [-1276.5995173399886, -310.14691779005557], [-1292.2114165848914, -309.27643188841614], [-1292.2114165848914, -432.3300516889418], [-1271.5919270162374, -370.816317789934]]]}, "properties": {"name": "", "kind": "farmland", "category": "parque", "extrude": false}}, {"type": "Feature", "geometry": {"type": "Polygon", "coordinates": [[[-863.7187857375322, -431.48571779020784], [-1004.4222550326408, -368.25595779007045], [-1026.318189193562, -394.41615779006884], [-1035.6460535224462, -428.1461177899388], [-1045.759422215615, -474.00995779002176], [-1015.6156922270927, -483.4721577898613], [-981.839004552753, -498.38903779016664], [-943.9384189642639, -520.319077790167], [-879.7234371644026, -544.4755177900829], [-863.7187857375322, -431.48571779020784]]]}, "properties": {"name": "", "kind": "farmland", "category": "parque", "extrude": false}}, {"type": "Feature", "geometry": {"type": "Polygon", "coordinates": [[[-709.4653661540724, -578.205477789953], [-696.7991082760205, -552.0452777899545], [-743.1438657830947, -487.14571779007815], [-792.9252048846538, -551.1547177902255], [-709.4653661540724, -578.205477789953]]]}, "properties": {"name": "", "kind": "farmland", "category": "parque", "extrude": false}}, {"type": "Feature", "geometry": {"type": "Polygon", "coordinates": [[[-628.4602285627078, -735.166677789943], [-584.4719841491842, -694.0895977900348], [-621.3906892820563, -654.1257177900844], [-640.1446059847939, -683.2915577900086], [-624.3363306489073, -701.9933177902498], [-643.0902473519935, -719.3592377899087], [-628.4602285627078, -735.166677789943]]]}, "properties": {"name": "", "kind": "pitch", "category": "parque", "extrude": false}}, {"type": "Feature", "geometry": {"type": "Polygon", "coordinates": [[[-20.47985042145159, -764.7777977899294], [-17.828773191250903, -733.3855577900896], [-11.642926320898917, -685.5179577899243], [-13.704875277450355, -683.6255177899563], [-63.584402424675815, -699.5442777901052], [-66.53004379187554, -704.108397790051], [-64.17353069832505, -764.7777977899294], [-20.47985042145159, -764.7777977899294]]]}, "properties": {"name": "", "kind": "park", "category": "parque", "extrude": false}}, {"type": "Feature", "geometry": {"type": "Polygon", "coordinates": [[[711.3156531773944, -74.3711577901226], [769.8357283345375, -24.945077789937216], [802.5323475075941, 36.614882210065645], [788.4914569919574, 46.1884022100196], [715.439551091195, -41.643077790096044], [688.6342146518402, -64.57499778993977], [711.3156531773944, -74.3711577901226]]]}, "properties": {"name": "", "kind": "farmland", "category": "parque", "extrude": false}}, {"type": "Feature", "geometry": {"type": "Polygon", "coordinates": [[[910.8337617662961, -736.0572377900676], [920.0634380495144, -714.461157790015], [912.9938987688628, -702.1046377899687], [902.4877778933776, -707.2253577900913], [888.4468873773923, -719.1365977900753], [884.6175536002419, -722.5875177900633], [882.653792689008, -735.2779977900575], [897.0874353873099, -742.7364377902102], [906.9062399438284, -751.9759977902163], [910.8337617662961, -736.0572377900676]]]}, "properties": {"name": "", "kind": "farmland", "category": "parque", "extrude": false}}, {"type": "Feature", "geometry": {"type": "Polygon", "coordinates": [[[490.19617456422174, -887.5637577899873], [510.5210999962254, -910.6069977899455], [518.6707077781601, -912.6107577900278], [532.2206580661626, -938.325677789964], [539.9775136657809, -931.0898777900401], [560.4006271434508, -952.3519977901448], [580.6273645297882, -934.5407977900281], [516.3141946846097, -828.452837790129], [462.80170985121777, -843.8149977901012], [451.4118965657819, -838.9169177902074], [444.9314855584309, -853.4998377901695], [490.19617456422174, -887.5637577899873]]]}, "properties": {"name": "", "kind": "farmland", "category": "parque", "extrude": false}}, {"type": "Feature", "geometry": {"type": "Polygon", "coordinates": [[[777.7889600251397, -949.1237177899902], [784.2693710324907, -934.7634377898614], [789.571525492892, -921.2937177902528], [788.8842091739252, -908.3805977900297], [784.367559078157, -902.8145977902404], [772.2904294734055, -914.1692377900479], [761.5879325069365, -921.0710777900239], [763.3553173271865, -936.3219177898816], [756.1875900008687, -944.6709177901587], [748.2343583099178, -948.2331577898657], [752.9473844970188, -963.4839977901188], [749.1180507202173, -983.7442377899846], [754.1256410439684, -1000.9988377899247], [760.9988042336361, -1012.5761177899609], [769.9339163798551, -1014.3572377902099], [780.9309774833232, -1004.8950377899748], [790.1606537665411, -983.9668777902135], [797.328381092859, -975.395237790103], [793.7936114523588, -971.4990377900527], [780.0472850733726, -986.6385577901915], [771.1121729268048, -982.8536777898602], [761.2933683702863, -981.0725577900066], [764.9263260561039, -955.1349977902372], [774.4505664759722, -954.2444377901127], [777.7889600251397, -949.1237177899902]]]}, "properties": {"name": "", "kind": "farmland", "category": "parque", "extrude": false}}, {"type": "Feature", "geometry": {"type": "Polygon", "coordinates": [[[718.8761326860288, -1271.9517177900289], [730.9532622904313, -1263.0461177899704], [728.1058089692468, -1257.5914377899], [731.2478264270816, -1254.363157790141], [727.0257404679636, -1248.9084777900707], [691.5798560186912, -1273.5101977900488], [692.6599245199744, -1278.7422377898904], [718.8761326860288, -1271.9517177900289]]]}, "properties": {"name": "", "kind": "farmland", "category": "parque", "extrude": false}}, {"type": "Feature", "geometry": {"type": "Polygon", "coordinates": [[[604.6834356932759, -1351.9907977900439], [610.2801542906764, -1343.6417977901622], [619.2152664368954, -1315.1438777901337], [610.4765303816602, -1311.02503779025], [605.2725639669252, -1312.4721977901559], [596.3374518203573, -1320.0419577900275], [589.1697244940395, -1327.8343577901278], [579.9400482108215, -1333.9569577900938], [598.7921529595742, -1356.8888777899376], [604.6834356932759, -1351.9907977900439]]]}, "properties": {"name": "", "kind": "farmland", "category": "parque", "extrude": false}}, {"type": "Feature", "geometry": {"type": "Polygon", "coordinates": [[[442.8695366015306, -1444.3863977901055], [416.06420016217584, -1425.2393577901976], [392.1063170443545, -1442.4939577901375], [398.193975869389, -1447.0580777900834], [398.7831041426894, -1450.8429577900192], [409.9765413371414, -1458.9693177900674], [420.2862861216428, -1449.618437789947], [427.84676562992826, -1458.078757789943], [442.8695366015306, -1444.3863977901055]]]}, "properties": {"name": "", "kind": "farmland", "category": "parque", "extrude": false}}, {"type": "Feature", "geometry": {"type": "Polygon", "coordinates": [[[294.9983399801043, -1561.1610777899164], [298.631297665922, -1554.036597790107], [287.63423656280264, -1536.3367177901048], [262.30172080669894, -1558.4893977899383], [269.764012269667, -1570.0666777899746], [294.9983399801043, -1561.1610777899164]]]}, "properties": {"name": "", "kind": "farmland", "category": "parque", "extrude": false}}, {"type": "Feature", "geometry": {"type": "Polygon", "coordinates": [[[438.8438267333964, -1612.8135577900175], [446.0115540597142, -1609.251317789915], [454.2593498873153, -1601.9041977898767], [460.44519675766725, -1588.9910777900493], [467.8093001753177, -1581.4213177901777], [480.18099391637054, -1580.864717790001], [492.3563115664395, -1585.7627977898946], [502.4696802596082, -1590.2155977901216], [510.81566413287567, -1577.079837790065], [492.0617474297893, -1564.1667177902375], [476.8426003672031, -1555.9290377900747], [453.96478575031625, -1546.132877789892], [446.2079301506981, -1546.355517790121], [439.6293310980295, -1550.6969977902334], [436.7818777764962, -1552.7007577899203], [427.55220149327806, -1554.1479177902213], [424.1156198984443, -1562.1629577901554], [423.13373944282733, -1579.6401977899286], [426.5703210376611, -1591.996717789975], [432.75616790836193, -1593.2212377900473], [433.0507320450121, -1597.0061177899831], [426.5703210376611, -1602.5721177901678], [429.02502217687794, -1612.8135577900175], [438.8438267333964, -1612.8135577900175]]]}, "properties": {"name": "", "kind": "farmland", "category": "parque", "extrude": false}}, {"type": "Feature", "geometry": {"type": "Polygon", "coordinates": [[[-17.141456872284145, -766.2249577902305], [27.043163631874553, -773.3494377900399], [31.952565910308206, -772.4588777899155], [74.66436573121588, -731.9383977901839], [43.24419115042654, -704.2197177901654], [48.34996951984405, -693.755637790087], [20.857316761522565, -687.1877577900589], [22.52651353610629, -676.6123577898659], [-6.635335996798918, -683.2915577900086], [-17.141456872284145, -766.2249577902305]]]}, "properties": {"name": "Cementerio de Granadilla", "kind": "cemetery", "category": "parque", "extrude": false}}, {"type": "Feature", "geometry": {"type": "Polygon", "coordinates": [[[-672.1539088392325, -1147.273317790003], [-684.4274145349677, -1124.5640377899927], [-703.181331238054, -1094.507637789944], [-714.9638967058064, -1073.4681577900683], [-732.9323090442597, -1086.9378777900724], [-727.5319665381919, -1094.7302777901727], [-714.2765803868397, -1107.754717790115], [-719.9714870295576, -1115.881077790163], [-712.6073836122561, -1125.1206377901692], [-701.7085105544542, -1129.3507977901672], [-687.471243947485, -1150.6129177898765], [-672.1539088392325, -1147.273317790003]]]}, "properties": {"name": "", "kind": "farmland", "category": "parque", "extrude": false}}, {"type": "Feature", "geometry": {"type": "Polygon", "coordinates": [[[-168.94017531652713, -1282.0818377901594], [-122.30085367280277, -1283.7516377898985], [-117.39145139471796, -1283.9742777901274], [-120.53346885290155, -1257.9253977902433], [-144.09859978840635, -1259.9291577899303], [-175.5187743695445, -1262.9347977902514], [-172.27856886569458, -1281.970517790045], [-168.94017531652713, -1282.0818377901594]]]}, "properties": {"name": "Plaza Gonzalez Mena", "kind": "park", "category": "parque", "extrude": false}}, {"type": "Feature", "geometry": {"type": "Polygon", "coordinates": [[[-539.2072951437422, -1328.3909577899092], [-583.4901036935671, -1323.8268377899633], [-596.8436778905858, -1336.0720377898951], [-593.0143441134354, -1363.4567577899659], [-574.0640513193653, -1385.2754777902471], [-550.7934845205107, -1391.6207177900465], [-499.24476059870153, -1407.7621177900287], [-483.436485262466, -1407.7621177900287], [-471.8502958856975, -1404.533837789874], [-469.69015888347974, -1390.8414777900364], [-481.66910044221606, -1360.6737577898734], [-472.93036438698084, -1346.6474377900881], [-477.83976666541446, -1323.4928777900154], [-491.4879049987345, -1309.8005177901778], [-539.2072951437422, -1328.3909577899092]]]}, "properties": {"name": "", "kind": "wood", "category": "parque", "extrude": false}}, {"type": "Feature", "geometry": {"type": "Polygon", "coordinates": [[[84.28679419675049, -1518.0802377899258], [85.85780292566787, -1516.5217577899057], [91.06176934075172, -1523.5349177899961], [88.50888015586855, -1526.206597789974], [90.76720520410151, -1529.5461977902432], [103.53165112747088, -1541.791397790175], [112.76132741068893, -1544.0177977900908], [118.259857962423, -1532.9971177902312], [128.66779079224187, -1513.4047977898654], [132.59531261470974, -1496.26151779004], [135.44276593624312, -1477.0031577900177], [132.6935006603761, -1469.3220777900315], [117.86710578010644, -1460.0825177900253], [95.18566725455227, -1453.0693577899349], [82.22484523985021, -1478.2276777900897], [78.39551146269987, -1488.9143977900017], [81.63571696654981, -1493.3671977902286], [76.13718641481574, -1499.8237577901423], [74.07523745791546, -1509.6199177899298], [84.28679419675049, -1518.0802377899258]]]}, "properties": {"name": "", "kind": "farmland", "category": "parque", "extrude": false}}, {"type": "Feature", "geometry": {"type": "Polygon", "coordinates": [[[389.25886372282116, -1606.9135977898848], [401.3359933275726, -1608.472077789905], [404.9689510133902, -1593.2212377900473], [407.32546410694073, -1571.4025177901615], [379.7346233029529, -1569.3987577900791], [362.3553392378001, -1564.2780377899564], [358.62419350631603, -1574.8534377901494], [373.6469644779184, -1584.0929977901556], [367.85386978953414, -1596.0042377901395], [376.4944177994518, -1606.6909577900515], [389.25886372282116, -1606.9135977898848]]]}, "properties": {"name": "", "kind": "farmland", "category": "parque", "extrude": false}}, {"type": "Feature", "geometry": {"type": "Polygon", "coordinates": [[[278.5027483249021, -1711.6657177899926], [227.44496463107583, -1693.1865977899804], [221.259117760375, -1714.448717790085], [225.92275238510203, -1716.3411577900529], [285.7077193924751, -1716.3411577900529], [278.5027483249021, -1711.6657177899926]]]}, "properties": {"name": "", "kind": "pitch", "category": "parque", "extrude": false}}]}