{"type": "FeatureCollection", "crs": {"type": "name", "properties": {"name": "EPSG:32628_local_enu_m_section_centroid", "lng0": -16.31833194950033, "lat0": 28.424311730412896}}, "features": [{"type": "Feature", "geometry": {"type": "Polygon", "coordinates": [[[-229.77625348681656, 858.6924695635114], [-228.6993534422523, 859.4717095635214], [-228.01405341370352, 861.4754695636037], [-228.01405341370352, 863.7018695635195], [-229.28675346662328, 865.4829895633729], [-231.3426535522697, 867.1527895635074], [-233.7901536542793, 868.2659895634653], [-235.25865371520686, 868.1546695637463], [-237.11875379284547, 866.930149563674], [-237.60825381303871, 865.7056295636017], [-237.31455380085322, 863.8131895636338], [-236.6292537723044, 861.3641495634893], [-235.84605373992568, 860.028309563698], [-234.1817536702948, 858.9151095637402], [-232.1258535849962, 858.5811495633969], [-229.77625348681656, 858.6924695635114]]]}, "properties": {"name": "", "kind": "reservoir", "category": "agua", "extrude": false}}, {"type": "Feature", "geometry": {"type": "Polygon", "coordinates": [[[-921.635582300213, 606.8866295637106], [-911.3560818719811, 592.5263495635819], [-900.8807814357416, 600.5413895635158], [-910.6707818434323, 614.1224295636345], [-921.635582300213, 606.8866295637106]]]}, "properties": {"name": "", "kind": "reservoir", "category": "agua", "extrude": false}}, {"type": "Feature", "geometry": {"type": "Polygon", "coordinates": [[[-903.7198815541145, 568.0359495637181], [-892.7550810973339, 571.4868695637061], [-895.006781190988, 583.5094295634092], [-906.265281659954, 579.2792695634112], [-903.7198815541145, 568.0359495637181]]]}, "properties": {"name": "", "kind": "reservoir", "category": "agua", "extrude": false}}, {"type": "Feature", "geometry": {"type": "Polygon", "coordinates": [[[-636.8444704395803, 335.37714956342984], [-645.459670798529, 339.4959895637089], [-652.3126710840169, 330.47906956353614], [-639.3898705457676, 328.03002956339157], [-636.8444704395803, 335.37714956342984]]]}, "properties": {"name": "", "kind": "water", "category": "agua", "extrude": false}}, {"type": "Feature", "geometry": {"type": "Polygon", "coordinates": [[[-663.081671532442, 314.4489895636684], [-654.2706711654855, 325.9149495635903], [-668.9556717768478, 329.92246956375493], [-671.598971887213, 327.9187095636726], [-667.0955716995569, 314.4489895636684], [-663.081671532442, 314.4489895636684]]]}, "properties": {"name": "", "kind": "water", "category": "agua", "extrude": false}}, {"type": "Feature", "geometry": {"type": "Polygon", "coordinates": [[[-687.8503725640284, 311.55466956346163], [-696.6613729309848, 330.2564295637028], [-711.6400735545326, 326.13758956342366], [-702.3395731673829, 305.8773495635579], [-687.8503725640284, 311.55466956346163]]]}, "properties": {"name": "", "kind": "water", "category": "agua", "extrude": false}}, {"type": "Feature", "geometry": {"type": "Polygon", "coordinates": [[[-245.63605414761648, -309.72225043647074], [-289.1036559576801, -287.680890436356], [-298.4041563451776, -307.1618904366072], [-262.3769548446251, -327.6447704363063], [-245.63605414761648, -309.72225043647074]]]}, "properties": {"name": "", "kind": "water", "category": "agua", "extrude": false}}, {"type": "Feature", "geometry": {"type": "Polygon", "coordinates": [[[314.3519691736182, -929.7746504363307], [304.17036874956415, -909.2917704366316], [282.33866784052844, -916.7502104363888], [290.56226818311393, -937.901010436379], [314.3519691736182, -929.7746504363307]]]}, "properties": {"name": "", "kind": "water", "category": "agua", "extrude": false}}]}