{"type": "FeatureCollection", "crs": {"type": "name", "properties": {"name": "wgs84_and_EPSG:32628_local_enu_m_section_centroid", "lng0": -16.28062320862775, "lat0": 28.463809847145274}}, "features": [{"type": "Feature", "geometry": {"type": "Polygon", "coordinates": [[[-16.27749, 28.46539], [-16.27637, 28.4649], [-16.27645, 28.46469], [-16.27661, 28.46472], [-16.27676, 28.46469], [-16.27696, 28.46462], [-16.27729, 28.46451], [-16.27786, 28.46436], [-16.27818, 28.46431], [-16.27859, 28.46423], [-16.27879, 28.46417], [-16.27906, 28.46408], [-16.27925, 28.46396], [-16.27941, 28.46383], [-16.27978, 28.46339], [-16.28012, 28.46295], [-16.28019, 28.46284], [-16.28024, 28.4627], [-16.28023, 28.46255], [-16.28019, 28.46242], [-16.28009, 28.46222], [-16.27994, 28.46197], [-16.27987, 28.46179], [-16.27981, 28.46164], [-16.2798, 28.46153], [-16.27984, 28.46142], [-16.27993, 28.46129], [-16.28005, 28.46118], [-16.28021, 28.46104], [-16.28043, 28.46092], [-16.28058, 28.46084], [-16.28075, 28.46074], [-16.2809, 28.46064], [-16.28114, 28.46043], [-16.28133, 28.46025], [-16.28158, 28.46003], [-16.28172, 28.4599], [-16.28186, 28.45983], [-16.28202, 28.45981], [-16.28219, 28.45984], [-16.28236, 28.45991], [-16.2825, 28.46004], [-16.28255, 28.46019], [-16.28256, 28.46032], [-16.28251, 28.46049], [-16.2824, 28.46064], [-16.2823, 28.46084], [-16.28221, 28.46103], [-16.28219, 28.46115], [-16.28219, 28.46134], [-16.28224, 28.46153], [-16.28236, 28.46201], [-16.28277, 28.4639], [-16.28282, 28.46413], [-16.28283, 28.46424], [-16.28282, 28.46437], [-16.28277, 28.46454], [-16.28268, 28.46477], [-16.28266, 28.46487], [-16.28265, 28.46503], [-16.28269, 28.46515], [-16.28268, 28.46516], [-16.28247, 28.46529], [-16.28246, 28.4653], [-16.28216, 28.46551], [-16.282, 28.46562], [-16.28179, 28.46577], [-16.28159, 28.46591], [-16.28155, 28.46601], [-16.28146, 28.46622], [-16.2814, 28.46635], [-16.28134, 28.46649], [-16.28125, 28.46669], [-16.28115, 28.46693], [-16.2811, 28.46702], [-16.28103, 28.4672], [-16.28101, 28.46725], [-16.28082, 28.467], [-16.28057, 28.46678], [-16.28038, 28.46665], [-16.2801, 28.46646], [-16.27989, 28.46634], [-16.2797, 28.46627], [-16.27901, 28.46599], [-16.27821, 28.46565], [-16.2779, 28.46553], [-16.27749, 28.46539]]]}, "properties": {"cusec": "3803806008", "mun": "038", "nmun": "Santa Cruz de Tenerife", "area_m2": 218470.38549090934, "perimeter_m": 2390.358312850864, "coords_system": "wgs84"}}, {"type": "Feature", "geometry": {"type": "Polygon", "coordinates": [[[306.62661321752165, -175.9026157879886], [416.23367983999816, -121.35581578807617], [408.40460365262874, -97.9786157881702], [392.7464512778899, -101.31821578804377], [378.06693342687646, -97.9786157881702], [358.4942429586267, -90.18621578806972], [326.1993036857713, -77.9410157881378], [270.41713585115536, -61.243015787978976], [239.10083110202532, -55.67701578818969], [198.97681564180053, -46.77141578813135], [179.40412517355082, -40.09221578798872], [152.9809930413094, -30.07341578797252], [134.3869370964374, -16.715015788082752], [118.72878472204626, -2.2434157882351258], [82.51930735567998, 46.73738421188801], [49.24573355944687, 95.71818421201115], [42.395291895455166, 107.96338421194307], [37.50211927856658, 123.54818421174855], [38.480753801944296, 140.24618421190738], [42.395291895455166, 154.717784211755], [52.181637129580025, 176.9817842120986], [66.86115498094115, 204.811784211836], [73.71159664493285, 224.8493842118684], [79.58340378519915, 241.54738421202723], [80.56203830857687, 253.79258421195914], [76.647500215066, 266.03778421189105], [67.83978950431886, 280.5093842117387], [56.09617522343857, 292.7545842120661], [40.43802284869973, 308.33938421187156], [18.908063333694585, 321.69778421176136], [4.228545482333463, 330.6033842118197], [-12.408241415783095, 341.73538421179376], [-27.08775926679654, 352.8673842117678], [-50.574987828904796, 376.24458421206924], [-69.16904377377679, 396.28218421210164], [-93.63490685926277, 420.77258421196547], [-107.33579018689849, 435.2441842118131], [-121.0366735148819, 443.0365842119136], [-136.69482588927306, 445.2629842118293], [-153.33161278738962, 441.92338421195575], [-169.96839968550617, 434.1309842118552], [-183.6692830131419, 419.6593842120076], [-188.56245563037817, 402.9613842118488], [-189.54109015375587, 388.48978421200115], [-184.64791753651963, 369.5653842119266], [-173.88293777901706, 352.8673842117678], [-164.0965925448922, 330.6033842118197], [-155.28888183414506, 309.4525842118294], [-153.33161278738962, 296.09418421193965], [-153.33161278738962, 274.94338421194936], [-158.2247854046259, 253.79258421195914], [-169.96839968550617, 200.35898421200457], [-210.0924151453833, -10.035815787940123], [-214.9855877626196, -35.639415788157294], [-215.9642222859973, -47.88461578808921], [-214.9855877626196, -62.35621578793683], [-210.0924151453833, -81.28061578801137], [-201.28470443463618, -106.88421578822854], [-199.32743538788074, -118.0162157882026], [-198.34880086450303, -135.8274157879238], [-202.2633389580139, -149.18581578820906], [-201.28470443463618, -150.2990157881669], [-180.73337944300874, -164.77061578801454], [-179.75474491963104, -165.8838157879724], [-150.39570921725647, -189.26101578787836], [-134.73755684251762, -201.50621578820576], [-114.1862318508902, -218.2042157879691], [-94.61354138264049, -233.78901578817008], [-90.69900328878194, -244.92101578814413], [-81.8912925780348, -268.29821578805013], [-76.0194854377685, -282.76981578789776], [-70.14767829715451, -298.3546157880987], [-61.33996758640737, -320.6186157880468], [-51.55362235228252, -347.33541578822184], [-46.66044973504625, -357.35421578823804], [-39.81000807140222, -377.391815787875], [-37.85273902429911, -382.95781578805975], [-19.25868307942712, -355.1278157879268], [5.207180005711181, -330.637415788063], [23.801235950583173, -316.16581578821535], [51.203002606202304, -295.0150157882251], [71.75432759782973, -281.65661578793987], [90.34838354304941, -273.8642157882349], [157.87416565854568, -242.69461578822842], [236.16492753154455, -204.84581578807934], [266.5025977576445, -191.48741578818957], [306.62661321752165, -175.9026157879886]]]}, "properties": {"cusec": "3803806008", "mun": "038", "nmun": "Santa Cruz de Tenerife", "area_m2": 218470.38549090934, "perimeter_m": 2390.358312850864, "coords_system": "local_m_enu"}}]}