{"type": "FeatureCollection", "crs": {"type": "name", "properties": {"name": "EPSG:32628_local_enu_m_section_centroid", "lng0": -15.432484329545458, "lat0": 28.099655087121214}}, "features": [{"type": "Feature", "geometry": {"type": "Polygon", "coordinates": [[[-672.235791145778, 501.0610183334063], [-649.5518964439433, 509.5213383334024], [-645.6239493093909, 511.5250983334847], [-644.2491678122889, 513.1948983336192], [-643.6599757420275, 514.9760183334728], [-643.5617770637378, 516.6458183336073], [-643.6599757420275, 518.872218333523], [-645.9185453444344, 524.5495383334267], [-650.1410885140302, 535.2362583333386], [-652.1050620813936, 540.0230183335133], [-654.8546250754232, 546.7022183336559], [-665.4700265086543, 573.8642983334977], [-669.2898307948202, 573.8642983334977], [-678.914984432117, 573.3282621065671], [-688.4474425782606, 571.7253157479863], [-697.7954024502303, 569.0708965071855], [-706.8688380845454, 565.3905678924918], [-715.5803673358149, 560.7197734805867], [-723.2498363672538, 555.5086318266299], [-694.6250898125692, 492.7120183335246], [-672.235791145778, 501.0610183334063]]]}, "properties": {"name": "", "kind": "garden", "category": "parque", "extrude": false}}, {"type": "Feature", "geometry": {"type": "Polygon", "coordinates": [[[-700.3206131575567, 514.3080983335772], [-669.1916321165304, 528.4457383334769], [-671.3520030404732, 533.0098583334228], [-669.2898307948202, 533.9004183335473], [-671.2538043621836, 538.0192583334309], [-669.7808241866173, 538.5758583336076], [-669.9772215433711, 538.798498333441], [-674.3961620697206, 548.7059783333427], [-677.8331158124757, 547.1474983333226], [-680.6808774849695, 553.7153783333508], [-679.5024933446213, 554.2719783335275], [-681.7610629470281, 559.0587383333068], [-678.3241092042731, 560.3945783334934], [-681.2700695552309, 566.6284983335738], [-677.9313144907655, 568.0756583334795], [-679.698890701375, 572.1944983333631], [-719.0765607250136, 554.160658333413], [-700.3206131575567, 514.3080983335772]]]}, "properties": {"name": "Cancha Lomo Apolinario", "kind": "pitch", "category": "parque", "extrude": false}}, {"type": "Feature", "geometry": {"type": "Polygon", "coordinates": [[[-694.6250898125692, 492.7120183335246], [-723.2498363672538, 555.5086318266299], [-723.8460934153212, 555.1034955746923], [-731.5864128622071, 548.5958220015551], [-738.726782168995, 541.2594252148779], [-745.1984356759971, 533.1649587263167], [-750.9390478220712, 524.3903766729748], [-755.8933333741701, 515.020183076999], [-760.013579854184, 505.1446180244342], [-763.2601070360528, 494.8587886054628], [-765.6016490884098, 484.2617529802112], [-767.0156556812872, 473.4555663950428], [-767.4006122321565, 464.57255225531424], [-694.6250898125692, 492.7120183335246]]]}, "properties": {"name": "Lomo Apolinario", "kind": "park", "category": "parque", "extrude": false}}, {"type": "Feature", "geometry": {"type": "Polygon", "coordinates": [[[-663.7907048065864, 509.1873783334546], [-658.6843735316858, 510.96849833330805], [-651.6140686895963, 516.5344983334928], [-661.139340490672, 527.7778183335813], [-680.6808774849695, 519.3174983335853], [-677.9313144907655, 513.5288583335671], [-668.897036081487, 509.29869833356906], [-663.7907048065864, 509.1873783334546]]]}, "properties": {"name": "", "kind": "playground", "category": "parque", "extrude": false}}, {"type": "Feature", "geometry": {"type": "Polygon", "coordinates": [[[-729.1910245963506, 498.0553783334806], [-745.1499736264418, 533.22557297815], [-745.1984356759971, 533.1649587263167], [-750.9390478220712, 524.3903766729748], [-755.8933333741701, 515.020183076999], [-760.013579854184, 505.1446180244342], [-763.2601070360528, 494.8587886054628], [-765.6016490884098, 484.2617529802112], [-765.9677211727707, 481.4641399658282], [-729.1910245963506, 498.0553783334806]]]}, "properties": {"name": "Casablanca III", "kind": "pitch", "category": "parque", "extrude": false}}, {"type": "Feature", "geometry": {"type": "Polygon", "coordinates": [[[-674.1997647129668, 480.24417833336383], [-674.297963391431, 475.0121383335224], [-672.1375924674883, 475.0121383335224], [-672.0393937890242, 480.1328583336449], [-661.5321352041796, 479.9102183334161], [-659.4699629585265, 479.01965833368706], [-657.6041880696272, 477.34985833355256], [-656.1312078942354, 475.3460983334702], [-654.363631683626, 472.0064983335966], [-653.9708369702928, 475.0121383335224], [-648.1771149468411, 477.46117833366696], [-654.0690356485825, 493.2686183333058], [-687.6529836487694, 480.46681833359276], [-674.1997647129668, 480.24417833336383]]]}, "properties": {"name": "", "kind": "garden", "category": "parque", "extrude": false}}, {"type": "Feature", "geometry": {"type": "Polygon", "coordinates": [[[-666.2456717655725, 465.1046583336206], [-665.1654863036883, 465.54993833368286], [-664.2816981983837, 466.2178583335785], [-663.6925061281223, 466.9970983335885], [-663.3979100930788, 467.998978333432], [-663.6925061281223, 469.1121783333898], [-664.3798968766733, 469.8914183333999], [-665.0672876252244, 470.3366983334621], [-666.147473087283, 470.44801833357656], [-681.2700695552309, 470.44801833357656], [-683.0376457656661, 470.0027383335143], [-683.6268378359274, 469.22349833350427], [-683.8232351926812, 468.1102983335464], [-683.6268378359274, 466.66313833364075], [-682.9394470873764, 465.7725783335162], [-681.4664669119846, 465.327298333454], [-666.2456717655725, 465.1046583336206]]]}, "properties": {"name": "", "kind": "garden", "category": "parque", "extrude": false}}, {"type": "Feature", "geometry": {"type": "Polygon", "coordinates": [[[-653.4798435784955, 465.21597833333954], [-654.363631683626, 462.9895783334239], [-655.8366118591921, 459.8726183333837], [-657.211393356294, 457.08961833368676], [-646.998730806493, 452.08021833367866], [-648.1771149468411, 455.0858583336044], [-643.3653797069841, 456.4216983333956], [-648.3735123035949, 469.6687783335665], [-653.2834462217418, 467.998978333432], [-653.4798435784955, 465.21597833333954]]]}, "properties": {"name": "", "kind": "garden", "category": "parque", "extrude": false}}, {"type": "Feature", "geometry": {"type": "Polygon", "coordinates": [[[-697.0800567717299, 458.6480983333114], [-700.9098052278181, 432.82185833365634], [-704.6413550056167, 431.59733833358405], [-703.5611695435581, 430.37281833351176], [-702.8737787950071, 429.9275383334495], [-701.9899906898767, 429.4822583333872], [-700.1242158009774, 429.4822583333872], [-698.6512356254112, 429.8162183333351], [-697.6692488418167, 430.2614983333973], [-696.4908647014685, 431.0407383334074], [-695.6070765961638, 432.37657833359407], [-694.6250898125692, 434.71429833362424], [-699.4368250524263, 433.1558183336041], [-698.5530369471217, 439.0557783333412], [-693.8395003857286, 440.2802983334135], [-693.446705672221, 442.84065833367254], [-698.3566395903678, 441.3934983333713], [-693.9376990640181, 469.6687783335665], [-694.4286924558154, 470.55933833369096], [-695.6070765961638, 471.4498983334199], [-698.0620435553243, 471.2272583335866], [-700.5170105143105, 469.4461383333376], [-702.5791827599635, 456.9782983335723], [-697.0800567717299, 458.6480983333114]]]}, "properties": {"name": "", "kind": "garden", "category": "parque", "extrude": false}}, {"type": "Feature", "geometry": {"type": "Polygon", "coordinates": [[[-689.3223611809149, 407.9974983334492], [-670.5664136136324, 401.8748983334832], [-647.9807175900875, 450.0764583335963], [-668.1114466544718, 459.76129833366474], [-681.4664669119846, 460.0952583336125], [-685.6890100815805, 440.0576583335801], [-690.795341356481, 428.3690583334294], [-693.9376990640181, 428.25773833331493], [-698.7494343038753, 418.23893833369425], [-699.0440303389188, 415.7898983335497], [-689.3223611809149, 407.9974983334492]]]}, "properties": {"name": "", "kind": "garden", "category": "parque", "extrude": false}}, {"type": "Feature", "geometry": {"type": "Polygon", "coordinates": [[[-710.9260704208655, 413.22953833368615], [-707.7837127133282, 411.782378333385], [-707.3909179998208, 412.8955783333429], [-707.0963219647772, 414.0087783336962], [-706.6053285728055, 416.1238583334975], [-707.3909179998208, 418.0162983334654], [-707.5873153565745, 420.13137833366216], [-707.8819113916179, 423.91625833359797], [-708.1765074266614, 428.146418333596], [-708.4711034617048, 429.14829833343947], [-708.7656994969227, 430.0388583335639], [-715.8360043390122, 435.49353833363426], [-716.1306003740557, 433.93505833361417], [-719.2729580817673, 414.5653783334774], [-712.006255882924, 411.2257783336038], [-710.9260704208655, 413.22953833368615]]]}, "properties": {"name": "", "kind": "garden", "category": "parque", "extrude": false}}, {"type": "Feature", "geometry": {"type": "Polygon", "coordinates": [[[-702.8737787950071, 418.90685833358987], [-701.9899906898767, 420.0200583335477], [-699.535023730716, 423.58229833365016], [-699.0440303389188, 425.586058333337], [-700.0260171225133, 426.2539783336281], [-701.7935933331229, 426.365298333347], [-703.9539642570656, 427.03321833363816], [-704.6413550056167, 426.365298333347], [-703.9539642570656, 419.3521383336521], [-702.8737787950071, 418.90685833358987]]]}, "properties": {"name": "", "kind": "garden", "category": "parque", "extrude": false}}, {"type": "Feature", "geometry": {"type": "Polygon", "coordinates": [[[-754.329886257346, 249.47781833343896], [-749.4199523391992, 268.4022183335135], [-735.4757400115994, 308.1434583336305], [-731.154998163714, 324.61881833356045], [-726.3432629238569, 348.88657833359093], [-736.6541241519477, 351.89221833351667], [-737.9307069707601, 347.77337833363305], [-731.3513955204678, 343.43189833352056], [-731.0567994852499, 336.0847783334823], [-741.4658593918048, 309.8132583333695], [-753.2497007954619, 283.4304183335378], [-748.4379655556046, 281.31533833334106], [-747.5541774502999, 283.20777833330897], [-746.7685880234592, 282.65117833352775], [-747.4559787720102, 280.9813783333932], [-746.5721906667054, 280.536098333331], [-755.5082703976942, 251.70421833335467], [-757.9632373568548, 252.92873833342696], [-758.5524294269417, 251.8155383334691], [-760.7128003510588, 251.37025833340687], [-766.0155289825389, 253.81929833355144], [-766.9975157663077, 251.59289833363573], [-767.4885091579306, 251.59584330719838], [-767.4885091579306, 249.47781833343896], [-754.329886257346, 249.47781833343896]]]}, "properties": {"name": "", "kind": "garden", "category": "parque", "extrude": false}}, {"type": "Feature", "geometry": {"type": "Polygon", "coordinates": [[[-766.801118409554, 184.8008983333959], [-735.2793426548457, 189.69897833368506], [-737.145117543745, 201.7215383333881], [-767.4885091579306, 196.89940562325148], [-767.4885091579306, 189.18924991140074], [-766.801118409554, 184.8008983333959]]]}, "properties": {"name": "", "kind": "pitch", "category": "parque", "extrude": false}}, {"type": "Feature", "geometry": {"type": "Polygon", "coordinates": [[[-765.2299395556981, -168.64010166647248], [-764.8371448421906, -168.7514216665869], [-764.4443501288574, -168.52878166635804], [-764.3461514503933, -167.86086166646243], [-764.1497540936396, -159.6231816666952], [-764.1497540936396, -153.61190166644818], [-764.5425488071471, -151.38550166653246], [-765.5245355907416, -149.82702166651237], [-767.4885091579306, -148.26854166649227], [-767.4885091579306, -159.3943306795137], [-767.0957144445974, -159.73450166641413], [-766.801118409554, -160.6250616665386], [-766.8993170878435, -161.40430166654866], [-767.4885091579306, -162.13901366643384], [-767.4885091579306, -166.49493518019653], [-765.2299395556981, -168.64010166647248]]]}, "properties": {"name": "", "kind": "garden", "category": "parque", "extrude": false}}, {"type": "Feature", "geometry": {"type": "Polygon", "coordinates": [[[-737.3415149004987, -186.33998166647473], [-731.154998163714, -188.34374166655707], [-724.5756867134216, -188.7890216666193], [-718.1927726197088, -187.56450166654702], [-712.3008519179674, -184.78150166645463], [-707.2927193213566, -180.55134166645658], [-703.4629708652683, -175.20798166650067], [-701.0080039061078, -169.19670166664915], [-700.2224144792671, -162.62882166662095], [-701.1062025845719, -156.1722616663117], [-703.5611695435581, -150.16098166646017], [-707.3909179998208, -144.81762166650427], [-712.3990505962572, -140.69878166662065], [-718.3891699764625, -137.91578166652826], [-724.772084070001, -136.69126166645597], [-731.3513955204678, -137.1365416665182], [-737.5379122572525, -139.14030166660055], [-743.0370382456606, -142.7025416663075], [-747.5541774502999, -147.48930166648222], [-750.6965351580116, -153.27794166650037], [-752.2677140116929, -159.51186166658076], [-752.2677140116929, -166.07974166660895], [-750.5983364795474, -172.42498166640829], [-747.357780093546, -178.21362166642643], [-742.9388395671965, -182.88906166648673], [-737.3415149004987, -186.33998166647473]]]}, "properties": {"name": "", "kind": "garden", "category": "parque", "extrude": false}}, {"type": "Feature", "geometry": {"type": "Polygon", "coordinates": [[[-730.1730113801195, -219.1793816666157], [-727.8162430992486, -215.17186166645104], [-714.8540175554177, -199.3644216664167], [-714.9522162337074, -199.03046166646888], [-715.1486135904613, -198.8078216666355], [-715.6396069822584, -198.91914166635445], [-716.6215937658529, -199.03046166646888], [-720.3531435436515, -199.92102166659336], [-726.0486668888134, -200.0323416663123], [-729.1910245963506, -200.0323416663123], [-732.0387862690188, -199.6983816663645], [-735.2793426548457, -198.91914166635445], [-738.5198990408469, -197.8059416663966], [-739.207289789398, -197.91726166651102], [-739.5018858246159, -198.1399016663444], [-739.6982831811953, -198.69650166652107], [-739.4036871461517, -199.80970166647893], [-738.2253030058035, -203.4832616666958], [-736.0649320818608, -212.16622166652527], [-735.2793426548457, -219.7359816663969], [-735.4757400115994, -226.41518166653952], [-735.2793426548457, -227.08310166643514], [-734.8865479415125, -227.305741666664], [-734.2973558712513, -227.19442166654957], [-733.9045611579181, -226.41518166653952], [-730.1730113801195, -219.1793816666157]]]}, "properties": {"name": "", "kind": "garden", "category": "parque", "extrude": false}}, {"type": "Feature", "geometry": {"type": "Polygon", "coordinates": [[[-675.9673409235766, -261.59230166631517], [-665.4600823387319, -247.12070166646754], [-662.9069167012816, -243.5584616663651], [-645.3293532743475, -219.4020216664491], [-660.9429431340927, -207.93606166652722], [-691.6791294616114, -250.1263416663933], [-675.9673409235766, -261.59230166631517]]]}, "properties": {"name": "", "kind": "pitch", "category": "parque", "extrude": false}}, {"type": "Feature", "geometry": {"type": "Polygon", "coordinates": [[[-712.006255882924, -290.53550166640593], [-707.4891166781103, -290.53550166640593], [-703.5611695435581, -288.30910166649016], [-701.1062025845719, -284.6355416666688], [-700.6152091927746, -280.18274166644187], [-702.2845867249201, -276.0639016665583], [-705.7215404676753, -273.16958166635146], [-710.0422823155607, -272.16770166650804], [-714.3630241636206, -273.28090166646587], [-717.7017792279116, -276.28654166639166], [-719.1747594033031, -280.51670166638974], [-718.5855673332163, -284.9695016666166], [-715.9342030173019, -288.53174166632357], [-712.006255882924, -290.53550166640593]]]}, "properties": {"name": "", "kind": "playground", "category": "parque", "extrude": false}}, {"type": "Feature", "geometry": {"type": "Polygon", "coordinates": [[[-673.2177779293725, -294.654341666685], [-671.7447977539807, -292.87322166643605], [-688.5367717540742, -279.40350166643185], [-690.0097519294659, -281.1846216666808], [-673.2177779293725, -294.654341666685]]]}, "properties": {"name": "", "kind": "garden", "category": "parque", "extrude": false}}, {"type": "Feature", "geometry": {"type": "Polygon", "coordinates": [[[-706.8017259295593, -299.10714166651644], [-690.5989439997272, -278.0676616666406], [-712.1044545612137, -261.4809816665962], [-717.308984514404, -261.36966166648176], [-721.3351303274203, -263.9300216663453], [-724.9684814267548, -268.82810166663444], [-726.4414616023209, -275.61862166649604], [-726.7360576373644, -282.85442166641985], [-720.5495409004053, -312.46554166640624], [-719.8621501518543, -316.1391016666231], [-706.8017259295593, -299.10714166651644]]]}, "properties": {"name": "", "kind": "park", "category": "parque", "extrude": false}}, {"type": "Feature", "geometry": {"type": "Polygon", "coordinates": [[[-653.9708369702928, -310.23914166649047], [-655.4438171456845, -307.90142166646035], [-661.9249299176871, -300.99958166648435], [-667.6204532626747, -307.7901016663459], [-669.3880294732842, -306.34294166644025], [-672.235791145778, -310.35046166660493], [-673.7087713211697, -309.12594166653264], [-675.7709435668228, -311.5749816666772], [-672.5303871808214, -314.2466616666552], [-673.61057264288, -315.58250166644643], [-670.0754202218352, -318.4768216666532], [-653.9708369702928, -310.23914166649047]]]}, "properties": {"name": "", "kind": "garden", "category": "parque", "extrude": false}}, {"type": "Feature", "geometry": {"type": "Polygon", "coordinates": [[[-643.5617770637378, -333.28238166644866], [-648.0789162683772, -322.1503816664746], [-651.9086647246397, -323.9315016663281], [-656.1312078942354, -314.80326166643636], [-665.4600823387319, -319.81266166644446], [-660.451949742121, -323.82018166660913], [-664.5762942334271, -329.0522216664506], [-667.6204532626747, -326.603181666306], [-670.3700162568788, -330.0541016666895], [-667.3258572276311, -332.50314166643864], [-662.4159233094845, -336.39934166648885], [-663.2997114147892, -337.51254166644674], [-659.1753669234831, -340.8521416663203], [-643.5617770637378, -333.28238166644866]]]}, "properties": {"name": "", "kind": "garden", "category": "parque", "extrude": false}}, {"type": "Feature", "geometry": {"type": "Polygon", "coordinates": [[[-635.4112867595898, -353.7652616665433], [-642.5797902801434, -335.73142166659323], [-655.1492211106411, -341.9653416666736], [-650.1410885140302, -345.9728616664428], [-654.1672343268721, -350.9822616664509], [-657.0149959995404, -348.64454166642076], [-659.76455899357, -352.09546166640877], [-656.7203999643224, -354.43318166643894], [-651.7122673678859, -358.44070166660356], [-652.6942541514804, -359.55390166656144], [-645.6239493093909, -365.23122166646516], [-644.7401612040861, -364.1180216665073], [-635.4112867595898, -353.7652616665433]]]}, "properties": {"name": "", "kind": "garden", "category": "parque", "extrude": false}}, {"type": "Feature", "geometry": {"type": "Polygon", "coordinates": [[[-718.7819646899702, -317.92022166647655], [-710.336878350604, -334.7295416663543], [-695.508877917874, -357.99542166654135], [-677.2439237422145, -384.48958166648754], [-663.0051153795712, -400.9649416664175], [-656.2294065725252, -393.8404616666081], [-678.5205065610268, -377.14246166644926], [-687.9475796838128, -364.89726166651735], [-688.3403743973204, -364.1180216665073], [-713.6756334150696, -311.35234166644835], [-718.7819646899702, -317.92022166647655]]]}, "properties": {"name": "", "kind": "garden", "category": "parque", "extrude": false}}, {"type": "Feature", "geometry": {"type": "Polygon", "coordinates": [[[-682.8412484090867, -544.23378166657], [-679.698890701375, -526.0886216665056], [-677.9313144907655, -502.6001016664851], [-678.5205065610268, -484.4549416664206], [-680.2880827716365, -472.7663416666654], [-683.8232351926812, -458.1834216663078], [-688.1439770405666, -446.04954166649037], [-693.7413017072644, -434.02698166639186], [-701.8917920114126, -421.0025416664499], [-709.8458849588069, -409.09130166646577], [-717.996375262955, -396.51214166658605], [-726.5396602806107, -380.14810166637506], [-733.7081638011642, -363.22746166638285], [-741.6622567485587, -341.07478166654914], [-745.295607847893, -327.04846166636827], [-747.7505748070537, -311.7976216665106], [-750.3037404445039, -293.31850166649826], [-751.2857272280985, -276.5091816666205], [-751.0893298713447, -259.69986166634726], [-748.8307602691123, -243.11318166630286], [-746.2775946316619, -232.98306166656772], [-745.295607847893, -220.403901666688], [-747.1613827367922, -207.93606166652722], [-751.5803232631418, -195.9135016664287], [-757.4722439650576, -201.36818166649903], [-767.4885091579306, -210.5511692072102], [-767.4885091579306, -392.08088747290947], [-766.7029197310898, -394.06310166644147], [-762.1857805264506, -392.61594166653583], [-743.3316342807042, -441.04014166648227], [-728.0126404560024, -435.02886166663075], [-713.8720307718233, -470.5399416663542], [-715.5414083039689, -471.09654166653087], [-714.7558188769536, -473.1003016666132], [-712.1044545612137, -471.98710166665535], [-709.4530902454737, -478.7776216665169], [-712.3008519179674, -479.8908216664748], [-711.5152624911268, -481.7832616664427], [-716.1306003740557, -483.56438166669165], [-716.4251964092737, -485.6794616664929], [-717.996375262955, -487.23794166651305], [-715.3450109472151, -494.0284616663746], [-717.0143884793605, -494.69638166666573], [-715.7378056607225, -497.8133416663104], [-722.808110502812, -500.5963416664028], [-724.08469332145, -497.25674166652925], [-725.5576734970161, -497.8133416663104], [-728.3072364912202, -490.9115016663344], [-730.467607415163, -491.02282166644886], [-732.1369849473085, -489.57566166654317], [-736.4577267953684, -491.24546166667767], [-737.243316222209, -489.0190616663665], [-740.2874752514566, -490.2435816664388], [-726.3432629238569, -525.5320216663289], [-710.2386796723144, -518.9641416666962], [-697.1782554500195, -552.2488216665039], [-703.1268067129179, -554.6437981754705], [-697.7954024502303, -556.8062998403122], [-688.4474425782606, -559.4607190811131], [-686.5237934165032, -559.7841935062086], [-682.8412484090867, -544.23378166657]]]}, "properties": {"name": "", "kind": "garden", "category": "parque", "extrude": false}}, {"type": "Feature", "geometry": {"type": "Polygon", "coordinates": [[[-763.5605620235526, -444.7137016663037], [-767.4885091579306, -435.304011100652], [-767.4885091579306, -446.2893078203396], [-763.5605620235526, -444.7137016663037]]]}, "properties": {"name": "", "kind": "garden", "category": "parque", "extrude": false}}, {"type": "Feature", "geometry": {"type": "Polygon", "coordinates": [[[-739.6982831811953, -462.0796216663581], [-748.2415681988509, -439.4816616664622], [-762.6767739182479, -445.1589816663659], [-761.5965884561894, -447.8306616663439], [-760.1236082807976, -447.27406166656266], [-757.3740452865935, -454.17590166653866], [-755.2136743626507, -454.06458166642426], [-753.6424955087949, -455.5117416663299], [-749.2235549824453, -453.84194166659086], [-748.4379655556046, -455.95702166639217], [-745.3938065263571, -454.8438216664343], [-742.8406408889068, -461.4117016664625], [-745.9829985964441, -462.63622166653477], [-745.295607847893, -464.30602166666927], [-739.6982831811953, -462.0796216663581]]]}, "properties": {"name": "", "kind": "garden", "category": "parque", "extrude": false}}, {"type": "Feature", "geometry": {"type": "Polygon", "coordinates": [[[-733.9045611579181, -518.7415016664672], [-743.4601912616312, -523.0744835795359], [-738.726782168995, -528.9948285480046], [-731.5864128622071, -536.3312253346819], [-723.8460934153212, -542.838898907819], [-723.5940401099979, -543.0101605001822], [-733.9045611579181, -518.7415016664672]]]}, "properties": {"name": "", "kind": "garden", "category": "parque", "extrude": false}}, {"type": "Feature", "geometry": {"type": "Polygon", "coordinates": [[[248.6714145439707, -269.2733816666967], [260.2588585908739, -290.09022166634367], [292.56622377224846, -269.8299816664779], [364.938649725987, -244.11506166654178], [387.4261470710679, -252.13010166647564], [430.7317642292587, -315.69382166656084], [486.99960693145476, -333.9503016663443], [518.4231840075246, -326.603181666306], [454.79044042819544, -219.29070166633466], [488.27618975009267, -85.92934166647936], [481.10768622953907, -36.50326166668947], [465.7886924050117, 6.020978333519906], [449.19311576149767, 29.843458333488115], [422.28667789006715, 45.09429833334579], [402.64694221747993, 48.54521833333379], [367.7864113984807, 40.86413833334774], [242.8776925205191, -24.3693816664765], [243.66328194753424, -47.635261666663524], [233.352420719269, -60.32574166665768], [233.64701675448686, -68.45210166631048], [238.3605533158799, -79.8067416665134], [246.60924229831767, -100.95754166650366], [264.28500440371596, -117.65554166666249], [247.1002356901149, -130.56866166649002], [261.63364008797595, -160.6250616665386], [233.8434141110662, -193.90974166634635], [248.6714145439707, -269.2733816666967]]]}, "properties": {"name": "", "kind": "orchard", "category": "parque", "extrude": false}}, {"type": "Feature", "geometry": {"type": "Polygon", "coordinates": [[[370.43777571422066, -531.209341666628], [379.1774580886301, -498.7039016664349], [361.0107025914346, -493.8058216665412], [352.36921889548927, -526.3112616663389], [370.43777571422066, -531.209341666628]]]}, "properties": {"name": "", "kind": "pitch", "category": "parque", "extrude": false}}, {"type": "Feature", "geometry": {"type": "Polygon", "coordinates": [[[609.256961493502, -82.70106166632473], [581.2703381600129, -140.36482166667284], [537.9647210018221, -159.6231816666952], [519.5033694695832, -174.09478166654281], [503.5951835747944, -165.41182166631785], [492.0077395278912, -192.68522166666955], [493.2843223467037, -214.05866166649318], [503.8897796098379, -239.10566166653368], [535.3133566860821, -284.30158166632555], [569.8792914698635, -276.39786166650606], [633.0210416573952, -234.4302216664734], [685.8519306166618, -205.34071538059706], [685.8519306166618, 2.761143057922908], [609.256961493502, -82.70106166632473]]]}, "properties": {"name": "", "kind": "orchard", "category": "parque", "extrude": false}}, {"type": "Feature", "geometry": {"type": "Polygon", "coordinates": [[[640.189545177949, -388.38578166653775], [637.341783505455, -380.59338166643727], [621.040802897159, -386.15938166662204], [623.7903658911886, -393.95178166632707], [640.189545177949, -388.38578166653775]]]}, "properties": {"name": "", "kind": "pitch", "category": "parque", "extrude": false}}, {"type": "Feature", "geometry": {"type": "Polygon", "coordinates": [[[-456.68969213859276, 558.9474183335878], [-433.1220093314532, 549.930498333415], [-428.1138767350168, 565.515298333616], [-359.17840452403334, 539.3550983336177], [-295.90094155649916, 573.8642983334977], [-468.33968311450946, 573.8642983334977], [-456.68969213859276, 558.9474183335878]]]}, "properties": {"name": "", "kind": "farmland", "category": "parque", "extrude": false}}, {"type": "Feature", "geometry": {"type": "Polygon", "coordinates": [[[-214.62994997348457, 457.7575383335824], [-186.15233324819826, 441.61613833360025], [-134.40162975064146, 426.365298333347], [-97.08613197265599, 418.684218333361], [-6.546950521896454, 404.65789833357564], [-0.9496258551986366, 409.66729833358374], [-16.759613071697615, 437.9425783333834], [-29.721838615528412, 447.7387383335662], [-69.09950863916691, 462.7669383335905], [-95.51495311897462, 493.3799383334202], [-83.14191964523073, 503.1760983336031], [-91.58700598442229, 533.3438183333706], [-77.83919101357637, 539.1324583333887], [-69.88509806618204, 544.1418583333968], [-79.56480441671255, 573.8642983334977], [-108.00034003541647, 573.8642983334977], [-107.98618527100818, 573.7529783333832], [-124.28716587930438, 566.0718983333971], [-127.14006212327126, 573.8642983334977], [-261.9129827732128, 573.8642983334977], [-260.8815274824588, 531.4513783334028], [-238.68862617242132, 478.57437833362485], [-214.62994997348457, 457.7575383335824]]]}, "properties": {"name": "", "kind": "orchard", "category": "parque", "extrude": false}}, {"type": "Feature", "geometry": {"type": "Polygon", "coordinates": [[[-30.900222755876666, -545.903581666309], [-31.587613504427683, -545.5696216663613], [-32.07860689622492, -545.4583016666423], [-32.56960028819659, -545.6809416664757], [-32.765997644775936, -546.0149016664235], [-32.864196323240044, -546.6828216663191], [-25.1780848158224, -561.5997016666245], [-16.68333374077789, -561.5997016666245], [-30.900222755876666, -545.903581666309]]]}, "properties": {"name": "", "kind": "garden", "category": "parque", "extrude": false}}, {"type": "Feature", "geometry": {"type": "Polygon", "coordinates": [[[-496.46015687573885, 501.17233833352077], [-500.97729608037804, 504.9572183334566], [-505.49443528519174, 510.4118983335269], [-508.8331903494827, 517.4250583336174], [-511.9755480570199, 522.7684183335732], [-513.448528232586, 526.8872583334569], [-514.823309729688, 538.0192583334309], [-516.0016938700363, 570.7473383334575], [-515.8675688458353, 573.8642983334977], [-605.5351401921544, 573.8642983334977], [-600.1579612272574, 549.2625783335194], [-587.9813251102673, 509.41001833368347], [-580.1254308411626, 499.1685783334384], [-555.2811652152108, 476.5706183335425], [-536.1324229344208, 466.8857783334741], [-496.46015687573885, 501.17233833352077]]]}, "properties": {"name": "", "kind": "scrub", "category": "parque", "extrude": false}}, {"type": "Feature", "geometry": {"type": "Polygon", "coordinates": [[[-529.7495088408823, 400.6503783334109], [-520.7152304314293, 409.8899383334171], [-537.5072044315228, 428.92565833360607], [-546.345085484222, 420.7992983335578], [-529.7495088408823, 400.6503783334109]]]}, "properties": {"name": "", "kind": "garden", "category": "parque", "extrude": false}}, {"type": "Feature", "geometry": {"type": "Polygon", "coordinates": [[[-539.0783832853785, 375.82601833359934], [-517.9656674372252, 351.89221833351667], [-505.3962366067276, 356.23369833362915], [-488.2114678931266, 387.0693383336878], [-488.0150705365472, 393.0806183335393], [-501.5664881506393, 423.24833833330683], [-525.4287669928224, 451.1896583335542], [-527.4909392384754, 451.63493833361645], [-553.0225956129783, 429.036978333325], [-571.2875497884635, 412.33897833356167], [-539.0783832853785, 375.82601833359934]]]}, "properties": {"name": "", "kind": "park", "category": "parque", "extrude": false}}, {"type": "Feature", "geometry": {"type": "Polygon", "coordinates": [[[-542.9081317414668, 263.94941833368205], [-540.5513634607703, 264.50601833346326], [-539.1765819636682, 264.95129833352553], [-537.0162110397256, 266.39845833343117], [-534.9540387940725, 268.84749833357574], [-533.8738533320139, 271.7418183333871], [-533.5792572969705, 273.0776583335738], [-533.5792572969705, 276.30593833333296], [-534.2666480455215, 278.30969833341527], [-535.3468335075801, 280.42477833361204], [-570.0109669696511, 320.3886583335624], [-570.5019603616228, 319.0528183333757], [-595.3462259874002, 265.61921833342114], [-596.5246101277485, 263.28149833339097], [-542.9081317414668, 263.94941833368205]]]}, "properties": {"name": "Plaza de Pepucho", "kind": "park", "category": "parque", "extrude": false}}, {"type": "Feature", "geometry": {"type": "Polygon", "coordinates": [[[-547.719866981324, 269.84937833341917], [-547.0324762327729, 279.42289833337315], [-565.7884238000554, 280.87005833367425], [-566.4758145486064, 271.1852183336059], [-547.719866981324, 269.84937833341917]]]}, "properties": {"name": "", "kind": "playground", "category": "parque", "extrude": false}}, {"type": "Feature", "geometry": {"type": "Polygon", "coordinates": [[[-431.64902915606154, 33.40569833359055], [-449.3247912614598, 40.64149833351436], [-452.0743542554894, 33.85097833365279], [-434.3985921502656, 26.72649833344792], [-431.64902915606154, 33.40569833359055]]]}, "properties": {"name": "", "kind": "garden", "category": "parque", "extrude": false}}, {"type": "Feature", "geometry": {"type": "Polygon", "coordinates": [[[-426.0517044893637, 30.288738333550356], [-428.80126748356776, 23.83217833363659], [-424.87332034901544, 22.273698333616494], [-422.22195603310104, 28.618938333415826], [-426.0517044893637, 30.288738333550356]]]}, "properties": {"name": "", "kind": "garden", "category": "parque", "extrude": false}}, {"type": "Feature", "geometry": {"type": "Polygon", "coordinates": [[[-407.7867503137041, -12.569461666606827], [-403.8588031793262, -3.4412216663196205], [-449.91398333154666, 16.151098333650538], [-455.80590403328796, 1.6794983334074232], [-407.7867503137041, -12.569461666606827]]]}, "properties": {"name": "", "kind": "scrub", "category": "parque", "extrude": false}}, {"type": "Feature", "geometry": {"type": "Polygon", "coordinates": [[[-593.4804510985009, -280.96198166645195], [-580.3218281979164, -257.6961016666604], [-590.6326894260072, -252.0187816663612], [-600.5507559405905, -246.00750166650968], [-610.4688224553482, -239.66226166631486], [-622.3508625372948, -230.53402166642314], [-628.3409819175002, -235.87738166637905], [-626.1806109933831, -236.21134166632686], [-620.6814850051494, -239.4396216664815], [-618.0301206892349, -241.999981666345], [-611.1562132038991, -245.67354166656187], [-611.7454052739861, -271.61110166633136], [-593.4804510985009, -280.96198166645195]]]}, "properties": {"name": "", "kind": "garden", "category": "parque", "extrude": false}}, {"type": "Feature", "geometry": {"type": "Polygon", "coordinates": [[[-460.4212419163913, -305.67502166654464], [-456.591493460303, -304.8957816665346], [-436.0679696824111, -313.24478166641626], [-433.6130027232505, -312.1315816664584], [-425.85530713260994, -315.80514166667524], [-426.6408965594506, -317.92022166647655], [-407.59035295712476, -326.9371416666493], [-404.1533992143697, -318.25418166642436], [-528.0801313087367, -263.4847416666786], [-530.7314956244768, -257.6961016666604], [-572.3677352505221, -239.32830166636705], [-573.7425167474497, -242.44526166640725], [-460.4212419163913, -305.67502166654464]]]}, "properties": {"name": "", "kind": "garden", "category": "parque", "extrude": false}}, {"type": "Feature", "geometry": {"type": "Polygon", "coordinates": [[[-344.5468014478826, 285.5454983333391], [-351.12611289817494, 297.34541833360424], [-357.01803360009063, 294.45109833339745], [-350.24232479304453, 283.09645833359], [-344.5468014478826, 285.5454983333391]]]}, "properties": {"name": "", "kind": "playground", "category": "parque", "extrude": false}}, {"type": "Feature", "geometry": {"type": "Polygon", "coordinates": [[[-111.1285429787198, 79.93745833356911], [-108.47717866280541, 51.996138333321795], [-118.78803989089623, 22.607658333564302], [-110.04835751666123, 8.69265833349786], [-103.17445003115105, -0.8808616664560986], [-100.81768175045454, -17.022261666438254], [-78.13378704861982, -37.616461666647325], [-83.63291303702796, -94.38966166647546], [-76.75900555151779, -103.2952616665338], [-54.27150820643684, -83.81426166667808], [-43.76424962159223, -90.71610166665408], [-29.525441258949066, -74.01810166649526], [-7.8235333405343805, -107.08014166646961], [15.449553431387251, -133.24034166646797], [34.991090425684774, -131.1252616666667], [44.22176619189146, -120.21590166652601], [23.305447700491904, -79.02750166650335], [46.87313050763142, 85.5034583333584], [43.14158072983288, 237.6778983335693], [30.964944612842775, 284.766258333329], [13.289182507444524, 330.18481833334977], [-12.340672545348053, 370.5939783333623], [-126.742132838465, 388.2938583333646], [-251.35625568120867, 392.5240183333626], [-269.13021646507104, 374.8241383333604], [-256.658984312863, 350.77901833355884], [-234.76067903786898, 333.6357383333377], [-228.18136758757672, 321.94713833358253], [-226.80658609047467, 300.0170983335822], [-213.3533671546722, 288.1058583335981], [-210.211009447135, 283.09645833359], [-199.60555218382632, 273.0776583335738], [-163.6648359029429, 249.5891383335534], [-133.02684825371384, 233.44773833357124], [-96.88973461607665, 226.32325833336637], [-75.48242273287985, 212.07429833335212], [-71.25987956328407, 198.60457833334792], [-78.91937647546051, 164.20669833358232], [-106.31680773886268, 123.01829833355967], [-111.1285429787198, 79.93745833356911]]]}, "properties": {"name": "", "kind": "orchard", "category": "parque", "extrude": false}}, {"type": "Feature", "geometry": {"type": "Polygon", "coordinates": [[[-299.27721072250284, 125.13337833336095], [-295.643859622994, 121.34849833342514], [-292.20690588041333, 117.11833833342709], [-289.35914420774515, 112.99949833354347], [-286.8059785702948, 108.65801833343099], [-284.2528129328446, 103.64861833342289], [-280.12846844171287, 94.40905833341674], [-277.7717001610164, 86.06005833353507], [-277.3789054475088, 85.28081833352502], [-277.08430941246536, 84.94685833357721], [-276.5933160206681, 84.2789383336816], [-275.90592527211714, 83.72233833350492], [-275.41493188014545, 83.61101833339049], [-274.7275411317689, 83.38837833355711], [-273.745554348, 83.38837833355711], [-272.5671702076517, 83.61101833339049], [-271.8797794591007, 84.05629833345273], [-271.38878606730344, 84.50157833351497], [-270.9959913539703, 85.05817833369164], [-270.7013953187524, 85.72609833358726], [-270.50499796199864, 86.50533833359731], [-270.1122032486655, 89.17701833357526], [-269.719408535158, 97.30337833362356], [-270.0140045702014, 102.53541833346503], [-270.0140045702014, 105.31841833355742], [-271.29058738901375, 113.66741833343909], [-273.54915699124615, 121.90509833360181], [-304.77633671073653, 129.80881833342124], [-299.27721072250284, 125.13337833336095]]]}, "properties": {"name": "", "kind": "garden", "category": "parque", "extrude": false}}, {"type": "Feature", "geometry": {"type": "Polygon", "coordinates": [[[-357.70542434864166, -0.7695416663416665], [-353.77747721408934, -2.661981666309572], [-355.250457389481, -6.892141666307623], [-318.3277543250031, -22.476941666508594], [-316.5601781143935, -19.80526166653064], [-315.18539661729153, -14.907181666636973], [-309.39167459383987, 25.168018333427824], [-308.6060851669992, 36.967938333692985], [-309.7844693073475, 39.083018333494266], [-326.4782446291512, -9.675141666400009], [-356.2324441730755, 2.1247783334696635], [-357.70542434864166, -0.7695416663416665]]]}, "properties": {"name": "", "kind": "garden", "category": "parque", "extrude": false}}, {"type": "Feature", "geometry": {"type": "Polygon", "coordinates": [[[-358.589212453772, 3.6832583334897606], [-374.89019306206825, 10.251138333517957], [-378.03255076977985, 2.570058333531904], [-361.73157016148366, -3.997821666496293], [-358.589212453772, 3.6832583334897606]]]}, "properties": {"name": "", "kind": "garden", "category": "parque", "extrude": false}}, {"type": "Feature", "geometry": {"type": "Polygon", "coordinates": [[[-297.018641120096, -134.13090166659245], [-299.27721072250284, -130.67998166660445], [-301.3393829681559, -127.56302166656425], [-303.6961512488524, -124.11210166657625], [-305.4637274592876, -120.88382166642162], [-307.427701026651, -117.43290166643362], [-309.09707855879645, -113.53670166638338], [-310.57005873418814, -110.08578166639538], [-311.84664155300055, -106.52354166668843], [-312.9268270148847, -102.961301666586], [-313.90881379865357, -98.95378166642132], [-314.7926019037839, -95.39154166631889], [-315.9709860441322, -87.71046166633283], [-316.6583767926832, -79.69542166639897], [-316.4619794361039, -69.4539816665494], [-316.0691847225963, -63.22006166646901], [-312.43583362308743, -49.97298166669367], [-311.84664155300055, -46.07678166664343], [-313.51601908514607, -42.40322166642656], [-316.16738340088597, -40.73342166668752], [-351.71530496843627, -25.482581666434356], [-360.16039130762783, -45.965461666528995], [-352.5990930737411, -50.084301666412614], [-347.09996708533293, -53.75786166662948], [-342.2882318454758, -58.21066166646091], [-337.37829792732896, -64.33326166642686], [-332.3701653308925, -68.78606166665378], [-328.3440195180505, -81.3652216665335], [-329.8169996934422, -86.04066166659379], [-319.80073450039487, -112.64614166665439], [-299.37540940079253, -144.81762166650427], [-287.8861640323534, -153.7232216665626], [-283.27082614925007, -153.94586166639598], [-297.018641120096, -134.13090166659245]]]}, "properties": {"name": "", "kind": "scrub", "category": "parque", "extrude": false}}, {"type": "Feature", "geometry": {"type": "Polygon", "coordinates": [[[-276.78971337724744, -193.35314166656516], [-280.3248657984667, -191.9059816666595], [-281.0122565468433, -191.46070166659726], [-281.9942433306122, -193.7984216666274], [-273.745554348, -197.47198166644878], [-276.78971337724744, -193.35314166656516]]]}, "properties": {"name": "", "kind": "garden", "category": "parque", "extrude": false}}, {"type": "Feature", "geometry": {"type": "Polygon", "coordinates": [[[-227.19938080398228, -234.4302216664734], [-231.81471868691116, -229.86610166652753], [-237.01924864027583, -226.74914166648733], [-241.53638784491508, -224.52274166657162], [-317.14937018465486, -193.57578166639854], [-321.9611054243376, -204.48514166653922], [-311.2574494827392, -209.1605816665995], [-309.5880719505937, -207.15682166651717], [-269.13021646507104, -224.745381666405], [-264.90767329530087, -226.41518166653952], [-265.10407065205465, -226.9717816663207], [-247.3301098683667, -234.7641816664212], [-248.8030900437584, -238.10378166669025], [-232.30571207888283, -245.450901666333], [-223.4678310261837, -257.13950166648374], [-221.11106274531278, -252.57538166653788], [-218.5578971080369, -247.45466166641535], [-227.19938080398228, -234.4302216664734]]]}, "properties": {"name": "", "kind": "scrub", "category": "parque", "extrude": false}}, {"type": "Feature", "geometry": {"type": "Polygon", "coordinates": [[[-427.6228833432195, -319.59002166661105], [-426.73909523791474, -322.26170166658903], [-409.3579291675599, -330.16542166640846], [-408.3759423839654, -328.16166166632615], [-427.6228833432195, -319.59002166661105]]]}, "properties": {"name": "", "kind": "garden", "category": "parque", "extrude": false}}, {"type": "Feature", "geometry": {"type": "Polygon", "coordinates": [[[-390.79837895703133, -331.6125816663141], [-371.9442327112848, -332.50314166643864], [-398.16327983416426, -320.9258616664023], [-401.50203489845524, -328.38430166655496], [-390.79837895703133, -331.6125816663141]]]}, "properties": {"name": "", "kind": "garden", "category": "parque", "extrude": false}}, {"type": "Feature", "geometry": {"type": "Polygon", "coordinates": [[[-507.06561413887306, -302.66938166661885], [-506.2800247120324, -301.22222166631775], [-515.1179057647315, -296.43546166653846], [-515.9034951915722, -297.88262166644415], [-507.06561413887306, -302.66938166661885]]]}, "properties": {"name": "", "kind": "garden", "category": "parque", "extrude": false}}, {"type": "Feature", "geometry": {"type": "Polygon", "coordinates": [[[-496.6565542324926, -308.1240616666892], [-495.87096480547746, -306.7882216665025], [-504.7088458581766, -302.00146166632777], [-505.49443528519174, -303.33730166651446], [-496.6565542324926, -308.1240616666892]]]}, "properties": {"name": "", "kind": "garden", "category": "parque", "extrude": false}}, {"type": "Feature", "geometry": {"type": "Polygon", "coordinates": [[[-486.4438916826914, -313.57874166636407], [-485.65830225585074, -312.1315816664584], [-494.49618330837546, -307.3448216666792], [-495.2817727353905, -308.79198166658483], [-486.4438916826914, -313.57874166636407]]]}, "properties": {"name": "", "kind": "garden", "category": "parque", "extrude": false}}, {"type": "Feature", "geometry": {"type": "Polygon", "coordinates": [[[-519.3404489343274, -326.38054166647265], [-513.6449255893398, -313.4674216666451], [-537.6054031098125, -303.0033416665667], [-543.3009264549744, -316.02778166650864], [-519.3404489343274, -326.38054166647265]]]}, "properties": {"name": "", "kind": "pitch", "category": "parque", "extrude": false}}, {"type": "Feature", "geometry": {"type": "Polygon", "coordinates": [[[-475.93663309784677, -319.2560616666633], [-475.1510436708317, -317.8089016663621], [-483.98892472353083, -313.0221416665829], [-484.7745141505459, -314.46930166648855], [-475.93663309784677, -319.2560616666633]]]}, "properties": {"name": "", "kind": "garden", "category": "parque", "extrude": false}}, {"type": "Feature", "geometry": {"type": "Polygon", "coordinates": [[[-465.13477847778427, -325.0447016666814], [-464.4473877294077, -323.59754166638027], [-473.1870701036427, -318.81078166660103], [-473.9726595304834, -320.25794166650667], [-465.13477847778427, -325.0447016666814]]]}, "properties": {"name": "", "kind": "garden", "category": "parque", "extrude": false}}, {"type": "Feature", "geometry": {"type": "Polygon", "coordinates": [[[-455.0203146064473, -330.49938166635627], [-454.2347251796066, -329.0522216664506], [-463.0726062323057, -324.2654616666714], [-463.8581956591464, -325.71262166657704], [-455.0203146064473, -330.49938166635627]]]}, "properties": {"name": "", "kind": "garden", "category": "parque", "extrude": false}}, {"type": "Feature", "geometry": {"type": "Polygon", "coordinates": [[[-526.9999458466781, -344.19174166658934], [-521.4026211799803, -331.1673016666474], [-545.3630987006275, -320.81454166668334], [-550.9604233673253, -333.7276616665109], [-526.9999458466781, -344.19174166658934]]]}, "properties": {"name": "", "kind": "pitch", "category": "parque", "extrude": false}}, {"type": "Feature", "geometry": {"type": "Polygon", "coordinates": [[[-444.31665866484883, -336.28802166637445], [-443.5310692380082, -334.9521816665832], [-452.36895029070735, -330.16542166640846], [-453.0563410392583, -331.6125816663141], [-444.31665866484883, -336.28802166637445]]]}, "properties": {"name": "", "kind": "garden", "category": "parque", "extrude": false}}, {"type": "Feature", "geometry": {"type": "Polygon", "coordinates": [[[-473.1870701036427, -351.2049016666798], [-465.3311758345381, -332.94842166650085], [-501.9592828639725, -317.1409816664665], [-509.81517713307716, -335.3974616666454], [-473.1870701036427, -351.2049016666798]]]}, "properties": {"name": "", "kind": "pitch", "category": "parque", "extrude": false}}, {"type": "Feature", "geometry": {"type": "Polygon", "coordinates": [[[-433.90759875829394, -341.9653416666736], [-433.2202080099173, -340.51818166637247], [-441.95989038415235, -335.73142166659323], [-442.74547981099306, -337.17858166649887], [-433.90759875829394, -341.9653416666736]]]}, "properties": {"name": "", "kind": "garden", "category": "parque", "extrude": false}}, {"type": "Feature", "geometry": {"type": "Polygon", "coordinates": [[[-429.6850555886981, -369.90666166652545], [-421.82916131976793, -351.6501816663465], [-458.4572683492023, -335.73142166659323], [-466.313162618307, -354.0992216664911], [-429.6850555886981, -369.90666166652545]]]}, "properties": {"name": "", "kind": "pitch", "category": "parque", "extrude": false}}, {"type": "Feature", "geometry": {"type": "Polygon", "coordinates": [[[-554.397377109906, -378.03302166657375], [-550.8622246888611, -377.8103816663449], [-547.9162643380778, -378.03302166657375], [-545.8540920924247, -378.36698166652155], [-543.9883172035254, -378.92358166630277], [-541.4351515660751, -379.92546166654165], [-539.2747806421323, -381.14998166661394], [-529.9459061976361, -359.44258166644704], [-543.7919198467716, -353.5426216663144], [-554.397377109906, -378.03302166657375]]]}, "properties": {"name": "", "kind": "park", "category": "parque", "extrude": false}}, {"type": "Feature", "geometry": {"type": "Polygon", "coordinates": [[[-526.508952454881, -430.46474166668486], [-524.2503828524742, -424.8987416665001], [-538.8819859286249, -418.5535016663053], [-541.4351515660751, -424.3421416663234], [-526.508952454881, -430.46474166668486]]]}, "properties": {"name": "", "kind": "garden", "category": "parque", "extrude": false}}, {"type": "Feature", "geometry": {"type": "Polygon", "coordinates": [[[-522.3846079635748, -445.4929416663137], [-519.8314423261246, -439.70430166669104], [-506.9674154605834, -445.38162166659475], [-502.2538788991904, -434.4722616664541], [-521.4026211799803, -426.1232616665724], [-528.6693233788237, -442.7099416666168], [-522.3846079635748, -445.4929416663137]]]}, "properties": {"name": "", "kind": "playground", "category": "parque", "extrude": false}}, {"type": "Feature", "geometry": {"type": "Polygon", "coordinates": [[[-554.49557578837, -450.8363016666651], [-545.5594960573812, -429.9081416665082], [-571.582145823507, -430.68738166651826], [-569.618172256318, -435.91942166635977], [-565.7884238000554, -434.4722616664541], [-562.3514700574747, -443.6005016663458], [-566.2794171918526, -445.04766166664695], [-563.1370594843154, -453.50798166664305], [-554.49557578837, -450.8363016666651]]]}, "properties": {"name": "", "kind": "garden", "category": "parque", "extrude": false}}, {"type": "Feature", "geometry": {"type": "Polygon", "coordinates": [[[-552.0406088292094, -448.83254166658276], [-538.7837872501607, -454.398541666372], [-537.1144097180152, -450.168381666374], [-550.2730326187742, -444.7137016663037], [-552.0406088292094, -448.83254166658276]]]}, "properties": {"name": "", "kind": "garden", "category": "parque", "extrude": false}}, {"type": "Feature", "geometry": {"type": "Polygon", "coordinates": [[[-497.93313705113053, -436.364701666422], [-502.2538788991904, -434.4722616664541], [-521.4026211799803, -426.1232616665724], [-524.2503828524742, -424.8987416665001], [-538.8819859286249, -418.5535016663053], [-541.4351515660751, -424.3421416663234], [-547.0324762327729, -437.25526166654646], [-548.0144630163674, -439.4816616664622], [-549.2910458351798, -442.37598166666896], [-550.2730326187742, -444.7137016663037], [-552.0406088292094, -448.83254166658276], [-558.4235229229223, -463.3041416664304], [-517.3764753671384, -481.22666166666147], [-497.93313705113053, -436.364701666422]]]}, "properties": {"name": "", "kind": "park", "category": "parque", "extrude": false}}, {"type": "Feature", "geometry": {"type": "Polygon", "coordinates": [[[-582.0894044083515, -454.62118166660093], [-577.9650599172198, -459.18530166654676], [-570.5019603616228, -463.86074166660705], [-564.7082383381712, -466.08714166652277], [-562.7442647708078, -461.7456616664103], [-563.1370594843154, -453.50798166664305], [-573.5461193908703, -457.40418166669326], [-581.9912057300619, -434.58358166656853], [-588.3741198236005, -439.25902166662877], [-582.0894044083515, -454.62118166660093]]]}, "properties": {"name": "", "kind": "garden", "category": "parque", "extrude": false}}, {"type": "Feature", "geometry": {"type": "Polygon", "coordinates": [[[-482.90873926164664, -501.59822166664173], [-454.43112253636036, -513.8434216665736], [-424.5787243137976, -444.4910616664703], [-455.6095066767086, -430.7987016666327], [-462.77801019708784, -448.49858166663495], [-472.5978780333814, -471.2078616666453], [-483.6943286884873, -498.03598166653927], [-482.90873926164664, -501.59822166664173]]]}, "properties": {"name": "", "kind": "garden", "category": "parque", "extrude": false}}, {"type": "Feature", "geometry": {"type": "Polygon", "coordinates": [[[683.6915596927191, -360.22182166645706], [685.8519306166618, -364.00186166657704], [685.8519306166618, -358.9782676766521], [683.6915596927191, -360.22182166645706]]]}, "properties": {"name": "", "kind": "pitch", "category": "parque", "extrude": false}}, {"type": "Feature", "geometry": {"type": "Polygon", "coordinates": [[[-319.7025358219307, -369.68402166669205], [-287.00237592704866, -383.71034166647746], [-259.01575259355957, -393.95178166632707], [-245.6607323362212, -392.17066166647356], [-238.68862617242132, -393.06122166659804], [-237.11744731856552, -391.83670166652576], [-361.04417941293264, -337.28990166661333], [-365.36492126081805, -337.51254166644674], [-372.14063006786415, -334.61822166663535], [-387.06682917923274, -334.2842616666876], [-396.98489569381604, -331.1673016666474], [-402.4840216822242, -330.72202166658514], [-403.7606045008621, -332.28050166660523], [-319.7025358219307, -369.68402166669205]]]}, "properties": {"name": "", "kind": "garden", "category": "parque", "extrude": false}}, {"type": "Feature", "geometry": {"type": "Polygon", "coordinates": [[[-372.0424313895745, -423.5629016663134], [-357.6072256701775, -389.721621666329], [-374.4973983487351, -382.4858216664052], [-388.93260406813204, -416.43842166650404], [-372.0424313895745, -423.5629016663134]]]}, "properties": {"name": "", "kind": "pitch", "category": "parque", "extrude": false}}, {"type": "Feature", "geometry": {"type": "Polygon", "coordinates": [[[-357.8036230269313, -426.90250166658245], [-348.4747485824349, -405.5290616663633], [-358.2946164187286, -401.2989016663653], [-367.6234908632249, -422.67234166658443], [-357.8036230269313, -426.90250166658245]]]}, "properties": {"name": "", "kind": "pitch", "category": "parque", "extrude": false}}, {"type": "Feature", "geometry": {"type": "Polygon", "coordinates": [[[-128.41151037061047, -476.99650166666345], [-126.742132838465, -478.6663016664025], [-123.30517909570993, -481.11534166654707], [-117.7078544290121, -482.67382166656716], [-114.66369539976458, -482.67382166656716], [-110.244754873415, -482.33986166661936], [-106.90599980912403, -481.11534166654707], [-103.56724474465861, -478.6663016664025], [-100.13029100190353, -474.9927416665811], [-97.9699200779608, -469.09278166644856], [-97.67532404291734, -465.6418616664605], [-101.30867514225177, -440.59486166642], [-101.9960658908028, -437.58922166649427], [-104.45103284996341, -434.58358166656853], [-106.70960245237025, -432.13454166642396], [-110.04835751666123, -430.35342166657045], [-115.54748350506938, -429.7968216663938], [-120.55561610150586, -430.5760616664038], [-125.95654341144987, -432.57982166648617], [-130.17908658104565, -435.1401816663497], [-133.2232456102932, -439.14770166651437], [-134.49982842910555, -443.266541666398], [-134.89262314261313, -447.27406166656266], [-131.06287468635048, -471.6531416663121], [-128.41151037061047, -476.99650166666345]]]}, "properties": {"name": "", "kind": "garden", "category": "parque", "extrude": false}}, {"type": "Feature", "geometry": {"type": "Polygon", "coordinates": [[[-173.5829024177006, -463.972061666326], [-171.81532620709098, -460.07586166667124], [-175.6450746631792, -458.40606166653674], [-177.4126508737888, -462.30226166658696], [-173.5829024177006, -463.972061666326]]]}, "properties": {"name": "", "kind": "garden", "category": "parque", "extrude": false}}, {"type": "Feature", "geometry": {"type": "Polygon", "coordinates": [[[-215.61193675707906, -486.7926616664508], [-214.13895658168735, -483.3417416664628], [-211.38939358748328, -476.99650166666345], [-209.13082398507643, -471.8757816665409], [-206.38126099087236, -465.41922166662715], [-199.11455879202907, -448.7212216664683], [-215.61193675707906, -441.7080616663779], [-232.0111160436649, -479.66818166664143], [-215.61193675707906, -486.7926616664508]]]}, "properties": {"name": "", "kind": "pitch", "category": "parque", "extrude": false}}, {"type": "Feature", "geometry": {"type": "Polygon", "coordinates": [[[-56.726475165423025, -542.1187016663732], [-51.71834256898655, -536.8866616665318], [-62.127402475367056, -520.2999816664874], [-93.74737690836501, -487.23794166651305], [-94.63116501366981, -487.90586166640867], [-96.20234386752563, -489.909621666491], [-97.9699200779608, -491.13414166656327], [-100.52308571541109, -492.4699816663545], [-102.78165531781792, -493.5831816663124], [-56.726475165423025, -542.1187016663732]]]}, "properties": {"name": "", "kind": "garden", "category": "parque", "extrude": false}}, {"type": "Feature", "geometry": {"type": "Polygon", "coordinates": [[[-244.38414951740884, -533.3244216664293], [-243.5003614122785, -533.6583816663772], [-242.4201759502199, -533.3244216664293], [-241.73278520166886, -532.7678216666482], [-241.33999048816133, -531.8772616665237], [-241.24179180987164, -530.7640616665658], [-241.24179180987164, -529.7621816663269], [-241.83098387995855, -527.9810616664735], [-242.81297066372744, -525.42070166661], [-243.59856009056813, -524.1961816665377], [-244.1877521608295, -523.9735416663087], [-244.77694423091637, -524.0848616664232], [-245.56253365775711, -524.3075016666521], [-246.544520441526, -525.3093816664955], [-246.83911647656947, -525.7546616665577], [-246.83911647656947, -526.4225816664533], [-246.6427191198157, -527.0905016663489], [-246.3481230847722, -528.0923816665879], [-245.85712969297498, -529.0942616664313], [-245.56253365775711, -530.3187816665036], [-245.36613630117773, -531.4319816664614], [-245.16973894442398, -532.2112216664715], [-244.77694423091637, -532.9904616664816], [-244.38414951740884, -533.3244216664293]]]}, "properties": {"name": "", "kind": "garden", "category": "parque", "extrude": false}}, {"type": "Feature", "geometry": {"type": "Polygon", "coordinates": [[[-225.33360591508298, -532.099901666357], [-225.03900987986512, -531.9885816666381], [-224.84261252328574, -531.7659416664093], [-223.86062573951685, -530.8753816666803], [-222.4858442424148, -529.9848216665557], [-220.91466538873343, -529.3169016666602], [-219.4416852131673, -529.0942616664313], [-217.08491693247078, -529.2055816665458], [-214.72814865177426, -529.9848216665557], [-213.3533671546722, -530.8753816666803], [-211.78218830081641, -532.5451816664192], [-210.99659887397573, -533.881021666606], [-210.60380416046814, -534.9942216665638], [-210.3092081254247, -536.2187416666361], [-210.3092081254247, -538.3338216664374], [-210.60380416046814, -539.8923016664576], [-210.40740680388882, -540.3375816665198], [-210.01461209038123, -540.5602216663532], [-209.62181737687368, -540.6715416664676], [-209.3272213418302, -540.4489016666342], [-203.23890328333516, -527.9810616664735], [-203.14070460487108, -527.6471016665256], [-203.23890328333516, -527.2018216664634], [-203.63169799684275, -526.7565416664012], [-224.35161913131407, -518.0735816665717], [-225.03900987986512, -517.8509416663428], [-225.33360591508298, -517.9622616664573], [-225.53000327166234, -518.4075416665195], [-225.33360591508298, -525.42070166661], [-225.53000327166234, -531.8772616665237], [-225.33360591508298, -532.099901666357]]]}, "properties": {"name": "", "kind": "garden", "category": "parque", "extrude": false}}, {"type": "Feature", "geometry": {"type": "Polygon", "coordinates": [[[-244.87514290920606, -543.45454166656], [-243.9913548040757, -543.3432216664455], [-243.20576537706057, -542.8979416663833], [-242.61657330697366, -541.673421666311], [-241.83098387995855, -536.8866616665318], [-242.0273812367123, -535.9961016664073], [-242.51837462850955, -535.3281816665117], [-243.10756669877088, -534.771581666335], [-244.1877521608295, -534.6602616666161], [-245.16973894442398, -534.9942216665638], [-245.7589310145109, -535.3281816665117], [-246.2499244063081, -536.1074216665218], [-246.83911647656947, -539.4470216663954], [-247.231911190077, -541.0055016664154], [-246.9373151548591, -542.1187016663732], [-246.544520441526, -542.7866216666644], [-245.7589310145109, -543.3432216664455], [-244.87514290920606, -543.45454166656]]]}, "properties": {"name": "", "kind": "garden", "category": "parque", "extrude": false}}, {"type": "Feature", "geometry": {"type": "Polygon", "coordinates": [[[-497.14754762428976, -489.909621666491], [-493.8087925598244, -482.4511816663383], [-510.69896523838196, -475.2153816664145], [-513.9395216243834, -482.67382166656716], [-497.14754762428976, -489.909621666491]]]}, "properties": {"name": "", "kind": "garden", "category": "parque", "extrude": false}}, {"type": "Feature", "geometry": {"type": "Polygon", "coordinates": [[[-508.24399827922133, -512.8415416663347], [-506.9674154605834, -512.2849416665536], [-505.00344189339444, -507.164221666431], [-505.29803792843796, -505.7170616665253], [-519.7332436478349, -499.4831416664449], [-521.0098264664729, -500.0397416666216], [-523.1701973904156, -505.2717816664631], [-522.875601355372, -506.8302616664832], [-508.24399827922133, -512.8415416663347]]]}, "properties": {"name": "", "kind": "garden", "category": "parque", "extrude": false}}, {"type": "Feature", "geometry": {"type": "Polygon", "coordinates": [[[-727.7180444209589, -255.35838166663027], [-730.7622034502064, -256.80554166653593], [-733.3153690876567, -258.80930166661824], [-735.0829452982663, -261.92626166665843], [-735.7703360468173, -267.2696216666144], [-735.4757400115994, -278.29030166647397], [-733.6099651227001, -297.7713016663297], [-730.3694087366988, -319.2560616666633], [-726.9324549941182, -333.39370166656306], [-722.3171171110149, -348.31058166647296], [-716.6215937658529, -363.22746166638285], [-710.336878350604, -376.697181666387], [-703.9539642570656, -388.71974166648556], [-696.7854607365119, -400.5196616663552], [-687.2601889352618, -414.4346616664217], [-680.6808774849695, -424.56478166655234], [-675.2799501750254, -435.69678166652636], [-671.1556056837194, -446.3835016664382], [-666.6384664790801, -462.19094166647255], [-663.8889034848761, -476.4399016664868], [-662.7105193445278, -488.6851016664187], [-662.514121987774, -507.72082166660766], [-663.5943074498326, -524.5301416664854], [-666.0492744088189, -540.782861666582], [-669.2898307948202, -557.0355816666786], [-670.6378886592457, -561.5246267247147], [-669.2898307948202, -561.5997016666245], [-598.2468196973497, -561.5997016666245], [-598.8813784084449, -552.1375016663894], [-598.6849810516912, -551.3582616663793], [-597.9975903031402, -546.905461666548], [-588.2759211453107, -488.2398216663564], [-586.6065436131652, -487.34926166662746], [-587.6867290750494, -479.22290166657916], [-588.9633118938617, -479.11158166646476], [-589.8470999991665, -471.8757816665409], [-590.7308881042969, -469.09278166644856], [-589.8470999991665, -468.6475016663863], [-591.0254841395148, -465.8645016666894], [-592.203868279863, -466.1984616666372], [-595.6408220224437, -457.29286166657886], [-594.8552325956031, -456.95890166663105], [-595.8372193791974, -453.84194166659086], [-596.8192061627919, -454.17590166653866], [-600.5507559405905, -445.04766166664695], [-599.3723718002423, -444.4910616664703], [-600.5507559405905, -442.0420216663257], [-601.7291400809388, -442.37598166666896], [-605.2642925021579, -432.57982166648617], [-604.3805043968531, -432.24586166653836], [-605.3624911804476, -429.57418166656043], [-606.5408753207959, -429.9081416665082], [-610.1742264203048, -420.5572616663876], [-609.0940409582462, -420.22330166643985], [-616.4589418355536, -401.2989016663653], [-617.6373259759018, -401.7441816664275], [-619.3067035080473, -396.51214166658605], [-618.4229154027425, -396.40082166647164], [-619.2085048295833, -394.1744216665559], [-620.190491613352, -394.50838166650374], [-625.0022268530348, -382.59714166651963], [-624.2166374261941, -382.26318166657177], [-625.1004255314989, -379.48018166647944], [-626.2788096718472, -379.92546166654165], [-627.9481872039927, -375.25002166648136], [-626.9662004203982, -374.91606166653355], [-629.9121607711817, -367.68026166660974], [-646.998730806493, -388.8310616666], [-648.4717109818847, -390.500861666339], [-649.7482938006971, -389.94426166655785], [-650.8284792625811, -389.721621666329], [-651.8104660461756, -389.8329416664434], [-652.6942541514804, -390.0555816666723], [-656.2294065725252, -393.8404616666081], [-663.0051153795712, -400.9649416664175], [-663.5943074498326, -402.8573816663854], [-664.5762942334271, -403.8592616666243], [-666.2456717655725, -404.1932216665721], [-667.7186519411387, -403.97058166634326], [-669.1916321165304, -402.9687016664998], [-686.2782021516674, -379.7028216663128], [-693.3485069939313, -369.46138166646324], [-710.5332757073578, -343.41250166657926], [-722.9063091811018, -322.373021666308], [-727.9144417777127, -304.0052216664101], [-731.2531968420037, -285.19214166644997], [-731.2531968420037, -276.95446166668273], [-730.2712100584092, -270.49790166637354], [-727.9144417777127, -264.48662166652196], [-722.5135144677687, -256.0263016665259], [-727.7180444209589, -255.35838166663027]]]}, "properties": {"name": "", "kind": "scrub", "category": "parque", "extrude": false}}, {"type": "Feature", "geometry": {"type": "Polygon", "coordinates": [[[-533.5792572969705, -560.7091416665], [-524.4467802092279, -539.4470216663954], [-537.5072044315228, -533.881021666606], [-546.6396815192654, -555.1431416663152], [-533.5792572969705, -560.7091416665]]]}, "properties": {"name": "", "kind": "pitch", "category": "parque", "extrude": false}}, {"type": "Feature", "geometry": {"type": "Polygon", "coordinates": [[[-540.3549661040165, -534.3263016666683], [-556.8523440690665, -527.2018216664634], [-571.680344501971, -561.5997016666245], [-552.1117949262997, -561.5997016666245], [-540.3549661040165, -534.3263016666683]]]}, "properties": {"name": "", "kind": "pitch", "category": "parque", "extrude": false}}, {"type": "Feature", "geometry": {"type": "Polygon", "coordinates": [[[-437.73734721455656, -541.5621016665921], [-460.7158379514347, -531.8772616665237], [-473.16988533490286, -561.5997016666245], [-446.13837483115356, -561.5997016666245], [-437.73734721455656, -541.5621016665921]]]}, "properties": {"name": "", "kind": "park", "category": "parque", "extrude": false}}, {"type": "Feature", "geometry": {"type": "Polygon", "coordinates": [[[-548.0144630163674, -557.7035016665742], [-549.6792374854763, -561.5997016666245], [-538.9765476185261, -561.5997016666245], [-548.0144630163674, -557.7035016665742]]]}, "properties": {"name": "", "kind": "pitch", "category": "parque", "extrude": false}}, {"type": "Feature", "geometry": {"type": "Polygon", "coordinates": [[[-228.86875833612777, -554.8091816663674], [-228.5741623010843, -554.6978616666485], [-227.6903741957795, -554.2525816665863], [-226.41379137696714, -553.8073016665239], [-225.23540723661887, -553.6959816664096], [-223.86062573951685, -553.5846616666906], [-222.68224159916858, -553.8073016665239], [-221.40565878053067, -554.3639016663052], [-220.12907596171829, -555.0318216665962], [-218.26330107281902, -556.5903016666164], [-217.96870503777555, -557.1469016663975], [-217.77230768102177, -557.258221666512], [-217.57591032426802, -557.258221666512], [-217.37951296751422, -557.1469016663975], [-217.28131428922455, -556.9242616665642], [-211.68398962252672, -545.6809416664757], [-211.48759226577297, -545.01302166658], [-211.58579094423706, -544.4564216664035], [-211.78218830081641, -544.0111416663411], [-212.17498301432394, -543.6771816663934], [-212.56777772783155, -543.5658616666744], [-212.96057244133908, -543.6771816663934], [-213.94255922493358, -544.4564216664035], [-216.20112882716597, -545.5696216663613], [-218.5578971080369, -545.903581666309], [-220.52187067522587, -545.6809416664757], [-222.19124820737136, -545.01302166658], [-224.0570230962706, -543.8998216666222], [-225.53000327166234, -542.2300216664877], [-226.21739402021336, -541.1168216665299], [-226.41379137696714, -540.5602216663532], [-226.70838741218503, -540.5602216663532], [-226.80658609047467, -540.6715416664676], [-227.00298344722844, -540.8941816666965], [-229.359751727925, -554.0299416663573], [-229.26155304946084, -554.586541666534], [-229.06515569288152, -554.8091816663674], [-228.86875833612777, -554.8091816663674]]]}, "properties": {"name": "", "kind": "garden", "category": "parque", "extrude": false}}, {"type": "Feature", "geometry": {"type": "Polygon", "coordinates": [[[-219.4416852131673, -560.1525416663233], [-220.71826803197962, -558.4827416665843], [-222.4858442424148, -557.3695416666264], [-224.4498178097782, -556.9242616665642], [-226.51199005543123, -557.1469016663975], [-228.37776494433052, -558.1487816666365], [-229.75254644143251, -559.5959416665421], [-230.63633454656292, -561.48838166651], [-230.734533225027, -561.48838166651], [-230.734533225027, -561.5997016666245], [-219.01615760695464, -561.5997016666245], [-219.4416852131673, -560.1525416663233]]]}, "properties": {"name": "", "kind": "garden", "category": "parque", "extrude": false}}, {"type": "Feature", "geometry": {"type": "Polygon", "coordinates": [[[-409.0633331325165, -553.8073016665239], [-412.4234834396724, -561.5997016666245], [-391.0675978051193, -561.5997016666245], [-409.0633331325165, -553.8073016665239]]]}, "properties": {"name": "", "kind": "park", "category": "parque", "extrude": false}}, {"type": "Feature", "geometry": {"type": "Polygon", "coordinates": [[[-126.84033151675467, -543.6771816663934], [-138.13317952843997, -531.4319816664614], [-133.41964296704697, -527.0905016663489], [-136.16920596125104, -524.8641016664333], [-136.95479538809172, -524.5301416664854], [-137.54398745835306, -524.6414616665999], [-138.13317952843997, -525.198061666381], [-139.0169676337448, -526.4225816664533], [-145.89087511925496, -541.4507816664776], [-155.78938173445377, -561.5997016666245], [-110.36543829569553, -561.5997016666245], [-126.84033151675467, -543.6771816663934]]]}, "properties": {"name": "", "kind": "garden", "category": "parque", "extrude": false}}]}