{"type": "FeatureCollection", "crs": {"type": "name", "properties": {"name": "EPSG:32628_local_enu_m_section_centroid", "lng0": -13.81509107837988, "lat0": 28.884473930818288}}, "features": [{"type": "Feature", "geometry": {"type": "Point", "coordinates": [-4928.140584124004, 2758.501898691709]}, "properties": {"osm_id": null, "category": "restauracion", "name": "Kamezí", "extrude": false}}, {"type": "Feature", "geometry": {"type": "Point", "coordinates": [-4386.980003840054, 2559.3504186918526]}, "properties": {"osm_id": null, "category": "restauracion", "name": "Chiringuito Tropical", "extrude": false}}, {"type": "Feature", "geometry": {"type": "Point", "coordinates": [-5349.411482536721, 2338.1575786918816]}, "properties": {"osm_id": null, "category": "restauracion", "name": "Pizzeria Dal Trevisano", "extrude": false}}, {"type": "Feature", "geometry": {"type": "Point", "coordinates": [-5371.3425219034525, 2327.9161386916367]}, "properties": {"osm_id": null, "category": "restauracion", "name": "La Flamenca", "extrude": false}}, {"type": "Feature", "geometry": {"type": "Point", "coordinates": [-5388.010111822134, 2326.135018691783]}, "properties": {"osm_id": null, "category": "restauracion", "name": "Port of Call", "extrude": false}}, {"type": "Feature", "geometry": {"type": "Point", "coordinates": [-5399.414252292765, 2314.8916986916947]}, "properties": {"osm_id": null, "category": "restauracion", "name": "Flavours", "extrude": false}}, {"type": "Feature", "geometry": {"type": "Point", "coordinates": [-5472.420245562418, 2263.4618586918223]}, "properties": {"osm_id": null, "category": "restauracion", "name": "Pizz Burger", "extrude": false}}, {"type": "Feature", "geometry": {"type": "Point", "coordinates": [-2337.6462141299676, 3044.482978691837]}, "properties": {"osm_id": null, "category": "finanzas", "name": "Banco Santander", "extrude": false}}, {"type": "Feature", "geometry": {"type": "Point", "coordinates": [-2604.717537973213, 2929.600738691994]}, "properties": {"osm_id": null, "category": "restauracion", "name": "Casa Joaquin", "extrude": false}}, {"type": "Feature", "geometry": {"type": "Point", "coordinates": [-2626.2586921955926, 2918.580058691739]}, "properties": {"osm_id": null, "category": "restauracion", "name": "Casa Joaquin", "extrude": false}}, {"type": "Feature", "geometry": {"type": "Point", "coordinates": [-2591.5589143531747, 2915.9083786917613]}, "properties": {"osm_id": null, "category": "restauracion", "name": "Asia Restaurant", "extrude": false}}, {"type": "Feature", "geometry": {"type": "Point", "coordinates": [214.0545840066547, 3121.5164186919264]}, "properties": {"osm_id": null, "category": "restauracion", "name": "Mumbai Masala", "extrude": false}}, {"type": "Feature", "geometry": {"type": "Point", "coordinates": [223.02194232534958, 3113.3900586918785]}, "properties": {"osm_id": null, "category": "restauracion", "name": "Cookies", "extrude": false}}, {"type": "Feature", "geometry": {"type": "Point", "coordinates": [246.90240741366392, 3108.714618691818]}, "properties": {"osm_id": null, "category": "restauracion", "name": "7 Sensi", "extrude": false}}, {"type": "Feature", "geometry": {"type": "Point", "coordinates": [217.17366516094572, 3108.6032986917035]}, "properties": {"osm_id": null, "category": "restauracion", "name": "Le Petit Jardin", "extrude": false}}, {"type": "Feature", "geometry": {"type": "Point", "coordinates": [207.62147912572388, 3086.6732586917033]}, "properties": {"osm_id": null, "category": "restauracion", "name": "La Cubierta", "extrude": false}}, {"type": "Feature", "geometry": {"type": "Point", "coordinates": [241.83390053778953, 3072.090338691741]}, "properties": {"osm_id": null, "category": "restauracion", "name": "Primario Gastrobar", "extrude": false}}, {"type": "Feature", "geometry": {"type": "Point", "coordinates": [192.9033149284532, 3063.184738691683]}, "properties": {"osm_id": null, "category": "restauracion", "name": "Blue Note", "extrude": false}}, {"type": "Feature", "geometry": {"type": "Point", "coordinates": [192.02607335374935, 3059.622498691976]}, "properties": {"osm_id": null, "category": "restauracion", "name": "Arabella's", "extrude": false}}, {"type": "Feature", "geometry": {"type": "Point", "coordinates": [191.63618820957117, 3056.394218691821]}, "properties": {"osm_id": null, "category": "restauracion", "name": "Buenos Aires Grill", "extrude": false}}, {"type": "Feature", "geometry": {"type": "Point", "coordinates": [189.49181991581213, 3042.36789869164]}, "properties": {"osm_id": null, "category": "salud", "name": "", "extrude": false}}, {"type": "Feature", "geometry": {"type": "Point", "coordinates": [-160.0402119461343, 3031.2358986916665]}, "properties": {"osm_id": null, "category": "restauracion", "name": "One Bar", "extrude": false}}, {"type": "Feature", "geometry": {"type": "Point", "coordinates": [205.2821682599623, 3031.013258691833]}, "properties": {"osm_id": null, "category": "restauracion", "name": "Café Terraza", "extrude": false}}, {"type": "Feature", "geometry": {"type": "Point", "coordinates": [227.60309277087143, 3023.332178691847]}, "properties": {"osm_id": null, "category": "restauracion", "name": "The Flagship", "extrude": false}}, {"type": "Feature", "geometry": {"type": "Point", "coordinates": [184.91066947046343, 3016.2076986916422]}, "properties": {"osm_id": null, "category": "restauracion", "name": "Vino Blanco", "extrude": false}}, {"type": "Feature", "geometry": {"type": "Point", "coordinates": [382.679908914874, 3012.422818691706]}, "properties": {"osm_id": null, "category": "alojamiento", "name": "Volcán Lanzarote", "extrude": false}}, {"type": "Feature", "geometry": {"type": "Point", "coordinates": [201.09090295879176, 2982.81169869172]}, "properties": {"osm_id": null, "category": "restauracion", "name": "Il Tucano", "extrude": false}}, {"type": "Feature", "geometry": {"type": "Point", "coordinates": [195.34009708038914, 2965.668418691894]}, "properties": {"osm_id": null, "category": "restauracion", "name": "Shibumi", "extrude": false}}, {"type": "Feature", "geometry": {"type": "Point", "coordinates": [174.28629928836204, 2954.53641869192]}, "properties": {"osm_id": null, "category": "restauracion", "name": "La Casa Roja", "extrude": false}}, {"type": "Feature", "geometry": {"type": "Point", "coordinates": [162.29733110120424, 2932.383738691691]}, "properties": {"osm_id": null, "category": "restauracion", "name": "La Taberna", "extrude": false}}, {"type": "Feature", "geometry": {"type": "Point", "coordinates": [109.37042276287303, 2892.531178691855]}, "properties": {"osm_id": null, "category": "restauracion", "name": "El Comendatore", "extrude": false}}, {"type": "Feature", "geometry": {"type": "Point", "coordinates": [91.24076355313444, 2884.4048186918067]}, "properties": {"osm_id": null, "category": "restauracion", "name": "Liken", "extrude": false}}, {"type": "Feature", "geometry": {"type": "Point", "coordinates": [-50.48248639882701, 2876.2784586917587]}, "properties": {"osm_id": null, "category": "restauracion", "name": "Lani's Grill", "extrude": false}}, {"type": "Feature", "geometry": {"type": "Point", "coordinates": [-2647.7998464181455, 2907.4480586917653]}, "properties": {"osm_id": null, "category": "restauracion", "name": "The Green&Grill", "extrude": false}}, {"type": "Feature", "geometry": {"type": "Point", "coordinates": [-2654.2329512989036, 2906.8914586919836]}, "properties": {"osm_id": null, "category": "restauracion", "name": "Thea", "extrude": false}}, {"type": "Feature", "geometry": {"type": "Point", "coordinates": [-2661.445826468537, 2902.9952586919335]}, "properties": {"osm_id": null, "category": "restauracion", "name": "Taverna", "extrude": false}}, {"type": "Feature", "geometry": {"type": "Point", "coordinates": [-2585.2232807584182, 2896.53869869202]}, "properties": {"osm_id": null, "category": "restauracion", "name": "L'Artigiano", "extrude": false}}, {"type": "Feature", "geometry": {"type": "Point", "coordinates": [-2705.3079052018256, 2891.751938691845]}, "properties": {"osm_id": null, "category": "restauracion", "name": "", "extrude": false}}, {"type": "Feature", "geometry": {"type": "Point", "coordinates": [-2690.7846835767305, 2885.4066986916505]}, "properties": {"osm_id": null, "category": "restauracion", "name": "La Bahia", "extrude": false}}, {"type": "Feature", "geometry": {"type": "Point", "coordinates": [-2081.1017891826486, 2870.044538691678]}, "properties": {"osm_id": null, "category": "restauracion", "name": "Curry House", "extrude": false}}, {"type": "Feature", "geometry": {"type": "Point", "coordinates": [-2057.8061518108616, 2821.0637386919507]}, "properties": {"osm_id": null, "category": "restauracion", "name": "", "extrude": false}}, {"type": "Feature", "geometry": {"type": "Point", "coordinates": [-2061.5100606816795, 2801.360098691866]}, "properties": {"osm_id": null, "category": "finanzas", "name": "La Caja de Canarias", "extrude": false}}, {"type": "Feature", "geometry": {"type": "Point", "coordinates": [-2087.924779207931, 2799.9129386919603]}, "properties": {"osm_id": null, "category": "finanzas", "name": "Banco Santander", "extrude": false}}, {"type": "Feature", "geometry": {"type": "Point", "coordinates": [-46.681106241834634, 2852.233338691957]}, "properties": {"osm_id": null, "category": "restauracion", "name": "Berrugo tapas", "extrude": false}}, {"type": "Feature", "geometry": {"type": "Point", "coordinates": [-97.56111757258121, 2850.452218691708]}, "properties": {"osm_id": null, "category": "restauracion", "name": "Lani's Snack Bar", "extrude": false}}, {"type": "Feature", "geometry": {"type": "Point", "coordinates": [97.38145457571522, 2833.7542186919445]}, "properties": {"osm_id": null, "category": "restauracion", "name": "Oasis Marina Bay", "extrude": false}}, {"type": "Feature", "geometry": {"type": "Point", "coordinates": [-24.55512430310116, 2831.4164986919145]}, "properties": {"osm_id": null, "category": "restauracion", "name": "Dulcis in Fundo", "extrude": false}}, {"type": "Feature", "geometry": {"type": "Point", "coordinates": [61.31707872824056, 2817.3901786917336]}, "properties": {"osm_id": null, "category": "restauracion", "name": "Oasis Grill & Asian Cuisine", "extrude": false}}, {"type": "Feature", "geometry": {"type": "Point", "coordinates": [-3.8912116552522247, 2816.2769786917756]}, "properties": {"osm_id": null, "category": "restauracion", "name": "Afrodite Snack Bar", "extrude": false}}, {"type": "Feature", "geometry": {"type": "Point", "coordinates": [12.971320835431188, 2814.4958586919224]}, "properties": {"osm_id": null, "category": "restauracion", "name": "Afrodite", "extrude": false}}, {"type": "Feature", "geometry": {"type": "Point", "coordinates": [-131.3836538404687, 2788.1130186916953]}, "properties": {"osm_id": null, "category": "restauracion", "name": "El Mirador", "extrude": false}}, {"type": "Feature", "geometry": {"type": "Point", "coordinates": [1387.218983195595, 2783.771538691978]}, "properties": {"osm_id": null, "category": "restauracion", "name": "", "extrude": false}}, {"type": "Feature", "geometry": {"type": "Point", "coordinates": [233.2564273632728, 2762.1754586919255]}, "properties": {"osm_id": null, "category": "alojamiento", "name": "Aparthotel Rubimar", "extrude": false}}, {"type": "Feature", "geometry": {"type": "Point", "coordinates": [1613.547309460016, 2714.196538691646]}, "properties": {"osm_id": null, "category": "restauracion", "name": "", "extrude": false}}, {"type": "Feature", "geometry": {"type": "Point", "coordinates": [1553.7974110965758, 2692.3778186917602]}, "properties": {"osm_id": null, "category": "restauracion", "name": "Cafetaria", "extrude": false}}, {"type": "Feature", "geometry": {"type": "Point", "coordinates": [1624.2691509281187, 2687.9250186919285]}, "properties": {"osm_id": null, "category": "restauracion", "name": "", "extrude": false}}, {"type": "Feature", "geometry": {"type": "Point", "coordinates": [1502.7224571936538, 2687.7023786917]}, "properties": {"osm_id": null, "category": "salud", "name": "Sabicon Parafarmacias", "extrude": false}}, {"type": "Feature", "geometry": {"type": "Point", "coordinates": [1474.943140662519, 2676.793018691955]}, "properties": {"osm_id": null, "category": "salud", "name": "Doha Grupo Medico", "extrude": false}}, {"type": "Feature", "geometry": {"type": "Point", "coordinates": [1467.2429090625328, 2672.451538691842]}, "properties": {"osm_id": null, "category": "restauracion", "name": "El buen café", "extrude": false}}, {"type": "Feature", "geometry": {"type": "Point", "coordinates": [1551.8479853749925, 2666.5515786917094]}, "properties": {"osm_id": null, "category": "restauracion", "name": "El Parque", "extrude": false}}, {"type": "Feature", "geometry": {"type": "Point", "coordinates": [1552.627755663522, 2659.0931386919524]}, "properties": {"osm_id": null, "category": "restauracion", "name": "Cafeteria Simple & Natural", "extrude": false}}, {"type": "Feature", "geometry": {"type": "Point", "coordinates": [-2616.8039774465456, 2770.5244586918075]}, "properties": {"osm_id": null, "category": "alojamiento", "name": "Flamingo beach", "extrude": false}}, {"type": "Feature", "geometry": {"type": "Point", "coordinates": [-1944.7394599649117, 2759.169818692]}, "properties": {"osm_id": null, "category": "restauracion", "name": "La cofradia", "extrude": false}}, {"type": "Feature", "geometry": {"type": "Point", "coordinates": [-2870.2293212394, 2721.321018691851]}, "properties": {"osm_id": null, "category": "alojamiento", "name": "Timanfaya Palace", "extrude": false}}, {"type": "Feature", "geometry": {"type": "Point", "coordinates": [-1919.8842820158925, 2689.928778692011]}, "properties": {"osm_id": null, "category": "restauracion", "name": "Cofradía de Pescadores", "extrude": false}}, {"type": "Feature", "geometry": {"type": "Point", "coordinates": [-1743.0713690773346, 2601.318058691885]}, "properties": {"osm_id": null, "category": "restauracion", "name": "Skyline", "extrude": false}}, {"type": "Feature", "geometry": {"type": "Point", "coordinates": [-1757.5945907024295, 2600.2048586919273]}, "properties": {"osm_id": null, "category": "restauracion", "name": "Nine'n", "extrude": false}}, {"type": "Feature", "geometry": {"type": "Point", "coordinates": [-1775.1394221958142, 2600.093538691813]}, "properties": {"osm_id": null, "category": "finanzas", "name": "Solbank", "extrude": false}}, {"type": "Feature", "geometry": {"type": "Point", "coordinates": [-1777.4787330615757, 2595.306778691638]}, "properties": {"osm_id": null, "category": "finanzas", "name": "Banco Santander", "extrude": false}}, {"type": "Feature", "geometry": {"type": "Point", "coordinates": [-254.5873594381671, 2584.397418691893]}, "properties": {"osm_id": null, "category": "restauracion", "name": "Namaste", "extrude": false}}, {"type": "Feature", "geometry": {"type": "Point", "coordinates": [-267.3560979138544, 2583.284218691935]}, "properties": {"osm_id": null, "category": "restauracion", "name": "Roma Italia", "extrude": false}}, {"type": "Feature", "geometry": {"type": "Point", "coordinates": [-303.2255311891534, 2581.0578186920193]}, "properties": {"osm_id": null, "category": "salud", "name": "Pharma Health Store", "extrude": false}}, {"type": "Feature", "geometry": {"type": "Point", "coordinates": [-1700.184003204751, 2579.4993386919996]}, "properties": {"osm_id": null, "category": "restauracion", "name": "La Katedral", "extrude": false}}, {"type": "Feature", "geometry": {"type": "Point", "coordinates": [-1686.050666723834, 2577.606898691636]}, "properties": {"osm_id": null, "category": "restauracion", "name": "Restaurant Chinese Great World", "extrude": false}}, {"type": "Feature", "geometry": {"type": "Point", "coordinates": [-1679.8125044152519, 2577.050298691855]}, "properties": {"osm_id": null, "category": "restauracion", "name": "Bodgéon Las Tapas", "extrude": false}}, {"type": "Feature", "geometry": {"type": "Point", "coordinates": [-1692.5812428909392, 2576.716338691907]}, "properties": {"osm_id": null, "category": "restauracion", "name": "Imagine Indian", "extrude": false}}, {"type": "Feature", "geometry": {"type": "Point", "coordinates": [-1669.383076805153, 2576.2710586918447]}, "properties": {"osm_id": null, "category": "restauracion", "name": "Sweet Corner Beach Club", "extrude": false}}, {"type": "Feature", "geometry": {"type": "Point", "coordinates": [-1764.5150520137129, 2575.8257786917825]}, "properties": {"osm_id": null, "category": "finanzas", "name": "BBVA", "extrude": false}}, {"type": "Feature", "geometry": {"type": "Point", "coordinates": [-1660.9030749168107, 2575.603138691949]}, "properties": {"osm_id": null, "category": "restauracion", "name": "Mamma Rosa Pizza Restaurant", "extrude": false}}, {"type": "Feature", "geometry": {"type": "Point", "coordinates": [-1645.4051404310105, 2571.372978691951]}, "properties": {"osm_id": null, "category": "restauracion", "name": "Restaurante Camel", "extrude": false}}, {"type": "Feature", "geometry": {"type": "Point", "coordinates": [-1690.4368745971801, 2551.224058691804]}, "properties": {"osm_id": null, "category": "restauracion", "name": "Restaurante La Cuadra", "extrude": false}}, {"type": "Feature", "geometry": {"type": "Point", "coordinates": [-1586.0451272117486, 2549.888218692013]}, "properties": {"osm_id": null, "category": "restauracion", "name": "Don Camillo III", "extrude": false}}, {"type": "Feature", "geometry": {"type": "Point", "coordinates": [-1658.9536491952274, 2545.5467386919004]}, "properties": {"osm_id": null, "category": "restauracion", "name": "", "extrude": false}}, {"type": "Feature", "geometry": {"type": "Point", "coordinates": [-1717.3389495537842, 2543.542978691818]}, "properties": {"osm_id": null, "category": "restauracion", "name": "Café Puerto", "extrude": false}}, {"type": "Feature", "geometry": {"type": "Point", "coordinates": [-1661.585373919339, 2542.8750586919227]}, "properties": {"osm_id": null, "category": "restauracion", "name": "Cantina Mejicana", "extrude": false}}, {"type": "Feature", "geometry": {"type": "Point", "coordinates": [-1656.029510613112, 2541.205258691788]}, "properties": {"osm_id": null, "category": "restauracion", "name": "La Terracita Tapas", "extrude": false}}, {"type": "Feature", "geometry": {"type": "Point", "coordinates": [-2823.540575209824, 2540.759978691726]}, "properties": {"osm_id": null, "category": "alojamiento", "name": "Lanzasur Club", "extrude": false}}, {"type": "Feature", "geometry": {"type": "Point", "coordinates": [-1576.1030560321753, 2540.648658692007]}, "properties": {"osm_id": null, "category": "restauracion", "name": "Sidreria Arenna", "extrude": false}}, {"type": "Feature", "geometry": {"type": "Point", "coordinates": [-1664.0221560711018, 2534.5260586916456]}, "properties": {"osm_id": null, "category": "restauracion", "name": "Ninen", "extrude": false}}, {"type": "Feature", "geometry": {"type": "Point", "coordinates": [-1569.8648937234202, 2533.524178691802]}, "properties": {"osm_id": null, "category": "restauracion", "name": "Playa Blanca", "extrude": false}}, {"type": "Feature", "geometry": {"type": "Point", "coordinates": [-1563.4317888424894, 2527.067618691888]}, "properties": {"osm_id": null, "category": "restauracion", "name": "Spices", "extrude": false}}, {"type": "Feature", "geometry": {"type": "Point", "coordinates": [-4206.853067174858, 2516.7148586919243]}, "properties": {"osm_id": null, "category": "restauracion", "name": "Mike's", "extrude": false}}, {"type": "Feature", "geometry": {"type": "Point", "coordinates": [-4230.343647118821, 2514.043178691946]}, "properties": {"osm_id": null, "category": "restauracion", "name": "Beefeater", "extrude": false}}, {"type": "Feature", "geometry": {"type": "Point", "coordinates": [-1547.1540840681598, 2507.6979386917515]}, "properties": {"osm_id": null, "category": "restauracion", "name": "La Gondola", "extrude": false}}, {"type": "Feature", "geometry": {"type": "Point", "coordinates": [-1540.8184504734033, 2507.363978691804]}, "properties": {"osm_id": null, "category": "restauracion", "name": "La Gondola", "extrude": false}}, {"type": "Feature", "geometry": {"type": "Point", "coordinates": [-1592.1858182345024, 2492.892378691956]}, "properties": {"osm_id": null, "category": "restauracion", "name": "", "extrude": false}}, {"type": "Feature", "geometry": {"type": "Point", "coordinates": [-1586.9223687864526, 2491.111258691707]}, "properties": {"osm_id": null, "category": "restauracion", "name": "Café 34", "extrude": false}}, {"type": "Feature", "geometry": {"type": "Point", "coordinates": [-1578.2474243259344, 2483.65281869195]}, "properties": {"osm_id": null, "category": "restauracion", "name": "", "extrude": false}}, {"type": "Feature", "geometry": {"type": "Point", "coordinates": [-1527.8547694255406, 2481.9830186918152]}, "properties": {"osm_id": null, "category": "restauracion", "name": "Restaurante Puerto Blanco", "extrude": false}}, {"type": "Feature", "geometry": {"type": "Point", "coordinates": [-1514.5986745193275, 2476.0830586916827]}, "properties": {"osm_id": null, "category": "restauracion", "name": "La Chalanita", "extrude": false}}, {"type": "Feature", "geometry": {"type": "Point", "coordinates": [-3833.245627652594, 2473.522698691819]}, "properties": {"osm_id": null, "category": "restauracion", "name": "Marea Terraza Lounge Bar", "extrude": false}}, {"type": "Feature", "geometry": {"type": "Point", "coordinates": [951.1324492997788, 2654.75165869184]}, "properties": {"osm_id": null, "category": "restauracion", "name": "Indian Gourmet", "extrude": false}}, {"type": "Feature", "geometry": {"type": "Point", "coordinates": [933.4901465202195, 2651.6346986917997]}, "properties": {"osm_id": null, "category": "restauracion", "name": "Antonio's Cafe", "extrude": false}}, {"type": "Feature", "geometry": {"type": "Point", "coordinates": [1495.314639452018, 2647.8498186918637]}, "properties": {"osm_id": null, "category": "restauracion", "name": "El Lagar de Baco", "extrude": false}}, {"type": "Feature", "geometry": {"type": "Point", "coordinates": [-223.9813756109182, 2595.863378691815]}, "properties": {"osm_id": null, "category": "restauracion", "name": "La GangNan", "extrude": false}}, {"type": "Feature", "geometry": {"type": "Point", "coordinates": [255.86976573235884, 2493.226338691904]}, "properties": {"osm_id": null, "category": "restauracion", "name": "Restaurante La Cocinade Colacho", "extrude": false}}, {"type": "Feature", "geometry": {"type": "Point", "coordinates": [1498.7261344644858, 2421.2022986918228]}, "properties": {"osm_id": null, "category": "alojamiento", "name": "Bahia Playa Blanca Caybeach", "extrude": false}}, {"type": "Feature", "geometry": {"type": "Point", "coordinates": [1358.9523102341075, 2359.9762986917676]}, "properties": {"osm_id": null, "category": "restauracion", "name": "La Pampa Restaurante Argentino", "extrude": false}}, {"type": "Feature", "geometry": {"type": "Point", "coordinates": [1371.3311635656169, 2356.414058691665]}, "properties": {"osm_id": null, "category": "restauracion", "name": "Casa Carlos", "extrude": false}}, {"type": "Feature", "geometry": {"type": "Point", "coordinates": [1466.4631387740033, 2291.625818691903]}, "properties": {"osm_id": null, "category": "alojamiento", "name": "Iberostar Premium La Bocayna Village Bungalows", "extrude": false}}, {"type": "Feature", "geometry": {"type": "Point", "coordinates": [-4144.373972801304, 2469.069898691988]}, "properties": {"osm_id": null, "category": "restauracion", "name": "Sakura", "extrude": false}}, {"type": "Feature", "geometry": {"type": "Point", "coordinates": [-4128.876038315504, 2466.954818691791]}, "properties": {"osm_id": null, "category": "restauracion", "name": "La Dolce Vita", "extrude": false}}, {"type": "Feature", "geometry": {"type": "Point", "coordinates": [-3803.2244715416987, 2466.2868986918957]}, "properties": {"osm_id": null, "category": "publico", "name": "Museo Atlántico", "extrude": false}}, {"type": "Feature", "geometry": {"type": "Point", "coordinates": [-3879.934373681997, 2464.1718186916987]}, "properties": {"osm_id": null, "category": "restauracion", "name": "Natura Beach", "extrude": false}}, {"type": "Feature", "geometry": {"type": "Point", "coordinates": [-1603.3950161329578, 2463.7265386916365]}, "properties": {"osm_id": null, "category": "restauracion", "name": "Bar de Tapas La Cantina", "extrude": false}}, {"type": "Feature", "geometry": {"type": "Point", "coordinates": [-1498.8083261753504, 2461.3888186920017]}, "properties": {"osm_id": null, "category": "restauracion", "name": "Casa Pedro", "extrude": false}}, {"type": "Feature", "geometry": {"type": "Point", "coordinates": [-1232.6142439068085, 2458.939778691857]}, "properties": {"osm_id": null, "category": "restauracion", "name": "Jumbo Restaurante", "extrude": false}}, {"type": "Feature", "geometry": {"type": "Point", "coordinates": [-3861.414829327907, 2458.6058186919095]}, "properties": {"osm_id": null, "category": "restauracion", "name": "Sebastyan's", "extrude": false}}, {"type": "Feature", "geometry": {"type": "Point", "coordinates": [-1241.4841309395022, 2453.0398186917246]}, "properties": {"osm_id": null, "category": "restauracion", "name": "Tipico Canario", "extrude": false}}, {"type": "Feature", "geometry": {"type": "Point", "coordinates": [-4123.222703723276, 2450.2568186916324]}, "properties": {"osm_id": null, "category": "restauracion", "name": "Tabaiba", "extrude": false}}, {"type": "Feature", "geometry": {"type": "Point", "coordinates": [-1244.1158556634407, 2449.0322986919555]}, "properties": {"osm_id": null, "category": "restauracion", "name": "Contin Ice Cream", "extrude": false}}, {"type": "Feature", "geometry": {"type": "Point", "coordinates": [-3101.821096951698, 2448.4756986917787]}, "properties": {"osm_id": null, "category": "alojamiento", "name": "Atlantic Gardens MarConfort", "extrude": false}}, {"type": "Feature", "geometry": {"type": "Point", "coordinates": [-3824.375740619727, 2447.5851386916543]}, "properties": {"osm_id": null, "category": "restauracion", "name": "Luna Rossa", "extrude": false}}, {"type": "Feature", "geometry": {"type": "Point", "coordinates": [-4080.335337850692, 2446.3606186919774]}, "properties": {"osm_id": null, "category": "restauracion", "name": "Janubio", "extrude": false}}, {"type": "Feature", "geometry": {"type": "Point", "coordinates": [-1486.624415416017, 2444.356858691895]}, "properties": {"osm_id": null, "category": "restauracion", "name": "China City", "extrude": false}}, {"type": "Feature", "geometry": {"type": "Point", "coordinates": [-3805.856196265637, 2442.019138691865]}, "properties": {"osm_id": null, "category": "restauracion", "name": "El Argentino", "extrude": false}}, {"type": "Feature", "geometry": {"type": "Point", "coordinates": [-2530.2494754125023, 2441.239898691855]}, "properties": {"osm_id": null, "category": "restauracion", "name": "", "extrude": false}}, {"type": "Feature", "geometry": {"type": "Point", "coordinates": [-935.4242926664933, 2441.1285786917406]}, "properties": {"osm_id": null, "category": "restauracion", "name": "Bikers Beach Club", "extrude": false}}, {"type": "Feature", "geometry": {"type": "Point", "coordinates": [-804.7152980409844, 2440.5719786919594]}, "properties": {"osm_id": null, "category": "restauracion", "name": "", "extrude": false}}, {"type": "Feature", "geometry": {"type": "Point", "coordinates": [-1259.418847577065, 2438.79085869171]}, "properties": {"osm_id": null, "category": "restauracion", "name": "Volcán Timanfaya", "extrude": false}}, {"type": "Feature", "geometry": {"type": "Point", "coordinates": [-955.0160211674627, 2433.4474986917544]}, "properties": {"osm_id": null, "category": "restauracion", "name": "Atlantis", "extrude": false}}, {"type": "Feature", "geometry": {"type": "Point", "coordinates": [-1236.220681491452, 2431.221098691839]}, "properties": {"osm_id": null, "category": "restauracion", "name": "l'Artista", "extrude": false}}, {"type": "Feature", "geometry": {"type": "Point", "coordinates": [-969.7341853645601, 2427.436218691903]}, "properties": {"osm_id": null, "category": "restauracion", "name": "Taberna Godina", "extrude": false}}, {"type": "Feature", "geometry": {"type": "Point", "coordinates": [-4126.634198735917, 2424.9871786917583]}, "properties": {"osm_id": null, "category": "alojamiento", "name": "Rubicon Palace", "extrude": false}}, {"type": "Feature", "geometry": {"type": "Point", "coordinates": [-1215.751711415952, 2421.758898691999]}, "properties": {"osm_id": null, "category": "finanzas", "name": "Banco Santander", "extrude": false}}, {"type": "Feature", "geometry": {"type": "Point", "coordinates": [-1304.9379381737604, 2420.9796586919892]}, "properties": {"osm_id": null, "category": "restauracion", "name": "Restaurante Brisa Del Mar", "extrude": false}}, {"type": "Feature", "geometry": {"type": "Point", "coordinates": [-1584.5830579206909, 2417.4174186918867]}, "properties": {"osm_id": null, "category": "restauracion", "name": "CINTURA Cocina casual", "extrude": false}}, {"type": "Feature", "geometry": {"type": "Point", "coordinates": [-1260.588503009946, 2412.96461869166]}, "properties": {"osm_id": null, "category": "restauracion", "name": "Restaurante El Horno De La Aguela", "extrude": false}}, {"type": "Feature", "geometry": {"type": "Point", "coordinates": [-979.0914288277794, 2411.9627386918164]}, "properties": {"osm_id": null, "category": "restauracion", "name": "New Orleans Restaurante", "extrude": false}}, {"type": "Feature", "geometry": {"type": "Point", "coordinates": [-954.821078595287, 2408.289178691995]}, "properties": {"osm_id": null, "category": "restauracion", "name": "The Wax Bar", "extrude": false}}, {"type": "Feature", "geometry": {"type": "Point", "coordinates": [-1375.312206719302, 2406.9533386918083]}, "properties": {"osm_id": null, "category": "restauracion", "name": "Brisa Marina", "extrude": false}}, {"type": "Feature", "geometry": {"type": "Point", "coordinates": [-1447.34348712825, 2406.6193786918607]}, "properties": {"osm_id": null, "category": "restauracion", "name": "Asia Playa Blanca", "extrude": false}}, {"type": "Feature", "geometry": {"type": "Point", "coordinates": [-1183.7811295834736, 2404.5042986916637]}, "properties": {"osm_id": null, "category": "restauracion", "name": "Casa Josè", "extrude": false}}, {"type": "Feature", "geometry": {"type": "Point", "coordinates": [-943.7093519828331, 2404.170338691716]}, "properties": {"osm_id": null, "category": "restauracion", "name": "The Italian Job", "extrude": false}}, {"type": "Feature", "geometry": {"type": "Point", "coordinates": [-1631.6616890944451, 2400.6080986920088]}, "properties": {"osm_id": null, "category": "restauracion", "name": "Coffee Express", "extrude": false}}, {"type": "Feature", "geometry": {"type": "Point", "coordinates": [-956.2831478863448, 2399.60621869177]}, "properties": {"osm_id": null, "category": "restauracion", "name": "Casale Franco", "extrude": false}}, {"type": "Feature", "geometry": {"type": "Point", "coordinates": [-1409.037271701015, 2398.9382986918745]}, "properties": {"osm_id": null, "category": "restauracion", "name": "Restaurante Terraza Roca Mar", "extrude": false}}, {"type": "Feature", "geometry": {"type": "Point", "coordinates": [-985.9144188528886, 2398.6043386919264]}, "properties": {"osm_id": null, "category": "restauracion", "name": "The Godfather", "extrude": false}}, {"type": "Feature", "geometry": {"type": "Point", "coordinates": [-963.1061379116268, 2396.8232186916775]}, "properties": {"osm_id": null, "category": "restauracion", "name": "Made In Italy", "extrude": false}}, {"type": "Feature", "geometry": {"type": "Point", "coordinates": [-1623.279158492104, 2396.7118986919586]}, "properties": {"osm_id": null, "category": "restauracion", "name": "", "extrude": false}}, {"type": "Feature", "geometry": {"type": "Point", "coordinates": [-1670.3577896660313, 2396.2666186918964]}, "properties": {"osm_id": null, "category": "finanzas", "name": "Mapfre", "extrude": false}}, {"type": "Feature", "geometry": {"type": "Point", "coordinates": [-1307.7646054698746, 2391.479858691722]}, "properties": {"osm_id": null, "category": "restauracion", "name": "Il Nuovo Gelato", "extrude": false}}, {"type": "Feature", "geometry": {"type": "Point", "coordinates": [-975.6799338151384, 2390.032698691816]}, "properties": {"osm_id": null, "category": "restauracion", "name": "Jungle Bar", "extrude": false}}, {"type": "Feature", "geometry": {"type": "Point", "coordinates": [-991.957638589468, 2382.4629386919446]}, "properties": {"osm_id": null, "category": "restauracion", "name": "Kiss Coffee", "extrude": false}}, {"type": "Feature", "geometry": {"type": "Point", "coordinates": [-1422.975665609583, 2382.35161869183]}, "properties": {"osm_id": null, "category": "restauracion", "name": "romántica", "extrude": false}}, {"type": "Feature", "geometry": {"type": "Point", "coordinates": [-1379.7958858788227, 2382.0176586918824]}, "properties": {"osm_id": null, "category": "finanzas", "name": "Caixabank", "extrude": false}}, {"type": "Feature", "geometry": {"type": "Point", "coordinates": [-1551.4428206555046, 2381.127098691758]}, "properties": {"osm_id": null, "category": "restauracion", "name": "Amici's Pizza", "extrude": false}}, {"type": "Feature", "geometry": {"type": "Point", "coordinates": [-1619.6727209074604, 2381.0157786916434]}, "properties": {"osm_id": null, "category": "restauracion", "name": "Atlantica Café", "extrude": false}}, {"type": "Feature", "geometry": {"type": "Point", "coordinates": [-1351.3342703451594, 2380.125218691914]}, "properties": {"osm_id": null, "category": "restauracion", "name": "Café Recreativo Playa Blanca", "extrude": false}}, {"type": "Feature", "geometry": {"type": "Point", "coordinates": [-1340.5149575908827, 2378.45541869178]}, "properties": {"osm_id": null, "category": "restauracion", "name": "Salon Recreativo Playa Blanca", "extrude": false}}, {"type": "Feature", "geometry": {"type": "Point", "coordinates": [-1516.6455715269121, 2376.674298691926]}, "properties": {"osm_id": null, "category": "restauracion", "name": "La Tapadera", "extrude": false}}, {"type": "Feature", "geometry": {"type": "Point", "coordinates": [-1001.0224681943374, 2374.670538691844]}, "properties": {"osm_id": null, "category": "restauracion", "name": "Mía Lounge", "extrude": false}}, {"type": "Feature", "geometry": {"type": "Point", "coordinates": [-1615.9688120366425, 2371.776218691637]}, "properties": {"osm_id": null, "category": "restauracion", "name": "", "extrude": false}}, {"type": "Feature", "geometry": {"type": "Point", "coordinates": [-758.1240232975829, 2369.2158586917735]}, "properties": {"osm_id": null, "category": "restauracion", "name": "Don Giovanni", "extrude": false}}, {"type": "Feature", "geometry": {"type": "Point", "coordinates": [-1516.6455715269121, 2364.6517386918276]}, "properties": {"osm_id": null, "category": "restauracion", "name": "Fantasie di Grano", "extrude": false}}, {"type": "Feature", "geometry": {"type": "Point", "coordinates": [-967.3948744987987, 2351.0706986917094]}, "properties": {"osm_id": null, "category": "restauracion", "name": "Spice Fusion", "extrude": false}}, {"type": "Feature", "geometry": {"type": "Point", "coordinates": [-1428.5315289158102, 2349.4008986919703]}, "properties": {"osm_id": null, "category": "restauracion", "name": "Sandra's Baguettes", "extrude": false}}, {"type": "Feature", "geometry": {"type": "Point", "coordinates": [-1376.7742760105327, 2346.729218691992]}, "properties": {"osm_id": null, "category": "salud", "name": "Farmacia Playa Blanca", "extrude": false}}, {"type": "Feature", "geometry": {"type": "Point", "coordinates": [-1312.9305836319234, 2344.502818691681]}, "properties": {"osm_id": null, "category": "restauracion", "name": "Cappuccino", "extrude": false}}, {"type": "Feature", "geometry": {"type": "Point", "coordinates": [-1343.5365674591724, 2344.168858691733]}, "properties": {"osm_id": null, "category": "restauracion", "name": "Bar Avenida", "extrude": false}}, {"type": "Feature", "geometry": {"type": "Point", "coordinates": [-3616.274544851392, 2343.8348986917854]}, "properties": {"osm_id": null, "category": "alojamiento", "name": "Palmeras Garden", "extrude": false}}, {"type": "Feature", "geometry": {"type": "Point", "coordinates": [-979.578785258132, 2342.7216986918274]}, "properties": {"osm_id": null, "category": "restauracion", "name": "Swing Disco", "extrude": false}}, {"type": "Feature", "geometry": {"type": "Point", "coordinates": [-1245.4804536684971, 2340.8292586918596]}, "properties": {"osm_id": null, "category": "restauracion", "name": "Restaurante Típico Español", "extrude": false}}, {"type": "Feature", "geometry": {"type": "Point", "coordinates": [-1230.957232043402, 2340.3839786917974]}, "properties": {"osm_id": null, "category": "restauracion", "name": "Avenida 55", "extrude": false}}, {"type": "Feature", "geometry": {"type": "Point", "coordinates": [-1575.030871885469, 2336.710418691976]}, "properties": {"osm_id": null, "category": "restauracion", "name": "Restaurante La Union", "extrude": false}}, {"type": "Feature", "geometry": {"type": "Point", "coordinates": [-1179.1025078519503, 2335.708538691737]}, "properties": {"osm_id": null, "category": "restauracion", "name": "La Rústica", "extrude": false}}, {"type": "Feature", "geometry": {"type": "Point", "coordinates": [-1144.8900864398847, 2332.1462986916345]}, "properties": {"osm_id": null, "category": "restauracion", "name": "La Rústica", "extrude": false}}, {"type": "Feature", "geometry": {"type": "Point", "coordinates": [-3581.964652153152, 2329.1406586917087]}, "properties": {"osm_id": null, "category": "restauracion", "name": "Bar Arena", "extrude": false}}, {"type": "Feature", "geometry": {"type": "Point", "coordinates": [-1194.7953849099263, 2326.69161869196]}, "properties": {"osm_id": null, "category": "restauracion", "name": "El Chuléton", "extrude": false}}, {"type": "Feature", "geometry": {"type": "Point", "coordinates": [-1477.7545283833233, 2326.69161869196]}, "properties": {"osm_id": null, "category": "publico", "name": "Biblioteca de Playa Blanca", "extrude": false}}, {"type": "Feature", "geometry": {"type": "Point", "coordinates": [-1164.5792862268554, 2326.580298691845]}, "properties": {"osm_id": null, "category": "restauracion", "name": "Royal China", "extrude": false}}, {"type": "Feature", "geometry": {"type": "Point", "coordinates": [-1174.8137712647786, 2324.910498691711]}, "properties": {"osm_id": null, "category": "restauracion", "name": "Gravity", "extrude": false}}, {"type": "Feature", "geometry": {"type": "Point", "coordinates": [-1152.8827318980477, 2324.576538691763]}, "properties": {"osm_id": null, "category": "restauracion", "name": "Bella Vita", "extrude": false}}, {"type": "Feature", "geometry": {"type": "Point", "coordinates": [-1505.3389023422826, 2322.127498692014]}, "properties": {"osm_id": null, "category": "restauracion", "name": "Samsara", "extrude": false}}, {"type": "Feature", "geometry": {"type": "Point", "coordinates": [-1169.7452643889042, 2319.4558186916406]}, "properties": {"osm_id": null, "category": "restauracion", "name": "Atlantico", "extrude": false}}, {"type": "Feature", "geometry": {"type": "Point", "coordinates": [-1455.3361325862397, 2318.8992186918595]}, "properties": {"osm_id": null, "category": "finanzas", "name": "Banco Sabadell", "extrude": false}}, {"type": "Feature", "geometry": {"type": "Point", "coordinates": [-1340.320015018707, 2312.331338691831]}, "properties": {"osm_id": null, "category": "restauracion", "name": "Los Hervideros", "extrude": false}}, {"type": "Feature", "geometry": {"type": "Point", "coordinates": [-1495.2018885907069, 2287.395658691905]}, "properties": {"osm_id": null, "category": "restauracion", "name": "KiFC", "extrude": false}}, {"type": "Feature", "geometry": {"type": "Point", "coordinates": [-1446.758659411723, 2280.3824986918144]}, "properties": {"osm_id": null, "category": "restauracion", "name": "Restaurante Malvasia", "extrude": false}}, {"type": "Feature", "geometry": {"type": "Point", "coordinates": [-1468.6896987784542, 2263.7958186917704]}, "properties": {"osm_id": null, "category": "restauracion", "name": "La Gran Vía", "extrude": false}}, {"type": "Feature", "geometry": {"type": "Point", "coordinates": [-1714.5122822574972, 2251.884578691786]}, "properties": {"osm_id": null, "category": "alojamiento", "name": "Ona Las Brisas", "extrude": false}}, {"type": "Feature", "geometry": {"type": "Point", "coordinates": [-1475.220274945386, 2243.646898692019]}, "properties": {"osm_id": null, "category": "finanzas", "name": "Caixabank", "extrude": false}}, {"type": "Feature", "geometry": {"type": "Point", "coordinates": [-704.8072298149003, 2242.9789786917277]}, "properties": {"osm_id": null, "category": "alojamiento", "name": "Princesa Yaiza", "extrude": false}}, {"type": "Feature", "geometry": {"type": "Point", "coordinates": [-1508.7503973549235, 2212.365978691898]}, "properties": {"osm_id": null, "category": "salud", "name": "", "extrude": false}}, {"type": "Feature", "geometry": {"type": "Point", "coordinates": [-1601.348119125373, 2197.3377786918736]}, "properties": {"osm_id": null, "category": "publico", "name": "Policía Local Yaiza", "extrude": false}}, {"type": "Feature", "geometry": {"type": "Point", "coordinates": [-664.0642322359025, 2146.575858691897]}, "properties": {"osm_id": null, "category": "restauracion", "name": "El Galeón Buffet-Restaurant", "extrude": false}}, {"type": "Feature", "geometry": {"type": "Point", "coordinates": [-2242.1243537772298, 2113.179858691975]}, "properties": {"osm_id": null, "category": "restauracion", "name": "La Boheme Bar", "extrude": false}}, {"type": "Feature", "geometry": {"type": "Point", "coordinates": [-2288.61815723463, 2093.5875386920047]}, "properties": {"osm_id": null, "category": "restauracion", "name": "Yaiza Restaurant Buffet", "extrude": false}}, {"type": "Feature", "geometry": {"type": "Point", "coordinates": [-2289.105513664983, 2087.5762586917576]}, "properties": {"osm_id": null, "category": "restauracion", "name": "La Nonna", "extrude": false}}, {"type": "Feature", "geometry": {"type": "Point", "coordinates": [-1898.538070365688, 1847.681658691941]}, "properties": {"osm_id": null, "category": "alojamiento", "name": "HL Club Playa Blanca Hotel", "extrude": false}}, {"type": "Feature", "geometry": {"type": "Point", "coordinates": [-2781.725393483947, 1824.638418691983]}, "properties": {"osm_id": null, "category": "alojamiento", "name": "Paradise Island", "extrude": false}}, {"type": "Feature", "geometry": {"type": "Point", "coordinates": [-2763.888148132385, 1811.72529869176]}, "properties": {"osm_id": null, "category": "restauracion", "name": "Lobby Bar", "extrude": false}}, {"type": "Feature", "geometry": {"type": "Point", "coordinates": [-894.0964673709685, 1802.151778691806]}, "properties": {"osm_id": null, "category": "alojamiento", "name": "Cay Beach Sun Hotel", "extrude": false}}, {"type": "Feature", "geometry": {"type": "Point", "coordinates": [-2704.235721054946, 1795.8065386920066]}, "properties": {"osm_id": null, "category": "restauracion", "name": "Pool Bar", "extrude": false}}, {"type": "Feature", "geometry": {"type": "Point", "coordinates": [-653.5373333399756, 1727.6786986919756]}, "properties": {"osm_id": null, "category": "alojamiento", "name": "Club Marmara", "extrude": false}}, {"type": "Feature", "geometry": {"type": "Point", "coordinates": [-653.8297471981524, 1714.542938691919]}, "properties": {"osm_id": null, "category": "alojamiento", "name": "THB Royal", "extrude": false}}, {"type": "Feature", "geometry": {"type": "Point", "coordinates": [-680.8292934405847, 1659.2168986919967]}, "properties": {"osm_id": null, "category": "alojamiento", "name": "CayBeach Sun", "extrude": false}}, {"type": "Feature", "geometry": {"type": "Point", "coordinates": [-2685.521234128854, 1579.8457386918772]}, "properties": {"osm_id": null, "category": "publico", "name": "Iglesia", "extrude": false}}, {"type": "Feature", "geometry": {"type": "Point", "coordinates": [-993.9070643110514, 1403.9601386918125]}, "properties": {"osm_id": null, "category": "restauracion", "name": "THB Tropical Island", "extrude": false}}, {"type": "Feature", "geometry": {"type": "Point", "coordinates": [-987.2790168579448, 1390.4904186918084]}, "properties": {"osm_id": null, "category": "alojamiento", "name": "THB Tropical Island", "extrude": false}}, {"type": "Feature", "geometry": {"type": "Point", "coordinates": [-831.130016567063, 1114.528138691696]}, "properties": {"osm_id": null, "category": "alojamiento", "name": "Casa Alice", "extrude": false}}]}