{"type": "FeatureCollection", "crs": {"type": "name", "properties": {"name": "EPSG:32628_local_enu_m_section_centroid", "lng0": -13.554259941983124, "lat0": 28.962740005274267}}, "features": [{"type": "Feature", "geometry": {"type": "Point", "coordinates": [126.61141359015645, 123.34314713116996]}, "properties": {"osm_id": null, "category": "restauracion", "name": "", "extrude": false}}, {"type": "Feature", "geometry": {"type": "Point", "coordinates": [270.7600714119698, 123.00918713122215]}, "properties": {"osm_id": null, "category": "restauracion", "name": "El Rincón de Fajardo", "extrude": false}}, {"type": "Feature", "geometry": {"type": "Point", "coordinates": [166.34969223292288, 34.28714713137751]}, "properties": {"osm_id": null, "category": "salud", "name": "", "extrude": false}}, {"type": "Feature", "geometry": {"type": "Point", "coordinates": [-280.51114701445624, -141.48713286857273]}, "properties": {"osm_id": null, "category": "restauracion", "name": "Galicia Nuestra Casa", "extrude": false}}, {"type": "Feature", "geometry": {"type": "Point", "coordinates": [51.322959200948475, -279.9692128685506]}, "properties": {"osm_id": null, "category": "restauracion", "name": "Pit-Lane Cafe", "extrude": false}}, {"type": "Feature", "geometry": {"type": "Point", "coordinates": [110.24859297268922, -315.4802928686695]}, "properties": {"osm_id": null, "category": "restauracion", "name": "El kiosco", "extrude": false}}, {"type": "Feature", "geometry": {"type": "Point", "coordinates": [259.0723423993202, -336.07449286848305]}, "properties": {"osm_id": null, "category": "restauracion", "name": "Costa Rica", "extrude": false}}, {"type": "Feature", "geometry": {"type": "Point", "coordinates": [267.35115044992534, -348.2083728686961]}, "properties": {"osm_id": null, "category": "publico", "name": "Ieanjesús", "extrude": false}}]}