{"type": "FeatureCollection", "crs": {"type": "name", "properties": {"name": "EPSG:32628_local_enu_m_section_centroid", "lng0": -16.331354131821616, "lat0": 28.53364675656377}}, "features": [{"type": "Feature", "geometry": {"type": "Polygon", "coordinates": [[[383.8728332421624, 1377.22394067885], [387.98037911010516, 1376.5560206789546], [392.6747172455421, 1378.1145006785791], [396.58666569133425, 1381.2314606786194], [417.5155898770865, 1409.0614606787522], [430.718415882156, 1426.7613406787546], [455.2658923803007, 1458.1535806785944], [481.9649405238395, 1492.5514606787553], [506.3168195998336, 1524.2776606789384], [507.88159897842837, 1535.7436206788605], [517.6614700932561, 1543.2020606786177], [531.3532896538759, 1553.8887806789248], [531.7444844985246, 1559.3434606785997], [530.570899964926, 1566.0226606787423], [532.526874187822, 1570.6981006788028], [537.7102058784619, 1574.705620678572], [545.6319014816426, 1579.4923806787465], [547.6856744157877, 1583.833860678859], [546.9032847264903, 1593.0734206788652], [546.1208950375403, 1595.0771806789476], [541.3287581912018, 1597.3035806788632], [540.3507710797538, 1602.980900678767], [526.9523476521861, 1603.0922206788814], [516.1944894259103, 1596.9696206789154], [480.40016114559216, 1580.8282206789333], [462.20960087203343, 1570.364140678855], [402.74798449376954, 1527.5059406786977], [338.9832248247174, 1475.8534606785965], [337.90743900236777, 1472.4025406786086], [338.1030364245184, 1470.3987806789219], [362.5527142117615, 1419.748180678664], [381.4278654633686, 1380.6748606788383], [383.8728332421624, 1377.22394067885]]]}, "properties": {"name": "Presa de Don Hipólito", "kind": "water", "category": "agua", "extrude": false}}, {"type": "Feature", "geometry": {"type": "Polygon", "coordinates": [[[196.392703970244, 1243.3059806788183], [204.80339312897502, 1278.7057406788226], [211.55150419820964, 1285.9415406787466], [222.40716113573444, 1288.8358606789534], [236.88137038599916, 1292.7320606786081], [245.78105310028047, 1299.1886206789175], [244.80306598883246, 1305.3112206788833], [240.20652656499195, 1306.2017806786123], [227.68829153797077, 1302.0829406787286], [211.74710162070772, 1306.4244206788412], [197.5662885041901, 1308.8734606785902], [196.88169752614175, 1304.1980206789256], [195.51251557004503, 1301.4150206788331], [193.2631452137493, 1300.1905006787608], [185.53704703271922, 1298.2980606787928], [174.38799396179473, 1290.283020678859], [172.23642231674805, 1277.258580678917], [178.00654627453463, 1264.0115006787462], [178.7889359634846, 1251.4323406788665], [173.89900040624445, 1239.8550606788303], [157.76221306683078, 1231.5060606789486], [165.19491511411377, 1226.7193006787738], [172.9210132947964, 1219.7061406786834], [179.37572823063138, 1209.0194206787717], [185.3414496105686, 1213.1382606786551], [193.2631452137493, 1222.711780678609], [196.392703970244, 1243.3059806788183]]]}, "properties": {"name": "Presa Charca de Don Eduardo", "kind": "water", "category": "agua", "extrude": false}}, {"type": "Feature", "geometry": {"type": "Polygon", "coordinates": [[[2398.3306854790435, 913.4648206786892], [2409.57753726087, 907.676180678671], [2417.8904277086995, 913.4648206786892], [2404.980997837029, 924.0402206788821], [2398.3306854790435, 913.4648206786892]]]}, "properties": {"name": "", "kind": "water", "category": "agua", "extrude": false}}, {"type": "Feature", "geometry": {"type": "Polygon", "coordinates": [[[-1674.887835145017, 949.6438206787037], [-1676.941608079162, 955.9890606788986], [-1679.1909784358054, 962.5569406789268], [-1687.4060701720382, 959.3286606787722], [-1682.8095307481976, 946.638180678778], [-1674.887835145017, 949.6438206787037]]]}, "properties": {"name": "", "kind": "water", "category": "agua", "extrude": false}}, {"type": "Feature", "geometry": {"type": "Polygon", "coordinates": [[[2292.903674860985, 938.8457806786776], [2279.0162578778672, 934.6156206786794], [2269.13858805179, 920.3666606786652], [2279.309654011267, 911.3497406788879], [2291.925687749537, 927.4911406788701], [2303.9549292206602, 930.2741406789625], [2300.7275717525695, 940.4042606786976], [2292.903674860985, 938.8457806786776]]]}, "properties": {"name": "", "kind": "water", "category": "agua", "extrude": false}}, {"type": "Feature", "geometry": {"type": "Polygon", "coordinates": [[[1936.0361778798056, 682.0305406788686], [1941.317308282042, 679.5815006787241], [1947.9676206400275, 687.7078606787724], [1943.2732825049377, 690.1569006789169], [1933.5912101013591, 694.9436606786962], [1931.9286320118626, 691.1587806787604], [1927.038696454275, 688.5984206788969], [1936.0361778798056, 682.0305406788686]]]}, "properties": {"name": "", "kind": "water", "category": "agua", "extrude": false}}, {"type": "Feature", "geometry": {"type": "Polygon", "coordinates": [[[-1458.2636899511133, 325.47258067896007], [-1467.2611713769911, 337.0498606786009], [-1488.581290407392, 320.46318067895197], [-1479.6816076927635, 308.88590067891573], [-1458.2636899511133, 325.47258067896007]]]}, "properties": {"name": "", "kind": "water", "category": "agua", "extrude": false}}, {"type": "Feature", "geometry": {"type": "Polygon", "coordinates": [[[-1554.1064268768423, 310.5557006786547], [-1551.3680629646487, 309.2198606788635], [-1548.5319003412062, 308.77458067880127], [-1545.3045428734627, 309.55382067881135], [-1542.9573738059178, 311.000980678717], [-1541.0991982939233, 313.2273806786327], [-1540.0234124712263, 316.1217006788395], [-1539.9256137603247, 319.1273406787653], [-1540.8058021605236, 321.7990206787432], [-1542.2727828278694, 324.025420678659], [-1544.6199518954143, 325.6952206787935], [-1547.6517119410073, 326.6971006786369], [-1550.5856732753514, 326.58578067891796], [-1553.1284397653942, 325.6952206787935], [-1555.1822126995394, 324.1367406787734], [-1557.0403882111862, 321.353740678681], [-1557.7249791892345, 318.79338067881747], [-1557.431583055835, 315.34246067882947], [-1555.9646023884893, 312.4481406786226], [-1554.1064268768423, 310.5557006786547]]]}, "properties": {"name": "", "kind": "water", "category": "agua", "extrude": false}}, {"type": "Feature", "geometry": {"type": "Polygon", "coordinates": [[[-2217.866279441671, -569.3175793213354], [-2224.614390510905, -559.7440593213814], [-2230.1889170465415, -563.4176193212028], [-2223.3430072660576, -573.3250993211045], [-2217.866279441671, -569.3175793213354]]]}, "properties": {"name": "", "kind": "water", "category": "agua", "extrude": false}}, {"type": "Feature", "geometry": {"type": "Polygon", "coordinates": [[[-2177.0842168928634, -629.9869793212138], [-2178.45339884896, -631.211499321286], [-2179.52918467131, -632.7699793213061], [-2179.9203795159588, -634.662419321274], [-2179.822580805057, -636.4435393211274], [-2179.0401911157596, -638.2246593213765], [-2177.768807870912, -639.6718193212821], [-2176.0084310701664, -640.5623793214066], [-2174.150255558172, -640.8963393213544], [-2172.1942813352757, -640.5623793214066], [-2170.43390453453, -639.6718193212821], [-2169.1625212896824, -638.2246593213765], [-2168.380131600385, -636.3322193214085], [-2168.2823328894838, -634.3284593213262], [-2168.771326445034, -632.4360193213583], [-2169.94491097898, -630.8775393213382], [-2171.6074890684768, -629.7643393213804], [-2173.367865869222, -629.2077393212037], [-2175.3238400921177, -629.3190593213182], [-2177.0842168928634, -629.9869793212138]]]}, "properties": {"name": "", "kind": "water", "category": "agua", "extrude": false}}, {"type": "Feature", "geometry": {"type": "Polygon", "coordinates": [[[-2196.4483617000205, -910.6246993213863], [-2189.798049342035, -913.1850593212498], [-2174.6392491140696, -917.6378593210812], [-2157.133279818559, -918.6397393213201], [-2138.8449208337515, -916.7472993213522], [-2130.2386342525224, -915.1888193213322], [-2123.588321894537, -911.4039393213964], [-2119.089581181598, -907.8416993212938], [-2115.6666262913564, -904.7247393212537], [-2112.830463668261, -898.8247793211211], [-2111.3634830009155, -892.2568993210929], [-2111.1678855787645, -887.2474993210848], [-2113.4172559350604, -883.462619321149], [-2117.3292043808524, -880.2343393213898], [-2123.8817180279366, -877.8966193213597], [-2135.61756336566, -875.4475793212151], [-2143.8326551022406, -874.668339321205], [-2151.363155860773, -873.6664593213617], [-2190.189244186684, -867.2098993210524], [-2194.981381033023, -866.7646193213857], [-2205.05464828125, -865.4287793211989], [-2214.638921973927, -863.2023793212832], [-2226.276968600402, -860.0854193212431], [-2232.829482247486, -859.306179321233], [-2238.893002338672, -858.1929793212751], [-2241.4357688283676, -858.8608993211708], [-2243.0983469178636, -860.9759793213675], [-2243.7829378959123, -865.4287793211989], [-2242.8049507844644, -870.7721393211548], [-2241.2401714062166, -874.8909793210385], [-2238.893002338672, -879.0098193213175], [-2231.36250158014, -887.3588193211992], [-2228.330741534547, -889.9191793210628], [-2221.1914356206635, -896.2644193212576], [-2211.8027593504844, -903.1662593212336], [-2196.4483617000205, -910.6246993213863]]]}, "properties": {"name": "Charca de Don Adolfo", "kind": "water", "category": "agua", "extrude": false}}, {"type": "Feature", "geometry": {"type": "Polygon", "coordinates": [[[-1825.4978503139203, -914.8548593213843], [-1820.901310889732, -899.7153393212456], [-1830.4855845824093, -891.9229393211451], [-1839.287468585789, -890.8097393211872], [-1845.9377809437744, -897.0436593212676], [-1856.0110481923493, -896.0417793214242], [-1860.2163927715412, -892.7021793211552], [-1867.2578999741756, -896.7096993213198], [-1867.6490948188243, -904.3907793213059], [-1870.6808548644174, -911.6265793212297], [-1847.5025603223696, -919.5302993210491], [-1834.5931304506996, -924.0944193213904], [-1825.4978503139203, -914.8548593213843]]]}, "properties": {"name": "", "kind": "water", "category": "agua", "extrude": false}}, {"type": "Feature", "geometry": {"type": "Polygon", "coordinates": [[[-1614.1548355219054, -899.937979321079], [-1617.0887968562495, -899.6040193211311], [-1619.827160768443, -900.3832593211412], [-1622.1743298359877, -901.8304193210469], [-1623.9347066367332, -904.056819321358], [-1624.912693748181, -906.728499321336], [-1625.0104924594302, -909.6228193211473], [-1624.1303040592313, -912.2944993211253], [-1622.4677259693874, -914.6322193211554], [-1620.2183556130917, -916.1906993211755], [-1617.4799917008982, -917.0812593213], [-1614.6438290778033, -916.9699393211856], [-1611.9054651656097, -915.9680593213421], [-1609.6560948089666, -914.0756193213742], [-1608.0913154307193, -911.5152593211153], [-1607.5045231639199, -908.6209393213039], [-1607.99351671947, -905.7266193210971], [-1609.2648999646653, -903.1662593212336], [-1611.416471609712, -901.0511793210368], [-1614.1548355219054, -899.937979321079]]]}, "properties": {"name": "", "kind": "water", "category": "agua", "extrude": false}}, {"type": "Feature", "geometry": {"type": "Polygon", "coordinates": [[[-1816.5981675992914, -910.5133793212718], [-1820.7057134675817, -923.3151793213804], [-1805.4491145283669, -935.5603793213123], [-1792.0506911011466, -935.3377393210835], [-1787.8453465216073, -917.7491793211957], [-1816.5981675992914, -910.5133793212718]]]}, "properties": {"name": "", "kind": "water", "category": "agua", "extrude": false}}, {"type": "Feature", "geometry": {"type": "Polygon", "coordinates": [[[-1957.5261103642683, -921.0887793210692], [-1959.971078143062, -921.5340593211315], [-1962.9050394774065, -922.9812193210371], [-1965.5456046783509, -925.5415793212961], [-1967.2081827681945, -928.5472193212219], [-1967.7949750349937, -932.2207793210432], [-1967.3059814790963, -935.6716993214268], [-1965.252208544951, -939.4565793213626], [-1962.416045921856, -941.9056193211117], [-1959.6776820096625, -943.130139321184], [-1955.0811425854745, -943.4640993211317], [-1952.1471812511304, -942.5735393214028], [-1949.0176224942882, -940.5697793213204], [-1946.9638495601432, -938.0094193210614], [-1945.5946676040464, -934.5584993210734], [-1945.496868893145, -930.9962593213664], [-1946.3770572933438, -927.6566593210974], [-1947.5506418272898, -925.6528993214106], [-1949.9956096057363, -923.203859321266], [-1954.005356763125, -921.4227393214126], [-1957.5261103642683, -921.0887793210692]]]}, "properties": {"name": "", "kind": "water", "category": "agua", "extrude": false}}, {"type": "Feature", "geometry": {"type": "Polygon", "coordinates": [[[-2069.7012320515614, -1025.840899321177], [-2066.0826797391687, -1024.616379321105], [-2061.4861403153286, -1021.9446993211268], [-2059.530166092085, -1018.3824593214199], [-2059.3345686699345, -1015.2654993213797], [-2060.3125557813823, -1010.1447793212571], [-2061.7795364487283, -1009.3655393212471], [-2065.5936861832715, -1009.0315793212993], [-2071.657206274805, -1009.9221393214237], [-2075.1779598759485, -1011.257979321215], [-2076.938336676694, -1013.929659321193], [-2077.2317328100935, -1016.7126593212854], [-2076.644940543294, -1020.831499321169], [-2074.9823624537976, -1024.1710993210424], [-2072.8307908084034, -1026.1748593211248], [-2069.7012320515614, -1025.840899321177]]]}, "properties": {"name": "", "kind": "water", "category": "agua", "extrude": false}}, {"type": "Feature", "geometry": {"type": "Polygon", "coordinates": [[[-2024.7138249232148, -1113.2270993212305], [-2018.6503048320285, -1109.887499321357], [-2015.7163434976846, -1104.7667793212345], [-2013.9559666969392, -1097.1970193213629], [-2011.3154014959948, -1086.7329393212842], [-2009.4572259843478, -1076.1575393210915], [-2011.2176027847456, -1064.9142193213984], [-2015.4229473642847, -1062.7991393212017], [-2021.0952726108221, -1063.689699321326], [-2029.7015591920515, -1064.3576193212218], [-2037.0364625280854, -1066.2500593211896], [-2044.3713658641195, -1068.9217393211677], [-2047.9899181768592, -1074.2650993211234], [-2049.554697555107, -1080.0537393211416], [-2050.4348859553056, -1086.287659321222], [-2050.9238795112037, -1093.3008193213125], [-2050.043691110657, -1098.1988993212062], [-2048.4789117324094, -1104.4328193212866], [-2046.0339439536158, -1108.9969393212325], [-2042.806586485872, -1111.7799393213247], [-2038.2100470616842, -1113.4497393210638], [-2032.244325681747, -1113.783699321407], [-2024.7138249232148, -1113.2270993212305]]]}, "properties": {"name": "", "kind": "water", "category": "agua", "extrude": false}}, {"type": "Feature", "geometry": {"type": "Polygon", "coordinates": [[[-1775.3271114945862, -1263.6204193211925], [-1771.806357893443, -1262.9524993212967], [-1768.285604291952, -1260.5034593211521], [-1766.0362339356561, -1257.0525393211642], [-1765.4494416685095, -1251.7091793212082], [-1766.7208249137045, -1248.035619321387], [-1769.9481823814485, -1244.6960193211178], [-1773.5667346938408, -1243.026219321379], [-1777.77207927338, -1243.026219321379], [-1781.1950341636218, -1244.3620593211701], [-1783.8355993645662, -1246.6997793212001], [-1785.6937748765608, -1250.0393793210737], [-1786.182768432111, -1253.3789793213427], [-1785.3025800319122, -1257.386499321112], [-1782.9554109643673, -1260.726099321381], [-1779.8258522075253, -1262.8411793211824], [-1775.3271114945862, -1263.6204193211925]]]}, "properties": {"name": "", "kind": "water", "category": "agua", "extrude": false}}, {"type": "Feature", "geometry": {"type": "Polygon", "coordinates": [[[-1370.6360447623124, -1283.6580193212249], [-1370.0492524951658, -1278.4259793213832], [-1371.2228370291118, -1274.4184593212187], [-1377.6775519649468, -1269.9656593213872], [-1385.2080527231312, -1266.7373793212325], [-1397.1394954833531, -1264.956259321379], [-1399.0954697062493, -1267.4052993211283], [-1402.0294310409406, -1285.3278193213594], [-1400.5624503735949, -1286.9976193210985], [-1393.9121380156093, -1287.9994993213372], [-1388.0442153465738, -1289.6692993210763], [-1378.0687468095955, -1291.8956993213876], [-1374.4501944968556, -1291.2277793210965], [-1372.20082414056, -1287.6655393213896], [-1370.6360447623124, -1283.6580193212249]]]}, "properties": {"name": "", "kind": "water", "category": "agua", "extrude": false}}, {"type": "Feature", "geometry": {"type": "Polygon", "coordinates": [[[-2242.1203598064158, -1311.3766993212432], [-2239.1863984720717, -1306.3672993212351], [-2237.719417804726, -1300.578659321217], [-2234.296462914484, -1286.3296993212027], [-2232.438287402837, -1272.8599793211986], [-2232.829482247486, -1269.520379321325], [-2235.372248737181, -1268.0732193214194], [-2245.543314696658, -1267.9618993213048], [-2255.9099780782844, -1269.297739321096], [-2261.5823033251695, -1270.1882993212207], [-2263.636076259315, -1272.419759321483], [-2263.636076259315, -1310.1868823171437], [-2242.1203598064158, -1311.3766993212432]]]}, "properties": {"name": "", "kind": "water", "category": "agua", "extrude": false}}, {"type": "Feature", "geometry": {"type": "Polygon", "coordinates": [[[-1493.6668233871303, -1329.5218593213078], [-1487.7989007180947, -1316.3860993212513], [-1528.1897684222533, -1298.5748993211346], [-1532.8841065576903, -1298.6862193212492], [-1539.0454253597782, -1308.3710593213175], [-1493.6668233871303, -1329.5218593213078]]]}, "properties": {"name": "", "kind": "water", "category": "agua", "extrude": false}}, {"type": "Feature", "geometry": {"type": "Polygon", "coordinates": [[[1469.242929567976, -1291.6730593211587], [1469.1451308570743, -1288.667419321233], [1466.015572100232, -1288.7787393213473], [1466.1133708114812, -1291.784379321273], [1469.242929567976, -1291.6730593211587]]]}, "properties": {"name": "", "kind": "reservoir", "category": "agua", "extrude": false}}, {"type": "Feature", "geometry": {"type": "Polygon", "coordinates": [[[-1387.555221790676, -1329.7444993211411], [-1394.4011315711596, -1326.9614993210487], [-1400.8558465069948, -1322.0634193211552], [-1407.3105614428296, -1315.7181793213558], [-1411.0269124664712, -1314.2710193210546], [-1413.6674776674156, -1315.495539321127], [-1415.6234518903116, -1319.614379321406], [-1421.8825694039958, -1325.514339321143], [-1421.5891732705963, -1330.301099321318], [-1410.146724066272, -1338.3161393212517], [-1401.0514439294927, -1344.3274193211032], [-1394.205534149009, -1347.4443793211433], [-1387.555221790676, -1348.5575793211012], [-1385.2080527231312, -1346.7764593212478], [-1383.3498772114842, -1340.7651793213963], [-1380.122519743393, -1333.3067393212436], [-1387.555221790676, -1329.7444993211411]]]}, "properties": {"name": "", "kind": "water", "category": "agua", "extrude": false}}]}