{"type": "FeatureCollection", "crs": {"type": "name", "properties": {"name": "EPSG:32628_local_enu_m_section_centroid", "lng0": -15.434216719242901, "lat0": 28.141157570977917}}, "features": [{"type": "Feature", "geometry": {"type": "Polygon", "coordinates": [[[-56.96074958577364, -10.623158738147822], [-58.138677660523456, -26.43059873818217], [-59.807409099737825, -27.209838738192218], [-60.69085515584378, -27.209838738192218], [-61.47614053912657, -26.987198738358842], [-62.06510457641429, -26.653238738411034], [-62.457747268055684, -26.09663873823436], [-62.55590794087885, -25.20607873810988], [-62.359586595058154, -24.315518738380888], [-71.19404715576896, -15.409918738322546], [-72.4701359035163, -15.743878738270354], [-73.94254599690997, -15.187278738093681], [-74.82599205301592, -14.408038738083633], [-75.21863474465732, -13.406158738240208], [-75.31679541748049, -12.62691873823016], [-75.21863474465732, -11.625038738386735], [-74.04070666990751, -10.289198738200014], [-72.07749321187491, -10.177878738085582], [-56.96074958577364, -10.623158738147822]]]}, "properties": {"id": 0, "height_m": 8.0, "levels": 3, "category": "restauracion", "extrude": true, "manzana_id": 1}}, {"type": "Feature", "geometry": {"type": "Polygon", "coordinates": [[[-24.37140618407148, -12.960878738177968], [-48.12628902506284, -11.736358738105679], [-49.991341810097914, -32.107918738085885], [-35.856204913100136, -45.35499873825671], [-24.862209548536036, -34.33431873839709], [-24.665888202889708, -33.22111873843923], [-24.567727529892174, -28.323038738150075], [-28.199672427139152, -28.323038738150075], [-28.199672427139152, -24.426838738099832], [-24.567727529892174, -24.538158738214264], [-24.37140618407148, -12.960878738177968]]]}, "properties": {"id": 1, "height_m": 6.0, "levels": 2, "category": "residencial", "extrude": true, "manzana_id": 0}}, {"type": "Feature", "geometry": {"type": "Polygon", "coordinates": [[[-5.524556987900071, -13.851438738302448], [-24.37140618407148, -12.960878738177968], [-24.567727529892174, -24.538158738214264], [-24.567727529892174, -28.323038738150075], [-24.665888202889708, -33.22111873843923], [-20.05233657671361, -32.66451873826256], [-16.616713025287332, -35.78147873830275], [-13.770053511323143, -32.887158738095934], [-10.825233324361422, -35.002238738292704], [-10.039947941253, -33.66639873810598], [-6.015360352538997, -33.88903873833485], [-5.524556987900071, -13.851438738302448]]]}, "properties": {"id": 2, "height_m": 6.0, "levels": 2, "category": "restauracion", "extrude": true, "manzana_id": 0}}, {"type": "Feature", "geometry": {"type": "Polygon", "coordinates": [[[-6.408003044006024, -72.85103873844179], [8.610579909097709, -87.54527873812279], [12.242524806344687, -87.76791873835165], [12.63516749798608, -82.53587873811469], [15.383666338952736, -82.64719873822912], [16.75791575952325, -64.05675873810239], [17.739522488452366, -64.16807873821682], [19.211932582020413, -62.05299873841554], [12.929649516629942, -55.70775873822072], [11.26091807741557, -54.14927873820062], [8.512419236274544, -56.820958738178575], [6.647366451239473, -59.04735873809429], [-6.408003044006024, -72.85103873844179]]]}, "properties": {"id": 3, "height_m": 6.0, "levels": 2, "category": "restauracion", "extrude": true, "manzana_id": 0}}, {"type": "Feature", "geometry": {"type": "Polygon", "coordinates": [[[26.573983049163164, -15.521238738436978], [11.849882114703291, -14.741998738426929], [11.26091807741557, -34.44563873811603], [9.592186638026826, -34.44563873811603], [9.297704619382964, -40.34559873824861], [9.297704619382964, -41.45879873820647], [10.77011471295101, -41.5701187383209], [15.776309030594131, -41.792758738154276], [20.095378638126366, -42.01539873838314], [25.101572955769488, -42.23803873821652], [25.98501901187544, -26.09663873823436], [26.181340357696136, -23.98155873843308], [26.573983049163164, -15.521238738436978]]]}, "properties": {"id": 4, "height_m": 6.0, "levels": 2, "category": "restauracion", "extrude": true, "manzana_id": 0}}, {"type": "Feature", "geometry": {"type": "Polygon", "coordinates": [[[1.4448507876012864, -14.185398738250257], [-5.524556987900071, -13.851438738302448], [-5.819039006718301, -23.424958738256407], [-2.6778974739358814, -23.53627873837084], [-2.7760581469334142, -26.653238738411034], [-5.819039006718301, -26.653238738411034], [-6.015360352538997, -33.88903873833485], [-6.113521025362162, -35.67015873818832], [-6.211681698185326, -37.33995873832285], [-0.8128446889008106, -37.562598738156225], [-0.9110053618983435, -39.90031873818637], [0.6595654044928659, -40.0116387383008], [1.4448507876012864, -14.185398738250257]]]}, "properties": {"id": 5, "height_m": 6.0, "levels": 2, "category": "restauracion", "extrude": true, "manzana_id": 0}}, {"type": "Feature", "geometry": {"type": "Polygon", "coordinates": [[[-35.856204913100136, -45.35499873825671], [-31.733456651388597, -49.13987873819252], [-29.573921847709663, -51.14363873827486], [-25.156691567354265, -55.48511873838734], [-21.132103978465896, -51.366278738108235], [-19.65969388507222, -49.696478738369194], [-14.359017548610867, -44.241798738298854], [-12.10132207210877, -41.90407873826871], [-8.862019866503186, -38.56447873839514], [-12.003161399111237, -36.00411873813613], [-10.825233324361422, -35.002238738292704], [-13.770053511323143, -32.887158738095934], [-16.616713025287332, -35.78147873830275], [-20.05233657671361, -32.66451873826256], [-24.665888202889708, -33.22111873843923], [-24.862209548536036, -34.33431873839709], [-35.856204913100136, -45.35499873825671]]]}, "properties": {"id": 6, "height_m": 6.0, "levels": 2, "category": "restauracion", "extrude": true, "manzana_id": 0}}, {"type": "Feature", "geometry": {"type": "Polygon", "coordinates": [[[12.242524806344687, -87.76791873835165], [12.63516749798608, -82.53587873811469], [15.383666338952736, -82.64719873822912], [16.75791575952325, -64.05675873810239], [17.739522488452366, -64.16807873821682], [17.739522488452366, -64.7246787383935], [21.175146039878648, -64.94731873822687], [21.27330671287618, -62.94355873814453], [22.451234787625996, -63.054878738258964], [22.451234787625996, -62.05299873841554], [23.923644881019673, -62.16431873813448], [23.334680843557578, -73.96423873839964], [29.71512458194558, -74.29819873834745], [29.616963908948048, -76.52459873826317], [31.678338039803815, -76.6359187383776], [31.77649871280135, -74.4095187380664], [38.451424469658846, -74.85479873812864], [37.764299759373586, -86.43207873816493], [35.113961591230094, -89.32639873837175], [24.21812689966353, -88.5471587383617], [12.242524806344687, -87.76791873835165]]]}, "properties": {"id": 7, "height_m": 8.0, "levels": 3, "category": "restauracion", "extrude": true, "manzana_id": 0}}, {"type": "Feature", "geometry": {"type": "Polygon", "coordinates": [[[38.451424469658846, -74.85479873812864], [42.08336936690582, -16.300478738447026], [26.573983049163164, -15.521238738436978], [26.181340357696136, -23.98155873843308], [28.34087516137507, -24.092878738152024], [28.242714488551904, -26.319278738067737], [25.98501901187544, -26.09663873823436], [25.101572955769488, -42.23803873821652], [25.00341228294632, -43.68519873812218], [27.261107759448418, -43.796518738236614], [27.064786413627722, -46.802158738162376], [24.807090937125626, -46.69083873844343], [24.41444824548423, -54.14927873820062], [24.316287572661064, -55.151158738439534], [27.35926843244595, -55.26247873815848], [27.261107759448418, -58.37943873819867], [24.11996622684037, -58.156798738365296], [23.923644881019673, -62.16431873813448], [23.334680843557578, -73.96423873839964], [29.71512458194558, -74.29819873834745], [31.77649871280135, -74.4095187380664], [38.451424469658846, -74.85479873812864]]]}, "properties": {"id": 8, "height_m": 21.0, "levels": 7, "category": "restauracion", "extrude": true, "manzana_id": 0}}, {"type": "Feature", "geometry": {"type": "Polygon", "coordinates": [[[-25.156691567354265, -55.48511873838734], [-26.33461964210408, -56.70963873845963], [-27.807029735497757, -58.26811873808424], [-22.31003205321571, -63.27751873809234], [-17.69648042721398, -58.60207873842754], [-16.224070333645937, -57.15491873812638], [-17.794641100037147, -55.70775873822072], [-16.518552352464166, -54.371918738429486], [-15.046142258896122, -55.81907873833515], [-9.647305249611607, -50.47571873837924], [-7.487770445932674, -48.1379987383491], [-2.4815761281151842, -43.128598738341], [-0.9110053618983435, -41.5701187383209], [0.6595654044928659, -40.0116387383008], [-0.9110053618983435, -39.90031873818637], [-0.8128446889008106, -37.562598738156225], [-6.211681698185326, -37.33995873832285], [-6.113521025362162, -35.67015873818832], [-8.862019866503186, -38.56447873839514], [-12.10132207210877, -41.90407873826871], [-9.941787268255469, -44.01915873806999], [-12.297643417755099, -46.356878738100136], [-14.359017548610867, -44.241798738298854], [-19.65969388507222, -49.696478738369194], [-18.187283791678542, -51.14363873827486], [-19.856015230892915, -52.81343873840939], [-21.132103978465896, -51.366278738108235], [-25.156691567354265, -55.48511873838734]]]}, "properties": {"id": 9, "height_m": 6.0, "levels": 2, "category": "restauracion", "extrude": true, "manzana_id": 0}}, {"type": "Feature", "geometry": {"type": "Polygon", "coordinates": [[[-22.31003205321571, -63.27751873809234], [-16.714873698110495, -68.62087873844374], [-13.96637485714384, -65.83787873835135], [-10.727072651538258, -62.49827873808229], [-12.10132207210877, -61.385078738124434], [-9.352823230967745, -58.490758738313104], [-8.076734483220397, -59.60395873827096], [-1.7944514178299282, -52.92475873812833], [-3.1687008384004405, -51.47759873822267], [-1.1073267075446722, -49.47383873814033], [0.2669227128514715, -50.92099873844148], [1.346690114778122, -49.80779873808814], [7.0400091428808675, -44.01915873806999], [8.217937217630682, -42.79463873839319], [6.254723759598079, -41.23615873837309], [4.2915103017398435, -43.351238738174374], [3.211742899813193, -42.46067873844538], [4.487831647560541, -41.12483873825866], [3.3099035726363573, -40.0116387383008], [1.7393328064195164, -41.45879873820647], [0.6595654044928659, -40.0116387383008], [-0.9110053618983435, -41.5701187383209], [0.5614047316697015, -43.128598738341], [-0.9110053618983435, -44.57575873824666], [-2.4815761281151842, -43.128598738341], [-7.487770445932674, -48.1379987383491], [-6.506163717003556, -48.917238738359146], [-8.862019866503186, -51.25495873838929], [-9.647305249611607, -50.47571873837924], [-15.046142258896122, -55.81907873833515], [-15.536945623360682, -56.375678738116335], [-14.4571782216084, -57.266238738240816], [-16.616713025287332, -59.60395873827096], [-17.69648042721398, -58.60207873842754], [-22.31003205321571, -63.27751873809234]]]}, "properties": {"id": 10, "height_m": 6.0, "levels": 2, "category": "restauracion", "extrude": true, "manzana_id": 0}}, {"type": "Feature", "geometry": {"type": "Polygon", "coordinates": [[[-13.96637485714384, -65.83787873835135], [-6.408003044006024, -72.85103873844179], [6.647366451239473, -59.04735873809429], [4.389670974563008, -57.04359873840744], [6.549205778241941, -54.705878738377294], [8.512419236274544, -56.820958738178575], [11.26091807741557, -54.14927873820062], [13.518613553917666, -51.811558738170476], [15.678148357770967, -54.14927873820062], [13.420452881094501, -56.375678738116335], [19.211932582020413, -62.05299873841554], [22.451234787625996, -62.05299873841554], [23.923644881019673, -62.16431873813448], [24.11996622684037, -58.156798738365296], [24.21812689966353, -57.266238738240816], [20.880664021234786, -57.15491873812638], [21.175146039878648, -54.03795873808619], [24.41444824548423, -54.14927873820062], [24.807090937125626, -46.69083873844343], [25.00341228294632, -43.68519873812218], [25.101572955769488, -42.23803873821652], [20.095378638126366, -42.01539873838314], [19.899057292305667, -45.24367873814228], [17.248719123987808, -47.91535873812023], [15.383666338952736, -46.24555873838119], [15.776309030594131, -41.792758738154276], [10.77011471295101, -41.5701187383209], [10.77011471295101, -46.24555873838119], [9.886668656845057, -47.247438738224616], [7.0400091428808675, -44.01915873806999], [1.346690114778122, -49.80779873808814], [3.5062249184570544, -51.70023873845153], [1.0522080961342604, -54.14927873820062], [-0.9110053618983435, -52.145518738118284], [-1.7944514178299282, -52.92475873812833], [-8.076734483220397, -59.60395873827096], [-10.727072651538258, -62.49827873808229], [-13.96637485714384, -65.83787873835135]]]}, "properties": {"id": 11, "height_m": 6.0, "levels": 2, "category": "restauracion", "extrude": true, "manzana_id": 0}}, {"type": "Feature", "geometry": {"type": "Polygon", "coordinates": [[[11.849882114703291, -14.741998738426929], [1.4448507876012864, -14.185398738250257], [0.6595654044928659, -40.0116387383008], [3.3099035726363573, -40.0116387383008], [9.297704619382964, -40.34559873824861], [9.592186638026826, -34.44563873811603], [11.26091807741557, -34.44563873811603], [11.849882114703291, -14.741998738426929]]]}, "properties": {"id": 12, "height_m": 6.0, "levels": 2, "category": "restauracion", "extrude": true, "manzana_id": 0}}, {"type": "Feature", "geometry": {"type": "Polygon", "coordinates": [[[-70.11427975401666, 65.07444126175486], [-79.93034704365658, 65.74236126165047], [-80.61747175394184, 48.04248126164822], [-81.01011444540886, 40.91800126183884], [-81.01011444540886, 39.69348126176655], [-81.79539982869166, 36.465201261611924], [-71.58668984741034, 35.90860126183074], [-71.48852917458719, 38.58028126180869], [-70.99772580994825, 47.59720126158598], [-70.5069224454837, 57.059401261820994], [-70.11427975401666, 65.07444126175486]]]}, "properties": {"id": 13, "height_m": 6.0, "levels": 2, "category": "alojamiento", "extrude": true, "manzana_id": 3}}, {"type": "Feature", "geometry": {"type": "Polygon", "coordinates": [[[-79.93034704365658, 65.74236126165047], [-91.51330644533404, 66.52160126166052], [-92.10227048279613, 52.27264126164627], [-92.98571653890208, 52.3839612617607], [-93.37835923054347, 45.704761261618074], [-94.06548394065436, 29.897321261583727], [-85.72182674458249, 29.56336126163592], [-82.67884588479761, 32.68032126167611], [-81.79539982869166, 36.465201261611924], [-81.01011444540886, 39.69348126176655], [-81.01011444540886, 40.91800126183884], [-83.75861328654989, 41.140641261672215], [-83.46413126790603, 48.15380126176265], [-80.61747175394184, 48.04248126164822], [-79.93034704365658, 65.74236126165047]]]}, "properties": {"id": 14, "height_m": 6.0, "levels": 2, "category": "restauracion", "extrude": true, "manzana_id": 3}}, {"type": "Feature", "geometry": {"type": "Polygon", "coordinates": [[[-91.51330644533404, 66.52160126166052], [-101.23121306215079, 67.0782012618372], [-102.2128197910799, 47.15192126191923], [-102.31098046407743, 43.58968126181679], [-97.10846480061362, 41.02932126155778], [-96.81398278179539, 45.92740126184694], [-93.37835923054347, 45.704761261618074], [-92.98571653890208, 52.3839612617607], [-92.10227048279613, 52.27264126164627], [-91.51330644533404, 66.52160126166052]]]}, "properties": {"id": 15, "height_m": 6.0, "levels": 2, "category": "restauracion", "extrude": true, "manzana_id": 3}}, {"type": "Feature", "geometry": {"type": "Polygon", "coordinates": [[[-109.28038823975317, 22.995481261607722], [-100.34776700604483, 14.53516126161162], [-89.84457500611965, 25.333201261637868], [-98.77719623982799, 33.79352126163397], [-109.28038823975317, 22.995481261607722]]]}, "properties": {"id": 16, "height_m": 6.0, "levels": 2, "category": "restauracion", "extrude": true, "manzana_id": 3}}, {"type": "Feature", "geometry": {"type": "Polygon", "coordinates": [[[-101.23121306215079, 67.0782012618372], [-114.87554659485836, 67.96876126156619], [-115.46451063214609, 56.05752126158208], [-118.01668812746642, 53.274521261885184], [-115.36634995932293, 50.60284126190723], [-114.482903903217, 51.49340126163622], [-107.90613881918264, 48.48776126171046], [-108.2006208378265, 45.704761261618074], [-104.5686759407539, 42.476481261858936], [-103.48890853882725, 43.81232126165017], [-104.5686759407539, 45.259481261555834], [-104.1760332491125, 47.26324126163817], [-102.2128197910799, 47.15192126191923], [-101.23121306215079, 67.0782012618372]]]}, "properties": {"id": 17, "height_m": 6.0, "levels": 2, "category": "restauracion", "extrude": true, "manzana_id": 3}}, {"type": "Feature", "geometry": {"type": "Polygon", "coordinates": [[[-116.64243870689592, 30.231281261927023], [-118.01668812746642, 29.006761261854734], [-110.36015564150544, 21.882281261649865], [-109.28038823975317, 22.995481261607722], [-98.77719623982799, 33.79352126163397], [-97.10846480061362, 35.4633212617685], [-104.5686759407539, 42.476481261858936], [-116.64243870689592, 30.231281261927023]]]}, "properties": {"id": 18, "height_m": 6.0, "levels": 2, "category": "restauracion", "extrude": true, "manzana_id": 3}}, {"type": "Feature", "geometry": {"type": "Polygon", "coordinates": [[[-114.87554659485836, 67.96876126156619], [-121.6486330247134, 68.41404126162843], [-121.94311504335727, 56.39148126192538], [-120.96150831442813, 56.39148126192538], [-115.46451063214609, 56.05752126158208], [-114.87554659485836, 67.96876126156619]]]}, "properties": {"id": 19, "height_m": 6.0, "levels": 2, "category": "alojamiento", "extrude": true, "manzana_id": 3}}, {"type": "Feature", "geometry": {"type": "Polygon", "coordinates": [[[-128.22539810874773, 41.80856126156783], [-116.64243870689592, 30.231281261927023], [-104.5686759407539, 42.476481261858936], [-108.2006208378265, 45.704761261618074], [-107.90613881918264, 48.48776126171046], [-114.482903903217, 51.49340126163622], [-115.36634995932293, 50.60284126190723], [-118.01668812746642, 53.274521261885184], [-122.23759706200113, 48.48776126171046], [-126.16402397789196, 44.14628126159798], [-128.22539810874773, 41.80856126156783]]]}, "properties": {"id": 20, "height_m": 6.0, "levels": 2, "category": "restauracion", "extrude": true, "manzana_id": 3}}, {"type": "Feature", "geometry": {"type": "Polygon", "coordinates": [[[-137.9433047255645, 48.59908126182489], [-129.40332618349757, 40.4727212617766], [-128.22539810874773, 41.80856126156783], [-126.16402397789196, 44.14628126159798], [-128.02907676292705, 45.704761261618074], [-124.00448917421302, 50.15756126184499], [-122.23759706200113, 48.48776126171046], [-118.01668812746642, 53.274521261885184], [-115.46451063214609, 56.05752126158208], [-120.96150831442813, 56.39148126192538], [-121.15782966024884, 54.165081261614176], [-123.2192037911046, 52.71792126170851], [-128.3235587815709, 56.83676126159213], [-130.4830935854242, 57.059401261820994], [-132.7407890619263, 54.499041261561985], [-137.9433047255645, 48.59908126182489]]]}, "properties": {"id": 21, "height_m": 6.0, "levels": 2, "category": "restauracion", "extrude": true, "manzana_id": 3}}, {"type": "Feature", "geometry": {"type": "Polygon", "coordinates": [[[-121.6486330247134, 68.41404126162843], [-130.6794149312449, 68.9706412618051], [-130.87573627689122, 62.4027612617769], [-130.97389694988877, 61.623521261766854], [-130.58125425824736, 61.623521261766854], [-127.44011272563932, 61.51220126165242], [-127.44011272563932, 59.84240126191338], [-130.58125425824736, 60.06504126174676], [-130.4830935854242, 57.059401261820994], [-128.3235587815709, 56.83676126159213], [-121.94311504335727, 56.39148126192538], [-121.6486330247134, 68.41404126162843]]]}, "properties": {"id": 22, "height_m": 6.0, "levels": 2, "category": "alojamiento", "extrude": true, "manzana_id": 3}}, {"type": "Feature", "geometry": {"type": "Polygon", "coordinates": [[[-134.80216319278205, 62.514081261891334], [-138.23778674420836, 58.50656126172666], [-142.94949904320762, 53.38584126160413], [-137.9433047255645, 48.59908126182489], [-132.7407890619263, 54.499041261561985], [-134.50768117413818, 56.39148126192538], [-132.15182502463858, 58.9518412617889], [-130.4830935854242, 57.059401261820994], [-130.58125425824736, 60.06504126174676], [-130.58125425824736, 61.623521261766854], [-130.97389694988877, 61.623521261766854], [-130.87573627689122, 62.4027612617769], [-134.80216319278205, 62.514081261891334]]]}, "properties": {"id": 23, "height_m": 6.0, "levels": 2, "category": "restauracion", "extrude": true, "manzana_id": 3}}, {"type": "Feature", "geometry": {"type": "Polygon", "coordinates": [[[-130.6794149312449, 68.9706412618051], [-134.50768117413818, 69.19328126163848], [-134.80216319278205, 63.51596126173476], [-134.80216319278205, 62.514081261891334], [-130.87573627689122, 62.4027612617769], [-130.6794149312449, 68.9706412618051]]]}, "properties": {"id": 24, "height_m": 6.0, "levels": 2, "category": "restauracion", "extrude": true, "manzana_id": 3}}, {"type": "Feature", "geometry": {"type": "Polygon", "coordinates": [[[-134.50768117413818, 69.19328126163848], [-149.23178210859808, 70.19516126187739], [-149.82074614606017, 59.953721261632325], [-142.94949904320762, 53.38584126160413], [-138.23778674420836, 58.50656126172666], [-136.56905530499398, 63.51596126173476], [-134.80216319278205, 63.51596126173476], [-134.50768117413818, 69.19328126163848]]]}, "properties": {"id": 25, "height_m": 6.0, "levels": 2, "category": "restauracion", "extrude": true, "manzana_id": 3}}, {"type": "Feature", "geometry": {"type": "Polygon", "coordinates": [[[-100.34776700604483, 14.53516126161162], [-90.72802106222561, 5.406921261719901], [-56.66626756712978, 3.514481261751996], [-54.9975361279154, 30.89920126182264], [-75.61127743612435, 32.23504126161387], [-77.57449089415695, 32.346361261728305], [-82.67884588479761, 32.68032126167611], [-85.72182674458249, 29.56336126163592], [-89.84457500611965, 25.333201261637868], [-100.34776700604483, 14.53516126161162]]]}, "properties": {"id": 26, "height_m": 6.0, "levels": 2, "category": "restauracion", "extrude": true, "manzana_id": 3}}, {"type": "Feature", "geometry": {"type": "Polygon", "coordinates": [[[-53.52512603434736, 55.61224126191533], [-53.0343226698828, 63.961241261797], [-70.11427975401666, 65.07444126175486], [-70.5069224454837, 57.059401261820994], [-53.52512603434736, 55.61224126191533]]]}, "properties": {"id": 27, "height_m": 6.0, "levels": 2, "category": "alojamiento", "extrude": true, "manzana_id": 3}}, {"type": "Feature", "geometry": {"type": "Polygon", "coordinates": [[[-54.11409007180945, 46.26136126179475], [-53.52512603434736, 55.61224126191533], [-70.5069224454837, 57.059401261820994], [-70.99772580994825, 47.59720126158598], [-54.11409007180945, 46.26136126179475]]]}, "properties": {"id": 28, "height_m": 6.0, "levels": 2, "category": "alojamiento", "extrude": true, "manzana_id": 3}}, {"type": "Feature", "geometry": {"type": "Polygon", "coordinates": [[[-54.60489343627401, 37.355761261736404], [-54.11409007180945, 46.26136126179475], [-70.99772580994825, 47.59720126158598], [-71.48852917458719, 38.58028126180869], [-54.60489343627401, 37.355761261736404]]]}, "properties": {"id": 29, "height_m": 6.0, "levels": 2, "category": "restauracion", "extrude": true, "manzana_id": 3}}, {"type": "Feature", "geometry": {"type": "Polygon", "coordinates": [[[-54.9975361279154, 30.89920126182264], [-54.60489343627401, 37.355761261736404], [-71.48852917458719, 38.58028126180869], [-71.58668984741034, 35.90860126183074], [-81.79539982869166, 36.465201261611924], [-82.67884588479761, 32.68032126167611], [-77.57449089415695, 32.346361261728305], [-77.37816954833626, 34.90672126159183], [-75.41495609030365, 34.79540126187288], [-75.61127743612435, 32.23504126161387], [-54.9975361279154, 30.89920126182264]]]}, "properties": {"id": 30, "height_m": 6.0, "levels": 2, "category": "restauracion", "extrude": true, "manzana_id": 3}}, {"type": "Feature", "geometry": {"type": "Polygon", "coordinates": [[[101.27425512356353, -36.89467873826061], [101.5687371422074, -31.328678738075837], [98.13311359078112, -31.217358738356893], [96.07173946009972, -31.10603873824246], [89.78945639470925, -30.772078738294653], [89.49497437589102, -36.33807873808394], [101.27425512356353, -36.89467873826061]]]}, "properties": {"id": 31, "height_m": 6.0, "levels": 2, "category": "restauracion", "extrude": true, "manzana_id": 4}}, {"type": "Feature", "geometry": {"type": "Polygon", "coordinates": [[[100.97977310491967, -42.68331873827876], [101.27425512356353, -36.89467873826061], [89.49497437589102, -36.33807873808394], [89.20049235724716, -42.126718738102085], [100.97977310491967, -42.68331873827876]]]}, "properties": {"id": 32, "height_m": 6.0, "levels": 2, "category": "restauracion", "extrude": true, "manzana_id": 4}}, {"type": "Feature", "geometry": {"type": "Polygon", "coordinates": [[[101.5687371422074, -31.328678738075837], [102.05954050667195, -20.64195873816402], [96.56254282456428, -20.307998738216213], [96.07173946009972, -30.326798738232412], [98.13311359078112, -30.326798738232412], [98.13311359078112, -31.217358738356893], [101.5687371422074, -31.328678738075837]]]}, "properties": {"id": 33, "height_m": 6.0, "levels": 2, "category": "restauracion", "extrude": true, "manzana_id": 4}}, {"type": "Feature", "geometry": {"type": "Polygon", "coordinates": [[[78.10833632003427, -91.77543873812084], [95.87541811427901, -92.66599873824532], [98.42759560959935, -91.44147873817303], [99.70368435717232, -71.06991873819283], [79.08994304896338, -70.0680387383494], [78.99178237596585, -73.40763873822297], [78.10833632003427, -91.77543873812084]]]}, "properties": {"id": 34, "height_m": 8.0, "levels": 3, "category": "restauracion", "extrude": true, "manzana_id": 4}}, {"type": "Feature", "geometry": {"type": "Polygon", "coordinates": [[[100.09632704881372, -61.49639873823887], [100.58713041327827, -51.5889187383371], [74.86903411442869, -50.36439873826481], [74.47639142278729, -60.27187873816658], [78.79546103014515, -60.49451873839544], [100.09632704881372, -61.49639873823887]]]}, "properties": {"id": 35, "height_m": 6.0, "levels": 2, "category": "restauracion", "extrude": true, "manzana_id": 4}}, {"type": "Feature", "geometry": {"type": "Polygon", "coordinates": [[[100.58713041327827, -51.5889187383371], [100.97977310491967, -42.68331873827876], [89.20049235724716, -42.126718738102085], [85.47038678717702, -41.90407873826871], [79.48258574043041, -41.68143873843533], [75.35983747889324, -41.45879873820647], [75.2616768058957, -43.017278738226565], [74.86903411442869, -50.36439873826481], [100.58713041327827, -51.5889187383371]]]}, "properties": {"id": 36, "height_m": 6.0, "levels": 2, "category": "restauracion", "extrude": true, "manzana_id": 4}}, {"type": "Feature", "geometry": {"type": "Polygon", "coordinates": [[[90.2802597591738, -20.085358738382837], [89.78945639470925, -30.772078738294653], [96.07173946009972, -31.10603873824246], [96.07173946009972, -30.326798738232412], [96.56254282456428, -20.307998738216213], [90.2802597591738, -20.085358738382837]]]}, "properties": {"id": 37, "height_m": 6.0, "levels": 2, "category": "restauracion", "extrude": true, "manzana_id": 4}}, {"type": "Feature", "geometry": {"type": "Polygon", "coordinates": [[[67.70330499293226, -91.33015873845409], [78.10833632003427, -91.77543873812084], [78.99178237596585, -73.40763873822297], [75.94880151618096, -73.29631873810854], [76.14512286200166, -69.95671873823497], [73.98558805832273, -69.84539873812054], [72.21869594611081, -69.73407873840159], [72.02237460029012, -72.96235873816073], [68.58675104903821, -72.73971873832735], [67.70330499293226, -91.33015873845409]]]}, "properties": {"id": 38, "height_m": 6.0, "levels": 2, "category": "restauracion", "extrude": true, "manzana_id": 4}}, {"type": "Feature", "geometry": {"type": "Polygon", "coordinates": [[[99.70368435717232, -71.06991873819283], [100.09632704881372, -61.49639873823887], [78.79546103014515, -60.49451873839544], [78.59913968449882, -63.83411873826901], [74.28007007696658, -63.611478738435636], [74.18190940414343, -66.50579873824697], [73.98558805832273, -69.84539873812054], [76.14512286200166, -69.95671873823497], [79.08994304896338, -70.0680387383494], [99.70368435717232, -71.06991873819283]]]}, "properties": {"id": 39, "height_m": 6.0, "levels": 2, "category": "restauracion", "extrude": true, "manzana_id": 4}}, {"type": "Feature", "geometry": {"type": "Polygon", "coordinates": [[[90.2802597591738, -20.085358738382837], [76.34144420782236, -19.417438738091732], [75.35983747889324, -41.45879873820647], [79.48258574043041, -41.68143873843533], [79.6789070862511, -38.007878738218466], [85.66670813299771, -38.341838738166274], [85.47038678717702, -41.90407873826871], [89.20049235724716, -42.126718738102085], [89.49497437589102, -36.33807873808394], [89.78945639470925, -30.772078738294653], [90.2802597591738, -20.085358738382837]]]}, "properties": {"id": 40, "height_m": 6.0, "levels": 2, "category": "restauracion", "extrude": true, "manzana_id": 4}}, {"type": "Feature", "geometry": {"type": "Polygon", "coordinates": [[[57.69091635747164, -90.88487873839185], [67.70330499293226, -91.33015873845409], [68.58675104903821, -72.73971873832735], [68.68491172186137, -69.62275873828716], [58.770683759398295, -69.17747873822492], [57.69091635747164, -90.88487873839185]]]}, "properties": {"id": 41, "height_m": 6.0, "levels": 2, "category": "restauracion", "extrude": true, "manzana_id": 4}}, {"type": "Feature", "geometry": {"type": "Polygon", "coordinates": [[[76.34144420782236, -19.417438738091732], [58.5743624135776, -18.52687873836274], [57.49459501165095, -42.46067873844538], [63.482396058397555, -42.68331873827876], [63.678717404218254, -39.56635873823856], [66.32905557236174, -39.677678738352995], [66.23089489953858, -42.571998738164325], [75.2616768058957, -43.017278738226565], [75.35983747889324, -41.45879873820647], [76.34144420782236, -19.417438738091732]]]}, "properties": {"id": 42, "height_m": 6.0, "levels": 2, "category": "restauracion", "extrude": true, "manzana_id": 4}}, {"type": "Feature", "geometry": {"type": "Polygon", "coordinates": [[[58.5743624135776, -18.52687873836274], [54.3534534790429, -18.415558738248308], [51.50679396490434, -20.753278738278453], [50.42702656315206, -42.126718738102085], [57.49459501165095, -42.46067873844538], [58.5743624135776, -18.52687873836274]]]}, "properties": {"id": 43, "height_m": 6.0, "levels": 2, "category": "restauracion", "extrude": true, "manzana_id": 4}}, {"type": "Feature", "geometry": {"type": "Polygon", "coordinates": [[[50.42702656315206, -42.126718738102085], [50.13254454433383, -49.251198738306954], [56.218506264077966, -49.47383873814033], [56.316666936901136, -46.579518738329], [59.45780846950918, -46.69083873844343], [59.26148712386286, -49.58515873825476], [65.64193086207649, -49.91911873820257], [65.93641288072035, -42.90595873811213], [63.482396058397555, -42.68331873827876], [57.49459501165095, -42.46067873844538], [50.42702656315206, -42.126718738102085]]]}, "properties": {"id": 44, "height_m": 6.0, "levels": 2, "category": "restauracion", "extrude": true, "manzana_id": 4}}, {"type": "Feature", "geometry": {"type": "Polygon", "coordinates": [[[50.13254454433383, -49.251198738306954], [49.34725916122541, -65.39259873828911], [71.6297319088231, -66.39447873813253], [74.18190940414343, -66.50579873824697], [74.28007007696658, -63.611478738435636], [74.47639142278729, -60.27187873816658], [74.86903411442869, -50.36439873826481], [65.64193086207649, -49.91911873820257], [59.26148712386286, -49.58515873825476], [56.218506264077966, -49.47383873814033], [50.13254454433383, -49.251198738306954]]]}, "properties": {"id": 45, "height_m": 6.0, "levels": 2, "category": "restauracion", "extrude": true, "manzana_id": 4}}, {"type": "Feature", "geometry": {"type": "Polygon", "coordinates": [[[48.365652432296294, -87.21131873817498], [49.34725916122541, -65.39259873828911], [71.6297319088231, -66.39447873813253], [71.53157123582557, -69.73407873840159], [68.68491172186137, -69.62275873828716], [58.770683759398295, -69.17747873822492], [57.69091635747164, -90.88487873839185], [49.7399018528668, -90.32827873821518], [48.365652432296294, -87.21131873817498]]]}, "properties": {"id": 46, "height_m": 6.0, "levels": 2, "category": "restauracion", "extrude": true, "manzana_id": 4}}, {"type": "Feature", "geometry": {"type": "Polygon", "coordinates": [[[98.42759560959935, 79.10076126154024], [109.22526962816838, 78.43284126164463], [108.04734155341856, 58.61788126184109], [97.24966753484954, 59.28580126173671], [98.42759560959935, 79.10076126154024]]]}, "properties": {"id": 47, "height_m": 18.0, "levels": 6, "category": "alojamiento", "extrude": true, "manzana_id": 5}}, {"type": "Feature", "geometry": {"type": "Polygon", "coordinates": [[[88.80784966560576, 79.76868126183135], [98.42759560959935, 79.10076126154024], [97.24966753484954, 59.28580126173671], [97.151506861852, 57.94996126154999], [94.40300802071097, 58.17260126177885], [91.55634850674679, 58.28392126189328], [89.10233168442399, 58.50656126172666], [87.43360024520962, 58.50656126172666], [88.80784966560576, 79.76868126183135]]]}, "properties": {"id": 48, "height_m": 6.0, "levels": 2, "category": "alojamiento", "extrude": true, "manzana_id": 5}}, {"type": "Feature", "geometry": {"type": "Polygon", "coordinates": [[[106.28044944120666, 33.682201261915026], [105.7896460767421, 25.221881261918924], [99.01655964688707, 25.667161261585676], [99.21288099270777, 28.672801261906926], [93.81404398342325, 29.006761261854734], [93.61772263760255, 26.001121261928972], [91.06554514228223, 26.22376126176235], [91.16370581527976, 27.670921261668013], [81.15131717981915, 28.33884126156363], [81.05315650682162, 26.780361261543533], [79.28626439478408, 26.891681261657965], [79.6789070862511, 31.901081261666064], [79.87522843207181, 35.57464126188293], [83.31085198349808, 35.35200126165407], [85.07774409553562, 35.240681261539635], [84.97958342271245, 32.90296126190498], [98.62391695542004, 32.12372126189493], [98.72207762824321, 34.12748126158178], [106.28044944120666, 33.682201261915026]]]}, "properties": {"id": 49, "height_m": 6.0, "levels": 2, "category": "restauracion", "extrude": true, "manzana_id": 5}}, {"type": "Feature", "geometry": {"type": "Polygon", "coordinates": [[[68.19410835739681, 80.99320126190364], [78.99178237596585, 80.32528126161253], [78.40281833867813, 70.64044126154414], [75.2616768058957, 70.863081261773], [75.06535546007501, 67.74612126173281], [78.20649699285742, 67.63480126161838], [77.71569362839287, 59.174481261622276], [66.91801960982383, 59.84240126191338], [67.11434095547017, 63.738601261568135], [67.31066230129086, 66.18764126171271], [67.4088229742884, 68.30272126190948], [70.35364316107575, 68.08008126168062], [70.54996450689644, 71.08572126160638], [67.60514431993472, 71.30836126183524], [68.19410835739681, 80.99320126190364]]]}, "properties": {"id": 50, "height_m": 6.0, "levels": 2, "category": "restauracion", "extrude": true, "manzana_id": 5}}, {"type": "Feature", "geometry": {"type": "Polygon", "coordinates": [[[105.7896460767421, 25.221881261918924], [105.49516405809824, 20.546441261858632], [96.16990013292288, 21.103041261639817], [96.26806080574605, 22.884161261888778], [81.93660256292758, 23.77472126161777], [81.54395987128618, 17.429481261818438], [88.61152831995943, 17.09552126187063], [88.7096889927826, 18.097401261714054], [102.74666521695721, 17.206841261589574], [102.55034387113652, 13.867241261716003], [91.16370581527976, 14.53516126161162], [91.06554514228223, 13.088001261705955], [85.27406544135631, 13.533281261768195], [82.23108458157144, 13.644601261882627], [78.50097901150129, 13.867241261716003], [79.08994304896338, 23.106801261722154], [79.28626439478408, 26.891681261657965], [81.05315650682162, 26.780361261543533], [91.06554514228223, 26.22376126176235], [93.61772263760255, 26.001121261928972], [99.01655964688707, 25.667161261585676], [105.7896460767421, 25.221881261918924]]]}, "properties": {"id": 51, "height_m": 3.0, "levels": 1, "category": "residencial", "extrude": true, "manzana_id": 5}}, {"type": "Feature", "geometry": {"type": "Polygon", "coordinates": [[[89.98577774052994, -4.500558738181866], [91.06554514228223, 13.088001261705955], [104.70987867498981, 12.308761261695906], [103.63011127306316, -5.391118738306346], [89.98577774052994, -4.500558738181866]]]}, "properties": {"id": 52, "height_m": 21.0, "levels": 7, "category": "restauracion", "extrude": true, "manzana_id": 5}}, {"type": "Feature", "geometry": {"type": "Polygon", "coordinates": [[[89.98577774052994, -4.500558738181866], [75.06535546007501, -3.609998738452873], [76.14512286200166, 14.08988126154938], [78.50097901150129, 13.867241261716003], [82.23108458157144, 13.644601261882627], [82.03476323575073, 10.416321261728001], [85.07774409553562, 10.193681261894625], [85.27406544135631, 13.533281261768195], [91.06554514228223, 13.088001261705955], [89.98577774052994, -4.500558738181866]]]}, "properties": {"id": 53, "height_m": 21.0, "levels": 7, "category": "restauracion", "extrude": true, "manzana_id": 5}}, {"type": "Feature", "geometry": {"type": "Polygon", "coordinates": [[[75.06535546007501, -3.609998738452873], [67.70330499293226, -3.164718738390633], [68.19410835739681, 4.850321261543229], [69.76467912378803, 4.739001261824285], [69.86283979661118, 6.520121261677758], [71.6297319088231, 6.297481261844382], [71.8260532546438, 9.52576126160352], [68.48859037604068, 9.748401261832385], [68.7830723948589, 14.53516126161162], [76.14512286200166, 14.08988126154938], [75.06535546007501, -3.609998738452873]]]}, "properties": {"id": 54, "height_m": 12.0, "levels": 4, "category": "restauracion", "extrude": true, "manzana_id": 5}}, {"type": "Feature", "geometry": {"type": "Polygon", "coordinates": [[[56.316666936901136, 53.60848126183299], [56.70930962854253, 60.399001261694565], [66.91801960982383, 59.84240126191338], [77.71569362839287, 59.174481261622276], [81.34763852546548, 58.9518412617889], [80.85683516100092, 52.050001261812895], [56.316666936901136, 53.60848126183299]]]}, "properties": {"id": 55, "height_m": 6.0, "levels": 2, "category": "salud", "extrude": true, "manzana_id": 5}}, {"type": "Feature", "geometry": {"type": "Polygon", "coordinates": [[[55.04057818932815, 33.45956126168616], [55.43322088079518, 39.916121261599926], [80.0715497778925, 38.35764126157983], [79.87522843207181, 35.57464126188293], [79.6789070862511, 31.901081261666064], [75.6543194975371, 32.23504126161387], [72.80765998357292, 32.346361261728305], [55.04057818932815, 33.45956126168616]]]}, "properties": {"id": 56, "height_m": 6.0, "levels": 2, "category": "salud", "extrude": true, "manzana_id": 5}}, {"type": "Feature", "geometry": {"type": "Polygon", "coordinates": [[[54.45161415186606, 24.66528126174225], [55.04057818932815, 33.45956126168616], [72.80765998357292, 32.346361261728305], [72.70949931057538, 30.56524126187483], [75.45799815171641, 30.4539212617604], [75.6543194975371, 32.23504126161387], [79.6789070862511, 31.901081261666064], [79.28626439478408, 26.891681261657965], [79.08994304896338, 23.106801261722154], [75.16351613307255, 23.440761261669962], [75.45799815171641, 27.893561261896878], [73.10214200221677, 28.00488126161582], [72.90582065639607, 23.440761261669962], [67.60514431993472, 23.77472126161777], [67.70330499293226, 25.4445212617523], [63.678717404218254, 25.667161261585676], [63.58055673122072, 24.10868126156558], [54.45161415186606, 24.66528126174225]]]}, "properties": {"id": 57, "height_m": 6.0, "levels": 2, "category": "salud", "extrude": true, "manzana_id": 5}}, {"type": "Feature", "geometry": {"type": "Polygon", "coordinates": [[[54.05897146022467, 17.318161261704006], [54.45161415186606, 24.66528126174225], [63.58055673122072, 24.10868126156558], [67.60514431993472, 23.77472126161777], [72.90582065639607, 23.440761261669962], [72.80765998357292, 21.993601261764297], [75.06535546007501, 21.882281261649865], [75.16351613307255, 23.440761261669962], [79.08994304896338, 23.106801261722154], [78.50097901150129, 13.867241261716003], [76.14512286200166, 14.08988126154938], [68.7830723948589, 14.53516126161162], [68.97939374050523, 16.427601261579525], [54.05897146022467, 17.318161261704006]]]}, "properties": {"id": 58, "height_m": 6.0, "levels": 2, "category": "restauracion", "extrude": true, "manzana_id": 5}}, {"type": "Feature", "geometry": {"type": "Polygon", "coordinates": [[[11.751721441880127, 60.510321261809], [19.604575273487438, 60.06504126174676], [19.11377190902288, 53.05188126165632], [19.11377190902288, 52.27264126164627], [17.739522488452366, 52.27264126164627], [17.543201142806037, 49.26700126172051], [19.015611236199714, 49.15568126160608], [18.524807871735156, 41.919881261682264], [17.935843834273065, 32.56900126156168], [14.205738264202921, 32.791641261790545], [14.303898937200454, 35.01804126170626], [10.181150675488919, 35.240681261539635], [10.279311348312083, 36.576521261726356], [10.77011471295101, 45.59344126189913], [10.966436058597338, 48.15380126176265], [11.751721441880127, 60.510321261809]]]}, "properties": {"id": 59, "height_m": 6.0, "levels": 2, "category": "restauracion", "extrude": true, "manzana_id": 2}}, {"type": "Feature", "geometry": {"type": "Polygon", "coordinates": [[[-45.083308165277955, 44.925521261608026], [-44.592504800813394, 53.60848126183299], [-35.65988356727944, 53.05188126165632], [-20.837621959822034, 52.16132126192733], [-21.32842532428659, 43.47836126170236], [-45.083308165277955, 44.925521261608026]]]}, "properties": {"id": 60, "height_m": 6.0, "levels": 2, "category": "restauracion", "extrude": true, "manzana_id": 2}}, {"type": "Feature", "geometry": {"type": "Polygon", "coordinates": [[[-45.57411152974252, 36.576521261726356], [-45.083308165277955, 44.925521261608026], [-21.32842532428659, 43.47836126170236], [-21.81922868875115, 35.12936126182069], [-45.57411152974252, 36.576521261726356]]]}, "properties": {"id": 61, "height_m": 6.0, "levels": 2, "category": "restauracion", "extrude": true, "manzana_id": 2}}, {"type": "Feature", "geometry": {"type": "Polygon", "coordinates": [[[-46.16307556720461, 27.003001261772397], [-45.57411152974252, 36.576521261726356], [-21.81922868875115, 35.12936126182069], [-22.01555003457185, 32.346361261728305], [-24.96037022153357, 32.45768126184274], [-25.156691567354265, 28.33884126156363], [-22.113710707569382, 28.116201261730254], [-22.31003205321571, 25.555841261866732], [-31.733456651388597, 26.112441261647916], [-34.580116165352784, 26.33508126187678], [-37.623097025137675, 26.446401261595724], [-46.16307556720461, 27.003001261772397]]]}, "properties": {"id": 62, "height_m": 6.0, "levels": 2, "category": "restauracion", "extrude": true, "manzana_id": 2}}, {"type": "Feature", "geometry": {"type": "Polygon", "coordinates": [[[-46.65387893166916, 19.09928126155748], [-46.16307556720461, 27.003001261772397], [-37.623097025137675, 26.446401261595724], [-37.721257698135204, 24.10868126156558], [-34.776437511173484, 23.886041261732203], [-34.580116165352784, 26.33508126187678], [-31.733456651388597, 26.112441261647916], [-32.224260015853154, 18.208721261828487], [-33.40218809060297, 18.32004126154743], [-33.30402741777981, 19.98984126168196], [-38.31022173542293, 20.323801261629768], [-38.40838240842046, 18.654001261890727], [-41.15688124938712, 18.76532126160967], [-46.65387893166916, 19.09928126155748]]]}, "properties": {"id": 63, "height_m": 6.0, "levels": 2, "category": "restauracion", "extrude": true, "manzana_id": 2}}, {"type": "Feature", "geometry": {"type": "Polygon", "coordinates": [[[3.800706937275285, 60.95560126187124], [11.751721441880127, 60.510321261809], [10.966436058597338, 48.15380126176265], [9.592186638026826, 48.265121261877084], [9.494025965203662, 45.704761261618074], [10.77011471295101, 45.59344126189913], [10.279311348312083, 36.576521261726356], [2.3282968437072395, 37.021801261788596], [2.4264575167047724, 38.35764126157983], [2.6227788625254695, 41.919881261682264], [2.9172608811693315, 45.59344126189913], [3.211742899813193, 50.4915212617928], [6.549205778241941, 50.26888126156393], [6.7455271240626375, 53.05188126165632], [3.3099035726363573, 53.274521261885184], [3.800706937275285, 60.95560126187124]]]}, "properties": {"id": 64, "height_m": 6.0, "levels": 2, "category": "restauracion", "extrude": true, "manzana_id": 2}}, {"type": "Feature", "geometry": {"type": "Polygon", "coordinates": [[[-4.150307567503926, 61.51220126165242], [3.800706937275285, 60.95560126187124], [3.3099035726363573, 53.274521261885184], [3.211742899813193, 50.4915212617928], [2.9172608811693315, 45.59344126189913], [1.4448507876012864, 45.704761261618074], [1.2485294419549575, 42.031201261796696], [2.6227788625254695, 41.919881261682264], [2.4264575167047724, 38.35764126157983], [-5.230074969256209, 38.80292126164207], [-5.230074969256209, 39.69348126176655], [-5.033753623435511, 43.14440126175455], [-2.0889334366481584, 42.921761261921176], [-1.9907727636506256, 44.36892126182684], [-5.230074969256209, 44.59156126166022], [-5.033753623435511, 46.81796126157593], [-4.837432277614814, 50.93680126185504], [-3.1687008384004405, 50.825481261740606], [-3.070540165577276, 53.60848126183299], [-4.641110931968486, 53.60848126183299], [-4.150307567503926, 61.51220126165242]]]}, "properties": {"id": 65, "height_m": 6.0, "levels": 2, "category": "restauracion", "extrude": true, "manzana_id": 2}}, {"type": "Feature", "geometry": {"type": "Polygon", "coordinates": [[[-12.10132207210877, 61.95748126171466], [-4.150307567503926, 61.51220126165242], [-4.641110931968486, 53.60848126183299], [-4.837432277614814, 50.93680126185504], [-5.033753623435511, 46.81796126157593], [-9.843626595432305, 47.040601261804795], [-10.334429959896863, 39.916121261599926], [-5.230074969256209, 39.69348126176655], [-5.230074969256209, 38.80292126164207], [-5.524556987900071, 34.12748126158178], [-13.770053511323143, 34.57276126164402], [-13.37741081968175, 40.80668126172441], [-12.10132207210877, 61.95748126171466]]]}, "properties": {"id": 66, "height_m": 6.0, "levels": 2, "category": "restauracion", "extrude": true, "manzana_id": 2}}, {"type": "Feature", "geometry": {"type": "Polygon", "coordinates": [[[-20.150497249536777, 62.4027612617769], [-12.10132207210877, 61.95748126171466], [-13.37741081968175, 40.80668126172441], [-17.205677062749423, 41.02932126155778], [-17.10751638975189, 43.255721261868985], [-21.32842532428659, 43.47836126170236], [-20.150497249536777, 62.4027612617769]]]}, "properties": {"id": 67, "height_m": 6.0, "levels": 2, "category": "restauracion", "extrude": true, "manzana_id": 2}}, {"type": "Feature", "geometry": {"type": "Polygon", "coordinates": [[[108.04734155341856, 58.61788126184109], [107.45837751613084, 50.15756126184499], [97.34782820767269, 50.825481261740606], [97.44598888067023, 52.60660126159408], [94.40300802071097, 52.82924126182294], [94.30484734788782, 50.93680126185504], [88.61152831995943, 51.38208126191728], [88.7096889927826, 52.82924126182294], [86.9427968805707, 52.94056126154189], [86.84463620774753, 51.49340126163622], [83.40901265632125, 51.604721261750655], [83.8998160207858, 58.84052126167447], [87.43360024520962, 58.50656126172666], [89.10233168442399, 58.50656126172666], [89.00417101142646, 56.39148126192538], [91.45818783392362, 56.280161261810946], [91.55634850674679, 58.28392126189328], [94.40300802071097, 58.17260126177885], [94.20668667506465, 56.39148126192538], [97.05334618902883, 56.280161261810946], [97.151506861852, 57.94996126154999], [97.24966753484954, 59.28580126173671], [108.04734155341856, 58.61788126184109]]]}, "properties": {"id": 68, "height_m": 6.0, "levels": 2, "category": "restauracion", "extrude": true, "manzana_id": 5}}, {"type": "Feature", "geometry": {"type": "Polygon", "coordinates": [[[-44.592504800813394, 53.60848126183299], [-43.90538009052814, 63.84992126168257], [-20.150497249536777, 62.4027612617769], [-20.641300614001334, 55.834881261748706], [-25.549334258821293, 56.168841261696514], [-25.451173585998127, 57.72732126171661], [-28.199672427139152, 57.94996126154999], [-28.395993772959848, 55.5009212618009], [-31.3408139597472, 55.72356126163427], [-31.144492613926506, 58.06128126166442], [-35.267240875638045, 58.28392126189328], [-35.65988356727944, 53.05188126165632], [-44.592504800813394, 53.60848126183299]]]}, "properties": {"id": 69, "height_m": 6.0, "levels": 2, "category": "restauracion", "extrude": true, "manzana_id": 2}}, {"type": "Feature", "geometry": {"type": "Polygon", "coordinates": [[[107.45837751613084, 50.15756126184499], [107.06573482448944, 43.03308126164012], [83.01636996485422, 44.480241261545785], [83.40901265632125, 51.604721261750655], [86.84463620774753, 51.49340126163622], [88.61152831995943, 51.38208126191728], [94.30484734788782, 50.93680126185504], [97.34782820767269, 50.825481261740606], [107.45837751613084, 50.15756126184499]]]}, "properties": {"id": 70, "height_m": 12.0, "levels": 4, "category": "restauracion", "extrude": true, "manzana_id": 5}}, {"type": "Feature", "geometry": {"type": "Polygon", "coordinates": [[[107.06573482448944, 43.03308126164012], [106.57493146002489, 35.57464126188293], [92.9305979273173, 36.465201261611924], [93.126919273138, 39.470841261933174], [90.47658110499451, 39.58216126165212], [90.37842043199697, 36.79916126155973], [83.50717332931877, 37.24444126162197], [83.31085198349808, 35.35200126165407], [79.87522843207181, 35.57464126188293], [80.0715497778925, 38.35764126157983], [80.16971045071567, 40.36140126166217], [80.36603179653636, 43.36704126158793], [80.4641924695339, 44.70288126177465], [83.01636996485422, 44.480241261545785], [107.06573482448944, 43.03308126164012]]]}, "properties": {"id": 71, "height_m": 12.0, "levels": 4, "category": "restauracion", "extrude": true, "manzana_id": 5}}, {"type": "Feature", "geometry": {"type": "Polygon", "coordinates": [[[78.99178237596585, 80.32528126161253], [88.80784966560576, 79.76868126183135], [87.43360024520962, 58.50656126172666], [83.8998160207858, 58.84052126167447], [84.0961373666065, 61.95748126171466], [81.54395987128618, 62.068801261829094], [81.34763852546548, 58.9518412617889], [77.71569362839287, 59.174481261622276], [78.20649699285742, 67.63480126161838], [78.40281833867813, 70.64044126154414], [78.99178237596585, 80.32528126161253]]]}, "properties": {"id": 72, "height_m": 6.0, "levels": 2, "category": "alojamiento", "extrude": true, "manzana_id": 5}}, {"type": "Feature", "geometry": {"type": "Polygon", "coordinates": [[[57.39643433882778, 70.64044126154414], [58.08355904911304, 81.66112126179925], [68.19410835739681, 80.99320126190364], [67.60514431993472, 71.30836126183524], [67.50698364711155, 69.97252126164852], [57.39643433882778, 70.64044126154414]]]}, "properties": {"id": 73, "height_m": 6.0, "levels": 2, "category": "restauracion", "extrude": true, "manzana_id": 5}}, {"type": "Feature", "geometry": {"type": "Polygon", "coordinates": [[[33.34706947901819, 59.174481261622276], [39.82567389022935, 58.729201261560036], [39.3348705257648, 51.93868126169846], [36.29188966597991, 52.16132126192733], [36.09556832015922, 48.48776126171046], [39.1385491799441, 48.265121261877084], [38.9422278341234, 45.370801261670266], [32.4636234230866, 45.816081261732506], [33.34706947901819, 59.174481261622276]]]}, "properties": {"id": 74, "height_m": 6.0, "levels": 2, "category": "salud", "extrude": true, "manzana_id": 2}}, {"type": "Feature", "geometry": {"type": "Polygon", "coordinates": [[[67.70330499293226, -3.164718738390633], [56.70930962854253, -2.4967987380995282], [52.78288271265169, 0.3975212617118018], [54.05897146022467, 17.318161261704006], [68.97939374050523, 16.427601261579525], [68.7830723948589, 14.53516126161162], [68.48859037604068, 9.748401261832385], [68.19410835739681, 4.850321261543229], [67.70330499293226, -3.164718738390633]]]}, "properties": {"id": 75, "height_m": 21.0, "levels": 7, "category": "restauracion", "extrude": true, "manzana_id": 5}}, {"type": "Feature", "geometry": {"type": "Polygon", "coordinates": [[[36.78269303044447, -1.8288787382039118], [30.893052656695396, -1.4949187382561036], [31.48201669398312, 8.635201261874528], [31.678338039803815, 10.527641261842433], [37.469817740729724, 10.193681261894625], [36.78269303044447, -1.8288787382039118]]]}, "properties": {"id": 76, "height_m": 6.0, "levels": 2, "category": "restauracion", "extrude": true, "manzana_id": 2}}, {"type": "Feature", "geometry": {"type": "Polygon", "coordinates": [[[30.893052656695396, -1.4949187382561036], [24.807090937125626, -1.0496387381938632], [25.49421564741088, 10.861601261790241], [29.616963908948048, 10.638961261561377], [29.42064256330172, 8.746521261593472], [31.48201669398312, 8.635201261874528], [30.893052656695396, -1.4949187382561036]]]}, "properties": {"id": 77, "height_m": 6.0, "levels": 2, "category": "restauracion", "extrude": true, "manzana_id": 2}}, {"type": "Feature", "geometry": {"type": "Polygon", "coordinates": [[[17.935843834273065, -0.6043587381316229], [6.843687797060171, 0.06356126176399357], [8.610579909097709, 28.33884126156363], [8.90506192791594, 33.12560126173835], [14.205738264202921, 32.791641261790545], [17.935843834273065, 32.56900126156168], [19.899057292305667, 32.346361261728305], [17.935843834273065, -0.6043587381316229]]]}, "properties": {"id": 78, "height_m": 6.0, "levels": 2, "category": "restauracion", "extrude": true, "manzana_id": 2}}, {"type": "Feature", "geometry": {"type": "Polygon", "coordinates": [[[6.843687797060171, 0.06356126176399357], [-23.68428147378622, 1.956001261731899], [-22.31003205321571, 25.555841261866732], [-22.113710707569382, 28.116201261730254], [-21.917389361748683, 30.56524126187483], [-16.616713025287332, 30.342601261645967], [-16.32223100664347, 34.79540126187288], [-13.770053511323143, 34.57276126164402], [-5.524556987900071, 34.12748126158178], [3.898867610098449, 33.570881261800594], [3.6043855914545873, 28.672801261906926], [8.610579909097709, 28.33884126156363], [6.843687797060171, 0.06356126176399357]]]}, "properties": {"id": 79, "height_m": 6.0, "levels": 2, "category": "restauracion", "extrude": true, "manzana_id": 2}}, {"type": "Feature", "geometry": {"type": "Polygon", "coordinates": [[[56.70930962854253, 60.399001261694565], [57.39643433882778, 70.64044126154414], [67.50698364711155, 69.97252126164852], [67.4088229742884, 68.30272126190948], [67.31066230129086, 66.18764126171271], [64.07136009568528, 66.41028126154609], [63.973199422862116, 63.961241261797], [67.11434095547017, 63.738601261568135], [66.91801960982383, 59.84240126191338], [56.70930962854253, 60.399001261694565]]]}, "properties": {"id": 80, "height_m": 6.0, "levels": 2, "category": "restauracion", "extrude": true, "manzana_id": 5}}, {"type": "Feature", "geometry": {"type": "Polygon", "coordinates": [[[-23.68428147378622, 1.956001261731899], [-33.20586674478228, 2.5126012619085714], [-31.733456651388597, 26.112441261647916], [-22.31003205321571, 25.555841261866732], [-23.68428147378622, 1.956001261731899]]]}, "properties": {"id": 81, "height_m": 6.0, "levels": 2, "category": "restauracion", "extrude": true, "manzana_id": 2}}, {"type": "Feature", "geometry": {"type": "Polygon", "coordinates": [[[55.92402424525974, 46.81796126157593], [56.316666936901136, 53.60848126183299], [80.85683516100092, 52.050001261812895], [80.4641924695339, 45.370801261670266], [55.92402424525974, 46.81796126157593]]]}, "properties": {"id": 82, "height_m": 6.0, "levels": 2, "category": "salud", "extrude": true, "manzana_id": 5}}, {"type": "Feature", "geometry": {"type": "Polygon", "coordinates": [[[-47.635485660598285, 3.403161261637564], [-46.65387893166916, 19.09928126155748], [-41.15688124938712, 18.76532126160967], [-41.35320259520781, 15.759681261683909], [-38.60470375406679, 15.537041261850533], [-38.40838240842046, 18.654001261890727], [-33.40218809060297, 18.32004126154743], [-32.224260015853154, 18.208721261828487], [-33.20586674478228, 2.5126012619085714], [-47.635485660598285, 3.403161261637564]]]}, "properties": {"id": 83, "height_m": 6.0, "levels": 2, "category": "restauracion", "extrude": true, "manzana_id": 2}}, {"type": "Feature", "geometry": {"type": "Polygon", "coordinates": [[[26.77030439498386, 59.619761261684516], [33.34706947901819, 59.174481261622276], [32.4636234230866, 45.816081261732506], [30.304088619233305, 45.92740126184694], [27.457429105269117, 46.150041261680315], [25.98501901187544, 46.150041261680315], [26.083179684698603, 48.15380126176265], [26.377661703516832, 52.60660126159408], [26.77030439498386, 59.619761261684516]]]}, "properties": {"id": 84, "height_m": 6.0, "levels": 2, "category": "residencial", "extrude": true, "manzana_id": 2}}, {"type": "Feature", "geometry": {"type": "Polygon", "coordinates": [[[55.43322088079518, 39.916121261599926], [55.92402424525974, 46.81796126157593], [80.4641924695339, 45.370801261670266], [80.4641924695339, 44.70288126177465], [80.36603179653636, 43.36704126158793], [77.32305093675147, 43.47836126170236], [77.12672959093078, 40.58404126189103], [80.16971045071567, 40.36140126166217], [80.0715497778925, 38.35764126157983], [55.43322088079518, 39.916121261599926]]]}, "properties": {"id": 85, "height_m": 6.0, "levels": 2, "category": "salud", "extrude": true, "manzana_id": 5}}, {"type": "Feature", "geometry": {"type": "Polygon", "coordinates": [[[39.82567389022935, 58.729201261560036], [46.50059964726122, 58.39524126161223], [45.715314263978435, 45.03684126172246], [38.9422278341234, 45.370801261670266], [39.1385491799441, 48.265121261877084], [39.3348705257648, 51.93868126169846], [39.82567389022935, 58.729201261560036]]]}, "properties": {"id": 86, "height_m": 6.0, "levels": 2, "category": "salud", "extrude": true, "manzana_id": 2}}, {"type": "Feature", "geometry": {"type": "Polygon", "coordinates": [[[45.715314263978435, 45.03684126172246], [45.3226715725114, 37.91236126191308], [25.49421564741088, 39.02556126187093], [25.98501901187544, 46.150041261680315], [27.457429105269117, 46.150041261680315], [27.261107759448418, 42.810441261806744], [30.107767273586976, 42.58780126157788], [30.304088619233305, 45.92740126184694], [32.4636234230866, 45.816081261732506], [38.9422278341234, 45.370801261670266], [45.715314263978435, 45.03684126172246]]]}, "properties": {"id": 87, "height_m": 6.0, "levels": 2, "category": "restauracion", "extrude": true, "manzana_id": 2}}, {"type": "Feature", "geometry": {"type": "Polygon", "coordinates": [[[45.3226715725114, 37.91236126191308], [44.83186820804685, 30.89920126182264], [25.101572955769488, 32.12372126189493], [25.297894301590183, 35.57464126188293], [25.49421564741088, 39.02556126187093], [45.3226715725114, 37.91236126191308]]]}, "properties": {"id": 88, "height_m": 6.0, "levels": 2, "category": "restauracion", "extrude": true, "manzana_id": 2}}, {"type": "Feature", "geometry": {"type": "Polygon", "coordinates": [[[44.83186820804685, 30.89920126182264], [44.24290417058476, 20.212481261910824], [24.41444824548423, 21.437001261587625], [25.101572955769488, 32.12372126189493], [44.83186820804685, 30.89920126182264]]]}, "properties": {"id": 89, "height_m": 6.0, "levels": 2, "category": "restauracion", "extrude": true, "manzana_id": 2}}, {"type": "Feature", "geometry": {"type": "Polygon", "coordinates": [[[19.604575273487438, 60.06504126174676], [26.77030439498386, 59.619761261684516], [26.377661703516832, 52.60660126159408], [26.279501030519302, 51.93868126169846], [23.923644881019673, 52.16132126192733], [23.727323535198973, 48.37644126159603], [26.083179684698603, 48.15380126176265], [25.98501901187544, 46.150041261680315], [25.49421564741088, 39.02556126187093], [25.297894301590183, 35.57464126188293], [21.8622707501639, 35.79728126171631], [22.156752768807763, 41.69724126184889], [18.524807871735156, 41.919881261682264], [19.015611236199714, 49.15568126160608], [19.015611236199714, 50.26888126156393], [20.586182002590924, 50.15756126184499], [20.782503348237253, 52.94056126154189], [19.11377190902288, 53.05188126165632], [19.604575273487438, 60.06504126174676]]]}, "properties": {"id": 90, "height_m": 6.0, "levels": 2, "category": "restauracion", "extrude": true, "manzana_id": 2}}, {"type": "Feature", "geometry": {"type": "Polygon", "coordinates": [[[44.24290417058476, 20.212481261910824], [43.5557794602995, 9.748401261832385], [37.469817740729724, 10.193681261894625], [31.678338039803815, 10.527641261842433], [29.616963908948048, 10.638961261561377], [25.49421564741088, 10.861601261790241], [23.825484208196507, 10.972921261904673], [24.41444824548423, 21.437001261587625], [44.24290417058476, 20.212481261910824]]]}, "properties": {"id": 91, "height_m": 6.0, "levels": 2, "category": "restauracion", "extrude": true, "manzana_id": 2}}, {"type": "Feature", "geometry": {"type": "Polygon", "coordinates": [[[43.5557794602995, 9.748401261832385], [42.868654750014244, -2.16283873815172], [36.78269303044447, -1.8288787382039118], [37.469817740729724, 10.193681261894625], [43.5557794602995, 9.748401261832385]]]}, "properties": {"id": 92, "height_m": 6.0, "levels": 2, "category": "restauracion", "extrude": true, "manzana_id": 2}}]}