{"type": "FeatureCollection", "crs": {"type": "name", "properties": {"name": "EPSG:32628_local_enu_m_section_centroid", "lng0": -16.55405970862216, "lat0": 28.410228964916804}}, "features": [{"type": "Feature", "geometry": {"type": "Polygon", "coordinates": [[[-145.65817496962006, -97.5843707568613], [-145.40200812723342, -97.80708606814177], [-145.11826223722252, -98.03042347328655], [-145.189471710151, -98.11138347344793], [-142.46746165102758, -100.25388732769962], [-139.71143883742926, -102.55171239794335], [-138.58680651454304, -101.5055644324989], [-134.37304970591492, -105.05998111457329], [-134.3374471805514, -105.00601113299493], [-134.04294102350235, -105.26643611239402], [-133.79789062780517, -105.45931615540024], [-133.84073638193072, -105.52426617052575], [-130.8113621052618, -108.04999713505597], [-129.45440276482788, -109.19278546135399], [-127.28214816190027, -109.19278546135399], [-124.2455504954782, -111.84229487752204], [-121.21412364569643, -114.39666280637095], [-117.17555158914502, -117.71279177415833], [-115.96132865645018, -116.65088153665721], [-112.09729130386926, -119.92018750902852], [-112.09729130386926, -119.91637627632646], [-111.52070917704489, -120.40802528563033], [-111.39729130386927, -120.51244735846586], [-111.39729130386927, -120.51326315592537], [-109.95354110872367, -121.74434251149798], [-108.38928133701357, -123.07817984511857], [-101.73957129388718, -128.55283457249152], [-98.69874203816647, -124.79058526378454], [-97.22849377300862, -123.11901974142492], [-93.6771307222751, -118.84386947138063], [-86.72320898336585, -124.71697536599932], [-86.72320898336585, -124.74304260375382], [-86.32739469009495, -125.05127007713715], [-84.59098232976781, -126.51779990761604], [-84.54114606034473, -126.44225294799955], [-76.28741652286867, -132.86957567124534], [-85.27210579787001, -143.31934118492535], [-94.65862817383156, -135.3530721405192], [-105.81612170344032, -126.2921721459234], [-111.30866948109677, -133.08457453896938], [-121.68594747816024, -124.2915677931821], [-122.66577928778403, -125.51696517643325], [-132.88418539644286, -116.80377583976896], [-134.05950148916816, -117.91731672048135], [-144.28748383057, -109.16827493240969], [-145.0677239218797, -110.2771203454109], [-156.21784160305654, -101.00422163437041], [-149.86653954560543, -94.1443008302777], [-145.69300587815854, -97.62397097077847], [-145.65817496962006, -97.5843707568613]]]}, "properties": {"id": 0, "height_median_m": 15.0, "building_count": 11, "area_m2": 824.6951998398235}}, {"type": "Feature", "geometry": {"type": "Polygon", "coordinates": [[[-109.15084674234406, -137.66407371506338], [-101.84776564265266, -143.56045883870206], [-101.96955411377076, -143.70299597690368], [-92.05995263067253, -151.68343159604333], [-100.93426221785798, -162.3594729047409], [-108.52004707219238, -155.8911079762657], [-108.44542877126187, -155.80362127399013], [-117.92313193604518, -148.1068639049436], [-109.15084674234406, -137.66407371506338]]]}, "properties": {"id": 1, "height_median_m": 9.0, "building_count": 3, "area_m2": 302.68174674190334}}, {"type": "Feature", "geometry": {"type": "Polygon", "coordinates": [[[-150.85574264726188, -120.90895752604762], [-150.86264148827703, -120.92202999489658], [-145.39598577787973, -125.50164412604731], [-145.36205097061563, -125.45341736124549], [-145.22129266121328, -125.61344933849904], [-144.180381194911, -124.537594105838], [-139.9781845840299, -128.09301172307605], [-139.97316601364804, -128.0874842776439], [-139.7172551136707, -128.31378036425997], [-139.44346933769592, -128.5454265391984], [-139.4780317629511, -128.5834935393727], [-133.98455263009723, -133.23144657343346], [-132.54650472129455, -131.89375525609802], [-132.54650472129455, -132.64045464796206], [-130.03143875322317, -134.6526583634736], [-127.03752332117898, -137.14882563205046], [-126.99379907564708, -137.0866865166286], [-126.70572270609838, -137.32164789029488], [-126.44559082213968, -137.5240038812459], [-126.44997804206652, -137.53023881937003], [-121.92619854954354, -141.21993209546818], [-128.05270308146044, -148.6656946786568], [-138.46527465402238, -139.95446496500102], [-139.54702500358258, -140.96072354779557], [-149.60699479282297, -132.18830645951837], [-150.6822082155798, -133.41074604936543], [-161.5854237475807, -124.05515029711373], [-155.6577583740602, -116.95478990425036], [-154.39469882516727, -117.99915862841588], [-150.85574264726188, -120.90895752604762]]]}, "properties": {"id": 2, "height_median_m": 18.0, "building_count": 6, "area_m2": 393.7063119345762}}, {"type": "Feature", "geometry": {"type": "Polygon", "coordinates": [[[-125.28304633598474, -97.37550323180517], [-136.03114661102845, -88.21064604149562], [-129.8003380162749, -80.76646687348068], [-124.02209755882032, -85.89884174769476], [-124.01154187075377, -85.88684069680878], [-123.75357221924727, -86.12680750249041], [-119.54556863243428, -89.71495340181941], [-118.64014501219809, -88.68555248890905], [-117.37352391426539, -89.72959324717867], [-114.2052939268061, -92.32642288744972], [-114.21330551884515, -92.3378086354716], [-108.46486142668124, -97.15348702909219], [-107.03363785859356, -96.06868884563089], [-103.09733466426039, -99.45244539103784], [-103.08764054980074, -99.43866851073801], [-102.79924064479916, -99.70869536460458], [-102.56400627915139, -99.91090941803705], [-102.6683617145216, -100.05921510884727], [-99.8716106233691, -102.26054789676027], [-96.57510371878456, -105.16213937238423], [-102.5958456929365, -112.487646982477], [-112.81275253323966, -103.8874272312672], [-113.88984995202308, -104.88935759548619], [-124.40048789129008, -96.03763007384066], [-125.28304633598474, -97.37550323180517]]]}, "properties": {"id": 3, "height_median_m": 18.0, "building_count": 6, "area_m2": 393.9341460897173}}, {"type": "Feature", "geometry": {"type": "Polygon", "coordinates": [[[-101.1835891497759, -91.63881612644977], [-67.45013846907774, -70.8123930532538], [-61.611550025916394, -76.12283394661894], [-75.77226266945361, -91.76254451786447], [-78.88954008390365, -89.32596334297418], [-86.8663717914341, -99.27982993391632], [-88.20351271997973, -98.72701824469668], [-101.1835891497759, -91.63881612644977]]]}, "properties": {"id": 4, "height_median_m": 3.0, "building_count": 1, "area_m2": 422.0741792732062}}, {"type": "Feature", "geometry": {"type": "Polygon", "coordinates": [[[-104.25708162974061, -76.21740860232894], [-104.26167561874567, -76.19651647456638], [-109.4615225925249, -78.73016580791887], [-113.48494199398812, -70.42413516425331], [-101.6419863959955, -64.41514878471962], [-102.42800728590419, -62.85126359767473], [-90.21911683534667, -56.918417119681145], [-90.98258018159295, -55.50791323752669], [-78.7335578002284, -49.60318364468288], [-78.74810444450169, -49.57424130765681], [-78.39930586456185, -49.44205508808899], [-78.10291232607817, -49.29917644493499], [-78.09001327923555, -49.3248406843307], [-75.77988981134591, -48.44935980327763], [-73.5333002922493, -51.67572926459416], [-76.22715406448539, -53.03693643617143], [-73.97229552713839, -57.606850681270174], [-77.51617308212359, -59.31617917816595], [-78.78842470641824, -59.98377504832135], [-79.4685162065647, -60.31515275706043], [-79.86253821825257, -60.53913996543047], [-81.53112710937076, -61.32028413512582], [-83.19146926833876, -62.208608124161785], [-86.14331262414973, -63.689210283050855], [-85.42001182038798, -65.05977777342663], [-90.41380991844633, -67.49302884578336], [-90.40263918135183, -67.55653043055423], [-90.63797537241165, -67.66598686019032], [-97.32493989623362, -71.21386364904055], [-96.55185087279254, -72.3857917625794], [-100.4320503249649, -74.34646066622273], [-103.6232561562025, -75.8404127371241], [-103.61073091608047, -75.89737389149305], [-103.85765862490854, -76.01557973378728], [-104.25708162974061, -76.21740860232894]]]}, "properties": {"id": 5, "height_median_m": 15.0, "building_count": 7, "area_m2": 400.6245542213766}}, {"type": "Feature", "geometry": {"type": "Polygon", "coordinates": [[[-85.96840561384766, -109.98315710560053], [-82.54144973585306, -105.86431710559842], [-81.36658370949773, -104.52857974128924], [-77.81577874970144, -100.25410130372187], [-69.57709638982924, -107.17737615909384], [-60.72558012594684, -114.16593954733962], [-69.60263415481164, -124.84528249572534], [-76.87810140925289, -118.61155415337574], [-76.86580273821363, -118.59524100809], [-86.39579061963315, -110.46906282538562], [-85.96840561384766, -109.98315710560053]]]}, "properties": {"id": 6, "height_median_m": 9.0, "building_count": 3, "area_m2": 298.3049513001842}}, {"type": "Feature", "geometry": {"type": "Polygon", "coordinates": [[[-45.060902369155485, -78.50315740552595], [-37.695617591029965, -69.90606223665972], [-37.207204365838194, -69.35077186395935], [-31.0542565453669, -62.02220006086152], [-30.75829279021396, -61.57354766136768], [-25.68552683373745, -55.80618110513028], [-26.579061822922245, -55.01604879182838], [-22.772133718158173, -51.0697480331773], [-20.305187552654647, -53.09176893039855], [-4.37889791469811, -34.69502146980967], [5.859450934682004, -43.04308617023412], [5.655477094194352, -43.27498961621784], [6.928346420170624, -44.388189616175694], [4.105897044924447, -47.59710961625679], [5.655477094225738, -48.95230961608586], [5.138647883098552, -49.53990690188926], [4.5657417105838425, -50.299818407275126], [4.264716646470005, -50.756143261150115], [3.9383776477600536, -51.12716700703235], [3.5568511212318126, -51.452492975682866], [2.765934631144043, -52.50157669960924], [-0.015568237710889525, -50.06898685601531], [-6.7422810094728485, -58.04928319457246], [-10.589884607672786, -54.81219321786895], [-25.18806373152093, -71.07054719245896], [-21.627191352729493, -74.10688719762102], [-20.949021801617707, -74.76776965849196], [-20.372561011129363, -75.20469903215304], [-22.198525454782267, -77.28068801988792], [-22.198525454782267, -78.06357566711111], [-23.876793046116195, -76.50242880061111], [-26.739871063113835, -73.24731698492623], [-39.840056484106356, -88.6638716712377], [-46.35382862809327, -83.07925602995228], [-45.10978728857709, -81.71725597498492], [-45.53342988537588, -79.30900161848395], [-45.060902369155485, -78.50315740552595]]]}, "properties": {"id": 7, "height_median_m": 8.0, "building_count": 5, "area_m2": 763.4918720150698}}, {"type": "Feature", "geometry": {"type": "Polygon", "coordinates": [[[-41.27015258570764, -92.95199172110489], [-39.75760756260968, -94.24173211913643], [-38.60036065613754, -95.11886925536031], [-40.71043776986268, -97.8001095394706], [-41.379093662593334, -97.22994964071252], [-41.76552124481514, -96.90044456381439], [-43.30007465064949, -95.69259208845948], [-41.27015258570764, -92.95199172110489]]]}, "properties": {"id": 8, "height_median_m": 8.0, "building_count": 1, "area_m2": 11.416925443352937}}, {"type": "Feature", "geometry": {"type": "Polygon", "coordinates": [[[-51.48230849487901, -49.261887793215394], [-62.41011107326642, -40.00240358015075], [-56.06916615356442, -32.91336285815782], [-53.16633321548781, -35.358037135082036], [-50.32195356378276, -37.72952943242607], [-50.2955923645189, -37.699558662937356], [-50.03629449213269, -37.91574742190536], [-45.68646894629772, -41.406643281959056], [-44.94248300054225, -40.34932078279913], [-40.66539339659937, -43.844415386000385], [-40.627571881455346, -43.790664990431395], [-40.34374537152498, -44.03742803329773], [-40.08387658884901, -44.23439599109099], [-40.16901834972456, -44.355395990934326], [-37.21479038533712, -46.594557782812956], [-33.80698954546259, -49.37929867607137], [-39.82908967977996, -56.826576154457285], [-50.50011053194902, -48.033531250576985], [-51.48230849487901, -49.261887793215394]]]}, "properties": {"id": 9, "height_median_m": 18.0, "building_count": 4, "area_m2": 267.0998979087803}}, {"type": "Feature", "geometry": {"type": "Polygon", "coordinates": [[[-31.08693316032936, -30.056236660933777], [-31.128293877158175, -29.938676331282572], [-34.28515122935416, -31.06027557783467], [-38.533948780425135, -32.388683512686015], [-41.596480165921456, -23.383832271651883], [-28.658058712677885, -19.037682398199404], [-29.04831188645435, -17.70661383192917], [-16.396666524305115, -13.246458131685413], [-16.6910937621812, -11.907488567511734], [-3.9713856399652507, -7.569073202329156], [-4.364197825569092, -6.005976936596161], [7.586542437825524, -2.123941528089473], [9.295677139571977, -1.4299550802670498], [10.572448844104073, -5.421846062934061], [17.732691341017766, -3.6410732295433474], [20.717768030641587, -5.0955655648001565], [22.24333815050728, -9.431721699342118], [16.60374143794887, -11.946157765177857], [15.79406032028543, -9.544726531781206], [8.502554845837416, -11.913272898602724], [5.010333281155568, -13.10439360254637], [5.022551537229672, -13.139121777513914], [4.686608857567385, -13.248248187151617], [-0.4939246763809815, -15.108213597243973], [0.05315692914781192, -16.352197720802927], [-2.4661006343623346, -17.221690930169714], [-6.113480752723162, -18.49496179007545], [-6.118423125263857, -18.480913993284407], [-12.836747057740864, -20.77238794004195], [-12.285768310252964, -22.025233597729535], [-17.892684504625766, -24.038283047788813], [-17.88909580684535, -24.04848326979731], [-18.55062722194889, -24.27737062087055], [-18.55337731052349, -24.269553993302456], [-25.406542394230666, -26.607019319472524], [-24.949820100423196, -28.060947557608316], [-30.4287330794673, -29.817880596993753], [-30.417454152809064, -29.84993889863156], [-30.767735264546662, -29.949499946082415], [-31.08693316032936, -30.056236660933777]]]}, "properties": {"id": 10, "height_median_m": 15.0, "building_count": 9, "area_m2": 597.4125418100581}}, {"type": "Feature", "geometry": {"type": "Polygon", "coordinates": [[[-45.818201787315, 0.41258261040930166], [-46.7940386569422, 1.189201575755435], [-51.21587063194554, -3.61466466909501], [-55.74365108373296, 0.5286524312042886], [-46.3062398322669, 11.030013314372244], [-44.1307393548303, 13.379730089331325], [-43.825719719382505, 13.148539970481767], [-38.79154182988465, 20.016733641254756], [-36.160397528858226, 23.672913667393757], [-33.5850152444866, 28.27409212928436], [-33.60587498464923, 28.288321735243635], [-33.42206741920373, 28.565214743838798], [-33.241782604974325, 28.88731162602679], [-33.21870347290511, 28.871568047599325], [-29.30381454446016, 34.76906944307045], [-23.39822640200672, 30.81247262133521], [-22.546064493906865, 24.636078010344807], [-27.98404511407104, 23.83463127423872], [-30.878005956650252, 19.721852091505898], [-31.059801476387847, 19.46004690431316], [-31.06153286228589, 19.461031134337414], [-34.806064091680916, 14.139455989725782], [-35.19771619209452, 13.694175989626096], [-35.57952660001443, 13.15156260198405], [-39.91058680262737, 7.133216972181643], [-39.67004990366735, 6.920515758871439], [-45.818201787315, 0.41258261040930166]]]}, "properties": {"id": 11, "height_median_m": 3.0, "building_count": 4, "area_m2": 320.20708481915244}}, {"type": "Feature", "geometry": {"type": "Polygon", "coordinates": [[[-19.73253496736225, 35.26849453876647], [-12.783634307495099, 47.11908776881124], [-4.944516462387345, 42.489213593822264], [-4.652148699539766, 42.32301313508481], [-4.666848798315366, 42.29515822686204], [-1.124253634827219, 40.15055287205465], [-0.8335407212428686, 39.98529313509279], [-0.8378327426047858, 39.97716027401809], [6.716351356640537, 35.40403155826312], [-0.20277880001811996, 23.78032543749757], [-8.130062726027873, 28.633342632552452], [-9.945554832569908, 29.550712722279926], [-12.055095552047213, 30.864901556944286], [-12.343864011297715, 31.029055942211286], [-12.337612323003746, 31.040902134969862], [-19.123759097291003, 35.26849453876647], [-19.73253496736225, 35.26849453876647]]]}, "properties": {"id": 12, "height_median_m": 3.0, "building_count": 3, "area_m2": 307.23922120352336}}, {"type": "Feature", "geometry": {"type": "Polygon", "coordinates": [[[7.625865109943784, 81.60353695787123], [7.798372381618446, 81.88547130582326], [9.458358896210772, 84.6894363057343], [10.413640299430988, 86.18280399456239], [11.936801701679475, 89.02777900095833], [11.93680170167916, 89.02777900095852], [12.267305756449826, 89.64509754247834], [12.2779384011141, 89.63905327000057], [15.70960305253064, 95.5471200491678], [27.17214548760488, 88.62015943304162], [23.945472401270003, 82.83950378331264], [23.955008530293046, 82.83408284017477], [23.773557186112185, 82.53151390234666], [22.876021122056578, 80.92355834543217], [20.838283794717423, 77.5256445879504], [20.67419172965325, 77.21470998252897], [20.635971986031834, 77.23643651923823], [15.875271692327138, 69.11758068413772], [14.39687623581468, 69.81792580403695], [4.190930468501393, 75.79196345219076], [7.629852863650559, 81.60081668602359], [7.625865109943784, 81.60353695787123]]]}, "properties": {"id": 13, "height_median_m": 12.0, "building_count": 5, "area_m2": 306.0629647409174}}, {"type": "Feature", "geometry": {"type": "Polygon", "coordinates": [[[97.19499412952287, -2.126273062128608], [99.19901682210644, -2.8098015485368437], [99.19901682210644, 0.2915195277319888], [103.6598850608939, -1.5030760948577382], [108.40284117948676, 9.97305025496049], [108.40284117948676, 10.535766529335985], [116.85074452956512, 7.087942482432479], [111.99524971967485, -4.366773472385551], [112.0463396906957, -4.390007707370696], [111.9164820007822, -4.700049112615188], [110.59351709055613, -8.042526983522665], [109.60317414085456, -10.294423034470988], [127.39076983725916, -17.925821049681936], [129.1306140443708, -10.112418746226188], [129.85573317421466, -6.710801025489941], [129.92676322578825, -6.374317645806414], [129.92966476696623, -6.374977414134262], [132.18234804068473, 3.869571840935599], [139.570483593418, 2.1196189940009473], [140.50029946779293, 1.9434301380037458], [135.69632770984478, -21.12974911572093], [136.9365865180011, -21.48227016786948], [133.35900197586838, -30.082029745081126], [132.79779324921242, -31.46447915155631], [132.79779324921242, -32.14077476885422], [105.18930574531134, -20.80906154642507], [103.59616637681918, -20.11241393789568], [104.76694239694295, -17.339315346104907], [93.42397103176904, -12.787738349778621], [92.93297063861242, -12.508622452666762], [93.54765351398187, -11.110922857994746], [97.19499412952287, -2.126273062128608]]]}, "properties": {"id": 14, "height_median_m": 12.0, "building_count": 6, "area_m2": 853.8311668209667}}, {"type": "Feature", "geometry": {"type": "Polygon", "coordinates": [[[23.576718335882862, 99.16456898435179], [24.162729059917453, 100.16394644875444], [18.97227401396958, 103.05886028138649], [23.54494843077971, 110.79660731396442], [31.279046360420992, 106.12179052530611], [31.665958804540928, 106.78162755767495], [34.657734475374674, 105.080911705778], [34.16687253051962, 104.41122243863617], [41.08207196631372, 100.42913015231004], [41.08393552161448, 100.43195512172598], [41.36905948378125, 100.26386944071525], [46.342557645965215, 97.39989872641067], [50.10595972068936, 103.51234857796284], [44.92527708390585, 106.51294517459162], [49.38898662312298, 114.24614690230126], [57.150243309782084, 109.66661022533054], [60.550167906694135, 114.49844447159826], [60.264211972433344, 114.76701453868101], [62.78988844798487, 117.13913212419243], [63.29311749500373, 117.59684003381835], [63.879030497310715, 118.04093372739212], [65.68200811866267, 119.71808752396956], [68.17417858727836, 122.03633768617784], [69.2507732187744, 123.03780035116343], [76.30934880390566, 129.6616824386472], [76.31843167675643, 129.63703192406692], [78.32586943062482, 131.522419243263], [78.7642047475605, 131.02406381567127], [80.115278092292, 129.38558670575745], [80.83982394447524, 129.22083550078705], [80.96294264718186, 129.08085847552513], [81.4427823803066, 128.86264130131383], [82.45294024353987, 127.84177361888884], [82.63543307699439, 126.38940591522106], [86.26760816938427, 122.00179160996707], [86.45424383584874, 122.18630569784257], [90.45312562857887, 117.36432574934248], [90.48585192291576, 117.39409168562045], [90.71230137314829, 117.10598551018039], [90.9332494752879, 116.85478356120872], [90.9195430173277, 116.84231696324807], [96.59203561721682, 109.62534140208898], [96.67333548953664, 109.68696276978581], [96.88042167797383, 109.42536059251024], [98.52607405530341, 107.554373332524], [98.76629148132886, 107.33588551554847], [98.73029752301863, 107.29496299849049], [103.55247620392555, 102.26004430745228], [103.55603599145512, 102.26409152739531], [103.81791253444132, 101.98289772491572], [106.83889727765347, 98.8286362270653], [107.7157064989924, 97.88423456694167], [108.02415012335575, 97.65044923065147], [107.90449048032238, 97.5397154772678], [110.76387047389517, 94.75322339353946], [120.42041646892662, 84.6706596524321], [120.85240418951531, 85.0822806342025], [120.85240418951531, 84.6153345385463], [121.37728457091376, 84.6153345385463], [120.9412745202515, 84.20000846209628], [126.20470019823512, 78.65373902310489], [126.24147192349058, 78.68951183622701], [126.53135964416535, 78.39870481604876], [126.53135964416535, 78.27475709717231], [136.0754664216988, 67.42380069386552], [136.27324816990918, 67.61315941953136], [143.42089900090002, 60.377359419607274], [143.4268231334657, 60.38303125840666], [143.6659444756754, 60.12929189528541], [143.91289110792962, 59.87929976725657], [143.89427369030346, 59.86147521818276], [150.9124902709473, 52.558476177108545], [152.1838646950908, 51.22420503409094], [154.6812385424812, 48.68908652616555], [154.69572627742724, 48.70295726525481], [154.93032591461153, 48.436234512103674], [156.63714505717383, 46.703618947753], [156.6704461856835, 46.678378304366234], [156.62888056993822, 46.63584692606236], [160.30831177680116, 42.76634426840692], [161.70598924922245, 41.40429472535407], [162.62807101412875, 39.89002581633127], [163.13469818641659, 38.50762987637212], [163.53909409235152, 37.01338133633922], [163.64039614992868, 35.63130432664829], [163.64039614992868, 34.13617220983681], [163.33670397040356, 32.63997639661088], [162.93286719385895, 31.262577120644522], [162.31969674952188, 29.984504953983492], [161.41040795998327, 28.720977328455106], [160.5063166880913, 27.693091199275273], [159.3821443088979, 26.647371079504715], [158.0730252201985, 25.960429534333283], [157.05645907548862, 25.38254858756887], [155.63811351938685, 25.03700089253076], [154.22650506169913, 24.693094538573597], [152.69924629188702, 24.693094538573597], [151.52428999074502, 24.80441453868803], [151.29623248385516, 24.80441453868803], [150.0743599034222, 25.15170963936626], [149.25046435008335, 25.385886994319534], [148.62630031430936, 25.74070158863331], [147.40801371045418, 26.433253292700766], [117.31617799563351, 57.405690797798485], [113.87674122223886, 54.27737890354264], [111.86371466701883, 52.64261817033232], [108.23916274449843, 46.302845316157146], [110.42976473724087, 44.8311534861398], [109.62641762319811, 43.76558159256102], [109.34559943871419, 43.33988841190414], [105.01832227535586, 35.63933200184687], [105.02393724960305, 35.63614009284049], [104.84612973164215, 35.33290873700807], [104.67539325609313, 35.02907660155983], [104.66982576232957, 35.03224151963505], [102.88624264304309, 31.99053477009274], [101.90832910014676, 30.322809732731432], [98.87388751165851, 24.980967533528805], [94.65783528188463, 17.6237399324121], [94.36521305054406, 17.18015295951285], [91.82779351156296, 12.630947857232586], [91.5279750843103, 12.062828220616304], [91.2269677125194, 11.606530186995299], [90.7464879580561, 10.841751356582405], [89.86855166057214, 9.178168318827707], [83.81582341724402, -1.373484213304969], [73.13083572975093, 4.8151476593218865], [65.4948319645625, 9.378543234909905], [62.5483084633969, 11.053534870990985], [62.07182265812034, 11.378572728692605], [61.595336852428325, 11.59526463373368], [60.785874012228454, 12.055414870824608], [60.30938820649788, 12.38045272860499], [59.827721932925165, 12.59950056051782], [58.5382922939126, 13.388878646027008], [50.512231776112536, 18.173964809063072], [41.41684910556973, 23.511146577170834], [40.216291105488615, 24.11778980976258], [43.13976175965124, 29.222156808279912], [46.27251193695602, 34.89863129322528], [50.67925948467375, 42.692201048434455], [55.18357193578966, 50.70779857291155], [59.4864620966491, 58.2532003470842], [61.05450442314505, 61.056214798672094], [61.21214860185915, 61.41467476717329], [61.226809047842806, 61.40467404962261], [65.95499203110123, 69.3000876308182], [66.45240719125142, 70.20492750146725], [66.94197231646638, 70.8728475017584], [67.58491014354979, 72.0424053015607], [68.76886767019502, 71.43055360183733], [69.07953063129955, 71.66602108794484], [73.57235287387932, 68.8403119550085], [75.64611627896738, 72.52424697809649], [76.13875016656282, 73.42038931359058], [77.70605697865132, 75.9818907495434], [79.75869887051452, 79.64914113024554], [82.81203794826106, 85.1362319855967], [83.12286779665327, 85.48962295243984], [88.90751265170455, 82.20126236660543], [88.50377139165076, 81.43622153822608], [86.70800520521927, 77.69318597298403], [93.41195841840504, 73.53578159512242], [97.22841390033588, 78.95957255616256], [95.90325437960716, 80.3908522028762], [96.14693134292186, 80.71494557680022], [85.54131712572497, 91.05021410904187], [85.68720324212853, 91.19900200919356], [75.55796126384529, 101.63556971337002], [77.37840513913837, 103.44656815348802], [81.08479875389249, 107.13373101848019], [74.40430987860009, 114.39873437037558], [65.07249976159633, 104.87984942181882], [67.91047610104592, 103.07897145113155], [63.437020407631586, 95.69217020080345], [58.10504524904645, 99.01187443317833], [54.25238828659823, 92.75445840092388], [59.68715048294823, 89.62588625103197], [55.223047665486135, 81.89200318418573], [49.933668487128394, 85.01018691969503], [49.345886536717046, 84.00778882260943], [41.595824057356296, 88.59447122700574], [42.1562098929635, 89.55014823475645], [36.9995209911271, 92.64746642038327], [32.114036540191535, 95.52387340991986], [31.650368875879675, 94.57499176842714], [23.576718335882862, 99.16456898435179]]]}, "properties": {"id": 15, "height_median_m": 8.0, "building_count": 44, "area_m2": 6745.014331068828}}, {"type": "Feature", "geometry": {"type": "Polygon", "coordinates": [[[33.09724833574625, 113.06171517512021], [25.439180189462622, 117.53597482443075], [28.400339668954132, 122.5859097992207], [27.415415380606667, 123.36976097895851], [31.29572231092318, 129.63891546194867], [32.13459823110775, 131.1376513349003], [33.12371272966641, 130.68783078909098], [35.99655712753717, 135.42911132691498], [38.96315590297705, 140.48832242929265], [37.98671288287616, 141.1544093174935], [42.538047233145974, 149.09672143289902], [43.610723130807656, 148.4315098286432], [46.44351956397194, 153.54018076899035], [54.306968279285364, 149.07009565917878], [54.15424248674874, 148.81341319637176], [49.78863390668163, 141.47624281164886], [50.27108316193222, 141.14713694841342], [48.5570681712707, 138.08487745154278], [48.05829639256589, 138.42511782916105], [43.649190477957504, 131.0658519536966], [42.57225453446082, 129.173600544337], [39.24096910155502, 123.59766244746051], [39.92355532131494, 123.26506917512555], [38.20573947937468, 120.33552135400079], [37.42615040877637, 120.66789741663251], [33.09724833574625, 113.06171517512021]]]}, "properties": {"id": 16, "height_median_m": 12.0, "building_count": 2, "area_m2": 396.21664701601605}}, {"type": "Feature", "geometry": {"type": "Polygon", "coordinates": [[[56.98455743290461, 153.57025353638562], [52.95879845364893, 164.34834005978408], [54.13160646868494, 164.57057298546457], [52.00244044399742, 170.18221233498517], [60.400928701558456, 173.4456139291788], [63.34481458062307, 164.85502041120466], [63.97031727973738, 165.05820645413687], [64.31879214008666, 164.46392053493673], [64.53980420380312, 163.96137119720981], [64.63964966071508, 163.39378602463466], [65.23764173104546, 161.762089471513], [64.64530164969165, 161.53760691752393], [67.37171711559209, 153.73482214092996], [70.37207636925615, 145.42004501949145], [71.04472821077283, 145.747797720375], [72.4023947863791, 142.3800123048324], [71.70638477469207, 142.15392292013857], [74.7357706718077, 133.93230378563658], [66.75017527628097, 130.90595641005373], [64.42686309360066, 136.53336621403454], [63.43079377162799, 135.9671369680647], [60.12213103992263, 144.82535559990194], [61.20485303790603, 145.16107640786666], [57.75681356177864, 154.86816531529925], [56.98455743290461, 153.57025353638562]]]}, "properties": {"id": 17, "height_median_m": 12.0, "building_count": 2, "area_m2": 395.7419146155771}}, {"type": "Feature", "geometry": {"type": "Polygon", "coordinates": [[[16.07085852770227, 52.6694577830731], [16.07085852770227, 53.190782588730244], [22.500622081803265, 64.15604402734198], [22.403152102070976, 64.21245959296151], [34.31322150307638, 84.52378576151676], [51.16941598925512, 74.47986154563553], [40.906096756183594, 57.146820208944455], [37.77288731341529, 51.914792499169785], [34.34625495967885, 46.12669897974777], [21.56859675675669, 24.613032572713998], [21.56859675675669, 24.394177782684313], [21.159052944840123, 24.161366994622007], [20.67989321279154, 24.02517453867798], [20.131245042754905, 24.02517453867798], [16.643776959084676, 48.721447699576295], [18.3305182736401, 51.3849232548747], [16.07085852770227, 52.6694577830731]]]}, "properties": {"id": 18, "height_median_m": 12.0, "building_count": 1, "area_m2": 935.9315085178447}}, {"type": "Feature", "geometry": {"type": "Polygon", "coordinates": [[[149.19085490283314, -21.695265461186146], [149.3066018211798, -21.695265461186146], [150.7904258058417, -15.50959831948897], [156.53592370473683, -16.727468712788077], [156.7325530513516, -15.386148975949151], [156.73733891408747, -15.387237211632154], [156.9331649641334, -14.162717211375226], [159.14114142724358, -14.66477899470292], [159.61271275998826, -8.76721298379705], [159.9298837805682, -5.521809203038495], [158.6097284785574, -5.307391957316494], [158.7301360716192, -3.66465567336461], [158.7301360716192, -2.6418170433169004], [161.01881300050434, -2.7549500645728906], [161.31917599619322, 0.09080757412369468], [162.15473083144136, -0.0991854615291401], [163.2015208355256, -0.0991854615291401], [167.5096939390172, -0.3218254613625162], [168.36220701881078, -0.3218254613625162], [167.63215789073644, -12.297725144910094], [167.40803683188727, -12.276491030710256], [164.33503455040733, -25.586130884671643], [162.62647762538987, -25.169879778062732], [159.1521072954617, -24.460886251801362], [159.12564555896606, -24.581226543672607], [158.34300047358894, -27.25065844504688], [153.42250047806272, -26.06039222924147], [152.35314426365375, -25.83934125279991], [148.59085209490144, -25.106063593340167], [148.748300408114, -24.21102709285423], [149.0420394832341, -22.541227093165624], [149.19085490283314, -21.695265461186146]]]}, "properties": {"id": 19, "height_median_m": 6.0, "building_count": 7, "area_m2": 287.0293804649233}}]}