{"type": "FeatureCollection", "crs": {"type": "name", "properties": {"name": "EPSG:32628_local_enu_m_section_centroid", "lng0": -15.467646866617901, "lat0": 28.105755872551416}}, "features": [{"type": "Feature", "geometry": {"type": "Polygon", "coordinates": [[[-373.8342093420733, 355.6532124234975], [-352.75716000429793, 406.9717324236508], [-372.3247389727593, 406.9717324236508], [-425.7783565242879, 360.77393242362007], [-419.3958053583012, 348.0834524236259], [-403.78310327518267, 320.81005242366973], [-373.8342093420733, 355.6532124234975]]]}, "properties": {"name": "", "kind": "park", "category": "parque", "extrude": false}}, {"type": "Feature", "geometry": {"type": "Polygon", "coordinates": [[[-442.9621481252495, 280.40089242365707], [-449.0501200066951, 294.76117242378575], [-472.71465586843226, 334.0571324238405], [-516.3129400886406, 406.9717324236508], [-525.3582629848005, 406.9717324236508], [-571.5951023949657, 347.6381724235637], [-572.3806471538, 343.85329242362786], [-601.9367687074051, 345.1891324238146], [-642.9814823598559, 323.81569242359546], [-661.9900209606496, 311.5171333489724], [-662.0370010165403, 311.15807977664804], [-569.1402750233251, 292.3121324236412], [-557.0625243552226, 277.61789242356474], [-550.974552473777, 251.79165242351417], [-558.2408414935612, 250.45581242372293], [-563.3468824264204, 248.7860124235884], [-551.1709386635291, 240.77097242365454], [-498.04847434297585, 247.78413242374498], [-486.2653029595889, 254.46333242349212], [-479.7845586986389, 259.02745242383344], [-442.9621481252495, 280.40089242365707]]]}, "properties": {"name": "", "kind": "park", "category": "parque", "extrude": false}}, {"type": "Feature", "geometry": {"type": "Polygon", "coordinates": [[[-347.32207372919106, 321.47797242356535], [-372.4595060139824, 345.1891324238146], [-387.7776288125598, 326.48737242357345], [-388.8577528561096, 322.5911724235232], [-388.8577528561096, 319.02893242381623], [-388.7595597611463, 315.91197242377604], [-378.44928480063913, 300.6611324235229], [-347.32207372919106, 321.47797242356535]]]}, "properties": {"name": "", "kind": "pitch", "category": "parque", "extrude": false}}, {"type": "Feature", "geometry": {"type": "Polygon", "coordinates": [[[-437.56152790784927, 284.51973242354075], [-420.3777363068877, 294.98381242361916], [-410.06746134638047, 318.47233242363956], [-410.85300610521483, 320.92137242378413], [-413.5042196664333, 322.25721242357537], [-416.25362632261505, 322.25721242357537], [-442.3729895559929, 294.98381242361916], [-443.3549205047538, 292.42345242375563], [-437.56152790784927, 284.51973242354075]]]}, "properties": {"name": "", "kind": "park", "category": "parque", "extrude": false}}, {"type": "Feature", "geometry": {"type": "Polygon", "coordinates": [[[-304.50988436931925, 290.6423324235067], [-324.5412757212515, 321.1440124236175], [-340.0557847094067, 311.1252124236013], [-319.2388485986402, 280.95749242383374], [-304.50988436931925, 290.6423324235067]]]}, "properties": {"name": "", "kind": "pitch", "category": "parque", "extrude": false}}, {"type": "Feature", "geometry": {"type": "Polygon", "coordinates": [[[-320.80993811648324, 279.1763724235848], [-340.84132946841544, 309.78937242381005], [-356.2576453617817, 299.65925242367945], [-335.4407092508408, 269.49153242351645], [-320.80993811648324, 279.1763724235848]]]}, "properties": {"name": "", "kind": "pitch", "category": "parque", "extrude": false}}, {"type": "Feature", "geometry": {"type": "Polygon", "coordinates": [[[-335.637095440593, 269.04625242384964], [-355.6684867925252, 299.65925242367945], [-371.1829957808548, 289.52913242354884], [-350.36605967008825, 259.3614124237813], [-335.637095440593, 269.04625242384964]]]}, "properties": {"name": "", "kind": "pitch", "category": "parque", "extrude": false}}, {"type": "Feature", "geometry": {"type": "Polygon", "coordinates": [[[-283.0055965945073, 260.36329242362467], [-303.0369879462651, 290.86497242373554], [-318.45330383980587, 280.73485242360493], [-297.6363677288649, 250.56713242383736], [-283.0055965945073, 260.36329242362467]]]}, "properties": {"name": "", "kind": "pitch", "category": "parque", "extrude": false}}, {"type": "Feature", "geometry": {"type": "Polygon", "coordinates": [[[-299.9930020055423, 249.00865242381727], [-320.0243933574745, 279.62165242364705], [-335.4407092508408, 269.49153242351645], [-314.62377314007426, 239.32381242374888], [-299.9930020055423, 249.00865242381727]]]}, "properties": {"name": "", "kind": "pitch", "category": "parque", "extrude": false}}, {"type": "Feature", "geometry": {"type": "Polygon", "coordinates": [[[-315.01654551957864, 238.21061242379102], [-335.04793687151084, 268.82361242362083], [-350.56244585966607, 258.69349242349017], [-329.7455097488995, 228.52577242372263], [-315.01654551957864, 238.21061242379102]]]}, "properties": {"name": "", "kind": "pitch", "category": "parque", "extrude": false}}, {"type": "Feature", "geometry": {"type": "Polygon", "coordinates": [[[-377.36916075708933, 151.93761242369547], [-327.38887547222214, 182.66193242363968], [-396.12404187589397, 297.3215324236493], [-447.28264429909984, 266.81985242353846], [-377.36916075708933, 151.93761242369547]]]}, "properties": {"name": "", "kind": "park", "category": "parque", "extrude": false}}, {"type": "Feature", "geometry": {"type": "Polygon", "coordinates": [[[-277.99774875643703, 206.92969242367013], [-289.19176157074185, 223.51637242371453], [-296.75262987506727, 218.395652423592], [-285.55861706076246, 201.92029242366203], [-277.99774875643703, 206.92969242367013]]]}, "properties": {"name": "", "kind": "pitch", "category": "parque", "extrude": false}}, {"type": "Feature", "geometry": {"type": "Polygon", "coordinates": [[[-286.7369341992756, 200.5844524234753], [-297.8327539186171, 217.1711324235197], [-305.3936222231169, 212.05041242379266], [-294.297802503601, 195.46373242374827], [-286.7369341992756, 200.5844524234753]]]}, "properties": {"name": "", "kind": "pitch", "category": "parque", "extrude": false}}, {"type": "Feature", "geometry": {"type": "Polygon", "coordinates": [[[-321.3990966855654, 179.76761242382835], [-403.78310327518267, 320.81005242366973], [-416.74459179690825, 291.42157242351675], [-573.3625781023865, 195.79769242369608], [-498.34305362751684, 72.12117242351368], [-321.3990966855654, 179.76761242382835]]]}, "properties": {"name": "Lomo Los Frailes", "kind": "park", "category": "parque", "extrude": false}}, {"type": "Feature", "geometry": {"type": "Polygon", "coordinates": [[[-448.26457524786076, 140.8056124237214], [-404.17587565451265, 167.63373242361538], [-446.10432716076116, 236.65213242377092], [-490.19302675393493, 209.82401242348146], [-448.26457524786076, 140.8056124237214]]]}, "properties": {"name": "Parque David Bramwell Y Zoë Bramwell, Biólogos", "kind": "park", "category": "parque", "extrude": false}}, {"type": "Feature", "geometry": {"type": "Polygon", "coordinates": [[[-130.80629955766835, 389.16053242353416], [-115.01645515778337, 406.9717324236508], [-142.71554602595722, 406.9717324236508], [-130.80629955766835, 389.16053242353416]]]}, "properties": {"name": "Parque Lomo los Frailes", "kind": "park", "category": "parque", "extrude": false}}, {"type": "Feature", "geometry": {"type": "Polygon", "coordinates": [[[-256.78804026616615, 223.0710924236523], [-267.98205308047096, 239.54645242358225], [-275.5429213847964, 234.4257324238552], [-264.3489085704916, 217.95037242352976], [-256.78804026616615, 223.0710924236523]]]}, "properties": {"name": "", "kind": "pitch", "category": "parque", "extrude": false}}, {"type": "Feature", "geometry": {"type": "Polygon", "coordinates": [[[-267.0983152266733, 214.944732423604], [-278.29232804097813, 231.5314124236484], [-285.85319634547795, 226.41069242352586], [-274.65918353117314, 209.9353324235959], [-267.0983152266733, 214.944732423604]]]}, "properties": {"name": "", "kind": "pitch", "category": "parque", "extrude": false}}, {"type": "Feature", "geometry": {"type": "Polygon", "coordinates": [[[-244.02293793401833, 204.48065242352556], [-255.21695074832311, 221.06733242356995], [-262.77781905282296, 215.9466124238429], [-251.58380623851815, 199.3599324237985], [-244.02293793401833, 204.48065242352556]]]}, "properties": {"name": "", "kind": "pitch", "category": "parque", "extrude": false}}, {"type": "Feature", "geometry": {"type": "Polygon", "coordinates": [[[-254.33321289452547, 197.02221242376837], [-265.5272257090047, 213.60889242381276], [-273.0880940133301, 208.48817242369023], [-261.8940811990253, 191.90149242364583], [-254.33321289452547, 197.02221242376837]]]}, "properties": {"name": "", "kind": "pitch", "category": "parque", "extrude": false}}, {"type": "Feature", "geometry": {"type": "Polygon", "coordinates": [[[-265.82180499354575, 189.22981242366788], [-276.91762471288723, 205.81649242371228], [-284.4784930173871, 200.69577242358974], [-273.3826732978712, 184.10909242354535], [-265.82180499354575, 189.22981242366788]]]}, "properties": {"name": "", "kind": "pitch", "category": "parque", "extrude": false}}, {"type": "Feature", "geometry": {"type": "Polygon", "coordinates": [[[-275.15014900546646, 183.6638124234831], [-286.3441618197712, 200.2504924235275], [-293.90503012409664, 195.12977242380046], [-282.7110173097919, 178.54309242375606], [-275.15014900546646, 183.6638124234831]]]}, "properties": {"name": "", "kind": "pitch", "category": "parque", "extrude": false}}, {"type": "Feature", "geometry": {"type": "Polygon", "coordinates": [[[55.956966870497055, -19.71782757637115], [-19.35713688891368, 84.14373242361222], [-45.18192083775047, 38.0572524236959], [55.956966870497055, -19.71782757637115]]]}, "properties": {"name": "", "kind": "park", "category": "parque", "extrude": false}}, {"type": "Feature", "geometry": {"type": "Polygon", "coordinates": [[[575.9875972615512, -52.22326757616884], [573.4345767951215, -53.11382757629332], [571.5689079927374, -56.342107576447944], [572.158066561994, -60.79490757627937], [583.941237945381, -73.24102660070196], [583.941237945381, -66.78070468449079], [575.9875972615512, -52.22326757616884]]]}, "properties": {"name": "", "kind": "scrub", "category": "parque", "extrude": false}}, {"type": "Feature", "geometry": {"type": "Polygon", "coordinates": [[[579.4243555817784, -86.62114757632992], [574.7110870284235, -109.1077875765069], [574.9074732180013, -129.1453875761438], [580.1117072458238, -137.82834757636877], [583.941237945381, -143.92489395939606], [583.941237945381, -91.74186757645245], [579.4243555817784, -86.62114757632992]]]}, "properties": {"name": "Parque de Nuestros Mayores", "kind": "park", "category": "parque", "extrude": false}}]}