{"type": "FeatureCollection", "crs": {"type": "name", "properties": {"name": "wgs84_and_EPSG:32628_local_enu_m_section_centroid", "lng0": -15.467646866617901, "lat0": 28.105755872551416}}, "features": [{"type": "Feature", "geometry": {"type": "Polygon", "coordinates": [[[-15.464, 28.106], [-15.4647, 28.1059], [-15.4648, 28.1058], [-15.4649, 28.1056], [-15.4653, 28.1054], [-15.4657, 28.1051], [-15.4659, 28.105], [-15.4663, 28.1047], [-15.4667, 28.1042], [-15.4671, 28.1037], [-15.4675, 28.104], [-15.4681, 28.1045], [-15.4685, 28.1046], [-15.4687, 28.1045], [-15.4689, 28.1045], [-15.4691, 28.1044], [-15.4694, 28.1044], [-15.4697, 28.1044], [-15.47, 28.1044], [-15.4703, 28.1043], [-15.4706, 28.1043], [-15.4708, 28.1042], [-15.471, 28.104], [-15.4716, 28.1031], [-15.4723, 28.1034], [-15.4734, 28.1041], [-15.4727, 28.1051], [-15.4724, 28.1053], [-15.4722, 28.1052], [-15.4719, 28.1051], [-15.4716, 28.105], [-15.4715, 28.1049], [-15.4713, 28.1049], [-15.471, 28.1051], [-15.4707, 28.1053], [-15.4706, 28.1054], [-15.4703, 28.1055], [-15.4702, 28.1054], [-15.4701, 28.1053], [-15.47, 28.1052], [-15.4699, 28.1051], [-15.4696, 28.1052], [-15.4695, 28.1054], [-15.4694, 28.1056], [-15.4694, 28.1057], [-15.4693, 28.1061], [-15.4691, 28.1066], [-15.469, 28.1067], [-15.4688, 28.1067], [-15.4687, 28.1068], [-15.4685, 28.1067], [-15.4683, 28.1066], [-15.4681, 28.1065], [-15.4678, 28.1064], [-15.4677, 28.1066], [-15.4677, 28.1069], [-15.4676, 28.1071], [-15.4674, 28.1073], [-15.4673, 28.1077], [-15.4673, 28.1078], [-15.4665, 28.1085], [-15.4663, 28.1081], [-15.4657, 28.1078], [-15.4654, 28.1078], [-15.4648, 28.1077], [-15.4644, 28.1076], [-15.4641, 28.1076], [-15.4637, 28.1076], [-15.4635, 28.1075], [-15.4633, 28.1075], [-15.463, 28.1075], [-15.4629, 28.1073], [-15.4628, 28.1072], [-15.4627, 28.107], [-15.4628, 28.1067], [-15.463, 28.1065], [-15.4633, 28.1064], [-15.4634, 28.1064], [-15.4636, 28.1063], [-15.4638, 28.1061], [-15.464, 28.106]]]}, "properties": {"cusec": "3501605005", "mun": "016", "nmun": "Palmas de Gran Canaria, Las", "area_m2": 224137.18833826247, "perimeter_m": 2903.6462833514493, "coords_system": "wgs84"}}, {"type": "Feature", "geometry": {"type": "Polygon", "coordinates": [[[358.0971197619376, -27.176267576523827], [289.3619533582658, -16.044267576154283], [279.5426438720519, -4.912267576180227], [269.723334385838, 17.351732423767885], [230.44609644098233, 39.615732423716], [191.16885849595224, 73.01173242363816], [171.5302395235244, 84.14373242361222], [132.2530015784943, 117.53973242353439], [92.97576363363864, 173.19973242380016], [53.698525688608555, 228.85973242367044], [14.421287743752892, 195.46373242374827], [-44.494569173705024, 139.8037324234825], [-83.77180711873511, 128.67173242350844], [-103.41042609116295, 139.8037324234825], [-123.04904506359075, 139.8037324234825], [-142.6876640360186, 150.93573242385204], [-172.14559249483477, 150.93573242385204], [-201.6035209534765, 150.93573242385204], [-231.0614494122927, 150.93573242385204], [-260.5193778709344, 162.0677324238261], [-289.97730632957615, 162.0677324238261], [-309.6159253021784, 173.19973242380016], [-329.25454427460625, 195.46373242374827], [-388.1704011920642, 295.6517324235148], [-456.905567595736, 262.2557324235926], [-564.9179719442635, 184.3317324237742], [-496.18280554059174, 73.01173242363816], [-466.72487708194996, 50.74773242369005], [-447.0862581095221, 61.87973242366411], [-417.6283296507059, 73.01173242363816], [-388.1704011920642, 84.14373242361222], [-378.35109170585025, 95.27573242358628], [-358.712472733248, 95.27573242358628], [-329.25454427460625, 73.01173242363816], [-299.79661581596457, 50.74773242369005], [-289.97730632957615, 39.615732423716], [-260.5193778709344, 28.48373242374194], [-250.7000683847205, 39.615732423716], [-240.88075889850663, 50.74773242369005], [-231.0614494122927, 61.87973242366411], [-221.24213992607878, 73.01173242363816], [-191.7842114672626, 61.87973242366411], [-181.96490198104868, 39.615732423716], [-172.14559249483477, 17.351732423767885], [-172.14559249483477, 6.219732423793829], [-162.32628300862086, -38.30826757649788], [-142.6876640360186, -93.96826757636816], [-132.8683545498047, -105.10026757634222], [-113.22973557737687, -105.10026757634222], [-103.41042609116295, -116.23226757631627], [-83.77180711873511, -105.10026757634222], [-64.13318814613285, -93.96826757636816], [-44.494569173705024, -82.8362675763941], [-15.03664071506328, -71.70426757642005], [-5.217331228849364, -93.96826757636816], [-5.217331228849364, -127.36426757629033], [4.601978257538977, -149.62826757623844], [24.240597229966806, -171.89226757618655], [34.05990671618072, -216.42026757647827], [34.05990671618072, -227.55226757645232], [112.61438260606647, -305.47626757627074], [132.2530015784943, -260.9482675763745], [191.16885849595224, -227.55226757645232], [220.62678695459394, -227.55226757645232], [279.5426438720519, -216.42026757647827], [318.819881817082, -205.2882675765042], [348.2778102757237, -205.2882675765042], [387.5550482207538, -205.2882675765042], [407.1936671931816, -194.15626757653015], [426.83228616560945, -194.15626757653015], [456.2902146244257, -194.15626757653015], [466.10952411063954, -171.89226757618655], [475.92883359685345, -160.7602675762125], [485.74814308306736, -138.4962675762644], [475.92883359685345, -105.10026757634222], [456.2902146244257, -82.8362675763941], [426.83228616560945, -71.70426757642005], [417.01297667939554, -71.70426757642005], [397.3743577069677, -60.572267576445995], [377.73573873436544, -38.30826757649788], [358.0971197619376, -27.176267576523827]]]}, "properties": {"cusec": "3501605005", "mun": "016", "nmun": "Palmas de Gran Canaria, Las", "area_m2": 224137.18833826247, "perimeter_m": 2903.6462833514493, "coords_system": "local_m_enu"}}]}