{"type": "FeatureCollection", "crs": {"type": "name", "properties": {"name": "EPSG:32628_local_enu_m_section_centroid", "lng0": -16.287995591933598, "lat0": 28.469649865338972}}, "features": [{"type": "Feature", "geometry": {"type": "Polygon", "coordinates": [[[-163.93908673406483, -94.4213352547626], [-163.93851619273127, -94.41419594107496], [-166.51938856969855, -94.30127620647792], [-164.04946583745652, -80.36984439079576], [-148.14058535102257, -80.4858533921302], [-148.14058535102257, -82.1531104655119], [-146.7227209745637, -82.1531104655119], [-143.68912161010127, -82.26443046562633], [-143.14982510633004, -82.26443046562633], [-143.14982510633004, -84.15221021793573], [-135.72760745305982, -84.05403273314371], [-135.72760745305982, -80.14553803822255], [-124.75251283132728, -80.26444181278858], [-124.75251283132728, -80.82111463645444], [-124.7408417536554, -80.82124353570784], [-124.74440271358932, -80.92859046543961], [-117.50933538265909, -80.92859046543961], [-117.50890934511618, -80.91986683933153], [-117.17148761119113, -80.92859046543961], [-116.80850110430606, -80.92859046543961], [-116.80895884265026, -80.93796320321019], [-112.8630802092987, -81.03997906764437], [-105.52601340085717, -81.15126438727052], [-96.8193014149955, -81.26255046578291], [-90.98934124409679, -81.26255046578291], [-90.98883359015689, -81.25244439173278], [-90.65124371964706, -81.26255046578291], [-90.28672382901698, -81.26255046578291], [-90.287322383844, -81.27344479730569], [-86.93263804706969, -81.37387046550185], [-81.94970065733602, -81.37387046550185], [-74.76204603147534, -81.26768302785595], [-74.76204603147534, -81.26255046578291], [-74.41463126806508, -81.26255046578291], [-70.03268817872882, -81.19781345033248], [-70.0274043474441, -81.15123046566848], [-69.7174120148709, -81.15123046566848], [-59.49156696429107, -81.00209488404701], [-59.49041814492582, -80.93413826596223], [-59.155666852620335, -80.92869824105651], [-58.78999175544019, -80.91483225375953], [-58.790125739171565, -80.92275785245478], [-52.106475827968865, -80.81414222403505], [-51.162029464390685, -82.29140128881077], [-51.26667241898558, -90.98119606439724], [-50.43216814034933, -91.11963620674878], [-50.62592124288613, -92.44207805262461], [-50.615654611949886, -92.44337571618095], [-50.811370700153425, -93.55657571597887], [-49.95755239862218, -93.66449513926219], [-50.31876863910993, -97.3626615062372], [-51.29866110703311, -97.25119225431783], [-51.58840096110249, -100.1077104654519], [-55.75756076757753, -100.1077104654519], [-56.58966776018517, -107.04927338621891], [-67.36851543006802, -105.7397765257357], [-67.28476503064557, -105.11098382803263], [-75.09679365511478, -104.18252269083861], [-74.99391296093837, -103.36328751053003], [-82.2821217288614, -102.0678469305618], [-82.2821217288614, -102.27791473371693], [-86.02697072612374, -101.72823556999194], [-85.83073110841427, -96.37058238394319], [-95.21208483836222, -95.7334533928247], [-95.43005837269689, -98.02707708273913], [-98.27012742775084, -97.73337103992758], [-98.00674975036164, -93.86568431786866], [-105.55886109048643, -93.55886194802812], [-106.06180901123928, -105.00159270057226], [-106.16928606759478, -109.52529644265336], [-112.44670345711464, -108.39777365825547], [-112.33953493336453, -104.98425763297074], [-112.33953493336453, -94.4306176159614], [-117.04416622022686, -98.89047543059621], [-119.58124940413866, -98.75928906718282], [-119.78240205024372, -98.18722795626849], [-126.05178938279452, -97.86305327801205], [-125.99652557562493, -96.32283046551609], [-140.89909009409953, -96.32283046551609], [-140.89909009409953, -96.97312040193479], [-143.7519670622142, -97.12063568920878], [-143.7519670622142, -96.7963081103451], [-148.05772099879124, -97.1302681102929], [-148.05772099879124, -94.8057204538702], [-154.3663029906356, -94.65303046577705], [-154.71206799206226, -94.65303046577705], [-154.71206799206226, -94.64466173029592], [-163.2382106845915, -94.43829893309587], [-163.23873128397042, -94.4448133117274], [-163.57260901826632, -94.430205311161], [-163.93908673406483, -94.4213352547626]]]}, "properties": {"id": 0, "height_median_m": 6.0, "building_count": 41, "area_m2": 2052.0809375912645}}, {"type": "Feature", "geometry": {"type": "Polygon", "coordinates": [[[-151.85234938157527, -2.652526608607348], [-151.48275253936873, 0.13113345151870867], [-151.48275253936873, 0.5006521886544012], [-151.43077627357133, 0.49312700519869485], [-150.45302409838993, 7.500351106444092], [-135.76662660394186, 5.631064516502925], [-137.13214714787347, -4.525585291882682], [-141.6315355857895, -3.943954376289733], [-142.8960366708642, -13.473709818980034], [-153.29572039509335, -14.429695948247142], [-151.8172737076211, -2.6568794340569224], [-151.85234938157527, -2.652526608607348]]]}, "properties": {"id": 1, "height_median_m": 6.0, "building_count": 3, "area_m2": 261.76133433288965}}, {"type": "Feature", "geometry": {"type": "Polygon", "coordinates": [[[-130.94110136271516, 30.625037264048313], [-130.95579242621145, 30.687110617814543], [-146.07698072760604, 27.133112227657357], [-144.41999434147888, 37.97146922125439], [-142.8282286425426, 40.144355786773374], [-123.65041954250405, 45.20663824437467], [-124.14455621698848, 48.31907279428818], [-140.52069386730145, 47.38762578677807], [-140.95617038966816, 47.552753573035886], [-143.08260479427196, 49.72981742393496], [-141.8782790113249, 60.91815291661357], [-139.66007375856984, 63.321348389372865], [-129.8482313035951, 64.69932616813992], [-130.01360925723202, 65.45183962649801], [-125.45973937807689, 66.95580590736657], [-118.34835352949513, 68.97822389253658], [-118.15561153554, 68.5397103505188], [-115.46211394644553, 69.3753553674598], [-104.4402580997072, 72.01495332591718], [-100.07216445440544, 73.11917455773444], [-93.91022000849654, 76.04856779080663], [-94.20539451991158, 76.49627517417152], [-85.880781342668, 80.38132063091201], [-85.68592821416557, 79.93800397843022], [-81.1672600898733, 82.0797889684604], [-80.53000283206329, 81.78982005020507], [-78.41496207322342, 80.8274205269226], [-76.90939455088649, 74.2050475162819], [-75.80166833826574, 69.73737818994017], [-77.38515404809547, 66.73517857545836], [-85.01998455015926, 63.01298220404485], [-88.93617683098275, 61.008264675835456], [-107.80264269568771, 52.08905293512903], [-106.81481835389937, 49.26057781659586], [-88.58473461515048, 53.53643894549298], [-79.39402100323662, 55.76091657341184], [-79.00231758184388, 55.872313713388856], [-72.04775974129434, 57.543708721148455], [-65.04299991590001, 59.24362931461736], [-68.68606032706579, 75.49334293885212], [-70.46512945387731, 83.13884302585903], [-70.35027628829157, 83.66145532657733], [-70.25241824473524, 84.10673532409369], [-70.14267651225593, 84.60608925314813], [-69.92924099243035, 84.97028479186866], [-69.71991064011283, 85.4465390451635], [-69.41272224353438, 85.7959861718789], [-69.18316137966052, 86.18769717928767], [-43.59021078587765, 99.56425041936363], [-40.7828290472802, 98.15907412681915], [-41.08404315435284, 89.36436571299028], [-41.27333196709628, 82.1867474088808], [-41.37780397041918, 78.22528686375203], [-41.3865678737168, 77.89296953441405], [-41.38821226726348, 77.89296953441405], [-41.9528424983921, 59.80139989192131], [-41.94702902236776, 59.80173615702137], [-41.964860001332234, 59.41634170802703], [-41.9747652940594, 59.098961795788554], [-42.01248632901747, 59.096779922578555], [-42.73754542308339, 33.17440953439334], [-42.724805914401976, 33.17440953439334], [-42.822663958170146, 31.615929534373244], [-42.35603977062584, 31.615929534373244], [-42.35603977062584, 26.495209534250712], [-42.23371517776055, 26.495209534250712], [-42.289598655034624, 25.66878454591822], [-42.28959865503462, 25.66878454591822], [-42.634486178827785, 20.56846363301288], [-42.87565321783074, 16.879475222194447], [-43.458567166877295, 8.038099406439587], [-44.14296159945559, 8.149319970995448], [-44.68298479912869, -0.24627901885070952], [-44.676211908361374, -0.24674395229648172], [-44.70557134499148, -0.5974261209465268], [-44.728079889045745, -0.9473605493919843], [-44.73482535178279, -0.9468489887123248], [-45.09698124908503, -5.272600094069294], [-45.17206386344488, -6.468360279395634], [-45.39061889510694, -9.949051613766384], [-45.41246990812034, -10.297049237360708], [-45.41340648014687, -10.29698149435984], [-45.84845387679494, -16.942717027621054], [-46.07555495141107, -20.411887726829082], [-46.098421728481306, -20.761198064226118], [-46.09891957980471, -20.761161859917895], [-46.78393055738771, -31.002671672367395], [-50.019386070516894, -30.76673931810651], [-50.84162893802742, -40.120295983855954], [-47.42546061055401, -40.93131181186416], [-48.09902039896453, -50.892156559765574], [-48.01424328870787, -50.89842905227275], [-48.03213040843296, -51.2375587559526], [-48.04471766542084, -51.59552969753386], [-48.050989159205805, -51.59511003640782], [-48.32572374344094, -56.80392283434325], [-48.82108419812996, -70.10264775722256], [-52.27292976649306, -72.7204495780704], [-62.31908074974361, -72.9381288438658], [-62.31908074974361, -73.5022304653913], [-69.08627947866731, -73.5022304653913], [-69.08627947866731, -73.1813495254331], [-69.10446096874067, -73.18201670762505], [-69.10378964065171, -73.1682704654435], [-70.87355876363684, -73.1682704654435], [-70.55343101954915, -68.67688374673365], [-70.08478118435006, -60.57345676253256], [-70.10946276945937, -60.57239054976722], [-70.06359723660673, -60.207165000790006], [-69.68009065288543, -53.57595046547335], [-69.79169818397628, -53.57595046547335], [-69.59461295952694, -50.100889472238045], [-69.60268313328898, -50.100344104517205], [-69.57477933127826, -49.751177472904075], [-69.47771165478298, -48.0396534495522], [-69.47771165478298, -46.51214524206208], [-67.32483468632063, -46.62346524178103], [-67.32483468632063, -44.94403282088715], [-62.99246466778128, -45.28005719953883], [-62.45213812203934, -37.90417082995235], [-69.00124857544992, -36.58945674665905], [-68.69484730255164, -29.61842231687533], [-68.69484730255164, -28.282582316679893], [-68.572102918571, -25.489985152560052], [-68.2055570826678, -18.81846288529417], [-68.2055570826678, -15.03294346112032], [-67.79279257692282, -7.98973939522544], [-65.39661457578943, -8.16010258415063], [-62.97760513067007, -7.01906164533444], [-62.724773169699134, -3.9991242570806946], [-62.508084795797664, 0.3145795959520465], [-67.43996625913165, 0.6618864500922603], [-67.32483468632063, 2.888372740671476], [-67.32483468632063, 3.2212425227741397], [-67.19726982480108, 6.026769619698702], [-67.03028018603193, 9.6993637094176], [-67.01570797608338, 10.019849534320748], [-67.01310999429259, 10.019849534320748], [-66.83517253218528, 13.359707541932071], [-66.676522386086, 17.330158385452453], [-66.54151144610454, 20.709003685717903], [-66.5272083982311, 21.06695827882913], [-66.52627818086758, 21.06688773324236], [-66.24839620208947, 27.59980990638669], [-66.24839620208947, 27.710233509878076], [-66.18825490263346, 29.31797913683204], [-66.05200796462313, 32.960241953787154], [-66.03983237805448, 33.28572953450777], [-66.03763431462274, 33.28572953450777], [-65.48934715647076, 45.75998795009777], [-71.20306858023983, 44.50565289836509], [-71.53711742566735, 44.42723965012727], [-71.53831181451741, 44.432056846261226], [-76.78010052152194, 43.2813253314869], [-85.24281831052332, 41.248979472984395], [-85.2420491728795, 41.24581156881519], [-85.58556499990819, 41.16666787616002], [-85.92444597573945, 41.08528464149148], [-85.92519740211549, 41.088418897973085], [-94.84633511657928, 39.03304989935912], [-94.83670588183334, 38.987043554380634], [-95.19027107241047, 38.93676807968189], [-97.03552913921754, 38.494851627994024], [-100.9489048451, 37.60450686796388], [-101.28013838200833, 37.523236265740444], [-101.28160889715744, 37.528812293342476], [-104.3756802491818, 36.824870115929514], [-113.51292138700109, 34.68173271924901], [-113.51199882895797, 34.67837441263738], [-113.8683957757395, 34.59835629910462], [-114.20423640488005, 34.5195849718758], [-114.2050180677409, 34.52277798390784], [-121.30150912422657, 32.92947637969909], [-124.39223758952804, 32.12584023508739], [-124.38988674041997, 32.1155252846566], [-124.72605816210105, 32.03904183757469], [-126.51532868426509, 31.573804441199524], [-130.605089923616, 30.701484312975737], [-130.94110136271516, 30.625037264048313]]]}, "properties": {"id": 2, "height_median_m": 9.0, "building_count": 102, "area_m2": 6012.388529277674}}, {"type": "Feature", "geometry": {"type": "Polygon", "coordinates": [[[-36.09737787497249, 25.08177947393739], [-34.8600932591489, 24.964488380681992], [-34.639640624353675, 28.726180257284067], [-34.24881580924013, 35.395016557129274], [-34.24881580924013, 35.61893481396073], [-34.23986257775806, 35.75473339018497], [-34.239862577758046, 35.75473339018497], [-33.95457676721725, 40.081819869073975], [-33.759525589008625, 43.077232828904265], [-33.759525589008625, 43.302452476905884], [-33.680332076241505, 44.29341894757295], [-33.653378243295265, 44.70735282079963], [-32.27737138790932, 75.6779085132149], [-22.992877281907464, 76.27126392696802], [-14.965523183062304, 54.17493429429923], [-13.449928344917284, 44.77864700859262], [-13.002392543388021, 42.004043363891135], [-12.93384950881167, 41.57909467173157], [-12.934964173439203, 41.57915652562266], [-11.731163419001163, 33.99477062816657], [-10.797759858293803, 28.579548244853193], [-10.792190063566158, 28.578939013119108], [-8.568446751106498, 13.906939105180207], [-3.143915408036765, 14.582456283652952], [-4.720627063697792, 30.724980791250267], [-4.693916371619805, 30.58824748305923], [5.222204734217524, 34.1133236942379], [12.757274105854103, 36.93806868740024], [19.02324143035691, 39.16555382152757], [23.77373902540113, 40.84679992687928], [25.4442183958079, 35.26472503742539], [26.785289712046737, 30.993164438973206], [31.960519312824417, 32.46495596338199], [32.0562323042714, 32.573835824154784], [39.92185114888031, 34.95709155775488], [38.6575065417444, 38.6080989723192], [40.62255157014931, 39.2787095942791], [39.83486898115677, 41.74282251870473], [43.66137054787058, 42.85895039571668], [41.99990307444034, 48.64021613713675], [49.71160448345049, 51.077041306306036], [50.39713540650836, 48.73753095246176], [51.480742589864555, 49.073715007749925], [52.44406054239145, 45.51224179900054], [51.4763336404145, 45.181985784384494], [53.36869898275708, 39.03144067535791], [53.42585497210947, 39.04875874555999], [53.42760759845212, 39.043124295648695], [53.81782015265893, 39.1540974457065], [59.60597397012247, 20.787064744358993], [35.1502458283588, 13.774583158514174], [1.2365389252372512, 4.665632402310365], [1.1584992020395544, 5.198284496128465], [-8.079861981634258, 3.227800661790512], [-7.879821872837464, 1.2651054960481898], [-7.880560076700116, 1.264951882193664], [-7.324613226989952, -4.321480670507596], [-7.088381967685201, -6.650462632816885], [-6.736114139973681, -10.123438305285422], [-6.5471041339243765, -11.986870334053952], [-6.517081114630729, -12.282864482308334], [-6.2478513637214395, -15.345531035771415], [-6.214355827928392, -15.703702885476888], [-6.22891023608548, -15.704622696714818], [-5.367399988536075, -24.804854001593895], [-4.943140511908818, -28.907151427721526], [-4.583912942404151, -32.3806350266932], [-4.548525911062249, -32.722803288310416], [-4.5500359550531195, -32.72295266004562], [-3.8017238376499063, -40.277836762081265], [-3.0554406993998193, -47.599999881657936], [-3.0504415131623213, -47.59934370029755], [-2.855419798342028, -49.817844747165005], [-2.8554197983420275, -49.817844747165005], [-2.708842940572101, -51.48525349038505], [-2.1048343433999674, -57.1783656587011], [-20.129413926028914, -60.88533097365832], [-20.195272127942783, -59.91139616380749], [-26.37530248738682, -59.69835999857819], [-32.294579771809445, -59.51131639990815], [-32.48885905265689, -63.599918832925084], [-40.43554415624173, -63.477758291204175], [-39.923913483126825, -55.096760386788155], [-39.82606003911668, -53.53835364771242], [-39.45375411194305, -47.397275564564836], [-39.23846091581626, -43.84607685488538], [-39.21819246611959, -43.511754666795234], [-39.216663470250914, -43.51181534123601], [-38.652427789932986, -34.846767170928075], [-38.652427789932986, -34.513080908281395], [-38.28622072627157, -28.75032498343786], [-38.06431159298238, -25.258289194031125], [-38.04200518940204, -24.907268222154446], [-38.04116426239085, -24.90733574757442], [-37.47813126158598, -16.36750518608183], [-37.47813126158598, -16.256327170800834], [-36.69460100264992, -4.223540742882116], [-35.81454451335514, 10.79329655715163], [-35.81454451335514, 11.016667096729483], [-35.650257925927136, 13.633083186539018], [-35.34683909163839, 18.4653091911859], [-35.500635246396435, 18.47259891211861], [-34.43496948656544, 20.897129534357042], [-36.21604236397779, 20.897129534357042], [-36.09737787497249, 25.08177947393739]]]}, "properties": {"id": 3, "height_median_m": 6.0, "building_count": 70, "area_m2": 5098.530416150429}}, {"type": "Feature", "geometry": {"type": "Polygon", "coordinates": [[[-24.13985245125768, 106.65908317866302], [-23.397376331301192, 108.34831460535517], [-18.152051892391505, 110.45428058705484], [-18.782756729781905, 112.29919954626568], [-12.238950889136856, 114.60329853716476], [-12.334288192789778, 114.85848086903962], [-6.2174803932557765, 116.96704862671628], [-6.226990509775568, 117.01032217385065], [-5.91771097166576, 117.09409025445855], [-5.581598096302941, 117.21275079642942], [-5.574098620378761, 117.18715734617885], [-1.4405120996988119, 118.30673548245076], [-1.36036820698171, 117.94205955952081], [6.876329990532175, 120.40982296870175], [6.768968608266572, 120.77621499775925], [23.04016583923801, 125.85405984074352], [22.95530615488016, 125.90768956621174], [24.495613599460874, 125.6886643616303], [24.574676084138353, 125.71235194882209], [24.645992901291827, 125.66728106087157], [25.384622189458728, 125.5622510997948], [26.132378021521895, 125.31921631799888], [26.80154914498529, 124.9386031031448], [27.356984690120925, 124.30675841972831], [27.622210825792912, 123.80390462209908], [27.649978749401395, 123.7881106968924], [27.683300257778026, 123.68808250377351], [28.229001482839145, 122.65346375212681], [27.98095547163502, 122.794548127178], [31.36871065482142, 112.62480953452294], [31.028041698409414, 112.62480953452294], [32.878592584270535, 107.07493696604222], [32.990142134079534, 106.7450099823458], [32.98876071546303, 106.74453854582191], [35.159169911362575, 100.23539872657491], [35.30730418701845, 100.28861321291828], [37.586845006826344, 93.62056846767813], [37.28609158807801, 93.5065261633972], [38.94665193710031, 88.25931152282283], [41.20616385450049, 81.5764163140284], [42.44223945685248, 81.9879629825902], [42.74290277181622, 81.64593856795392], [44.13708679747731, 77.11457691753441], [44.51724053040862, 75.67307683508386], [32.3596159200813, 71.78693235272274], [29.91397630387701, 71.0079508253722], [27.863108428174762, 70.34137999476023], [22.794869960586233, 68.58667581080981], [23.028097949924515, 68.01814951840264], [12.133750101569031, 64.11663644747976], [13.61910297360316, 59.99802396457273], [3.9546012543956537, 56.53252075788376], [2.156186093135174, 61.64706136087735], [12.307406643814383, 65.23967448696331], [11.07147426919885, 69.10605033500815], [21.982342705737405, 73.07271918267267], [21.231008313606424, 75.12398138500664], [21.34807582875511, 75.1620305405656], [19.104642822075025, 81.7973696000699], [15.607661637732823, 90.85085697019456], [15.221022694344745, 90.71287190956657], [13.864669479329004, 94.12938529148175], [13.846578276863196, 94.12072005365403], [13.722972693275985, 94.48630483158759], [11.976669637413595, 98.88506150734331], [11.566853929878707, 100.28363895762463], [9.4651748702155, 105.76841311385978], [8.515149425573265, 105.4982339131746], [8.515149425573265, 108.6672688929097], [-4.968023471494153, 104.06586850091256], [-4.79043779403305, 103.53557792257567], [-7.543046082964285, 102.40831926097762], [-7.899548946072547, 102.262322846617], [-7.899740438221823, 102.26297635158832], [-14.096990127688594, 99.73768145984154], [-21.918702263161066, 96.5345040274439], [-21.918702263161066, 97.2189475075491], [-22.68121653395208, 99.38747359714066], [-24.783367072839102, 105.19500225580099], [-24.13985245125768, 106.65908317866302]]]}, "properties": {"id": 4, "height_median_m": 6.0, "building_count": 40, "area_m2": 1716.7905698550587}}, {"type": "Feature", "geometry": {"type": "Polygon", "coordinates": [[[42.86332287476895, 102.65654062316347], [42.896264815598194, 102.67051316685179], [42.86332287476895, 102.77094251494887], [42.86332287476895, 102.7709425149489], [41.708201225820524, 106.2925356954492], [41.708201225820446, 106.29253569544943], [39.33441025438369, 113.52945840792307], [38.20233104996409, 116.9808026102412], [34.25605881202118, 129.01171330626082], [50.59410835192349, 134.0499817237765], [50.59410835192349, 134.0548464810416], [50.84395878950701, 134.12702969487643], [51.29410835192349, 134.26584518309872], [51.29410835192349, 134.25708046619314], [57.006472212018664, 135.90741490628292], [57.69143150018115, 136.13003962374268], [60.04714824108887, 136.8113405549429], [63.47804435076894, 137.8035959792837], [63.80250383800306, 137.8974334712668], [63.81848237891884, 137.84472119340438], [69.47083013459958, 139.4522010855643], [69.86814543390248, 138.24694123999706], [70.57665855275465, 136.26862533835478], [71.72402764945383, 133.1369238303651], [71.87250535175407, 132.79911740970687], [71.84867213430104, 132.79137116347061], [73.09581134533062, 129.34594868959564], [74.25411384026113, 126.1025130492698], [74.26022821383087, 126.10448439546583], [74.36932237101165, 125.77991039897665], [74.48959506314819, 125.44312727199478], [74.48321291070025, 125.44106633450711], [75.64272430509975, 121.99131928131392], [77.30610465641925, 116.98254078462611], [78.47979958411592, 113.5333887160474], [80.23992888879302, 108.41649298793658], [81.22025181488546, 105.74005572453454], [82.30069671420262, 102.27629168491667], [83.37769161668567, 98.82358788074285], [84.1219555537991, 96.4375757268725], [84.54846862656133, 95.27312730824525], [85.70237770526451, 91.33518352649847], [85.82210990035553, 91.37185364416194], [85.91866866507957, 91.0423276924937], [86.03975332524679, 90.70781186166379], [85.97734760609818, 90.6884507794757], [87.97436277171195, 84.58315789797805], [88.55921948267117, 82.69810381209979], [89.14569054141026, 81.14142133226193], [89.16835875136077, 81.07109427217833], [90.22602925162634, 77.78972106347683], [90.33387187397912, 77.45514437663944], [90.3309014076394, 77.45424010990521], [91.69224785456495, 73.23072649429344], [91.98561447693821, 72.3407959770455], [94.52083439654058, 64.57623334653213], [94.8150845441326, 64.01835165891197], [96.09505982230557, 59.986195003170224], [96.29043759328711, 59.43055714764916], [97.55414154974606, 55.52864422719859], [97.56364246568849, 55.53170307263041], [97.66331245302507, 55.191559456778826], [98.24106989907216, 53.40762957977299], [100.89034005673803, 45.40243557024952], [105.41188871083536, 31.800574868601558], [99.21638164067409, 30.189649330437376], [106.35840019299374, 23.542315876593122], [108.63160162258757, 12.52406068009785], [111.49599284213207, -1.1613643853177198], [111.50511648780181, -1.159515297561851], [111.56818720712633, -1.5062930268848327], [112.77694096053786, -7.281449996359187], [112.77744531710167, -7.281346723345879], [112.83955980862976, -7.624549251418352], [112.92050836353849, -7.966576789974472], [112.90214227054123, -7.970337466255114], [113.52537176968238, -11.413880742752799], [117.5364065925362, -30.555456627909052], [119.32236281104423, -38.895887300438055], [119.33066392424853, -38.894121523957395], [119.39642763757531, -39.24177066787663], [119.46893295511603, -39.580371115116726], [119.4608066301517, -39.582099711407736], [121.0605243331171, -48.03874642149882], [122.53412655300592, -55.48905765949784], [122.56255469682046, -55.48325324252135], [122.62622890176763, -55.83093462442197], [122.69587403913653, -56.17047441842507], [122.68868102950914, -56.17194307664862], [124.09457836289701, -63.84858902909086], [126.34921734840785, -75.75659380065936], [126.38724268923818, -75.74967278606947], [126.93279082553487, -79.10089713623621], [128.42919479229414, -86.54827818001415], [128.43332822669086, -86.5475037238765], [128.49766391734948, -86.88903888056615], [129.54359614547565, -92.09448876031537], [129.67433767445175, -93.13557873877504], [129.81945670408106, -93.90596373061545], [129.3071081121225, -95.36303978963147], [129.30710811212217, -95.36303978963154], [129.29702968544444, -95.39170198262892], [127.82603748277549, -95.64914059230537], [122.98775883026796, -96.58375868452435], [122.98883691808989, -96.5892093344398], [122.63988525608345, -96.6509579840251], [122.30045786745269, -96.71652572023734], [122.2994059550303, -96.7112074092059], [117.89589459062294, -97.4904296046876], [116.33276357056087, -89.5998225837312], [116.32518102178302, -89.60146556486401], [116.22971588689136, -89.05847602754326], [112.68250434863407, -89.96639328991414], [111.41185224586646, -90.29995886871673], [108.4769243992638, -91.07898294658601], [104.82613420068574, -92.05616304305944], [103.97886698764927, -89.35745999954953], [102.27982313440708, -83.9456905515512], [102.279823134407, -83.94569055155094], [100.08671353107358, -76.96023015582111], [100.00317050761089, -76.97303631670508], [99.83552904581884, -76.45960447614138], [99.82966789739424, -76.4609572908955], [99.73512502484262, -76.15209927582423], [99.61740052957256, -75.79154703749484], [99.62427277167284, -75.78996085167705], [95.12298265584649, -61.084891152480445], [95.03324039590846, -61.108092915802445], [94.9399426191951, -60.78969573299352], [94.82163626688889, -60.4397843434462], [94.8413809997275, -60.434679584345034], [94.0472697741847, -57.8751764079007], [94.04772654950612, -57.87506093853369], [92.7778860615483, -53.76371322150403], [95.87399923010562, -52.909886897100755], [99.5855548779143, -51.88633777468178], [99.89118868648616, -51.802052034084035], [99.89126880744045, -51.80226236382289], [108.1732836745172, -49.52457579353275], [106.66676757258362, -42.24108837002483], [106.66676757258362, -41.90754578091817], [106.18632585955434, -39.612101981399924], [106.07072459726412, -39.151837685081205], [105.9727227872136, -38.76164528365555], [104.6301041018585, -33.41603372028106], [99.67333868138512, -34.30634666296189], [99.3842881045508, -34.4159513819713], [91.65170457463857, -36.02503529747249], [91.6615602111479, -36.09871046569996], [91.29765256597018, -36.09871046569996], [90.23339140442076, -36.3201740309259], [87.3103129295075, -37.059106291856565], [81.56355627929801, -19.1776244752076], [80.55098448072437, -16.02692829885461], [80.44169693286595, -15.68687156446251], [80.44469648968922, -15.6861038207323], [77.85726648285525, -7.398185577118413], [76.03320793921377, -1.585421407700344], [75.0753652936329, -1.912304223619385], [73.61369349049748, 3.203844668972682], [74.51724193278329, 3.546460048244557], [71.01295328581662, 14.619682834274634], [72.54835251833775, 16.99009327425275], [74.04771436798836, 17.355583983826357], [87.43867876210683, 21.113083965173853], [87.44035472560988, 21.121260294706428], [88.72155447229662, 21.473058446117616], [89.07505501702836, 21.57225057680682], [89.08250561185154, 21.539407841513487], [99.1679671046265, 24.44218465046804], [94.84047583040014, 29.729644729200846], [92.22981942184381, 29.03458646464385], [83.69280650827163, 26.90020909012252], [83.72841872599616, 26.797089534489622], [83.28035227754907, 26.797089534489622], [81.23093214392756, 26.284704698203843], [79.94734375066699, 25.930724885289774], [79.74757485618397, 25.817099717539705], [79.62511938386103, 25.786756881413144], [79.62511938386103, 25.786756881413147], [69.6582741298463, 23.31710528884233], [68.07097823031542, 24.47788293186027], [66.8586387828646, 27.766544967545887], [66.649853021775, 28.33290928698697], [67.20722753964549, 28.586529444625782], [66.33610228207836, 30.81619533910588], [66.36565542851926, 30.825800670392066], [64.11675566836604, 37.38832521203464], [62.30996483364515, 42.86924287598158], [62.2596272989286, 42.85424561311346], [62.160161184912965, 43.17483525689833], [62.03138395579311, 43.516651367660785], [62.06659843636175, 43.52714295857452], [60.766996152398576, 47.64549724019319], [59.706833441650325, 50.98899782528728], [59.604600144731684, 51.30881495936265], [59.608234672936376, 51.30996343611742], [58.647683794869714, 54.43193537931008], [57.848229019726816, 56.88594024105477], [57.11780860597693, 59.046284271933494], [56.08966757900352, 62.555019612224704], [54.39602452397012, 67.78444671442645], [54.31271402450084, 67.76075391303863], [54.31271402450084, 68.17394634134261], [53.34919943595665, 71.46213113118829], [53.08916662433921, 72.29038381168334], [52.47245840994809, 74.12153882016383], [52.35188412269295, 74.46444189445704], [52.35650242217201, 74.46584003559212], [46.6974928987918, 91.26880031723438], [44.77417842270144, 97.18899348703138], [44.743737677418004, 97.18005713556884], [44.64261615869224, 97.50214790715056], [42.86332287476895, 102.56230750681283], [42.86332287476895, 102.65654062316347]]]}, "properties": {"id": 5, "height_median_m": 9.0, "building_count": 127, "area_m2": 7531.288403687067}}, {"type": "Feature", "geometry": {"type": "Polygon", "coordinates": [[[98.55954361119791, -93.61446358394863], [98.55954361119791, -94.22838194059283], [91.31371568489045, -96.43415046563052], [90.90791663687821, -96.43415046563052], [88.27778822022917, -88.17638198838551], [95.88946002037511, -85.7372889431917], [98.42190187277703, -93.45788699865474], [98.55954361119791, -93.61446358394863]]]}, "properties": {"id": 6, "height_median_m": 3.0, "building_count": 1, "area_m2": 70.99948530055057}}, {"type": "Feature", "geometry": {"type": "Polygon", "coordinates": [[[19.32909148666033, -120.22260928949548], [19.65978605126958, -121.61450099775008], [12.33363898459866, -123.33031979901709], [11.076672450805729, -118.65070401324971], [20.519114211741055, -116.31561656149277], [18.230415150856327, -106.50892430324906], [36.2332742322282, -102.34361378285767], [39.32727714431103, -115.60089820258561], [32.676950613610174, -117.21315105414], [32.670938578279845, -117.18716251979718], [19.32909148666033, -120.22260928949548]]]}, "properties": {"id": 7, "height_median_m": 3.0, "building_count": 2, "area_m2": 296.46595456376207}}, {"type": "Feature", "geometry": {"type": "Polygon", "coordinates": [[[-17.09342376655085, -79.56789975494574], [2.5726840146579075, -75.07053658590723], [5.2174046949624495, -86.77043289850803], [9.826670237576034, -85.8779487224089], [10.21646757669061, -87.87333991559287], [12.752685482300969, -87.31850997729074], [14.272848564921413, -94.23565433877911], [11.247259332419318, -94.90181071550029], [11.73741672574159, -96.90912199697881], [8.015156466043537, -97.68912782179491], [10.557913422614906, -108.59183242874627], [-9.990464521800035, -113.312919722501], [-10.001362937030727, -113.26558317029361], [-32.59646762470139, -118.43346788810831], [-40.18902555856848, -85.13541725845792], [-17.050891626492426, -79.75797631163954], [-17.09342376655085, -79.56789975494574]]]}, "properties": {"id": 8, "height_median_m": 6.0, "building_count": 1, "area_m2": 1579.8233528448397}}, {"type": "Feature", "geometry": {"type": "Polygon", "coordinates": [[[5.99007664109426, -61.53393886234986], [13.031511456550755, -59.97641980476197], [11.957872751995849, -55.979323227034385], [18.803931192126505, -54.24869112614871], [19.880695328227727, -58.36877718697128], [26.150501875520053, -56.808582230826126], [28.6644838429229, -67.29459193894075], [21.76081287353374, -68.81838257751986], [8.61029757608251, -71.78745977706143], [5.99007664109426, -61.53393886234986]]]}, "properties": {"id": 9, "height_median_m": 3.0, "building_count": 1, "area_m2": 248.4572559890764}}, {"type": "Feature", "geometry": {"type": "Polygon", "coordinates": [[[2.216823210774605, -23.979659954479025], [2.218580701773299, -23.979432765581425], [1.764879640054142, -19.644066952352684], [0.9460936847016855, -11.959825549388897], [8.08025791224657, -10.976118415665994], [9.254554440246318, -18.323238415706797], [12.168306348523787, -17.92147046553108], [12.790114174730242, -17.92147046553108], [13.280002162298254, -21.40447046562347], [12.296658569037339, -21.40447046562347], [12.877792783712984, -25.921841042155457], [7.2503427245227074, -26.633129574449214], [2.5878702806407823, -27.356384698103383], [2.2533398842534735, -24.311981012654794], [2.216823210774605, -23.979659954479025]]]}, "properties": {"id": 10, "height_median_m": 6.0, "building_count": 3, "area_m2": 140.75248291993523}}, {"type": "Feature", "geometry": {"type": "Polygon", "coordinates": [[[28.120491844540386, -2.5305686952733955], [34.36761258949373, -1.159136324126818], [35.05293843125031, -3.832062577793361], [44.36144269822358, -1.8257182483955188], [49.11046700186272, -23.549978913867886], [24.356875568326302, -28.815454577999997], [19.405004247971338, -7.432737900595691], [28.708182939551868, -5.316141636188577], [28.120491844540386, -2.5305686952733955]]]}, "properties": {"id": 11, "height_median_m": 6.0, "building_count": 2, "area_m2": 581.0446790600708}}, {"type": "Feature", "geometry": {"type": "Polygon", "coordinates": [[[50.79656759700811, -48.52042985205313], [50.8632790815172, -48.5041679818296], [49.71406174242327, -44.84369784652461], [56.010133975588744, -43.38887622458656], [56.00900241908368, -43.38356644045456], [56.348030603947706, -43.31079908336078], [56.692263031842856, -43.23125794079954], [56.693415805828586, -43.23666728712015], [61.53508483718443, -42.19747504569667], [65.075459658085, -41.39199292289579], [65.07428968548116, -41.3883328894587], [65.44901519455608, -41.30700409495468], [65.760530831983, -41.23613016504223], [65.76150649617715, -41.23918234212932], [80.36183539933106, -38.07039046567791], [80.9533849362001, -38.07039046567791], [83.86601566447209, -47.78181683195957], [86.21417701286349, -55.57278446766677], [88.36643426428392, -62.69521646582915], [90.90909194216414, -70.59380630029713], [93.56531753596909, -78.49653710493065], [80.56416645323651, -82.72215699042236], [78.11771535276726, -75.04107699041408], [76.06605725657298, -75.70790465762484], [75.66444200252323, -74.48960085728619], [73.99770286658229, -69.7495357336958], [73.01787228477455, -66.12701384817402], [71.05331084455376, -60.010668133889055], [74.88437707426198, -58.808436044315165], [72.74170583093726, -51.597704703207775], [68.72629297135326, -52.886057932822226], [68.13189578397574, -51.0829482534239], [52.78114628835042, -54.86463469135224], [52.37375912633396, -53.783298369342866], [50.99766863908037, -49.19147602712905], [50.95757086061383, -49.20119701712484], [50.896523000548896, -48.85396711537629], [50.79656759700811, -48.52042985205313]]]}, "properties": {"id": 12, "height_median_m": 3.0, "building_count": 10, "area_m2": 801.1418658932912}}, {"type": "Feature", "geometry": {"type": "Polygon", "coordinates": [[[79.15700670136954, -83.29121362746226], [81.15151614596323, -89.38884599642894], [81.15151614596324, -89.38884599642894], [81.72796004065782, -91.15115550100934], [81.72796004065782, -91.66297635887419], [75.67824237581347, -93.62924896809376], [75.65691979243513, -93.56687678384185], [65.9578212624644, -96.79201463507219], [65.9578212624644, -96.30349711718361], [63.42227324549033, -88.40287628251293], [69.78437571180224, -86.28735416320416], [69.78186666746257, -86.27942581889667], [70.11566249226843, -86.17719490129006], [70.44868612027649, -86.06645810397596], [70.48439047616894, -86.1792805130167], [74.51468261600111, -84.7314729405607], [79.15700670136954, -83.29121362746226]]]}, "properties": {"id": 13, "height_median_m": 6.0, "building_count": 2, "area_m2": 145.11942821372404}}, {"type": "Feature", "geometry": {"type": "Polygon", "coordinates": [[[83.674787261, 131.235165147], [84.007985312, 131.340942309], [84.339319809, 131.455158949], [84.342014874, 131.446983442], [88.218835652, 132.677720228], [90.275996472, 133.346336386], [91.404657894, 133.713172685], [95.185523694, 134.942025548], [91.11853234, 147.815686111], [99.242177665, 150.59917529], [99.202003533, 150.728329535], [99.619115821, 150.728329535], [99.928043804, 150.834180746], [99.936179674, 150.800245414], [105.222275236, 152.54956424], [108.394563665, 150.143772248], [109.111145224, 147.814746714], [110.23651273, 144.522855286], [114.396806949, 131.001112582], [124.581749289, 98.492692772], [108.741692933, 93.726346968], [106.690486557, 100.393155467], [106.685863485, 100.391577752], [106.583693596, 100.740252777], [105.049741012, 105.725888663], [90.156652404, 101.185909432], [83.00357011, 122.658823833], [80.444107354, 130.112412919], [83.677475617, 131.227009992], [83.674787261, 131.235165147]]]}, "properties": {"id": 14, "height_median_m": 12.0, "building_count": 15, "area_m2": 1435.270503674872}}, {"type": "Feature", "geometry": {"type": "Polygon", "coordinates": [[[116.87062622773229, 10.957866222544032], [116.87839607734126, 10.959128896548766], [113.65771976079121, 27.2793914562806], [122.767863267418, 30.022642022113967], [122.75948732514162, 30.06631288629374], [123.06159537626418, 30.153686080608082], [123.43281040068344, 30.271924943251832], [123.43478732390616, 30.261617572128127], [128.83648585385677, 31.823852188290015], [134.43219993073063, 33.559896282139164], [134.9859813639818, 32.92993325942969], [135.38831879119823, 32.35782645379387], [135.75756029451944, 31.832780651853742], [136.2183203902374, 31.413464575286923], [136.6960190596188, 30.97873350015228], [137.283167324028, 30.53345350004316], [137.7553034694672, 30.103784615755064], [138.3086671254295, 29.7890407293346], [138.86484472714668, 29.472696318358786], [139.57217754009014, 29.24279978197672], [139.902448439004, 28.99232978185017], [140.76697574938476, 28.71134206252737], [141.32776264495317, 28.60502002922423], [142.6932373981134, 28.383117474638677], [143.35035573094282, 28.276329534499673], [143.71249203149728, 28.276329534499673], [145.26746310993755, 19.653027400407797], [145.85236506992513, 19.763921513947714], [146.89537172727498, 14.187422814758266], [148.11275798649405, 7.766720230448292], [147.53746089248534, 7.547142368863517], [148.19231510473244, 3.8969363887755883], [148.8534668080051, 0.49049462003757527], [149.3078757132031, -1.7839542433083917], [149.42914464267736, -2.3909405405547846], [149.92922237509566, -5.1835824948001], [150.19843489743045, -6.60345521364617], [150.66159209316834, -9.237814992681113], [151.06919487529322, -11.539847668493655], [151.0664106439449, -11.540354428074833], [151.3579446143221, -13.198550334025313], [151.30841218054715, -13.209340074179213], [152.210496238818, -17.912666467311553], [152.86678257915472, -21.334441675128495], [152.93056038582816, -21.66696926906276], [152.92817492922865, -21.667421538182737], [154.91981925773445, -32.45612250935498], [156.7534126223875, -42.36383467326977], [156.81513347707465, -42.352132747258956], [156.87625035809438, -42.69343481879695], [156.95211348933316, -43.03863214427431], [156.93852606283048, -43.04120824372105], [157.95384958615966, -48.711196895165806], [159.42146715171853, -56.83615572507574], [163.75650347696163, -79.95889857179364], [164.8356540298168, -79.75735145635151], [164.83717607664454, -79.76531602963568], [165.52218238477207, -79.6539960299148], [166.5917989162077, -85.25109008578555], [164.47104669369944, -88.38733485497652], [151.64978198515809, -90.7024200843334], [151.5530603234048, -90.15228363479186], [138.98190896500176, -92.66306133419754], [137.33913832954227, -91.99564694315166], [136.13037223877708, -85.80791560760494], [136.097872686311, -85.81491000596205], [136.03100073917173, -85.46625004344901], [135.96030650130055, -85.12848867597756], [135.96598472650717, -85.12726663548645], [134.85626233683115, -79.34134618100218], [134.46495208871718, -77.33821033590584], [134.39565862592326, -76.98349379116121], [134.3956586259325, -76.98349379115972], [133.4865079486673, -72.32950806244129], [132.9974946532026, -69.88185414963688], [130.7466972367586, -58.638221256197376], [130.3359283480513, -56.599195263260526], [129.85603869791709, -54.22476142087174], [129.40038188914184, -51.95521616349486], [129.13193279101873, -50.6226528874134], [128.85460294852814, -49.21226703557004], [128.85460294852484, -49.212267035553594], [128.30000915613542, -46.3918304345671], [128.23193466176807, -46.047656027521754], [128.23231807789304, -46.047581369296374], [126.6366804987144, -37.93282297859208], [124.67935644537894, -28.024510736250924], [121.25463110927296, -10.882763378951656], [120.0562037128447, -5.0887789247145285], [120.04612598563497, -5.090416650644232], [119.98231545308013, -4.759412165403032], [119.90786457554965, -4.4037024082359055], [119.91356373144184, -4.402776241533055], [117.08244221023452, 10.283105293416472], [117.01399902503934, 10.271982628873866], [116.9492127067104, 10.600276943944694], [116.87062622773229, 10.957866222544032]]]}, "properties": {"id": 15, "height_median_m": 12.0, "building_count": 81, "area_m2": 3572.6429628726046}}]}