{"type": "FeatureCollection", "crs": {"type": "name", "properties": {"name": "EPSG:32628_local_enu_m_section_centroid", "lng0": -16.287995591933598, "lat0": 28.469649865338972}}, "features": [{"type": "Feature", "geometry": {"type": "Point", "coordinates": [-44.66320065085652, 265.37188953456723]}, "properties": {"osm_id": null, "category": "restauracion", "name": "Café Bar Jara", "extrude": false}}, {"type": "Feature", "geometry": {"type": "Point", "coordinates": [184.6181964768242, 260.36248953455913]}, "properties": {"osm_id": null, "category": "finanzas", "name": "", "extrude": false}}, {"type": "Feature", "geometry": {"type": "Point", "coordinates": [133.24272336885676, 147.48400953440296]}, "properties": {"osm_id": null, "category": "restauracion", "name": "Caffé Plaza", "extrude": false}}, {"type": "Feature", "geometry": {"type": "Point", "coordinates": [22.46741754341984, 118.54080953431222]}, "properties": {"osm_id": null, "category": "restauracion", "name": "Palillos de Oro", "extrude": false}}, {"type": "Feature", "geometry": {"type": "Point", "coordinates": [-158.08067366463962, 185.88940953433323]}, "properties": {"osm_id": null, "category": "restauracion", "name": "Horacio", "extrude": false}}]}