{"type": "FeatureCollection", "crs": {"type": "name", "properties": {"name": "wgs84_and_EPSG:32628_local_enu_m_section_centroid", "lng0": -16.287995591933598, "lat0": 28.469649865338972}}, "features": [{"type": "Feature", "geometry": {"type": "Polygon", "coordinates": [[[-16.28627, 28.47045], [-16.28651, 28.46931], [-16.28659, 28.46907], [-16.2869, 28.46816], [-16.28746, 28.46832], [-16.28832, 28.46853], [-16.28839, 28.46856], [-16.2889, 28.46879], [-16.28905, 28.46886], [-16.28928, 28.46892], [-16.28952, 28.46895], [-16.28976, 28.4706], [-16.28887, 28.47075], [-16.28879, 28.47082], [-16.28865, 28.47083], [-16.28856, 28.47083], [-16.2885, 28.47078], [-16.28841, 28.47078], [-16.28817, 28.47086], [-16.28764, 28.47074], [-16.2874, 28.47068], [-16.28627, 28.47045]]]}, "properties": {"cusec": "3802302015", "mun": "023", "nmun": "San Cristóbal de La Laguna", "area_m2": 73898.62573991127, "perimeter_m": 1076.0905680470782, "coords_system": "wgs84"}}, {"type": "Feature", "geometry": {"type": "Polygon", "coordinates": [[[168.86305139051527, -89.07099046554009], [145.37712082670416, 37.83380953440144], [137.54847730543378, 64.55060953457647], [107.21248366081528, 165.85180953430083], [52.41197901227033, 148.04060953457963], [-31.745938840777786, 124.66340953427817], [-38.59600192193282, 121.3238095344046], [-88.50360436990108, 95.72020953458292], [-103.18231097197882, 87.92780953448244], [-125.68966109567461, 81.2486095343398], [-149.17559165913806, 77.90900953446624], [-172.6615222229492, -105.76899046569892], [-85.5678630492074, -122.46699046546226], [-77.73921952793702, -130.25939046556275], [-64.03909336597462, -131.3725904655206], [-55.231869404588906, -131.3725904655206], [-49.36038676354921, -125.80659046573132], [-40.5531628021635, -125.80659046573132], [-17.067232238700036, -134.71219046539417], [34.797531089498904, -121.3537904655044], [58.283461652962366, -114.67459046575726], [168.86305139051527, -89.07099046554009]]]}, "properties": {"cusec": "3802302015", "mun": "023", "nmun": "San Cristóbal de La Laguna", "area_m2": 73898.62573991127, "perimeter_m": 1076.0905680470782, "coords_system": "local_m_enu"}}]}