{"type": "FeatureCollection", "crs": {"type": "name", "properties": {"name": "wgs84_and_EPSG:32628_local_enu_m_section_centroid", "lng0": -16.272972538189162, "lat0": 28.46134743689109}}, "features": [{"type": "Feature", "geometry": {"type": "Polygon", "coordinates": [[[-16.27484, 28.46251], [-16.27399, 28.46241], [-16.27387, 28.46241], [-16.27376, 28.46237], [-16.27367, 28.46232], [-16.27358, 28.46222], [-16.27338, 28.46202], [-16.2731, 28.46184], [-16.27227, 28.46249], [-16.2718, 28.46204], [-16.27255, 28.46144], [-16.27201, 28.46105], [-16.27144, 28.46076], [-16.27067, 28.46043], [-16.2702, 28.4602], [-16.27008, 28.4601], [-16.26984, 28.45977], [-16.26966, 28.45954], [-16.27004, 28.45925], [-16.2707, 28.45996], [-16.27076, 28.46001], [-16.27076, 28.46001], [-16.27096, 28.46017], [-16.27114, 28.46028], [-16.27117, 28.46029], [-16.27134, 28.46038], [-16.27155, 28.46045], [-16.27175, 28.46055], [-16.27198, 28.46066], [-16.27205, 28.46068], [-16.27206, 28.46069], [-16.27211, 28.4607], [-16.2722, 28.46073], [-16.27238, 28.46073], [-16.27257, 28.46077], [-16.27275, 28.4609], [-16.27286, 28.46099], [-16.27299, 28.46104], [-16.27317, 28.46112], [-16.27367, 28.4612], [-16.27377, 28.46122], [-16.27408, 28.46137], [-16.27424, 28.46137], [-16.27453, 28.46136], [-16.27479, 28.46131], [-16.27491, 28.46134], [-16.27498, 28.46138], [-16.27507, 28.46137], [-16.27509, 28.46132], [-16.27526, 28.46127], [-16.27548, 28.46122], [-16.27566, 28.46122], [-16.2755, 28.46158], [-16.27495, 28.46234], [-16.27486, 28.46251], [-16.27484, 28.46251]]]}, "properties": {"cusec": "3803806018", "mun": "038", "nmun": "Santa Cruz de Tenerife", "area_m2": 51587.22601786099, "perimeter_m": 1685.9402257385661, "coords_system": "wgs84"}}, {"type": "Feature", "geometry": {"type": "Polygon", "coordinates": [[[-182.76051789641508, -129.41652528421315], [-99.57464533385553, -118.2845252838436], [-87.83075744241704, -118.2845252838436], [-77.06552687555482, -113.83172528401218], [-68.25761095714981, -108.26572528382741], [-59.449695038744785, -97.13372528385335], [-39.87654855347756, -74.86972528390524], [-12.474143474033905, -54.83212528387284], [68.75441444006847, -127.19012528390195], [114.75130868055075, -77.09612528382095], [41.35200936062481, -10.304125283976617], [94.19950487070724, 33.11067471596175], [149.98297235417084, 65.39347471592606], [225.33958632255397, 102.12907471611729], [271.3364805630363, 127.73267471593897], [283.0803684541271, 138.86467471591303], [306.56814423665634, 175.60027471610425], [324.1839760734664, 201.20387471592593], [286.99499775104147, 233.48667471589025], [222.4036143495205, 154.449474716114], [216.53167040414894, 148.88347471592922], [216.53167040414894, 148.88347471592922], [196.95852391888172, 131.07227471581254], [179.34269208207166, 118.82707471588063], [176.40672010903822, 117.71387471592277], [159.76954559680445, 107.69507471590657], [139.21774178696094, 99.90267471580609], [119.64459530169371, 88.77067471583203], [97.13547684374072, 76.52547471590012], [90.28487557379287, 74.2990747159844], [89.30621824956428, 73.18587471602655], [84.41293162807364, 72.07267471606869], [75.6050157096686, 68.73307471579963], [57.98918387320626, 68.73307471579963], [39.39469471181994, 64.2802747159682], [21.778862875357586, 49.80867471612058], [11.01363230814769, 39.78987471610438], [-1.7089129071717002, 34.22387471591961], [-19.324744743981743, 25.318274715861264], [-68.25761095714981, 16.412674715802922], [-78.04418419978342, 14.186274715887208], [-108.38256125226054, -2.5117252838761317], [-124.04107844026571, -2.5117252838761317], [-152.42214084393797, -1.398525283918275], [-177.86723127492442, 4.167474715871009], [-189.61111916601521, 0.8278747159974387], [-196.46172043596306, -3.6249252838339885], [-205.2696363543681, -2.5117252838761317], [-207.22695100282527, 3.0542747159131522], [-223.86412551540673, 8.620274716097924], [-245.39458664947884, 14.186274715887208], [-263.01041848594116, 14.186274715887208], [-247.35190129793597, -25.88892528417759], [-193.5257484632773, -110.49212528413861], [-184.71783254487227, -129.41652528421315], [-182.76051789641508, -129.41652528421315]]]}, "properties": {"cusec": "3803806018", "mun": "038", "nmun": "Santa Cruz de Tenerife", "area_m2": 51587.22601786099, "perimeter_m": 1685.9402257385661, "coords_system": "local_m_enu"}}]}