{"type": "FeatureCollection", "crs": {"type": "name", "properties": {"name": "EPSG:32628_local_enu_m_section_centroid", "lng0": -17.246053750805874, "lat0": 28.055174889921997}}, "features": [{"type": "Feature", "geometry": {"type": "Polygon", "coordinates": [[[5063.2317954994205, 2881.9512261167683], [5061.659965844549, 2866.3664261165673], [5058.712785241536, 2854.9004661166455], [5034.938861709649, 2787.44054611651], [5045.253993820373, 2779.982106116753], [5070.992704421284, 2849.8910661166374], [5087.496915798649, 2873.4909061167723], [5092.310644117149, 2883.732346116622], [5081.504315239083, 2886.626666116829], [5066.670172869777, 2894.3077461168145], [5063.2317954994205, 2881.9512261167683]]]}, "properties": {"name": "", "kind": "water", "category": "agua", "extrude": false}}, {"type": "Feature", "geometry": {"type": "Polygon", "coordinates": [[[4767.334862945806, 2909.669906116787], [4727.646164157089, 2889.4096661165254], [4683.536694463675, 2870.0399861167843], [4649.054681406913, 2851.4495461166575], [4618.698721194928, 2826.6251861168457], [4597.871978266057, 2805.2517461166267], [4591.289941585608, 2799.1291461166606], [4562.2110929682285, 2757.4954661165757], [4573.606857967176, 2747.4766661165595], [4583.13607525029, 2763.840706116771], [4621.056465677409, 2806.030986116637], [4656.619111621699, 2838.4251061167156], [4675.677546188623, 2848.7778661166794], [4735.701791138868, 2875.717306116688], [4799.26265281301, 2909.2246261167247], [4802.013354709296, 2914.234026116733], [4800.14680699381, 2918.3528661166165], [4797.78906251133, 2921.3585061165422], [4793.270052253445, 2922.360386116781], [4767.334862945806, 2909.669906116787]]]}, "properties": {"name": "", "kind": "water", "category": "agua", "extrude": false}}, {"type": "Feature", "geometry": {"type": "Polygon", "coordinates": [[[5053.506099509231, 2682.2431461167353], [5059.10574265534, 2678.0129861167375], [5062.052923258354, 2681.797866116673], [5056.846237526049, 2685.4714261164945], [5053.506099509231, 2682.2431461167353]]]}, "properties": {"name": "", "kind": "water", "category": "agua", "extrude": false}}, {"type": "Feature", "geometry": {"type": "Polygon", "coordinates": [[[5008.905433048473, 2747.921946116622], [4995.446641627659, 2722.207026116686], [4988.373408180217, 2720.7598661167804], [4974.816377405865, 2701.0562261166956], [4954.775549304603, 2644.505666116701], [4931.099865126257, 2597.194666116712], [4921.472408489257, 2589.847546116674], [4896.028415948962, 2571.0344661167137], [4851.427749488204, 2555.7836261168563], [4801.71863664903, 2518.268786116655], [4769.299650014483, 2484.4275061166704], [4701.907453556527, 2398.599786116637], [4706.033506400955, 2396.0394261167735], [4713.204979201588, 2391.3639861167135], [4719.0993404079645, 2387.6904261164964], [4722.242999718055, 2385.6866661168096], [4785.4109039783925, 2479.4181061166623], [4823.233055051624, 2514.817866116667], [4885.909762544967, 2541.0893861167797], [4899.859750733123, 2549.6610261164947], [4912.827345386594, 2564.8005461166335], [4956.936815080357, 2612.2228661167364], [4967.841383311612, 2624.356746116554], [4985.720945637469, 2655.192386116613], [5002.421635721913, 2692.2619461167515], [5009.003672402012, 2703.3939461167256], [5024.132532831584, 2728.6635861165996], [5031.991681106288, 2749.1464661166942], [5033.1705533477025, 2759.276586116825], [5031.205766279027, 2761.8369461166885], [5030.419851451416, 2763.0614661167606], [5028.848021796545, 2761.9482661168026], [5026.195559253798, 2763.840706116771], [5026.88323472787, 2767.0689861165297], [5024.820208305655, 2768.961426116498], [5023.444857357512, 2769.740666116508], [5021.873027702292, 2768.7387861166644], [5019.613522573351, 2768.293506116602], [5008.905433048473, 2747.921946116622]]]}, "properties": {"name": "", "kind": "water", "category": "agua", "extrude": false}}, {"type": "Feature", "geometry": {"type": "Polygon", "coordinates": [[[4555.432577581053, 2741.6880261165416], [4548.555822840338, 2724.990026116778], [4543.349137108382, 2716.529706116782], [4505.6252253883395, 2676.8997861167795], [4466.820680780421, 2635.8227061164757], [4421.237620785326, 2589.402266116612], [4378.994698807399, 2552.666666116816], [4331.938048510622, 2516.376346116687], [4278.201122180558, 2480.4199861165057], [4226.330743565281, 2446.4673861168026], [4193.32232081055, 2427.8769461166758], [4161.787488356801, 2413.516666116547], [4119.642805732413, 2397.7092261165126], [4060.89567237677, 2379.1187861167814], [4004.8992409174148, 2361.418906116779], [3963.638712473476, 2347.949186116775], [3924.6376891588297, 2334.702106116604], [3881.510612999754, 2322.01162611661], [3883.2789213617016, 2316.7795861167688], [3885.243708430378, 2308.541906116606], [3905.481015238367, 2314.8871461168005], [3921.886987262544, 2319.67390611658], [3959.414420275858, 2331.807786116793], [4001.9520603140513, 2345.388826116516], [4047.043923541803, 2359.7491061166447], [4070.817847073688, 2367.430186116631], [4121.9023108613555, 2383.4602661164986], [4161.296291589807, 2396.9299861165027], [4197.939570421973, 2415.0751461165673], [4214.050824385882, 2423.090186116501], [4242.147279468925, 2439.6768661165456], [4274.369787396396, 2461.0503061167647], [4282.130696317909, 2466.1710261164917], [4327.517277605927, 2496.450066116769], [4360.230982300742, 2519.6046261168417], [4401.589750097869, 2552.666666116816], [4451.790059704387, 2599.6437061168567], [4495.015375217002, 2644.6169861168155], [4519.28049551623, 2669.9979461168036], [4543.250897754843, 2696.8260661166973], [4563.881161976638, 2722.652306116748], [4571.150874131157, 2740.240866116636], [4559.067433658138, 2751.038906116662], [4555.432577581053, 2741.6880261165416]]]}, "properties": {"name": "", "kind": "water", "category": "agua", "extrude": false}}, {"type": "Feature", "geometry": {"type": "Polygon", "coordinates": [[[4986.605099818269, 2417.746826116545], [4971.378000035507, 2424.2033861168543], [4960.66991051098, 2411.958186116527], [4975.20933481967, 2405.9469061166756], [4986.605099818269, 2417.746826116545]]]}, "properties": {"name": "", "kind": "water", "category": "agua", "extrude": false}}, {"type": "Feature", "geometry": {"type": "Polygon", "coordinates": [[[3370.469496417757, 2512.2575061168036], [3380.3916711150237, 2535.857346116543], [3333.2367814650584, 2555.7836261168563], [3323.3146067677912, 2532.1837861167214], [3370.469496417757, 2512.2575061168036]]]}, "properties": {"name": "", "kind": "water", "category": "agua", "extrude": false}}, {"type": "Feature", "geometry": {"type": "Polygon", "coordinates": [[[4982.773765034108, 2376.8923861164703], [4975.602292233475, 2386.0206261167573], [4959.589277623104, 2373.3301461167634], [4966.760750424085, 2364.3132261165906], [4982.773765034108, 2376.8923861164703]]]}, "properties": {"name": "", "kind": "water", "category": "agua", "extrude": false}}, {"type": "Feature", "geometry": {"type": "Polygon", "coordinates": [[[4917.935791765361, 2342.160546116757], [4911.648473145528, 2349.1737061168474], [4892.982995992409, 2332.4757061166883], [4899.270314612242, 2325.5738661167125], [4917.935791765361, 2342.160546116757]]]}, "properties": {"name": "", "kind": "water", "category": "agua", "extrude": false}}, {"type": "Feature", "geometry": {"type": "Polygon", "coordinates": [[[4927.170290988555, 2317.8927861167263], [4918.034031118899, 2327.577626116795], [4890.52701215639, 2301.64006611663], [4899.565032672857, 2291.9552261165613], [4927.170290988555, 2317.8927861167263]]]}, "properties": {"name": "", "kind": "water", "category": "agua", "extrude": false}}, {"type": "Feature", "geometry": {"type": "Polygon", "coordinates": [[[4622.235337918475, 2286.9458261165532], [4622.824774039356, 2284.2741461165756], [4625.575475935293, 2280.9345461167018], [4630.290964900604, 2278.7081461167863], [4634.417017744684, 2277.483626116714], [4638.641309942651, 2277.5949461168284], [4643.65151696788, 2278.9307861166194], [4646.2057401574375, 2282.1590661167743], [4654.949042613289, 2312.438106116656], [4653.180734251341, 2317.8927861167263], [4649.349399467179, 2321.5663461165477], [4644.044474381684, 2323.904066116578], [4639.132506709995, 2324.238026116526], [4635.49765063256, 2323.2361461166824], [4632.157512615742, 2320.0078661165276], [4630.290964900604, 2316.7795861167688], [4622.4318166255525, 2290.0627861165935], [4622.235337918475, 2286.9458261165532]]]}, "properties": {"name": "", "kind": "water", "category": "agua", "extrude": false}}, {"type": "Feature", "geometry": {"type": "Polygon", "coordinates": [[[4859.090419056529, 2270.581786116738], [4838.460154834385, 2282.6043461168365], [4826.966150482248, 2262.9007061167517], [4847.5964147043915, 2250.878146116653], [4859.090419056529, 2270.581786116738]]]}, "properties": {"name": "", "kind": "water", "category": "agua", "extrude": false}}, {"type": "Feature", "geometry": {"type": "Polygon", "coordinates": [[[4796.90490833053, 2127.3129461165854], [4802.111594062835, 2146.9052661165556], [4783.937313676711, 2158.3712261164774], [4775.292250574397, 2140.114746116694], [4796.90490833053, 2127.3129461165854]]]}, "properties": {"name": "", "kind": "water", "category": "agua", "extrude": false}}, {"type": "Feature", "geometry": {"type": "Polygon", "coordinates": [[[-2424.8664415679546, 1929.0520261168535], [-2431.448478248054, 1935.063306116705], [-2438.816429756112, 1945.3047461165547], [-2444.1213548416063, 1951.9839461166973], [-2446.8720567378923, 1962.893306116838], [-2442.0583284193917, 1977.0309461167378], [-2437.6375575146967, 1982.930906116475], [-2439.7005839369112, 1985.936546116796], [-2445.9879025570926, 1980.3705461166114], [-2453.6505721250683, 1971.6875861167819], [-2453.6505721250683, 1962.3367061166614], [-2448.5421257463017, 1950.6481061165105], [-2439.4058658766444, 1936.176506116663], [-2428.50129764504, 1924.1539461165644], [-2424.8664415679546, 1929.0520261168535]]]}, "properties": {"name": "", "kind": "water", "category": "agua", "extrude": false}}, {"type": "Feature", "geometry": {"type": "Polygon", "coordinates": [[[1803.15885167562, 1898.995626116805], [1806.7937077530544, 1910.238946116498], [1787.7352731861306, 1916.4728661165784], [1784.1004171086963, 1905.22954611649], [1803.15885167562, 1898.995626116805]]]}, "properties": {"name": "", "kind": "water", "category": "agua", "extrude": false}}, {"type": "Feature", "geometry": {"type": "Polygon", "coordinates": [[[2211.539843915639, 1820.1810661164666], [2212.7187161567044, 1823.5206661167356], [2223.7215237418477, 1855.02422611669], [2161.8307310761147, 1874.3939061168267], [2148.666657715568, 1830.645146116545], [2211.539843915639, 1820.1810661164666]]]}, "properties": {"name": "", "kind": "water", "category": "agua", "extrude": false}}, {"type": "Feature", "geometry": {"type": "Polygon", "coordinates": [[[2321.960877179131, 1465.7381861167548], [2295.2397730442317, 1429.2252261167923], [2286.2017525281135, 1396.8311061167137], [2293.667943389361, 1363.3237861166772], [2309.484479292655, 1341.1711061168435], [2313.021096016551, 1317.3486261164796], [2303.590118086279, 1277.607386116758], [2315.5753192057596, 1274.7130661165513], [2322.8450313602793, 1272.9319461166979], [2352.709794805269, 1316.9033461168128], [2351.629161917393, 1363.8803861168537], [2356.9340870028873, 1389.7066261165087], [2413.421715229587, 1439.466666116642], [2394.068562602397, 1444.3647461165356], [2374.715409975207, 1454.3835461165518], [2366.6597829934262, 1460.8401061164657], [2357.9164805372257, 1469.5230661166906], [2349.762614201906, 1480.4324261168313], [2336.5985408413594, 1504.8115061165806], [2321.960877179131, 1465.7381861167548]]]}, "properties": {"name": "Embalse de Cardones", "kind": "water", "category": "agua", "extrude": false}}, {"type": "Feature", "geometry": {"type": "Polygon", "coordinates": [[[2322.8450313602793, 1272.9319461166979], [2315.5753192057596, 1274.7130661165513], [2303.590118086279, 1277.607386116758], [2300.9376555435315, 1278.0526661168205], [2298.481671707512, 1263.0244661167962], [2295.632730458037, 1243.6547861166594], [2290.819002139536, 1232.9680661167477], [2280.0126732614704, 1219.9436261168055], [2271.3676101588076, 1202.911666116699], [2279.2267584338606, 1206.4739061168013], [2283.745768692094, 1208.8116261168316], [2289.934847958737, 1218.4964661165045], [2302.313006491674, 1226.734146116667], [2311.645745068408, 1233.8586261164764], [2319.7013720501886, 1244.990626116846], [2322.943270713469, 1262.0225861165572], [2327.2658022649744, 1271.81874611674], [2322.8450313602793, 1272.9319461166979]]]}, "properties": {"name": "", "kind": "water", "category": "agua", "extrude": false}}, {"type": "Feature", "geometry": {"type": "Polygon", "coordinates": [[[2041.4875231150065, 1096.3784261167375], [2035.200204495174, 1121.2027861165493], [1974.2918053637793, 1085.0237861165347], [1973.4076511829799, 1071.4427461168116], [1980.186166570156, 1066.6559861166368], [1993.743197344508, 1053.297586116747], [1990.894256094684, 1015.6714261168269], [1996.592138594332, 995.9677861167422], [2002.7812178606264, 996.8583461164712], [2009.4614938946127, 1001.7564261167604], [2026.5551413925118, 1053.8541861165281], [2040.1121721668637, 1073.223866116665], [2056.812862251307, 1081.0162661167656], [2041.4875231150065, 1096.3784261167375]]]}, "properties": {"name": "Embalse de Atoncojo", "kind": "water", "category": "agua", "extrude": false}}, {"type": "Feature", "geometry": {"type": "Polygon", "coordinates": [[[2121.9455535803195, 1047.2863061165], [2127.446957372891, 1042.276906116492], [2133.7342759930725, 1038.7146661167849], [2135.60082370821, 1048.1768661166245], [2125.3839309506766, 1053.5202261165805], [2121.9455535803195, 1047.2863061165]]]}, "properties": {"name": "", "kind": "water", "category": "agua", "extrude": false}}, {"type": "Feature", "geometry": {"type": "Polygon", "coordinates": [[[3353.7688063333144, 904.7967061167531], [3354.554721160924, 905.6872661164821], [3343.944870989586, 913.368346116468], [3331.8614305169153, 896.7816661168192], [3342.373041334715, 889.1005861168331], [3353.7688063333144, 904.7967061167531]]]}, "properties": {"name": "", "kind": "water", "category": "agua", "extrude": false}}, {"type": "Feature", "geometry": {"type": "Polygon", "coordinates": [[[87.3103045361433, 890.8817061166866], [95.95536763880571, 885.2043861167829], [103.71627656031968, 878.0799061165781], [108.33352617174286, 876.6327461166724], [111.28070677475665, 879.3044261166503], [107.6458506976714, 890.7703861165721], [102.0462075519103, 901.5684261165984], [93.59762315632489, 909.0268661167511], [90.3557244926956, 902.7929461166707], [87.01558647587683, 896.4477061164758], [87.3103045361433, 890.8817061166866]]]}, "properties": {"name": "", "kind": "water", "category": "agua", "extrude": false}}, {"type": "Feature", "geometry": {"type": "Polygon", "coordinates": [[[5085.139171316168, 1472.6400261167307], [5087.5951551521875, 1473.4192661167408], [5089.658181574402, 1474.977746116761], [5091.131771875734, 1477.0928261165623], [5091.917686703344, 1479.7645061165401], [5091.819447349805, 1482.5475061166326], [5090.64057510874, 1485.2191861166104], [5088.774027393253, 1487.2229461166928], [5086.2198042040445, 1488.558786116484], [5083.469102307759, 1488.8927461168273], [5080.718400411473, 1488.2248261165362], [5078.262416575454, 1486.7776661166306], [5076.592347567043, 1484.4399461166004], [5075.806432739434, 1482.1022261165704], [5075.806432739434, 1479.5418661167068], [5076.592347567043, 1477.0928261165623], [5078.065937868726, 1474.977746116761], [5080.12896429094, 1473.4192661167408], [5082.5849481266105, 1472.6400261167307], [5085.139171316168, 1472.6400261167307]]]}, "properties": {"name": "", "kind": "water", "category": "agua", "extrude": false}}, {"type": "Feature", "geometry": {"type": "Polygon", "coordinates": [[[4704.952873513079, 2362.6434261168515], [4699.844427134312, 2363.3113461167472], [4690.806406617846, 2319.8965461168086], [4689.529295023241, 2267.353506116583], [4676.856418429687, 2246.7593061167695], [4670.765578516583, 2164.27118611661], [4667.130722439498, 2035.1399861167527], [4662.415233474537, 2012.2080661165135], [4642.177926666547, 1964.6744261166914], [4612.607881281824, 1912.576666116528], [4558.576236891144, 1857.9185461165011], [4494.720657156735, 1799.1415861165908], [4436.661199275164, 1742.7023461167105], [4385.183778074042, 1679.695226116802], [4340.091914845942, 1627.1521861165763], [4315.728555193523, 1604.2202661167325], [4287.730339464019, 1568.3752261166658], [4280.951824076844, 1502.6964261167793], [4278.692318947552, 1436.4610261167163], [4270.931410026038, 1307.441146116578], [4264.054655285324, 1203.4682661164802], [4260.026841794433, 1182.8740661166667], [4251.185299985043, 1167.2892661164656], [4229.769120935639, 1163.8383461164776], [4175.639237191769, 1105.395346116515], [4082.4100907793645, 1055.190026116715], [3997.5312894093563, 1005.9865861167584], [3936.5246509247722, 963.9076261166113], [3895.3623618343727, 909.9174261164801], [3865.301119682655, 855.8159061166299], [3839.0712123147496, 835.3330261165353], [3797.515965810545, 753.624146116781], [3767.25824495175, 721.6753061167645], [3720.889270129395, 683.6038661167821], [3662.5350941875577, 608.9081461167228], [3625.4006185880485, 586.4215061165459], [3616.4608374254685, 580.9668261164755], [3602.903806651116, 563.7122261165355], [3593.5710680743823, 545.6783861165854], [3577.852771524277, 518.0710261166814], [3561.2503207933732, 505.26922611657284], [3530.79612122785, 506.2711061168118], [3501.3243151966653, 492.6900661166931], [3491.107422439132, 466.3072261164659], [3483.9359496381508, 456.51106611667853], [3479.5151787334557, 428.56974611682676], [3478.2380671388514, 391.5001861166877], [3477.6486310179694, 352.983466116643], [3492.7774914475413, 322.3704661168132], [3521.16866459085, 243.55590611647486], [3530.2066851073173, 217.50702611659094], [3525.6876748490836, 202.81278611651445], [3525.8841535558117, 180.21482611661853], [3536.002806960155, 131.011386116662], [3538.8517482096304, 77.57778611670744], [3530.403163814045, 52.41946611655251], [3513.898952436679, 38.727106116714936], [3468.8070892089277, 28.263026116636496], [3432.1638103764126, 11.898986116820964], [3400.8254566300907, -7.136733883368009], [3359.564928186152, -46.766653883370566], [3319.1885539233626, -109.2171738834979], [3309.168139872906, -139.27357388315102], [3291.7797743143924, -157.30741388349657], [3292.4674497884635, -218.756053883385], [3287.0642853494305, -274.3047338835363], [3272.7213397474684, -313.3780538833622], [3270.2653559114488, -339.2042938834128], [3261.8167715158634, -353.0079738833648], [3245.607278198764, -396.53409388341754], [3232.050247424412, -426.924453883414], [3218.689695356788, -442.3979338835005], [3201.6942872120785, -467.4449338831455], [3204.6414678154415, -471.11849388336236], [3219.082652770593, -469.78265388317567], [3245.9019962590305, -424.03013388320716], [3259.360787679844, -388.29641388325484], [3274.391408755878, -357.68341388342503], [3285.983652461554, -317.9421738833081], [3299.933640649711, -268.4047738834038], [3309.0699005193683, -223.09753388349748], [3312.9994746567195, -155.97157388330984], [3333.629738878863, -132.0377738832272], [3388.152580036538, -58.67789388335467], [3420.866284731352, -15.374413883530735], [3481.971162569475, 13.902746116507814], [3522.2492974787265, 30.48942611655221], [3541.4059713991883, 46.85346611676323], [3555.6506776476117, 101.17762611684228], [3550.8369493291116, 143.8131861167706], [3552.2123002772546, 186.78270611664672], [3546.710896484683, 220.40134611679775], [3535.511610192812, 254.46526611661554], [3496.2158688178984, 341.7401461165545], [3487.767284422313, 362.2230261166492], [3489.0443960169177, 400.2944661166316], [3496.90354429197, 428.56974611682676], [3505.548607394283, 464.9713861166747], [3516.3549362723497, 481.6693861168335], [3549.3633590274303, 488.45990611669504], [3581.094670187907, 494.91646611660883], [3595.535855143058, 498.033426116649], [3600.7425408753634, 525.0841861167719], [3609.9770400985585, 548.9066661167401], [3616.853794838924, 561.2631861167864], [3625.4006185880485, 569.2782261167202], [3639.7435641900106, 578.7404261165598], [3678.548108797929, 603.7874261166003], [3725.997716508161, 661.8964661166151], [3776.885701588751, 710.7659461166238], [3846.0462064086537, 757.1863861164879], [3911.67009450501, 844.5725861165414], [4001.362624193519, 929.6210661165646], [4129.368501722603, 1025.1336261166664], [4203.244495507468, 1047.6202661168434], [4238.021226624495, 1085.0237861165347], [4267.198314595415, 1146.0271461167563], [4305.118705022184, 1220.166266116639], [4312.683135236971, 1299.8713861167064], [4311.798981056171, 1376.5708661168478], [4320.149326098218, 1470.8589061164819], [4341.172547733818, 1511.824666116671], [4417.308046647974, 1615.6862261166546], [4447.467528153231, 1676.5782661167618], [4483.619610218402, 1733.5741061168187], [4533.91815917811, 1790.7925861167091], [4593.058249947557, 1847.2318261165894], [4646.303979510627, 1910.4615861167267], [4682.456061575798, 1969.015906116804], [4700.826820668651, 2000.853426116706], [4708.19477217636, 2031.8003861164837], [4709.7666018315795, 2091.1339461165708], [4715.268005623802, 2129.6506661166154], [4714.6785695032695, 2154.2523861165937], [4715.660963037607, 2215.8123461165965], [4716.545117218755, 2259.449786116764], [4717.232792692827, 2299.747626116662], [4718.902861701236, 2326.909706116504], [4712.222585667249, 2360.194386116707], [4704.952873513079, 2362.6434261168515]]]}, "properties": {"name": "", "kind": "water", "category": "agua", "extrude": false}}, {"type": "Feature", "geometry": {"type": "Polygon", "coordinates": [[[4655.931436147627, 557.9235861165173], [4657.012069035503, 560.2613061165475], [4704.559916099274, 537.774666116766], [4730.593344760102, 592.878066116855], [4669.684945629056, 621.598626116717], [4642.5708840800025, 564.2688261167121], [4655.931436147627, 557.9235861165173]]]}, "properties": {"name": "", "kind": "reservoir", "category": "agua", "extrude": false}}, {"type": "Feature", "geometry": {"type": "Polygon", "coordinates": [[[4536.668861074396, 382.59458611662933], [4532.739286937043, 380.0342261167658], [4529.1044308599585, 374.69086611680996], [4528.318516032348, 370.12674611646855], [4528.809712799343, 366.787146116595], [4530.7744998683675, 362.55698611659693], [4534.0163985316485, 359.2173861167234], [4537.749493962272, 357.4362661164744], [4542.268504220505, 356.8796661166932], [4546.885753831928, 357.8815461165367], [4552.092439564233, 361.7777461165869], [4553.664269219105, 364.2267861167315], [4555.039620167247, 368.6795861165629], [4554.744902106981, 373.24370611650875], [4552.976593745033, 377.58518611662123], [4551.110046029896, 379.811586116537], [4547.278711245734, 382.371946116796], [4542.7597009875, 383.5964661164728], [4536.668861074396, 382.59458611662933]]]}, "properties": {"name": "", "kind": "reservoir", "category": "agua", "extrude": false}}, {"type": "Feature", "geometry": {"type": "Polygon", "coordinates": [[[4634.122299684418, 247.56342611663953], [4650.233553648327, 270.2727061166499], [4604.355775592966, 308.3441461166324], [4583.921990077899, 286.97070611680874], [4634.122299684418, 247.56342611663953]]]}, "properties": {"name": "", "kind": "reservoir", "category": "agua", "extrude": false}}, {"type": "Feature", "geometry": {"type": "Polygon", "coordinates": [[[2061.037154449274, 834.776426116754], [2063.4931382852933, 830.9915461168182], [2066.7350369485735, 828.987786116736], [2068.5033453105216, 832.8839861167862], [2069.0927814310544, 840.11978611671], [2067.7174304829114, 841.3443061167823], [2061.33187250954, 842.6801461165735], [2061.037154449274, 834.776426116754]]]}, "properties": {"name": "", "kind": "water", "category": "agua", "extrude": false}}, {"type": "Feature", "geometry": {"type": "Polygon", "coordinates": [[[2418.8248796686203, 816.5199461165752], [2427.2734640642057, 803.829466116581], [2436.507963287401, 799.9332661165307], [2449.1808398809535, 780.6749061165084], [2456.1558339748576, 763.8655861166307], [2440.339298071563, 735.70162611655], [2439.651622597492, 716.8885461165899], [2454.584004319987, 728.5771461167406], [2481.7963052222294, 754.8486661168533], [2490.8343257383476, 779.6730261166649], [2485.529400652853, 803.1615461166854], [2472.8565240593007, 809.9520661165469], [2455.468158500786, 830.9915461168182], [2461.951955827696, 843.0141061165214], [2453.6016107856485, 841.1216661165533], [2445.5459838035194, 839.897146116481], [2435.918527166868, 841.2329861166678], [2433.266064623772, 841.7895861168445], [2426.3893098834064, 845.6857861164992], [2416.368895832601, 854.3687461167242], [2418.8248796686203, 816.5199461165752]]]}, "properties": {"name": "Embalse de Cascajo", "kind": "water", "category": "agua", "extrude": false}}, {"type": "Feature", "geometry": {"type": "Polygon", "coordinates": [[[2144.933562284944, 761.0825861165382], [2141.9863816815814, 771.2127061166689], [2128.2328722005013, 767.3165061166186], [2131.081813450325, 757.075066116769], [2144.933562284944, 761.0825861165382]]]}, "properties": {"name": "", "kind": "water", "category": "agua", "extrude": false}}, {"type": "Feature", "geometry": {"type": "Polygon", "coordinates": [[[1989.6171445000791, 752.0656661167609], [1985.589331009189, 749.6166261166163], [1986.9646819573318, 747.3902261167007], [1990.9924954482221, 749.7279461167308], [1989.6171445000791, 752.0656661167609]]]}, "properties": {"name": "", "kind": "water", "category": "agua", "extrude": false}}, {"type": "Feature", "geometry": {"type": "Polygon", "coordinates": [[[1960.3418171756225, 677.7039061166495], [1952.1879508403033, 676.2567461167439], [1943.6411270915285, 679.5963461166174], [1938.8273987730283, 677.9265461164829], [1932.3436014461188, 671.5813061166835], [1926.5474795932807, 665.1247461167698], [1923.3055809296511, 652.8795461168379], [1937.2555691178084, 649.5399461165688], [1948.0618979962235, 652.9908661165568], [1956.0192856244655, 655.6625461165347], [1962.5030829513753, 668.7983061165912], [1963.2889977789853, 676.9246661166394], [1960.3418171756225, 677.7039061166495]]]}, "properties": {"name": "", "kind": "water", "category": "agua", "extrude": false}}, {"type": "Feature", "geometry": {"type": "Polygon", "coordinates": [[[-2646.985619690242, 2100.7074661165248], [-2589.220879868938, 2089.241506116603], [-2562.794493794305, 2081.7830661168455], [-2550.809292674824, 2070.873706116705], [-2533.224448409582, 2063.7492261165003], [-2512.4959448342483, 2063.7492261165003], [-2500.9037011285723, 2060.186986116793], [-2482.9258994495253, 2034.2494261166282], [-2466.4216880718104, 2003.7477461165172], [-2444.9072696692165, 1993.2836661168344], [-2439.7005839369112, 1985.936546116796], [-2437.6375575146967, 1982.930906116475], [-2427.125946696897, 1983.5988261167658], [-2418.4808835945837, 1971.130986116605], [-2413.470676569006, 1956.2141061166953], [-2422.9998938524686, 1931.612386116717], [-2424.8664415679546, 1929.0520261168535], [-2428.50129764504, 1924.1539461165644], [-2429.2872124726496, 1917.808706116765], [-2436.262206566554, 1910.4615861167267], [-2439.4058658766444, 1905.8974661167808], [-2437.146360747702, 1899.3295861167528], [-2428.2065795847734, 1892.4277461167767], [-2419.5615164821106, 1891.425866116538], [-2410.621735319531, 1891.314546116819], [-2389.696753037121, 1886.082506116582], [-2374.4696532543594, 1879.1806661166058], [-2368.182334634527, 1874.7278661167745], [-2364.154521143637, 1861.1468261166558], [-2360.814383126818, 1851.6846261168164], [-2356.590090928851, 1844.8941061165592], [-2342.5418633871554, 1832.6489061166274], [-2336.352784120861, 1828.5300661167437], [-2337.040459594933, 1822.7414261167255], [-2342.5418633871554, 1811.8320661165849], [-2342.5418633871554, 1801.9245861166833], [-2336.058066060246, 1786.7850661165444], [-2332.42320998316, 1767.9719861165843], [-2325.8411733030616, 1736.1344661166822], [-2313.168296709509, 1707.9705061166014], [-2301.3795742971047, 1701.2913061168545], [-2290.671484772228, 1696.1705861167318], [-2293.520426022052, 1682.923506116561], [-2296.4676066250663, 1675.242426116575], [-2303.639079426047, 1670.7896261167436], [-2309.9263980458795, 1668.4519061167134], [-2320.8309662774845, 1666.2255061167978], [-2322.9922320532373, 1663.1085461167575], [-2320.4380088636794, 1659.101026116593], [-2315.1330837781848, 1655.6501061166048], [-2301.2813349435664, 1651.4199461166068], [-2289.9838092981563, 1644.0728261165686], [-2290.082048651695, 1610.0089061167507], [-2286.152474513994, 1589.526026116656], [-2281.4369855490327, 1574.943106116694], [-2260.2172852067047, 1559.4696261166075], [-2246.6602544323528, 1535.8697861164726], [-2236.0504042610146, 1501.805866116655], [-2224.949357322682, 1489.6719861168374], [-2209.034582065849, 1469.8570261166383], [-2192.3338919814064, 1457.83446611654], [-2169.345883276782, 1422.2120661167019], [-2161.584974355268, 1385.6991061167396], [-2173.570175474749, 1344.5107061167168], [-2174.356090302359, 1331.9315461168371], [-2181.920520516796, 1326.0315861167046], [-2184.376504352815, 1317.7939061165418], [-2177.8927070259056, 1303.8789061164755], [-2166.398702673768, 1295.5299061165938], [-2123.2716265146923, 1294.8619861166983], [-2127.9871154796538, 1313.4524261168249], [-2157.655400217916, 1320.46558611652], [-2157.065964097383, 1344.2880661164882], [-2147.2420287536547, 1383.8066661167718], [-2142.8212578489597, 1407.7404661168543], [-2147.6349861671106, 1430.8950261165314], [-2166.398702673768, 1452.2684661167505], [-2185.55537659423, 1472.1947461166685], [-2201.7648699113297, 1482.1022261165704], [-2220.1356290041817, 1495.4606261168556], [-2227.4053411583523, 1507.928466116621], [-2237.4257552091576, 1547.447066116509], [-2251.0810253370482, 1579.8411861165878], [-2260.1190458531664, 1587.4109461168548], [-2273.57783727398, 1584.6279461167624], [-2277.6056507652193, 1585.0732261168246], [-2284.1876874453183, 1608.5617461168451], [-2284.384166152395, 1618.9145061168092], [-2281.829942962838, 1634.8332661165623], [-2287.331346755409, 1651.5312661167213], [-2295.7799311509943, 1656.2067061167816], [-2306.193302615256, 1658.4331061166972], [-2307.568653563399, 1660.4368661167796], [-2291.162681539571, 1670.3443461166812], [-2280.159873954428, 1678.8046661166775], [-2278.2933262392908, 1687.932906116569], [-2274.4619914551286, 1696.3932261165653], [-2274.167273394862, 1703.5177061167701], [-2280.945788782038, 1709.0837061165594], [-2291.948596366832, 1709.6403061167362], [-2299.5130265816183, 1714.3157461167964], [-2302.3619678314426, 1719.4364661165234], [-2317.4908282606657, 1746.041946116584], [-2318.1785037347368, 1775.6530661165702], [-2328.3953964922703, 1781.7756661165363], [-2322.8939926996986, 1792.4623861168436], [-2326.135891363328, 1809.8283061165025], [-2330.0654655006797, 1826.8602661166092], [-2335.5668692932513, 1833.0941861166896], [-2351.8746019638893, 1846.229946116746], [-2356.000654808318, 1851.0167061165253], [-2356.590090928851, 1857.36194611672], [-2358.26015993726, 1869.8297861164854], [-2364.8421966177084, 1884.0787461164996], [-2381.6411260553405, 1891.7598261164856], [-2393.1351304074783, 1893.8749061166825], [-2408.36223019024, 1895.7673461166503], [-2419.463277128921, 1896.323946116827], [-2426.143553162559, 1897.7711061167327], [-2426.8312286366304, 1900.3314661165962], [-2429.2872124726496, 1910.3502661166124], [-2422.4104577319354, 1913.912506116715], [-2413.2741978622785, 1917.5860661165361], [-2409.2463843713886, 1926.9369461166568], [-2399.42244902766, 1944.9707861166069], [-2402.0749115704075, 1969.015906116804], [-2413.470676569006, 1983.0422261165893], [-2426.929467990169, 1992.39310611671], [-2429.6801698864547, 1993.2836661168344], [-2431.251999541326, 2003.7477461165172], [-2457.776624969497, 2015.7703061166158], [-2470.6459802697777, 2034.5833861165759], [-2483.711814277135, 2054.6209861166085], [-2490.7850477245775, 2069.3152261166847], [-2505.815668800262, 2075.9944261168275], [-2531.0631826338285, 2084.5660661165425], [-2553.1670371573045, 2091.6905461167476], [-2584.2106728437097, 2104.7149861166895], [-2630.677887019604, 2120.5224261167236], [-2646.789140983165, 2125.7544661165653], [-2664.963421369289, 2105.048946116637], [-2646.985619690242, 2100.7074661165248]]]}, "properties": {"name": "", "kind": "water", "category": "agua", "extrude": false}}, {"type": "Feature", "geometry": {"type": "Polygon", "coordinates": [[[-3625.547819281355, 640.1890661168437], [-3615.429165877011, 645.5324261167996], [-3619.7516974285168, 656.7757461164927], [-3630.9509837203877, 651.2097461167034], [-3625.547819281355, 640.1890661168437]]]}, "properties": {"name": "", "kind": "water", "category": "agua", "extrude": false}}, {"type": "Feature", "geometry": {"type": "Polygon", "coordinates": [[[-4369.514442863357, 1027.582666116811], [-4375.998240190265, 1013.8903061165779], [-4357.922199157681, 992.9621461168165], [-4363.718321010518, 979.4924261168123], [-4380.124293034694, 960.4567061166233], [-4407.827790703931, 928.0625861165446], [-4438.183750916265, 892.66282611654], [-4352.519034718647, 845.6857861164992], [-4272.846919080944, 782.5673461164763], [-4200.54275495095, 730.2469461164796], [-4159.773423274355, 701.1924261166699], [-4092.4794661695896, 639.4098261168336], [-4046.699927467766, 588.0913061166804], [-4028.4274077284526, 536.4388261165793], [-4029.802758676596, 503.71074611655274], [-3966.733093769797, 403.6340661165052], [-3878.8088724432364, 322.9270661165944], [-3840.692003309389, 289.1971061167244], [-3786.070922798176, 240.2163061166013], [-3743.533282759633, 200.25242611665092], [-3702.174514962506, 175.20542611661043], [-3669.9520070350345, 164.1847461167508], [-3642.543227425715, 160.399866116815], [-3615.429165877011, 149.1565461167265], [-3593.7182687673403, 135.24154611666006], [-3584.5820088976834, 125.11142611652943], [-3575.445749028026, 103.18138611652913], [-3562.0851969604023, 98.28330611663546], [-3494.0053250283754, 104.85118611666365], [-3466.793024126133, 104.29458611648698], [-3422.0941183121863, 95.38898611682413], [-3426.6131285700712, 114.20206611678424], [-3457.8532429632037, 119.1001461166779], [-3493.022931494038, 125.89066611653948], [-3541.8478901524127, 137.5792661166902], [-3571.2214568304084, 136.13210611678454], [-3589.0027798023784, 141.36414611662602], [-3615.920362644354, 160.84514611648174], [-3644.2132964344732, 175.53938611655823], [-3683.017841042044, 179.88086611667072], [-3689.5998777224913, 180.99406611662857], [-3698.441419531882, 188.67514611661463], [-3729.3868158647483, 213.16554611647845], [-3766.128334050104, 246.00494611661944], [-3803.655767063418, 285.3009061166742], [-3840.59376395585, 313.4648661167549], [-3909.066593301682, 383.8191061167016], [-3934.8053039025926, 409.0887461165755], [-3956.123243598459, 416.2132261167804], [-3990.114059887877, 477.21658611660655], [-3991.6858895427486, 528.7577461165932], [-4016.835164022776, 597.3308661166866], [-4060.9446337161894, 712.7697061167062], [-4097.489673195167, 766.0919861165463], [-4151.914274999303, 790.6937061165246], [-4177.849464306941, 814.5161861164928], [-4198.970925296078, 839.1179061164711], [-4207.124791631398, 854.3687461167242], [-4229.326885508063, 868.6177061167384], [-4259.3881276601305, 880.0836661166603], [-4292.985986535744, 914.8155061167693], [-4306.641256663285, 929.2871061166169], [-4306.641256663285, 964.575546116507], [-4317.54582489489, 991.0697061168486], [-4338.962003944294, 1014.0016261166923], [-4357.234523683609, 1032.703386116538], [-4364.504235838128, 1037.935426116775], [-4369.514442863357, 1027.582666116811]]]}, "properties": {"name": "", "kind": "water", "category": "agua", "extrude": false}}, {"type": "Feature", "geometry": {"type": "Polygon", "coordinates": [[[2209.2803387863473, 596.3289861168431], [2200.438796976957, 610.2439861165141], [2189.730707452429, 603.4534661166525], [2198.5722492618193, 589.538466116586], [2209.2803387863473, 596.3289861168431]]]}, "properties": {"name": "", "kind": "water", "category": "agua", "extrude": false}}, {"type": "Feature", "geometry": {"type": "Polygon", "coordinates": [[[1347.7212091395236, 332.277946116715], [1360.6888037933427, 318.6969061165963], [1366.7796437064471, 324.4855461166145], [1353.812049052628, 338.0665861167331], [1347.7212091395236, 332.277946116715]]]}, "properties": {"name": "", "kind": "water", "category": "agua", "extrude": false}}, {"type": "Feature", "geometry": {"type": "Polygon", "coordinates": [[[1107.231271924384, 246.5615461167961], [1106.838314510579, 255.80110611680226], [1098.095012054727, 256.91430611676014], [1093.281283736227, 257.1369461165935], [1092.888326322422, 247.56342611663953], [1107.231271924384, 246.5615461167961]]]}, "properties": {"name": "", "kind": "water", "category": "agua", "extrude": false}}, {"type": "Feature", "geometry": {"type": "Polygon", "coordinates": [[[1186.8051482088974, 215.5032661165086], [1189.8505681654499, 208.37878611669922], [1203.800556353607, 214.2787461168318], [1200.7551363970547, 221.40322611664118], [1186.8051482088974, 215.5032661165086]]]}, "properties": {"name": "", "kind": "water", "category": "agua", "extrude": false}}, {"type": "Feature", "geometry": {"type": "Polygon", "coordinates": [[[-183.83031095124701, 133.68306611663996], [-181.76728452903265, 149.37918611655988], [-206.22888353498948, 183.77706611672096], [-261.1446821068182, 216.5051461167475], [-272.7369258124944, 248.34266611664958], [-289.24113718986024, 274.28022611681456], [-304.5664763261602, 260.2539061166337], [-319.0076612813117, 247.00682611685835], [-294.2513442150884, 224.297546116848], [-292.974232620484, 216.28250611651865], [-287.4728288279124, 210.60518611661493], [-270.1827026229366, 195.68830611670506], [-200.92395844949485, 152.71878611682894], [-183.83031095124701, 133.68306611663996]]]}, "properties": {"name": "Presa de Bahßia", "kind": "water", "category": "agua", "extrude": false}}, {"type": "Feature", "geometry": {"type": "Polygon", "coordinates": [[[887.0768808707728, 218.6202261165488], [879.9054080701407, 217.3957061164765], [874.8952010445636, 217.7296661168198], [873.4216107432312, 214.83534611661298], [873.9128075102255, 210.93914611656274], [876.5652700529729, 203.9259861164723], [877.2529455270444, 195.91094611653844], [883.1473067334209, 188.007226116719], [886.7821628105062, 176.9865461164639], [887.3715989313882, 166.74510611661432], [885.1120938020969, 157.72818611683704], [879.4142113027972, 149.60182611678874], [880.0036474233302, 145.3716661167907], [878.7265358287258, 143.36790611670835], [886.8804021640448, 143.70186611665616], [892.6765240168828, 148.59994611654983], [898.1779278094544, 156.39234611665032], [903.7775709552155, 162.6262661167307], [904.7599644895536, 173.98090611653814], [904.3670070760975, 180.32614611673296], [903.2863741882211, 187.6732661167712], [899.4550394040589, 195.24302611664282], [894.9360291458252, 204.48258611664897], [891.9888485428113, 213.6108261165407], [892.2835666030778, 221.1805861168078], [887.0768808707728, 218.6202261165488]]]}, "properties": {"name": "", "kind": "water", "category": "agua", "extrude": false}}, {"type": "Feature", "geometry": {"type": "Polygon", "coordinates": [[[1145.2499017046928, 21.583826116493867], [1145.2499017046928, 32.827146116582355], [1135.2294876542367, 32.827146116582355], [1124.717876836437, 32.93846611669679], [1124.717876836437, 21.583826116493867], [1145.2499017046928, 21.583826116493867]]]}, "properties": {"name": "", "kind": "water", "category": "agua", "extrude": false}}, {"type": "Feature", "geometry": {"type": "Polygon", "coordinates": [[[-2591.7751030581467, -140.27545388338993], [-2572.3237110777673, -126.80573388338573], [-2585.487784438314, -114.67185388317276], [-2591.5786243514185, -100.7568538835018], [-2610.2441015045374, -107.88133388331119], [-2591.7751030581467, -140.27545388338993]]]}, "properties": {"name": "", "kind": "water", "category": "agua", "extrude": false}}, {"type": "Feature", "geometry": {"type": "Polygon", "coordinates": [[[1349.5877568546607, 8.78202611678077], [1354.794442586966, 18.02158611678692], [1338.7814279765946, 29.821506116656593], [1331.708194529152, 22.029106116556108], [1349.5877568546607, 8.78202611678077]]]}, "properties": {"name": "", "kind": "water", "category": "agua", "extrude": false}}, {"type": "Feature", "geometry": {"type": "Polygon", "coordinates": [[[817.1304612232595, -8.472573883159242], [816.9339825165315, -0.6801738834542448], [809.467791655284, -1.014133883402053], [809.6642703620121, -9.140493883450347], [817.1304612232595, -8.472573883159242]]]}, "properties": {"name": "", "kind": "water", "category": "agua", "extrude": false}}, {"type": "Feature", "geometry": {"type": "Polygon", "coordinates": [[[4651.903622656737, 231.7559861166052], [4641.588490545665, 247.1181461165773], [4632.157512615742, 240.77290611677796], [4642.472644726813, 225.41074611680585], [4651.903622656737, 231.7559861166052]]]}, "properties": {"name": "", "kind": "reservoir", "category": "agua", "extrude": false}}, {"type": "Feature", "geometry": {"type": "Polygon", "coordinates": [[[768.6984599786895, -276.0858538833898], [766.9301516167415, -261.1689738834799], [759.660439462571, -262.0595338832089], [761.4287478245188, -276.9764138835143], [768.6984599786895, -276.0858538833898]]]}, "properties": {"name": "", "kind": "water", "category": "agua", "extrude": false}}, {"type": "Feature", "geometry": {"type": "Polygon", "coordinates": [[[1564.338983469239, -348.8891338834811], [1564.338983469239, -346.32877388322214], [1557.6587074352526, -346.32877388322214], [1557.6587074352526, -353.7872138833748], [1564.338983469239, -353.7872138833748], [1564.338983469239, -348.8891338834811]]]}, "properties": {"name": "", "kind": "water", "category": "agua", "extrude": false}}, {"type": "Feature", "geometry": {"type": "Polygon", "coordinates": [[[814.8709560943172, -406.55289388343374], [818.3093334646745, -426.59049388346614], [821.2565140676882, -436.7206138832013], [826.4631997999934, -443.39981388334394], [840.8061454019554, -440.95077388319936], [845.8163524271836, -425.92257388317506], [842.7709324706314, -409.89249388330734], [843.1638898844362, -395.4208938834597], [843.3603685911642, -388.96433388315046], [843.2621292379747, -388.29641388325484], [837.5642467383261, -392.19261388330506], [827.0526359205263, -396.31145388318873], [819.6846844128173, -397.98125388332323], [806.1276536384653, -399.4284138832289], [814.8709560943172, -406.55289388343374]]]}, "properties": {"name": "", "kind": "water", "category": "agua", "extrude": false}}, {"type": "Feature", "geometry": {"type": "Polygon", "coordinates": [[[-116.73283255355814, -445.7375338833741], [-107.3018546236348, -445.96017388320746], [-103.47051983947256, -442.3979338835005], [-109.26664169231066, -430.26405388328754], [-111.329668114525, -429.59613388339193], [-114.76804548488228, -434.93949388334784], [-118.7958589757725, -439.6149338834081], [-116.73283255355814, -445.7375338833741]]]}, "properties": {"name": "", "kind": "water", "category": "agua", "extrude": false}}, {"type": "Feature", "geometry": {"type": "Polygon", "coordinates": [[[1502.93938757085, -495.163613883164], [1508.931988130416, -473.79017388334034], [1496.6520689506683, -470.7845338834146], [1491.1506651580964, -493.04853388336267], [1502.93938757085, -495.163613883164]]]}, "properties": {"name": "", "kind": "water", "category": "agua", "extrude": false}}, {"type": "Feature", "geometry": {"type": "Polygon", "coordinates": [[[-78.0265272991778, -524.552093883317], [-80.58075048838663, -519.4313738831944], [-86.18039363449674, -522.659653883349], [-83.62617044528793, -526.5558538833993], [-78.0265272991778, -524.552093883317]]]}, "properties": {"name": "", "kind": "water", "category": "agua", "extrude": false}}, {"type": "Feature", "geometry": {"type": "Polygon", "coordinates": [[[411.303692173148, -548.0406138833373], [408.35651156978514, -542.1406538832048], [404.62341613916146, -543.6991338832249], [405.3110916132329, -549.0424938831808], [405.3110916132329, -554.71981388348], [409.5353838112001, -555.8330138834378], [411.303692173148, -548.0406138833373]]]}, "properties": {"name": "", "kind": "water", "category": "agua", "extrude": false}}, {"type": "Feature", "geometry": {"type": "Polygon", "coordinates": [[[-1565.5668170500735, -498.83717388338084], [-1561.1460461453783, -497.27869388336075], [-1560.7530887315731, -495.8315338834551], [-1567.1386467049442, -494.82965388321617], [-1568.0228008860927, -498.05793388337077], [-1565.5668170500735, -498.83717388338084]]]}, "properties": {"name": "", "kind": "water", "category": "agua", "extrude": false}}, {"type": "Feature", "geometry": {"type": "Polygon", "coordinates": [[[-2233.103223658001, -663.9247338834193], [-2234.7732926664103, -670.8265738833952], [-2234.6750533128716, -673.2756138831444], [-2233.7908991320724, -674.8340938831644], [-2231.6296333563196, -676.2812538834656], [-2228.9771708135722, -675.8359738834033], [-2224.949357322682, -670.7152538832809], [-2226.9141443913577, -661.2530538834413], [-2233.103223658001, -663.9247338834193]]]}, "properties": {"name": "", "kind": "water", "category": "agua", "extrude": false}}, {"type": "Feature", "geometry": {"type": "Polygon", "coordinates": [[[-5009.642069862313, -777.0258538834088], [-5006.891367966027, -774.6881338833787], [-5009.93678792258, -771.1258938832761], [-5012.687489818865, -773.4636138833064], [-5009.642069862313, -777.0258538834088]]]}, "properties": {"name": "", "kind": "water", "category": "agua", "extrude": false}}, {"type": "Feature", "geometry": {"type": "Polygon", "coordinates": [[[-4989.208284347246, -786.0427738831861], [-4992.941379777871, -781.3673338835213], [-5000.5058099926555, -787.3786138833727], [-4996.772714562033, -792.0540538834331], [-4989.208284347246, -786.0427738831861]]]}, "properties": {"name": "", "kind": "water", "category": "agua", "extrude": false}}, {"type": "Feature", "geometry": {"type": "Polygon", "coordinates": [[[-2776.7598055809244, -801.7388938835015], [-2775.286215279592, -801.6275738833871], [-2774.205582391716, -800.7370138832625], [-2775.1879759260532, -799.289853883357], [-2776.9562842880014, -798.9558938834091], [-2778.1351565290674, -800.2917338832003], [-2776.7598055809244, -801.7388938835015]]]}, "properties": {"name": "", "kind": "water", "category": "agua", "extrude": false}}, {"type": "Feature", "geometry": {"type": "Polygon", "coordinates": [[[375.64280687531993, -641.3267738835234], [381.7336467884245, -635.872093883453], [374.9551314012485, -631.4192938832261], [373.18682303930063, -634.090973883204], [373.38330174602856, -639.7682938835032], [375.64280687531993, -641.3267738835234]]]}, "properties": {"name": "", "kind": "water", "category": "agua", "extrude": false}}, {"type": "Feature", "geometry": {"type": "Polygon", "coordinates": [[[1063.220041584509, -681.9585738833694], [1060.7640577484897, -674.611453883331], [1045.831676025995, -685.4094938833573], [1050.1542075771515, -689.8622938831887], [1063.220041584509, -681.9585738833694]]]}, "properties": {"name": "", "kind": "water", "category": "agua", "extrude": false}}, {"type": "Feature", "geometry": {"type": "Polygon", "coordinates": [[[-4164.881869653122, -829.1236138831766], [-4175.884677238265, -806.1916938833328], [-4189.441708012617, -826.6745738834276], [-4164.881869653122, -829.1236138831766]]]}, "properties": {"name": "", "kind": "water", "category": "agua", "extrude": false}}, {"type": "Feature", "geometry": {"type": "Polygon", "coordinates": [[[-4960.325914436595, -818.882173883327], [-4961.995983445004, -820.5519738834616], [-4963.1748556864195, -822.5557338831484], [-4963.371334393147, -825.6726938831887], [-4962.683658919075, -827.8990938834999], [-4961.897744091814, -829.0122938834577], [-4960.129435729867, -830.4594538833634], [-4957.968169954113, -831.3500138834878], [-4954.6280319372945, -831.127373883259], [-4952.565005515081, -830.014173883301], [-4950.501979092866, -827.3424938833232], [-4949.9125429723335, -825.1160938834074], [-4950.109021679061, -823.2236538834395], [-4950.99317586021, -820.9972538835239], [-4952.565005515081, -819.3274538833894], [-4954.431553230566, -818.3255738831504], [-4956.691058359509, -817.8802938834837], [-4959.0488028419895, -818.3255738831504], [-4960.325914436595, -818.882173883327]]]}, "properties": {"name": "", "kind": "water", "category": "agua", "extrude": false}}, {"type": "Feature", "geometry": {"type": "Polygon", "coordinates": [[[-4973.9811845644845, -888.4571738832637], [-4941.365719223209, -851.4989338832391], [-4984.198077322018, -813.7614538832045], [-5016.813542663294, -850.8310138833435], [-4973.9811845644845, -888.4571738832637]]]}, "properties": {"name": "", "kind": "water", "category": "agua", "extrude": false}}, {"type": "Feature", "geometry": {"type": "Polygon", "coordinates": [[[-1956.3629650245002, -995.1017338833395], [-1949.2897315770579, -993.0979738832572], [-1940.153471707052, -992.9866538831427], [-1939.2693175262525, -991.0942138831749], [-1945.4583967928957, -976.5112938832128], [-1948.0126199821043, -972.726413883277], [-1959.7031030413193, -972.6150938831626], [-1961.1766933430004, -974.8414938834737], [-1956.3629650245002, -995.1017338833395]]]}, "properties": {"name": "", "kind": "water", "category": "agua", "extrude": false}}, {"type": "Feature", "geometry": {"type": "Polygon", "coordinates": [[[-2775.7774120465865, -1027.9411338834805], [-2775.48269398632, -1029.4996138835006], [-2773.910864331449, -1031.7260138834163], [-2771.9460772627735, -1032.2826138831974], [-2768.4094605388777, -1031.280733883354], [-2766.149955409935, -1027.050573883356], [-2765.3640405823253, -1023.7109738834824], [-2769.7848114870208, -1021.7072138834001], [-2773.223188857378, -1024.9354938831593], [-2774.893257865787, -1026.6052938832938], [-2775.7774120465865, -1027.9411338834805]]]}, "properties": {"name": "", "kind": "water", "category": "agua", "extrude": false}}, {"type": "Feature", "geometry": {"type": "Polygon", "coordinates": [[[-2237.4257552091576, -1076.365333883427], [-2237.131037148891, -1072.8030938833244], [-2243.811313182529, -1070.3540538831799], [-2245.186664130672, -1074.027613883397], [-2237.4257552091576, -1076.365333883427]]]}, "properties": {"name": "", "kind": "water", "category": "agua", "extrude": false}}, {"type": "Feature", "geometry": {"type": "Polygon", "coordinates": [[[1065.2830680067236, -715.5772138835204], [1071.6686259800945, -708.5640538834299], [1066.3637008942508, -703.6659738835363], [1059.8799035676902, -710.6791338832312], [1065.2830680067236, -715.5772138835204]]]}, "properties": {"name": "", "kind": "water", "category": "agua", "extrude": false}}, {"type": "Feature", "geometry": {"type": "Polygon", "coordinates": [[[1238.9702448840915, -800.7370138832625], [1227.7709585922203, -782.591853883198], [1219.3223741966349, -787.8238938834351], [1230.521660488506, -805.9690538834996], [1238.9702448840915, -800.7370138832625]]]}, "properties": {"name": "", "kind": "water", "category": "agua", "extrude": false}}, {"type": "Feature", "geometry": {"type": "Polygon", "coordinates": [[[945.4310568129587, -826.897213883261], [950.6377425449148, -813.9840938834334], [940.0278923739256, -809.6426138833209], [934.7229672880819, -822.5557338831484], [945.4310568129587, -826.897213883261]]]}, "properties": {"name": "", "kind": "water", "category": "agua", "extrude": false}}, {"type": "Feature", "geometry": {"type": "Polygon", "coordinates": [[[776.9505656675467, -900.1457738834144], [777.8347198483463, -897.6967338832699], [776.7540869604699, -889.7930138834505], [775.378736012327, -889.5703738832217], [769.5826141598378, -890.9062138834083], [771.3509225214367, -902.0382138833825], [776.9505656675467, -900.1457738834144]]]}, "properties": {"name": "", "kind": "water", "category": "agua", "extrude": false}}, {"type": "Feature", "geometry": {"type": "Polygon", "coordinates": [[[512.883183627599, -931.9832938833166], [507.57825854175536, -945.3416938832063], [531.0574640133742, -943.0039738831762], [529.9768311254978, -930.202173883463], [512.883183627599, -931.9832938833166]]]}, "properties": {"name": "", "kind": "water", "category": "agua", "extrude": false}}, {"type": "Feature", "geometry": {"type": "Polygon", "coordinates": [[[515.9286035841512, -1147.944093883446], [529.1909162982369, -1136.7007738833577], [522.3141615575223, -1128.5744138833093], [509.05184884343674, -1139.8177338833978], [515.9286035841512, -1147.944093883446]]]}, "properties": {"name": "", "kind": "water", "category": "agua", "extrude": false}}, {"type": "Feature", "geometry": {"type": "Polygon", "coordinates": [[[678.1217761093816, -1234.6623738832084], [673.7010052046863, -1225.0888538832544], [665.7436175760955, -1227.537893883399], [664.1717879212246, -1229.9869338831481], [666.234814343439, -1236.8887738835197], [678.1217761093816, -1234.6623738832084]]]}, "properties": {"name": "", "kind": "water", "category": "agua", "extrude": false}}, {"type": "Feature", "geometry": {"type": "Polygon", "coordinates": [[[542.354989658784, -1294.5525338834723], [554.733148191721, -1287.205413883434], [548.3475902183501, -1278.522453883209], [535.8711923318743, -1284.8676938834037], [532.4328149615171, -1289.5431338834642], [542.354989658784, -1294.5525338834723]]]}, "properties": {"name": "", "kind": "water", "category": "agua", "extrude": false}}, {"type": "Feature", "geometry": {"type": "Polygon", "coordinates": [[[2366.9545010536926, -1297.2242138834501], [2370.6875964843166, -1295.1091338832534], [2370.6875964843166, -1286.4261738834239], [2360.9619004937776, -1287.984653883444], [2359.8812676062503, -1292.4374538832753], [2366.9545010536926, -1297.2242138834501]]]}, "properties": {"name": "", "kind": "water", "category": "agua", "extrude": false}}, {"type": "Feature", "geometry": {"type": "Polygon", "coordinates": [[[1943.0516909706466, -1520.1981738832746], [1943.9358451517946, -1513.964253883194], [1933.8171917478, -1512.628413883403], [1932.9330375666518, -1518.8623338834832], [1943.0516909706466, -1520.1981738832746]]]}, "properties": {"name": "", "kind": "water", "category": "agua", "extrude": false}}, {"type": "Feature", "geometry": {"type": "Polygon", "coordinates": [[[-161.92293513484802, -1562.054493883193], [-160.35110547997715, -1563.3903338833795], [-157.79688229041932, -1561.4978938834115], [-156.3232919887379, -1559.3828138832148], [-157.69864293688082, -1556.1545338834558], [-160.25286612643865, -1555.0413338834978], [-162.51237125538097, -1557.1564138832991], [-163.29828608299093, -1559.048853883267], [-161.92293513484802, -1562.054493883193]]]}, "properties": {"name": "", "kind": "water", "category": "agua", "extrude": false}}, {"type": "Feature", "geometry": {"type": "Polygon", "coordinates": [[[-140.80147414571, -1574.411013883239], [-132.74584716392954, -1585.4316938834943], [-121.64480022559681, -1588.3260138833057], [-114.86628483842078, -1587.435453883181], [-111.23142876098652, -1587.5467738832956], [-105.53354626168691, -1585.9882938832754], [-101.01453600345322, -1587.9920538833578], [-92.36947290113982, -1585.32037388338], [-85.09976074662032, -1586.8788538833999], [-79.69659630758719, -1583.205293883183], [-82.54553755741149, -1579.8656938833094], [-88.53813811697758, -1577.4166538831648], [-96.98672251256299, -1571.9619738834901], [-100.71981794318674, -1572.073293883209], [-104.64939208088748, -1568.3997338833876], [-107.40009397682428, -1567.3978538831486], [-114.86628483842078, -1559.1601738833815], [-119.87649186364892, -1554.5960538834356], [-118.30466220842902, -1551.5904138835099], [-127.3426827248964, -1535.5603338832466], [-133.04056522419603, -1540.1244538831925], [-133.1388045777345, -1544.7998938832527], [-134.4159161723389, -1559.828093883277], [-135.30007035313835, -1562.833733883203], [-136.47894259455327, -1566.952573883482], [-138.73844772349563, -1571.7393338832612], [-140.80147414571, -1574.411013883239]]]}, "properties": {"name": "", "kind": "water", "category": "agua", "extrude": false}}, {"type": "Feature", "geometry": {"type": "Polygon", "coordinates": [[[-4697.240925930984, -1093.619933883367], [-4691.641282785223, -1090.2803338834933], [-4696.6514898104515, -1083.9350938832986], [-4704.019441318161, -1088.6105338833588], [-4697.240925930984, -1093.619933883367]]]}, "properties": {"name": "", "kind": "water", "category": "agua", "extrude": false}}, {"type": "Feature", "geometry": {"type": "Polygon", "coordinates": [[[-3601.086220275398, -1769.888933883274], [-3599.023193853184, -1755.9739338832076], [-3600.4967841545163, -1743.6174138831611], [-3604.1316402319503, -1734.7118138834983], [-3609.7312833777114, -1731.149573883396], [-3621.421766436926, -1734.0438938832071], [-3609.436565317445, -1767.3285738834104], [-3601.086220275398, -1769.888933883274]]]}, "properties": {"name": "", "kind": "water", "category": "agua", "extrude": false}}, {"type": "Feature", "geometry": {"type": "Polygon", "coordinates": [[[2889.4896219878274, -1953.7895738832726], [2889.194903927561, -1950.7839338833467], [2887.9177923326074, -1948.2235738834831], [2885.9530052639316, -1946.1084938832864], [2883.3005427211842, -1944.7726538834952], [2880.45160147136, -1944.327373883433], [2877.6026602218844, -1944.8839738832141], [2875.048437032327, -1946.219813883401], [2873.0836499636507, -1948.4462138833167], [2871.904777722585, -1951.229213883409], [2871.8065383690464, -1954.1235338832203], [2872.5924531966566, -1957.017853883427], [2874.2625222050656, -1959.3555738834573], [2876.6202666875465, -1961.1366938833107], [2879.3709685838326, -1962.0272538834352], [2882.3181491868463, -1961.9159338833208], [2884.9706117295937, -1960.9140538834774], [2887.230116858536, -1959.0216138835094], [2888.801946513756, -1956.5725738833648], [2889.4896219878274, -1953.7895738832726]]]}, "properties": {"name": "", "kind": "water", "category": "agua", "extrude": false}}, {"type": "Feature", "geometry": {"type": "Polygon", "coordinates": [[[788.149851959418, -1980.2837338832187], [801.8051220873086, -1941.8783338832884], [780.0942249776376, -1930.523693883481], [766.045997435942, -1971.4894538832748], [788.149851959418, -1980.2837338832187]]]}, "properties": {"name": "", "kind": "water", "category": "agua", "extrude": false}}, {"type": "Feature", "geometry": {"type": "Polygon", "coordinates": [[[2874.2625222050656, -1966.1460938833188], [2874.9501976791375, -1964.6989338834132], [2875.048437032327, -1963.0291338832787], [2874.655479618522, -1961.4706538832586], [2873.7713254377227, -1960.1348138834674], [2872.5924531966566, -1959.244253883343], [2871.1188628949753, -1958.6876538831661], [2869.547033240104, -1958.6876538831661], [2868.0734429384224, -1959.1329338832284], [2866.796331343818, -1960.0234938833528], [2865.9121771626696, -1961.3593338831442], [2865.519219748865, -1962.8064938834452], [2865.519219748865, -1964.3649738834654], [2866.108655869747, -1965.812133883371], [2867.091049404085, -1967.0366538834433], [2868.4664003522275, -1967.9272138831723], [2870.0382300070987, -1968.2611738835155], [2871.7082990155077, -1968.0385338832868], [2873.0836499636507, -1967.3706138833911], [2874.2625222050656, -1966.1460938833188]]]}, "properties": {"name": "", "kind": "water", "category": "agua", "extrude": false}}, {"type": "Feature", "geometry": {"type": "Polygon", "coordinates": [[[703.1728112358713, -2367.566013883467], [698.9485190382533, -2357.5472138834507], [689.0263443409864, -2361.777373883449], [693.2506365386046, -2371.796173883465], [703.1728112358713, -2367.566013883467]]]}, "properties": {"name": "", "kind": "water", "category": "agua", "extrude": false}}, {"type": "Feature", "geometry": {"type": "Polygon", "coordinates": [[[223.6665271072739, -2482.3369338831953], [242.72496167419763, -2492.467053883326], [247.83340805296424, -2482.7822138832576], [228.87321283957908, -2472.7634138832414], [223.6665271072739, -2482.3369338831953]]]}, "properties": {"name": "", "kind": "water", "category": "agua", "extrude": false}}, {"type": "Feature", "geometry": {"type": "Polygon", "coordinates": [[[-1020.6331235321964, -2294.206133883199], [-1018.1771396961769, -2308.1211338832654], [-1012.381017843339, -2311.126773883191], [-995.4838490521681, -2305.7834138832354], [-994.2067374575638, -2291.2004938832733], [-988.5088549579151, -2280.736413883195], [-996.7609606467724, -2279.066613883456], [-1013.4616507312154, -2275.615693883468], [-1020.6331235321964, -2294.206133883199]]]}, "properties": {"name": "", "kind": "water", "category": "agua", "extrude": false}}, {"type": "Feature", "geometry": {"type": "Polygon", "coordinates": [[[-4930.8541084054095, -2570.5023738832588], [-4924.173832371773, -2574.175933883476], [-4918.672428579201, -2575.6230938833814], [-4916.118205389643, -2570.168413883311], [-4929.184039397001, -2566.717493883323], [-4930.8541084054095, -2570.5023738832588]]]}, "properties": {"name": "", "kind": "water", "category": "agua", "extrude": false}}, {"type": "Feature", "geometry": {"type": "Polygon", "coordinates": [[[4590.798744818614, -2324.373853883362], [4588.637479042861, -2321.5908538832696], [4583.234314603828, -2326.377613883444], [4583.430793310905, -2328.8266538831936], [4590.798744818614, -2324.373853883362]]]}, "properties": {"name": "", "kind": "water", "category": "agua", "extrude": false}}, {"type": "Feature", "geometry": {"type": "Polygon", "coordinates": [[[4721.653563597522, -2575.1778138833192], [4730.495105406564, -2562.0420538832627], [4728.825036398154, -2554.6949338832246], [4723.5201113126595, -2554.2496538831624], [4722.537717778322, -2558.3684938834413], [4718.902861701236, -2566.717493883323], [4715.366244977341, -2569.8344538833635], [4711.927867606983, -2571.7268938833313], [4710.55251665884, -2579.964573883494], [4712.517303727516, -2581.7456938833475], [4721.653563597522, -2575.1778138833192]]]}, "properties": {"name": "", "kind": "water", "category": "agua", "extrude": false}}, {"type": "Feature", "geometry": {"type": "Polygon", "coordinates": [[[4463.873500177407, -2587.5343338833654], [4468.981946556173, -2586.643773883241], [4475.662222589811, -2584.5286938834397], [4484.012567631858, -2585.9758538833457], [4488.62981724363, -2589.7607338832813], [4494.425939096468, -2591.096573883468], [4497.962555820015, -2588.758853883438], [4501.597411897449, -2590.094693883229], [4503.16924155232, -2592.0984538833113], [4509.7512782327685, -2587.9796138834276], [4516.529793619944, -2584.973973883502], [4517.020990386939, -2580.409853883161], [4512.403740775515, -2569.9457738834776], [4505.919943448605, -2564.602413883522], [4495.801290044611, -2560.7062138834717], [4486.370312114339, -2561.3741338833674], [4479.100599960168, -2556.3647338833593], [4454.049564833678, -2569.3891738833013], [4463.873500177407, -2587.5343338833654]]]}, "properties": {"name": "", "kind": "water", "category": "agua", "extrude": false}}, {"type": "Feature", "geometry": {"type": "Polygon", "coordinates": [[[1314.1233502639097, -2909.360453883165], [1309.800818712404, -2903.015213883366], [1305.8712445750523, -2904.0170938832093], [1306.951877462929, -2909.4717738832796], [1309.604340005676, -2913.36797388333], [1314.1233502639097, -2909.360453883165]]]}, "properties": {"name": "", "kind": "water", "category": "agua", "extrude": false}}, {"type": "Feature", "geometry": {"type": "Polygon", "coordinates": [[[1073.1422162814267, -2992.8504538831685], [1072.6510195144324, -2985.9486138831926], [1063.416520291237, -2986.7278538832024], [1064.00595641177, -2993.6296938831783], [1073.1422162814267, -2992.8504538831685]]]}, "properties": {"name": "", "kind": "water", "category": "agua", "extrude": false}}, {"type": "Feature", "geometry": {"type": "Polygon", "coordinates": [[[962.2299862505911, -2996.6353338834997], [962.7211830179344, -2990.4014138834195], [949.3606309503105, -2989.176893883347], [948.7711948297774, -2995.4108138834276], [962.2299862505911, -2996.6353338834997]]]}, "properties": {"name": "", "kind": "water", "category": "agua", "extrude": false}}, {"type": "Feature", "geometry": {"type": "Polygon", "coordinates": [[[975.4922989646767, -3010.7729738833996], [979.7165911626438, -3006.5428138834013], [972.7415970683908, -2999.6409738834254], [968.5173048707726, -3003.8711338834237], [975.4922989646767, -3010.7729738833996]]]}, "properties": {"name": "", "kind": "water", "category": "agua", "extrude": false}}, {"type": "Feature", "geometry": {"type": "Polygon", "coordinates": [[[2659.7077742975644, -3119.7552538835052], [2663.047912314383, -3121.7590138831924], [2670.710581882359, -3122.0929738835357], [2671.987693476963, -3117.6401738833088], [2670.4158638220924, -3115.6364138832264], [2659.1183381766828, -3113.521333883425], [2657.7429872285397, -3115.413773883393], [2659.7077742975644, -3119.7552538835052]]]}, "properties": {"name": "", "kind": "water", "category": "agua", "extrude": false}}, {"type": "Feature", "geometry": {"type": "Polygon", "coordinates": [[[2565.397994997284, -3125.8778538834713], [2563.531447282147, -3126.3231338835335], [2565.889191764628, -3133.22497388351], [2578.56206835818, -3127.4363338834914], [2573.551861332603, -3123.9854138835035], [2565.397994997284, -3125.8778538834713]]]}, "properties": {"name": "", "kind": "water", "category": "agua", "extrude": false}}, {"type": "Feature", "geometry": {"type": "Polygon", "coordinates": [[[469.85434682171297, -3395.9401738834513], [469.3631500547185, -3395.3835738832745], [466.90716621869916, -3397.0533738834088], [467.88955975303713, -3398.1665738833667], [469.85434682171297, -3395.9401738834513]]]}, "properties": {"name": "", "kind": "water", "category": "agua", "extrude": false}}, {"type": "Feature", "geometry": {"type": "Polygon", "coordinates": [[[601.9862771952254, -3454.828453883476], [600.8074049541594, -3451.488853883207], [594.2253682737114, -3442.8058938833774], [590.2957941363596, -3445.9228538834177], [598.0567030578736, -3458.279373883464], [601.9862771952254, -3454.828453883476]]]}, "properties": {"name": "", "kind": "water", "category": "agua", "extrude": false}}, {"type": "Feature", "geometry": {"type": "Polygon", "coordinates": [[[617.7045737453302, -3492.6772538832297], [618.4904885729402, -3491.7866938835004], [617.7045737453302, -3485.4414538833057], [614.5609144352395, -3486.5546538832637], [614.5609144352395, -3488.8923738832937], [616.6239408574538, -3492.788573883344], [617.7045737453302, -3492.6772538832297]]]}, "properties": {"name": "", "kind": "water", "category": "agua", "extrude": false}}, {"type": "Feature", "geometry": {"type": "Polygon", "coordinates": [[[551.4912495284408, -3492.009333883334], [560.1363126307542, -3501.4715338831734], [562.7887751738506, -3489.671613883304], [554.6349088385316, -3485.4414538833057], [551.4912495284408, -3492.009333883334]]]}, "properties": {"name": "", "kind": "water", "category": "agua", "extrude": false}}, {"type": "Feature", "geometry": {"type": "Polygon", "coordinates": [[[603.0669100831018, -3511.3790138834706], [607.684159694525, -3508.929973883326], [602.0845165487639, -3500.8036138832776], [596.3866340494642, -3502.1394538834647], [603.0669100831018, -3511.3790138834706]]]}, "properties": {"name": "", "kind": "water", "category": "agua", "extrude": false}}, {"type": "Feature", "geometry": {"type": "Polygon", "coordinates": [[[526.833171815407, -3508.484693883264], [538.4254155210832, -3518.1695338833324], [541.8637928914405, -3515.609173883469], [544.4180160809983, -3508.484693883264], [529.4856343585034, -3502.696053883246], [526.833171815407, -3508.484693883264]]]}, "properties": {"name": "", "kind": "water", "category": "agua", "extrude": false}}, {"type": "Feature", "geometry": {"type": "Polygon", "coordinates": [[[607.9788777547914, -3520.84121388331], [612.3014093062972, -3518.726133883509], [609.0595106426679, -3513.6054138833865], [605.3264152120441, -3511.824293883533], [603.0669100831018, -3513.6054138833865], [607.9788777547914, -3520.84121388331]]]}, "properties": {"name": "", "kind": "water", "category": "agua", "extrude": false}}, {"type": "Feature", "geometry": {"type": "Polygon", "coordinates": [[[622.5183020638304, -3533.086413883242], [624.5813284860448, -3530.748693883212], [622.420062710292, -3527.7430538832864], [620.2587969345391, -3528.5222938832962], [617.9992918055967, -3532.529813883461], [619.0799246934732, -3533.9769738833666], [622.5183020638304, -3533.086413883242]]]}, "properties": {"name": "", "kind": "water", "category": "agua", "extrude": false}}, {"type": "Feature", "geometry": {"type": "Polygon", "coordinates": [[[607.4876809877969, -3550.007053883234], [607.4876809877969, -3547.224053883142], [605.8176119793876, -3539.988253883218], [601.7897984884974, -3542.659933883196], [605.0316971517777, -3551.008933883473], [607.4876809877969, -3550.007053883234]]]}, "properties": {"name": "", "kind": "water", "category": "agua", "extrude": false}}, {"type": "Feature", "geometry": {"type": "Polygon", "coordinates": [[[625.4654826668442, -3597.5406938834517], [628.3144239166685, -3594.869013883474], [622.3218233567534, -3589.0803738834556], [619.5711214604676, -3591.195453883257], [625.4654826668442, -3597.5406938834517]]]}, "properties": {"name": "", "kind": "water", "category": "agua", "extrude": false}}, {"type": "Feature", "geometry": {"type": "Polygon", "coordinates": [[[567.8972215526171, -3653.200693883322], [562.6905358203121, -3642.0686938833483], [556.894413967474, -3644.740373883326], [562.1010996997791, -3655.8723738833], [567.8972215526171, -3653.200693883322]]]}, "properties": {"name": "", "kind": "water", "category": "agua", "extrude": false}}, {"type": "Feature", "geometry": {"type": "Polygon", "coordinates": [[[583.2225606885681, -3660.436493883246], [575.8546091808591, -3653.6459738833846], [571.3355989226254, -3659.76857388335], [580.0789013788263, -3667.67229388317], [583.2225606885681, -3660.436493883246]]]}, "properties": {"name": "", "kind": "water", "category": "agua", "extrude": false}}, {"type": "Feature", "geometry": {"type": "Polygon", "coordinates": [[[2536.1226676731762, -3719.1021338834375], [2569.327569134985, -3779.10361388342], [2577.972632237298, -3775.20741388337], [2586.715934693499, -3771.1998938832053], [2586.715934693499, -3770.198013883362], [2585.831780512351, -3737.1359738833876], [2583.4740360298697, -3732.5718538834417], [2581.509248961194, -3729.677533883235], [2577.6779141770317, -3723.777573883498], [2576.9902387029606, -3722.775693883259], [2574.6324942204797, -3717.2096938834698], [2572.6677071518034, -3710.530493883327], [2572.2747497379987, -3701.513573883154], [2573.4536219794136, -3692.6079738834915], [2536.1226676731762, -3719.1021338834375]]]}, "properties": {"name": "Embalse de Benchijigua", "kind": "water", "category": "agua", "extrude": false}}, {"type": "Feature", "geometry": {"type": "Polygon", "coordinates": [[[4577.045235337185, -3781.330013883336], [4588.244521629056, -3775.8753338832657], [4589.718111930738, -3773.4262938835163], [4585.297341026043, -3770.643293883424], [4578.617064992404, -3775.98665388338], [4574.98220891497, -3777.990413883462], [4577.045235337185, -3781.330013883336]]]}, "properties": {"name": "", "kind": "water", "category": "agua", "extrude": false}}, {"type": "Feature", "geometry": {"type": "Polygon", "coordinates": [[[-345.9252441232879, -4348.17145388347], [-342.5851061064691, -4349.952573883324], [-335.2171545987601, -4353.848773883374], [-321.856602531136, -4354.294053883436], [-313.2115394284736, -4351.622373883458], [-262.1270756411561, -4327.465933883147], [-257.2151079691174, -4322.790493883482], [-253.18729447822724, -4318.003733883307], [-251.12426805601285, -4310.879253883498], [-251.02602870247438, -4300.303853883305], [-258.49221956372185, -4286.834133883301], [-274.01403740709884, -4267.3531338834455], [-296.9038067578357, -4219.708173883509], [-301.12809895580295, -4216.1459338834065], [-306.8259814551025, -4215.366693883396], [-308.6925291705889, -4215.1440538831675], [-355.0615039929447, -4230.172253883192], [-359.8752323114449, -4236.294853883158], [-361.1523439060493, -4251.100413883349], [-367.3414231726924, -4264.458813883239], [-369.5026889484452, -4273.364413883297], [-369.69916765517326, -4280.488893883501], [-368.6185347672968, -4291.1756138834135], [-351.81960532966445, -4340.490373883485], [-345.9252441232879, -4348.17145388347]]]}, "properties": {"name": "Presa de Acanabre", "kind": "water", "category": "agua", "extrude": false}}, {"type": "Feature", "geometry": {"type": "Polygon", "coordinates": [[[4368.483087989599, -4295.294453883297], [4366.223582860307, -4288.615253883154], [4361.213375835079, -4290.285053883289], [4363.57112031756, -4297.07557388315], [4368.483087989599, -4295.294453883297]]]}, "properties": {"name": "", "kind": "water", "category": "agua", "extrude": false}}, {"type": "Feature", "geometry": {"type": "Polygon", "coordinates": [[[4094.493531252384, -4334.033813883175], [4095.967121553717, -4331.250813883478], [4093.707616424774, -4330.248933883239], [4092.234026123093, -4333.143253883446], [4094.493531252384, -4334.033813883175]]]}, "properties": {"name": "", "kind": "water", "category": "agua", "extrude": false}}, {"type": "Feature", "geometry": {"type": "Polygon", "coordinates": [[[4111.095981983289, -4353.180853883478], [4113.944923232764, -4352.0676538835205], [4111.587178750283, -4346.167693883388], [4108.836476853997, -4347.280893883346], [4111.095981983289, -4353.180853883478]]]}, "properties": {"name": "", "kind": "water", "category": "agua", "extrude": false}}, {"type": "Feature", "geometry": {"type": "Polygon", "coordinates": [[[4145.6762343932405, -4387.133453883182], [4151.177638185812, -4384.350453883485], [4147.051585341383, -4376.224093883437], [4141.64842090235, -4378.895773883414], [4145.6762343932405, -4387.133453883182]]]}, "properties": {"name": "", "kind": "water", "category": "agua", "extrude": false}}, {"type": "Feature", "geometry": {"type": "Polygon", "coordinates": [[[3854.4947908045883, -4390.139093883503], [3855.870141752382, -4382.569333883236], [3847.5197967103354, -4381.567453883393], [3845.5550096416596, -4389.80513388316], [3854.4947908045883, -4390.139093883503]]]}, "properties": {"name": "", "kind": "water", "category": "agua", "extrude": false}}, {"type": "Feature", "geometry": {"type": "Polygon", "coordinates": [[[-125.18141694914355, -4401.048453883248], [-128.12859755215734, -4396.595653883417], [-130.4863420349872, -4398.488093883385], [-128.12859755215734, -4402.495613883154], [-125.18141694914355, -4401.048453883248]]]}, "properties": {"name": "", "kind": "water", "category": "agua", "extrude": false}}, {"type": "Feature", "geometry": {"type": "Polygon", "coordinates": [[[4214.934978566682, -4452.478293883516], [4215.8191327474815, -4453.257533883526], [4219.4539888249155, -4453.925453883421], [4223.383562962267, -4453.925453883421], [4223.481802315806, -4450.363213883319], [4215.720893394292, -4449.361333883476], [4214.934978566682, -4452.478293883516]]]}, "properties": {"name": "", "kind": "water", "category": "agua", "extrude": false}}, {"type": "Feature", "geometry": {"type": "Polygon", "coordinates": [[[-3504.025739078832, -4316.222613883454], [-3501.0785584758178, -4311.769813883227], [-3503.4363029582987, -4310.211333883207], [-3506.383483561313, -4314.55281388332], [-3504.025739078832, -4316.222613883454]]]}, "properties": {"name": "", "kind": "water", "category": "agua", "extrude": false}}, {"type": "Feature", "geometry": {"type": "Polygon", "coordinates": [[[-2381.8376047624174, -4745.361213883225], [-2377.4168338577224, -4741.465013883175], [-2380.364014460736, -4737.346173883291], [-2384.293588598088, -4741.019733883508], [-2381.8376047624174, -4745.361213883225]]]}, "properties": {"name": "", "kind": "water", "category": "agua", "extrude": false}}, {"type": "Feature", "geometry": {"type": "Polygon", "coordinates": [[[-4999.6216558115075, -5166.373453883343], [-5000.898767406461, -5161.252733883221], [-5005.614256371423, -5161.698013883283], [-5004.533623483547, -5167.931933883363], [-4999.6216558115075, -5166.373453883343]]]}, "properties": {"name": "", "kind": "water", "category": "agua", "extrude": false}}, {"type": "Feature", "geometry": {"type": "Polygon", "coordinates": [[[-4970.9357646079325, -5248.52761388316], [-4969.855131720056, -5240.289933883392], [-4979.580827710246, -5239.176733883434], [-4980.464981891395, -5248.0823338834925], [-4970.9357646079325, -5248.52761388316]]]}, "properties": {"name": "", "kind": "water", "category": "agua", "extrude": false}}, {"type": "Feature", "geometry": {"type": "Polygon", "coordinates": [[[-4690.462410543809, -5285.040573883517], [-4690.953607311152, -5274.4651738833245], [-4701.956414895946, -5275.021773883501], [-4701.366978775413, -5285.708493883413], [-4690.462410543809, -5285.040573883517]]]}, "properties": {"name": "", "kind": "water", "category": "agua", "extrude": false}}, {"type": "Feature", "geometry": {"type": "Polygon", "coordinates": [[[4487.450945002215, -5064.07037388338], [4495.506571984344, -5053.940253883249], [4484.110806985396, -5044.923333883472], [4476.153419357154, -5055.053453883207], [4487.450945002215, -5064.07037388338]]]}, "properties": {"name": "", "kind": "water", "category": "agua", "extrude": false}}, {"type": "Feature", "geometry": {"type": "Polygon", "coordinates": [[[-2699.5436737792406, -5642.266453883321], [-2691.48804679746, -5633.9174538834395], [-2698.855998305169, -5626.681653883516], [-2706.91162528695, -5634.919333883283], [-2699.5436737792406, -5642.266453883321]]]}, "properties": {"name": "", "kind": "water", "category": "agua", "extrude": false}}, {"type": "Feature", "geometry": {"type": "Polygon", "coordinates": [[[-2149.1085764687923, -5700.820773883399], [-2137.5163327631158, -5719.299893883411], [-2117.4755046618543, -5729.54133388326], [-2105.3920641891837, -5702.713213883367], [-2144.098369443564, -5686.349173883155], [-2149.1085764687923, -5700.820773883399]]]}, "properties": {"name": "", "kind": "water", "category": "agua", "extrude": false}}, {"type": "Feature", "geometry": {"type": "Polygon", "coordinates": [[[-2094.683974664307, -5738.001653883257], [-2087.6107412168644, -5723.7526938832425], [-2103.329037766969, -5715.848973883423], [-2110.50051056795, -5730.097933883437], [-2094.683974664307, -5738.001653883257]]]}, "properties": {"name": "", "kind": "water", "category": "agua", "extrude": false}}, {"type": "Feature", "geometry": {"type": "Polygon", "coordinates": [[[-1808.1197806870782, -5877.151653883526], [-1808.5127381008833, -5866.576253883332], [-1808.8074561611495, -5858.672533883513], [-1797.313451809012, -5828.393493883236], [-1797.5099305160888, -5799.450293883145], [-1808.3162593941552, -5800.1182138834365], [-1822.7574443493065, -5801.008773883165], [-1821.1856146944358, -5825.499173883424], [-1820.6944179270922, -5845.982053883519], [-1815.7824502554026, -5877.7082538833065], [-1811.066961290441, -5882.383693883367], [-1808.1197806870782, -5877.151653883526]]]}, "properties": {"name": "", "kind": "water", "category": "agua", "extrude": false}}, {"type": "Feature", "geometry": {"type": "Polygon", "coordinates": [[[-3205.7710620427374, -5863.01401388323], [-3198.894307302023, -5859.89705388319], [-3202.2344453188416, -5850.991453883527], [-3208.8164819992894, -5845.091493883395], [-3216.3809122140756, -5850.546173883465], [-3205.7710620427374, -5863.01401388323]]]}, "properties": {"name": "", "kind": "water", "category": "agua", "extrude": false}}, {"type": "Feature", "geometry": {"type": "Polygon", "coordinates": [[[-3413.3508158559857, -6003.833813883239], [-3403.0356837452628, -5999.269693883292], [-3401.6603327971197, -5995.039533883294], [-3418.0663048212964, -5975.781173883272], [-3428.774394345824, -5988.582973883381], [-3413.3508158559857, -6003.833813883239]]]}, "properties": {"name": "", "kind": "water", "category": "agua", "extrude": false}}, {"type": "Feature", "geometry": {"type": "Polygon", "coordinates": [[[-3552.457740323751, -6271.335773883355], [-3550.0999958412704, -6271.7810538834165], [-3548.331687479322, -6270.6678538834585], [-3549.215841660122, -6268.218813883314], [-3550.9841500220696, -6267.439573883305], [-3553.734851918355, -6267.550893883418], [-3552.457740323751, -6271.335773883355]]]}, "properties": {"name": "", "kind": "water", "category": "agua", "extrude": false}}, {"type": "Feature", "geometry": {"type": "Polygon", "coordinates": [[[-3643.230902899787, -6323.990133883299], [-3641.36435518465, -6318.42413388351], [-3643.6238603135916, -6318.201493883281], [-3645.3921686755393, -6323.433533883518], [-3643.230902899787, -6323.990133883299]]]}, "properties": {"name": "", "kind": "water", "category": "agua", "extrude": false}}, {"type": "Feature", "geometry": {"type": "Polygon", "coordinates": [[[-3729.5832945714765, -6330.78065388316], [-3729.5832945714765, -6327.9976538834635], [-3735.2811770707763, -6328.108973883182], [-3735.084698364048, -6331.893853883514], [-3729.5832945714765, -6330.78065388316]]]}, "properties": {"name": "", "kind": "water", "category": "agua", "extrude": false}}, {"type": "Feature", "geometry": {"type": "Polygon", "coordinates": [[[5071.876858602082, -6373.861493883151], [5077.67298045492, -6369.965293883496], [5072.662773429693, -6364.399293883312], [5068.733199291992, -6370.9671738833395], [5071.876858602082, -6373.861493883151]]]}, "properties": {"name": "", "kind": "water", "category": "agua", "extrude": false}}]}