{"type": "FeatureCollection", "crs": {"type": "name", "properties": {"name": "EPSG:32628_local_enu_m_section_centroid", "lng0": -16.273216763502045, "lat0": 28.4656486832001}}, "features": [{"type": "Feature", "geometry": {"type": "Point", "coordinates": [88.3460157319061, 178.41069383524783]}, "properties": {"osm_id": null, "category": "salud", "name": "", "extrude": false}}, {"type": "Feature", "geometry": {"type": "Point", "coordinates": [111.83283562193793, 131.3223338350926]}, "properties": {"osm_id": null, "category": "restauracion", "name": "Asia Mao", "extrude": false}}, {"type": "Feature", "geometry": {"type": "Point", "coordinates": [119.27032858706252, 128.76197383522907]}, "properties": {"osm_id": null, "category": "finanzas", "name": "Caixabank", "extrude": false}}, {"type": "Feature", "geometry": {"type": "Point", "coordinates": [131.99235602727913, 95.92257383508809]}, "properties": {"osm_id": null, "category": "finanzas", "name": "BBVA", "extrude": false}}, {"type": "Feature", "geometry": {"type": "Point", "coordinates": [105.27609840254611, -67.04990616475357]}, "properties": {"osm_id": null, "category": "publico", "name": "Casa de Ejercicios Obispado de Tenerife", "extrude": false}}, {"type": "Feature", "geometry": {"type": "Point", "coordinates": [241.4996537641049, -125.93818616477847]}, "properties": {"osm_id": null, "category": "restauracion", "name": "La Kafeita", "extrude": false}}]}