{"type": "FeatureCollection", "crs": {"type": "name", "properties": {"name": "EPSG:32628_local_enu_m_section_centroid", "lng0": -15.444627364233611, "lat0": 28.063259239949335}}, "features": [{"type": "Feature", "geometry": {"type": "Polygon", "coordinates": [[[-818.4329536362958, 833.2569111600747], [-774.5232652470361, 832.9229511601268], [-771.0851464693047, 857.4133511599906], [-842.3033211498849, 870.7717511598804], [-848.9830947751666, 837.8210311600205], [-818.4329536362958, 833.2569111600747]]]}, "properties": {"name": "", "kind": "water", "category": "agua", "extrude": false}}, {"type": "Feature", "geometry": {"type": "Polygon", "coordinates": [[[-649.5722056693675, 745.7593911599067], [-626.6841578065088, 741.195271159961], [-624.0318947493271, 750.2121911601337], [-650.6527572851013, 765.1290711600436], [-655.0731957135631, 753.9970711600695], [-649.5722056693675, 745.7593911599067]]]}, "properties": {"name": "", "kind": "water", "category": "agua", "extrude": false}}, {"type": "Feature", "geometry": {"type": "Polygon", "coordinates": [[[-1548.0999902266365, 555.4021911599945], [-1533.6598913603395, 569.3171911600609], [-1558.0214186992941, 590.4679911600512], [-1566.5675996610335, 584.6793511600331], [-1568.5322389624946, 576.3303511601514], [-1548.0999902266365, 555.4021911599945]]]}, "properties": {"name": "", "kind": "water", "category": "agua", "extrude": false}}, {"type": "Feature", "geometry": {"type": "Polygon", "coordinates": [[[-1486.901475983717, 524.232591159988], [-1467.4515468985896, 514.9930311599819], [-1464.799283841408, 522.7854311600823], [-1466.4692272476848, 550.8380711600487], [-1475.3101041046084, 576.8869511599326], [-1499.5733994785596, 599.7075511600574], [-1515.388745855949, 551.9512711600065], [-1486.901475983717, 524.232591159988]]]}, "properties": {"name": "", "kind": "water", "category": "agua", "extrude": false}}, {"type": "Feature", "geometry": {"type": "Polygon", "coordinates": [[[-670.2991503005842, 470.79899116003344], [-662.833520954753, 477.92347115984285], [-680.6135066336037, 496.06863115990734], [-687.7844400842506, 487.27435115996343], [-670.2991503005842, 470.79899116003344]]]}, "properties": {"name": "", "kind": "water", "category": "agua", "extrude": false}}, {"type": "Feature", "geometry": {"type": "Polygon", "coordinates": [[[-1561.0666096166633, 416.0295511598922], [-1553.0115884804636, 427.4955111602095], [-1574.2296929370457, 442.4123911601194], [-1582.2847140732454, 430.94643116019756], [-1561.0666096166633, 416.0295511598922]]]}, "properties": {"name": "", "kind": "water", "category": "agua", "extrude": false}}, {"type": "Feature", "geometry": {"type": "Polygon", "coordinates": [[[-1337.8835849622783, 360.2582311599075], [-1328.8462441751738, 381.2977111601788], [-1342.696951251102, 387.75427116009257], [-1351.537828108026, 365.4902711601444], [-1337.8835849622783, 360.2582311599075]]]}, "properties": {"name": "", "kind": "water", "category": "agua", "extrude": false}}, {"type": "Feature", "geometry": {"type": "Polygon", "coordinates": [[[-1636.312294865518, 257.6211911599964], [-1628.5519696245026, 266.5267911600547], [-1641.6168209797072, 277.9927511599766], [-1649.4753781857257, 269.1984711600327], [-1636.312294865518, 257.6211911599964]]]}, "properties": {"name": "", "kind": "water", "category": "agua", "extrude": false}}, {"type": "Feature", "geometry": {"type": "Polygon", "coordinates": [[[-685.1321770270687, 204.29891116015625], [-677.7647796464153, 200.29139115999158], [-674.5231247988651, 204.29891116015625], [-684.6410172017036, 214.65167116012026], [-688.3738318746191, 211.20075116013226], [-685.1321770270687, 204.29891116015625]]]}, "properties": {"name": "", "kind": "water", "category": "agua", "extrude": false}}, {"type": "Feature", "geometry": {"type": "Polygon", "coordinates": [[[-744.7589798287147, 55.68671116004779], [-724.5231950228633, 78.72995116000595], [-751.1440575586375, 87.07895115988762], [-764.4053728440231, 60.69611116005589], [-744.7589798287147, 55.68671116004779]]]}, "properties": {"name": "", "kind": "water", "category": "agua", "extrude": false}}, {"type": "Feature", "geometry": {"type": "Polygon", "coordinates": [[[-746.5271552001693, -57.63704884017059], [-739.8473815748875, -65.87472883993783], [-718.92397301349, -46.50504883980105], [-727.6666179054104, -32.47872884001566], [-746.2324593048105, -47.84088883998777], [-746.5271552001693, -57.63704884017059]]]}, "properties": {"name": "", "kind": "water", "category": "agua", "extrude": false}}, {"type": "Feature", "geometry": {"type": "Polygon", "coordinates": [[[-252.9115306894114, -357.86708883991776], [-247.50877261004453, -363.65572883993593], [-239.74844736902912, -365.1028888398416], [-232.57751391838224, -361.763288839968], [-228.8446992454667, -354.861448839992], [-229.8270188963717, -347.06904883989154], [-235.1315450103863, -341.2804088398734], [-242.89187025157622, -339.8332488399677], [-250.0628037020486, -343.1728488398413], [-253.89385034014194, -350.0746888398173], [-252.9115306894114, -357.86708883991776]]]}, "properties": {"name": "", "kind": "water", "category": "agua", "extrude": false}}, {"type": "Feature", "geometry": {"type": "Polygon", "coordinates": [[[578.5238217203805, 533.806111159942], [598.9560704564129, 529.575951159944], [600.6260138626898, 538.8155111599501], [580.0955331616541, 544.938111159916], [578.5238217203805, 533.806111159942]]]}, "properties": {"name": "", "kind": "water", "category": "agua", "extrude": false}}, {"type": "Feature", "geometry": {"type": "Polygon", "coordinates": [[[698.956210904584, 488.0535911599735], [704.260737018773, 493.0629911599816], [689.9188701174793, 494.9554311599495], [688.6418545715646, 490.3913111600036], [698.956210904584, 488.0535911599735]]]}, "properties": {"name": "", "kind": "water", "category": "agua", "extrude": false}}, {"type": "Feature", "geometry": {"type": "Polygon", "coordinates": [[[110.5467400946665, 34.98119116011978], [123.70982341504877, 44.77735115990711], [90.99857904436136, 88.30347115995991], [77.83549572415359, 78.39599116005814], [110.5467400946665, 34.98119116011978]]]}, "properties": {"name": "", "kind": "water", "category": "agua", "extrude": false}}, {"type": "Feature", "geometry": {"type": "Polygon", "coordinates": [[[-1600.3593956474547, -412.19124883999683], [-1597.3142047300853, -414.3063288397981], [-1594.9566375682623, -414.75160883986035], [-1591.125590930169, -413.19312883984026], [-1586.8033844668848, -412.4138888398302], [-1585.1334410604336, -412.6365288400591], [-1583.0705697939693, -411.857288840049], [-1582.186482108242, -410.63276883997673], [-1583.1688017589727, -407.51580883993654], [-1585.7228328509766, -407.51580883993654], [-1587.0980803620691, -405.2894088400208], [-1588.571559838165, -404.2875288397819], [-1590.732663069807, -401.72716883991836], [-1591.8132146857154, -399.38944883988825], [-1592.4026064762581, -393.2668488399223], [-1596.5283490093614, -390.8178088401732], [-1601.5381792283663, -390.37252884011093], [-1604.2886742505511, -391.9310088401311], [-1604.1904422853736, -395.493248839838], [-1602.9134267394588, -399.2781288401693], [-1604.0922103203702, -403.2856488399385], [-1603.4045865648238, -406.73656883992646], [-1601.5381792283663, -409.6308888401333], [-1600.3593956474547, -412.19124883999683]]]}, "properties": {"name": "", "kind": "water", "category": "agua", "extrude": false}}, {"type": "Feature", "geometry": {"type": "Polygon", "coordinates": [[[-894.6609585358808, -579.6165288400654], [-880.9084834251299, -555.7940488400972], [-899.1796289293459, -545.2186488399043], [-910.5745368782735, -562.1392888398965], [-894.6609585358808, -579.6165288400654]]]}, "properties": {"name": "", "kind": "water", "category": "agua", "extrude": false}}, {"type": "Feature", "geometry": {"type": "Polygon", "coordinates": [[[-805.6627981762755, -584.514608839959], [-805.2698703160879, -573.382608839985], [-835.4270835945969, -572.1580888399127], [-835.8200114549588, -583.2900888398867], [-805.6627981762755, -584.514608839959]]]}, "properties": {"name": "", "kind": "water", "category": "agua", "extrude": false}}, {"type": "Feature", "geometry": {"type": "Polygon", "coordinates": [[[-204.28670797633117, -705.8534088401113], [-189.45368124967212, -698.617608839792], [-206.2513472777922, -663.8857688400786], [-221.0843740044513, -671.1215688400024], [-204.28670797633117, -705.8534088401113]]]}, "properties": {"name": "", "kind": "water", "category": "agua", "extrude": false}}, {"type": "Feature", "geometry": {"type": "Polygon", "coordinates": [[[-313.8153490369721, -827.0808888401491], [-307.03734344668726, -830.5318088401372], [-299.5717141008561, -829.4186088397838], [-294.16895602166375, -824.0752488398279], [-292.99017244057774, -816.6168088400707], [-296.428291218309, -809.8262888398136], [-303.1080648435907, -806.3753688398256], [-310.5736941894218, -807.5998888398979], [-315.9764522686142, -812.8319288401349], [-317.1552358495257, -820.4016888400065], [-313.8153490369721, -827.0808888401491]]]}, "properties": {"name": "", "kind": "water", "category": "agua", "extrude": false}}, {"type": "Feature", "geometry": {"type": "Polygon", "coordinates": [[[-811.9496439411951, -853.5750488400953], [-811.2620201856488, -850.6807288398885], [-811.2620201856488, -847.6750888399627], [-812.6372676967413, -845.2260488398181], [-815.8789225442918, -842.9996488399024], [-819.120577391842, -842.2204088398923], [-822.067536344208, -842.4430488401213], [-825.3091911917584, -843.4449288399646], [-827.8632222837624, -844.8920888398703], [-830.4172533755919, -847.5637688398483], [-831.596036956678, -850.4580888400551], [-831.399573026497, -853.3524088398665], [-829.7296296202202, -856.8033288398544], [-826.9791345980351, -859.3636888401135], [-823.4427838553006, -860.3655688399568], [-820.2011290077502, -859.5863288399469], [-817.3524020203874, -858.2504888401556], [-815.2895307539231, -857.1372888398023], [-813.4231234174653, -855.8014488400111], [-811.9496439411951, -853.5750488400953]]]}, "properties": {"name": "Charca de Teleco", "kind": "water", "category": "agua", "extrude": false}}, {"type": "Feature", "geometry": {"type": "Polygon", "coordinates": [[[-388.0787146349217, -987.047728840065], [-367.45000196888276, -969.904448839844], [-383.8547401366408, -950.2008088401549], [-404.48345280285423, -967.3440888399805], [-388.0787146349217, -987.047728840065]]]}, "properties": {"name": "", "kind": "water", "category": "agua", "extrude": false}}, {"type": "Feature", "geometry": {"type": "Polygon", "coordinates": [[[-223.14724527109004, -1127.7562088399586], [-217.35155933153567, -1122.1902088401694], [-225.99597225827836, -1113.2846088401109], [-231.79165819783273, -1118.9619288400147], [-223.14724527109004, -1127.7562088399586]]]}, "properties": {"name": "", "kind": "water", "category": "agua", "extrude": false}}]}