{"type": "FeatureCollection", "crs": {"type": "name", "properties": {"name": "EPSG:32628_local_enu_m_section_centroid", "lng0": -15.495455545210026, "lat0": 28.110957379819297}}, "features": [{"type": "Feature", "geometry": {"type": "Polygon", "coordinates": [[[144.68494852528977, 544.9536814839687], [150.18349520196824, 548.6272414841856], [141.2483568525401, 561.9856414840752], [135.74981017586163, 558.3120814842539], [144.68494852528977, 544.9536814839687]]]}, "properties": {"name": "", "kind": "water", "category": "agua", "extrude": false}}, {"type": "Feature", "geometry": {"type": "Polygon", "coordinates": [[[367.0815239274915, 287.5818414839831], [411.85540400841836, 304.0572014843086], [372.5800706039955, 411.1470414840511], [327.7080021896313, 394.6716814841211], [367.0815239274915, 287.5818414839831]]]}, "properties": {"name": "", "kind": "water", "category": "agua", "extrude": false}}, {"type": "Feature", "geometry": {"type": "Polygon", "coordinates": [[[-241.88252050680268, 301.8308014839974], [-225.58325714399078, 305.6156814839332], [-233.1437588244237, 337.89848148429303], [-249.54121052067296, 334.1136014839617], [-241.88252050680268, 301.8308014839974]]]}, "properties": {"name": "", "kind": "water", "category": "agua", "extrude": false}}, {"type": "Feature", "geometry": {"type": "Polygon", "coordinates": [[[80.37159007567608, 180.93728148430287], [88.71759842413118, 185.83536148419654], [80.07702507518957, 200.52960148427303], [71.73101672673447, 195.52020148426493], [80.37159007567608, 180.93728148430287]]]}, "properties": {"name": "", "kind": "water", "category": "agua", "extrude": false}}, {"type": "Feature", "geometry": {"type": "Polygon", "coordinates": [[[352.5496505677731, 78.9681614842874], [361.19022391671473, 81.08324148408869], [358.5391389119872, 92.21524148406274], [349.8985655630456, 90.10016148426146], [352.5496505677731, 78.9681614842874]]]}, "properties": {"name": "", "kind": "water", "category": "agua", "extrude": false}}, {"type": "Feature", "geometry": {"type": "Polygon", "coordinates": [[[-175.60539538704637, 42.67784148415842], [-159.60069702472097, 39.7835214839516], [-155.8695403513104, 49.913641484082234], [-174.7217003854124, 56.70416148394381], [-175.60539538704637, 42.67784148415842]]]}, "properties": {"name": "", "kind": "water", "category": "agua", "extrude": false}}, {"type": "Feature", "geometry": {"type": "Polygon", "coordinates": [[[476.757892459005, -19.995318515802296], [476.757892459005, 10.653871936796548], [469.0010141116974, 19.411961483971396], [453.88001075100595, 5.942241483967194], [476.757892459005, -19.995318515802296]]]}, "properties": {"name": "", "kind": "water", "category": "agua", "extrude": false}}, {"type": "Feature", "geometry": {"type": "Polygon", "coordinates": [[[354.41522890447834, -75.98927851601587], [358.83370391247377, -69.53271851570662], [347.44385722519286, -61.62899851588719], [343.0253822173719, -68.19687851591539], [354.41522890447834, -75.98927851601587]]]}, "properties": {"name": "", "kind": "water", "category": "agua", "extrude": false}}, {"type": "Feature", "geometry": {"type": "Polygon", "coordinates": [[[-87.43227189436227, -184.0809985159973], [-94.79639690757163, -181.07535851567604], [-102.1605219209554, -184.0809985159973], [-105.20436025978117, -191.42811851603554], [-104.90979525929465, -193.87715851578463], [-102.1605219209554, -198.7752385156783], [-94.79639690757163, -201.8921985157185], [-93.12719523791549, -201.66955851588511], [-87.43227189436227, -198.7752385156783], [-84.3884335553621, -191.42811851603554], [-87.03951856026397, -184.52627851605953], [-87.43227189436227, -184.0809985159973]]]}, "properties": {"name": "", "kind": "reservoir", "category": "agua", "extrude": false}}, {"type": "Feature", "geometry": {"type": "Polygon", "coordinates": [[[-34.017818464319376, -256.55031851574535], [-23.609855112284258, -252.43147851586173], [-33.13412346285983, -243.19191851585558], [-39.61455347443523, -246.9767985157914], [-34.017818464319376, -256.55031851574535]]]}, "properties": {"name": "", "kind": "water", "category": "agua", "extrude": false}}, {"type": "Feature", "geometry": {"type": "Polygon", "coordinates": [[[32.25930665543695, -325.56871851590085], [38.73973666718677, -330.80075851574236], [46.88936834859272, -332.02527851581465], [54.64624669590038, -329.0196385158889], [59.850228371917936, -322.67439851569407], [61.1266767076502, -314.4367185159268], [58.08283836882443, -306.75563851594075], [51.700596690511986, -301.52359851570384], [43.452776675668666, -300.299078516027], [35.794086661798374, -303.3047185159528], [30.590104985780812, -309.76127851586654], [29.313656650048554, -317.88763851591483], [32.25930665543695, -325.56871851590085]]]}, "properties": {"name": "", "kind": "water", "category": "agua", "extrude": false}}, {"type": "Feature", "geometry": {"type": "Polygon", "coordinates": [[[-34.70513679890419, -413.40019851601653], [-21.44971177491804, -401.15499851568916], [-48.8442568245243, -371.76651851593164], [-62.00149351489866, -384.123038515978], [-34.70513679890419, -413.40019851601653]]]}, "properties": {"name": "", "kind": "water", "category": "agua", "extrude": false}}, {"type": "Feature", "geometry": {"type": "Polygon", "coordinates": [[[87.2447734215242, -431.87931851602883], [106.88244012364838, -430.7661185156755], [102.75853011631392, -395.25503851595204], [85.08463008433239, -397.14747851591994], [87.2447734215242, -431.87931851602883]]]}, "properties": {"name": "", "kind": "water", "category": "agua", "extrude": false}}, {"type": "Feature", "geometry": {"type": "Polygon", "coordinates": [[[31.768364987901286, -530.063558515713], [51.01327835610159, -535.6295585158978], [57.49370836767699, -523.161718515737], [36.08865166228489, -511.6957585158151], [31.768364987901286, -530.063558515713]]]}, "properties": {"name": "", "kind": "water", "category": "agua", "extrude": false}}, {"type": "Feature", "geometry": {"type": "Polygon", "coordinates": [[[372.0891289364599, -581.3820785158663], [383.6753522907899, -580.8254785156896], [382.4970922886694, -555.7784785160446], [370.812680600902, -556.3350785158258], [372.0891289364599, -581.3820785158663]]]}, "properties": {"name": "", "kind": "water", "category": "agua", "extrude": false}}, {"type": "Feature", "geometry": {"type": "Polygon", "coordinates": [[[282.4431804411688, -661.9777585160581], [281.85405044002135, -655.187238515801], [267.71493041440124, -656.18911851604], [268.30406041554875, -663.0909585160159], [282.4431804411688, -661.9777585160581]]]}, "properties": {"name": "", "kind": "water", "category": "agua", "extrude": false}}, {"type": "Feature", "geometry": {"type": "Polygon", "coordinates": [[[295.30585213105667, -703.6114385157475], [323.5840921821225, -704.6133185159864], [324.1732221832699, -688.8058785159521], [295.8949821320297, -687.9153185158276], [295.30585213105667, -703.6114385157475]]]}, "properties": {"name": "", "kind": "water", "category": "agua", "extrude": false}}, {"type": "Feature", "geometry": {"type": "Polygon", "coordinates": [[[379.3550656162319, -791.5542385159777], [417.3539506849224, -800.3485185159216], [420.7905423578465, -789.7731185157286], [381.71158562064727, -770.6260785158207], [379.3550656162319, -791.5542385159777]]]}, "properties": {"name": "", "kind": "water", "category": "agua", "extrude": false}}, {"type": "Feature", "geometry": {"type": "Polygon", "coordinates": [[[447.89052240679183, -815.5993585157792], [452.0144324143007, -808.5861985156887], [434.14415571527, -798.1221185160058], [430.02024570793554, -805.1352785157007], [447.89052240679183, -815.5993585157792]]]}, "properties": {"name": "", "kind": "water", "category": "agua", "extrude": false}}, {"type": "Feature", "geometry": {"type": "Polygon", "coordinates": [[[114.83569513800518, -855.3405985158962], [112.13028257809493, -861.9084785159243], [128.28636822735237, -861.9084785159243], [114.83569513800518, -855.3405985158962]]]}, "properties": {"name": "", "kind": "water", "category": "agua", "extrude": false}}]}