{"type": "FeatureCollection", "crs": {"type": "name", "properties": {"name": "wgs84_and_EPSG:32628_local_enu_m_section_centroid", "lng0": -16.39956436097961, "lat0": 28.327483551502425}}, "features": [{"type": "Feature", "geometry": {"type": "Polygon", "coordinates": [[[-16.38867, 28.32928], [-16.38904, 28.32915], [-16.38942, 28.329], [-16.38974, 28.32885], [-16.39001, 28.3287], [-16.39018, 28.32859], [-16.39024, 28.32853], [-16.39033, 28.32844], [-16.39046, 28.32829], [-16.39054, 28.32814], [-16.39068, 28.32787], [-16.39081, 28.32761], [-16.39084, 28.32748], [-16.39088, 28.32732], [-16.39092, 28.32718], [-16.39094, 28.32713], [-16.391, 28.32704], [-16.39107, 28.32697], [-16.39118, 28.32689], [-16.39151, 28.32663], [-16.39178, 28.32643], [-16.39218, 28.32615], [-16.39237, 28.32602], [-16.39261, 28.32585], [-16.39267, 28.32578], [-16.3927, 28.32564], [-16.39274, 28.32549], [-16.39278, 28.32539], [-16.39288, 28.32521], [-16.39297, 28.32504], [-16.39305, 28.32489], [-16.39313, 28.32479], [-16.39324, 28.32468], [-16.39358, 28.32433], [-16.39365, 28.32427], [-16.39382, 28.32415], [-16.39392, 28.32407], [-16.39413, 28.32395], [-16.39436, 28.32383], [-16.3945, 28.3238], [-16.39455, 28.32379], [-16.39462, 28.32379], [-16.39472, 28.3238], [-16.39495, 28.3238], [-16.39513, 28.3238], [-16.39524, 28.32383], [-16.39536, 28.32384], [-16.39568, 28.32383], [-16.39589, 28.32382], [-16.396, 28.3238], [-16.39609, 28.3238], [-16.39616, 28.32379], [-16.39638, 28.32374], [-16.3966, 28.32368], [-16.39667, 28.32365], [-16.3967, 28.32363], [-16.39706, 28.32313], [-16.39725, 28.32286], [-16.39736, 28.3227], [-16.39878, 28.32263], [-16.39911, 28.32264], [-16.39972, 28.32266], [-16.40028, 28.32272], [-16.40109, 28.32284], [-16.40251, 28.32303], [-16.40283, 28.32307], [-16.4029, 28.32317], [-16.40297, 28.32337], [-16.40311, 28.32342], [-16.40331, 28.32335], [-16.40348, 28.32335], [-16.40367, 28.32331], [-16.40379, 28.32346], [-16.40386, 28.32361], [-16.40438, 28.32394], [-16.40457, 28.32408], [-16.4051, 28.32433], [-16.40535, 28.32438], [-16.40552, 28.32412], [-16.40573, 28.32425], [-16.40594, 28.32438], [-16.40606, 28.32446], [-16.40632, 28.32461], [-16.40645, 28.3247], [-16.40648, 28.32474], [-16.40651, 28.32479], [-16.40658, 28.32483], [-16.40688, 28.32498], [-16.4071, 28.32511], [-16.40705, 28.32528], [-16.4069, 28.32564], [-16.40685, 28.32573], [-16.40679, 28.32579], [-16.40674, 28.32589], [-16.40661, 28.32618], [-16.40654, 28.32641], [-16.40649, 28.32664], [-16.40649, 28.32675], [-16.40646, 28.32696], [-16.40643, 28.32722], [-16.40641, 28.32729], [-16.40637, 28.32738], [-16.40636, 28.32754], [-16.40633, 28.32764], [-16.40628, 28.32777], [-16.40458, 28.33397], [-16.4032, 28.3333], [-16.40262, 28.33316], [-16.40183, 28.33281], [-16.40079, 28.33219], [-16.39977, 28.33127], [-16.3972, 28.33048], [-16.39521, 28.32988], [-16.39343, 28.32936], [-16.39112, 28.32951], [-16.38927, 28.32938], [-16.38867, 28.32928]]]}, "properties": {"cusec": "3802001010", "mun": "020", "nmun": "Güímar", "area_m2": 1237485.7285141486, "perimeter_m": 5008.5561850694185, "coords_system": "wgs84"}}, {"type": "Feature", "geometry": {"type": "Polygon", "coordinates": [[[1067.532031376769, -199.98064675012174], [1031.2759487713818, -185.50904674987862], [994.0399720415621, -168.81104675011528], [962.6833600586845, -152.11304674995645], [936.2262186979682, -135.4150467501931], [919.5680185819231, -123.16984674986571], [913.6886538353293, -116.49064675011857], [904.8696067150905, -106.47184675010237], [892.1309830967745, -89.77384674994354], [884.291830100968, -73.0758467501802], [870.5733123585678, -43.01944675013161], [857.8346887406, -14.076246750040866], [854.8950063669549, 0.39535324980676023], [850.9754298692258, 18.206553249923445], [847.0558533711484, 33.791353250124416], [845.0960651222839, 39.3573532499137], [839.21670037569, 49.3761532499299], [832.357441504316, 57.168553250030385], [821.5786061352126, 66.07415325008873], [789.2421000275544, 95.01735324978398], [762.7849586668382, 117.28135325012758], [723.5891936881541, 148.45095325013403], [704.9712053232444, 162.92255324998166], [681.4537463358249, 181.8469532500562], [675.5743815892312, 189.6393532497612], [672.6346992155862, 205.22415324996217], [668.7151227178571, 221.922153250121], [664.7955462201279, 233.05415325009506], [654.9966049751088, 253.09175325012745], [646.1775578552181, 272.0161532498065], [638.3384048594116, 288.7141532499653], [630.4992518636052, 299.8461532499394], [619.7204164945018, 312.0913532498713], [586.4040162624115, 351.0533532499783], [579.5447573910373, 357.7325532501209], [562.8865572749921, 371.09095325001067], [553.0876160303211, 379.996553250069], [532.5098394165467, 393.3549532499587], [509.97227455390777, 406.7133532498485], [496.2537568111593, 410.0529532501176], [491.3542861889979, 411.16615325007547], [484.49502731762374, 411.16615325007547], [474.69608607295277, 410.0529532501176], [452.15852120996556, 410.0529532501176], [434.52042696948814, 410.0529532501176], [423.74159160038477, 406.7133532498485], [411.98286210684915, 405.6001532498907], [380.6262501239715, 406.7133532498485], [360.048473509849, 407.82655324980635], [349.26963814074566, 410.0529532501176], [340.4505910205069, 410.0529532501176], [333.5913321494808, 411.16615325007547], [312.0336614109261, 416.7321532498647], [290.47599067271943, 423.4113532500073], [283.6167318013452, 426.7509532498809], [280.67704942804835, 428.97735324979664], [245.40086094709335, 484.6373532500624], [226.7828725821836, 514.6937532501111], [216.00403721308027, 532.5049532498322], [76.859071538473, 540.2973532499327], [44.52256543081488, 539.1841532499748], [-15.250976161643644, 536.9577532500591], [-70.12504713194072, 530.2785532499165], [-149.49647121408944, 516.9201532500267], [-288.6414368886967, 495.7693532500365], [-319.99804887192255, 491.31655324980954], [-326.85730774294854, 480.1845532498355], [-333.71656661432274, 457.92055324988735], [-347.4350843570711, 452.3545532500981], [-367.0329668464131, 460.1469532498031], [-383.6911669621102, 460.1469532498031], [-402.3091553273681, 464.59975325003], [-414.06788482090377, 447.90175324987115], [-420.9271436922779, 431.20375325010787], [-471.8816381644977, 394.4681532499166], [-490.49962652940746, 378.8833532501111], [-542.4340151264076, 351.0533532499783], [-566.9313682379112, 345.4873532497935], [-583.5895683539565, 374.4305532498842], [-604.1673449677307, 359.9589532500366], [-624.7451215818533, 345.4873532497935], [-636.503851075389, 336.58175325013065], [-661.9810983116729, 319.8837532499718], [-674.7197219296407, 309.8649532499556], [-677.6594043029377, 305.41215325012416], [-680.5990866765827, 299.8461532499394], [-687.4583455479568, 295.39335325010796], [-716.8551692819699, 278.6953532499491], [-738.4128400201766, 264.2237532501015], [-733.5133693980151, 245.29935325002697], [-718.8149575308345, 205.22415324996217], [-713.915486908325, 195.20535324994597], [-708.0361221617312, 188.52615324980334], [-703.1366515392216, 177.3941532498293], [-690.3980279212537, 145.11135324986498], [-683.5387690498795, 119.5077532500433], [-678.639298427718, 93.90415324982612], [-678.639298427718, 81.65895324989421], [-675.6996160540731, 58.28175324998824], [-672.7599336807762, 29.3385532498975], [-670.8001454319117, 21.546153249797015], [-666.8805689338343, 11.527353249780816], [-665.900674809402, -6.2838467499403805], [-662.9609924361052, -17.415846749914436], [-658.0615218135956, -31.88744675015755], [-491.4795206538398, -722.0714467501309], [-356.2541314769617, -647.4870467501862], [-299.42027225780004, -631.9022467499851], [-222.00863642486402, -592.9402467498783], [-120.09964748007633, -523.9218467501182], [-20.150446784153228, -421.50744675004046], [231.68234320434502, -333.5646467502059], [426.6812739740298, -266.77264674996604], [601.102428129592, -208.88624675018008], [827.4579708818063, -225.58424674994342], [1008.7383839087428, -211.1126467500958], [1067.532031376769, -199.98064675012174]]]}, "properties": {"cusec": "3802001010", "mun": "020", "nmun": "Güímar", "area_m2": 1237485.7285141486, "perimeter_m": 5008.5561850694185, "coords_system": "local_m_enu"}}]}