{"type": "FeatureCollection", "crs": {"type": "name", "properties": {"name": "EPSG:32628_local_enu_m_section_centroid", "lng0": -16.713728982391835, "lat0": 28.05005000721352}}, "features": [{"type": "Feature", "geometry": {"type": "Point", "coordinates": [-453.49620054096414, 338.1909630093047]}, "properties": {"osm_id": null, "category": "restauracion", "name": "El Teatro del Puerto", "extrude": false}}, {"type": "Feature", "geometry": {"type": "Point", "coordinates": [-580.9187153645158, 5.2328430091354505]}, "properties": {"osm_id": null, "category": "publico", "name": "Virgen del carmen", "extrude": false}}, {"type": "Feature", "geometry": {"type": "Point", "coordinates": [-599.8798143320222, 1.1140030092518316]}, "properties": {"osm_id": null, "category": "salud", "name": "Farmacia El Muelle", "extrude": false}}, {"type": "Feature", "geometry": {"type": "Point", "coordinates": [-603.1218675235582, -14.582116990668084]}, "properties": {"osm_id": null, "category": "restauracion", "name": "El Cine", "extrude": false}}, {"type": "Feature", "geometry": {"type": "Point", "coordinates": [-580.9187153645158, -33.951796990804866]}, "properties": {"osm_id": null, "category": "restauracion", "name": "Bahia", "extrude": false}}, {"type": "Feature", "geometry": {"type": "Point", "coordinates": [-667.2752230977211, -47.310196990694635]}, "properties": {"osm_id": null, "category": "restauracion", "name": "The Tunnel Bar", "extrude": false}}, {"type": "Feature", "geometry": {"type": "Point", "coordinates": [-612.3568069168055, -50.9837569909115]}, "properties": {"osm_id": null, "category": "restauracion", "name": "La Tapa", "extrude": false}}, {"type": "Feature", "geometry": {"type": "Point", "coordinates": [-623.7531151047593, -75.58547699088976]}, "properties": {"osm_id": null, "category": "restauracion", "name": "Akustito", "extrude": false}}, {"type": "Feature", "geometry": {"type": "Point", "coordinates": [-580.5257392200555, -77.5892369909721]}, "properties": {"osm_id": null, "category": "restauracion", "name": "Con Limón y Sal Sur", "extrude": false}}, {"type": "Feature", "geometry": {"type": "Point", "coordinates": [88.71263470236214, 166.9808030093003]}, "properties": {"osm_id": null, "category": "restauracion", "name": "Los Tarajales", "extrude": false}}, {"type": "Feature", "geometry": {"type": "Point", "coordinates": [271.44654185094066, 146.05264300914342]}, "properties": {"osm_id": null, "category": "finanzas", "name": "Caixabank", "extrude": false}}, {"type": "Feature", "geometry": {"type": "Point", "coordinates": [266.6325840819123, 132.8055630089726]}, "properties": {"osm_id": null, "category": "restauracion", "name": "", "extrude": false}}, {"type": "Feature", "geometry": {"type": "Point", "coordinates": [-15.327799529115174, 34.732643009007376]}, "properties": {"osm_id": null, "category": "restauracion", "name": "Oops Bubble Waffle cafè", "extrude": false}}, {"type": "Feature", "geometry": {"type": "Point", "coordinates": [287.165587626911, 21.040283009169798]}, "properties": {"osm_id": null, "category": "alojamiento", "name": "", "extrude": false}}, {"type": "Feature", "geometry": {"type": "Point", "coordinates": [-69.26377534870532, 6.791323009155548]}, "properties": {"osm_id": null, "category": "restauracion", "name": "Pailebot", "extrude": false}}, {"type": "Feature", "geometry": {"type": "Point", "coordinates": [-109.5438301501311, -24.712236990798715]}, "properties": {"osm_id": null, "category": "publico", "name": "Svenska Kyrkan", "extrude": false}}, {"type": "Feature", "geometry": {"type": "Point", "coordinates": [-233.72429178214676, -67.34779699072703]}, "properties": {"osm_id": null, "category": "restauracion", "name": "Restaurante Abora", "extrude": false}}, {"type": "Feature", "geometry": {"type": "Point", "coordinates": [156.992239792835, -71.68927699083952]}, "properties": {"osm_id": null, "category": "alojamiento", "name": "Sol Arona Tenerife", "extrude": false}}, {"type": "Feature", "geometry": {"type": "Point", "coordinates": [-249.73806966672416, -73.02511699102624]}, "properties": {"osm_id": null, "category": "restauracion", "name": "Promenade", "extrude": false}}, {"type": "Feature", "geometry": {"type": "Point", "coordinates": [-260.6431576740152, -75.80811699072314]}, "properties": {"osm_id": null, "category": "restauracion", "name": "Miami Beach", "extrude": false}}, {"type": "Feature", "geometry": {"type": "Point", "coordinates": [-265.8500915875039, -77.25527699102429]}, "properties": {"osm_id": null, "category": "restauracion", "name": "Cabanas", "extrude": false}}, {"type": "Feature", "geometry": {"type": "Point", "coordinates": [-403.39174212942595, -96.29099699081777]}, "properties": {"osm_id": null, "category": "restauracion", "name": "", "extrude": false}}, {"type": "Feature", "geometry": {"type": "Point", "coordinates": [-211.81587173171138, -105.30791699099055]}, "properties": {"osm_id": null, "category": "restauracion", "name": "Bubax", "extrude": false}}, {"type": "Feature", "geometry": {"type": "Point", "coordinates": [-587.1080896389808, -91.0589569909763]}, "properties": {"osm_id": null, "category": "restauracion", "name": "Pescaíto", "extrude": false}}, {"type": "Feature", "geometry": {"type": "Point", "coordinates": [-528.4564000862156, -105.64187699093836]}, "properties": {"osm_id": null, "category": "restauracion", "name": "Miramar", "extrude": false}}, {"type": "Feature", "geometry": {"type": "Point", "coordinates": [-433.3561731400767, -107.6456369910207]}, "properties": {"osm_id": null, "category": "restauracion", "name": "La Taberna Rustica", "extrude": false}}, {"type": "Feature", "geometry": {"type": "Point", "coordinates": [-583.1783281947264, -115.54935699084012]}, "properties": {"osm_id": null, "category": "restauracion", "name": "Yim Siam Thai Food", "extrude": false}}, {"type": "Feature", "geometry": {"type": "Point", "coordinates": [-654.7982305125887, -121.00403699091046]}, "properties": {"osm_id": null, "category": "restauracion", "name": "Bar Crisfer", "extrude": false}}, {"type": "Feature", "geometry": {"type": "Point", "coordinates": [-411.4477530896413, -121.56063699069165]}, "properties": {"osm_id": null, "category": "restauracion", "name": "Pizzeria Daccapo", "extrude": false}}, {"type": "Feature", "geometry": {"type": "Point", "coordinates": [-564.0207411551645, -122.3398769907017]}, "properties": {"osm_id": null, "category": "restauracion", "name": "The Ivy", "extrude": false}}, {"type": "Feature", "geometry": {"type": "Point", "coordinates": [-460.86450324846106, -124.2323169906696]}, "properties": {"osm_id": null, "category": "restauracion", "name": "Gran Cafè", "extrude": false}}, {"type": "Feature", "geometry": {"type": "Point", "coordinates": [-541.0316367072013, -125.45683699074189]}, "properties": {"osm_id": null, "category": "restauracion", "name": "Acquolina", "extrude": false}}, {"type": "Feature", "geometry": {"type": "Point", "coordinates": [-546.2385706206901, -128.9077569907299]}, "properties": {"osm_id": null, "category": "restauracion", "name": "d‘n Hollander", "extrude": false}}, {"type": "Feature", "geometry": {"type": "Point", "coordinates": [-414.78805031703064, -136.1435569906537]}, "properties": {"osm_id": null, "category": "restauracion", "name": "", "extrude": false}}, {"type": "Feature", "geometry": {"type": "Point", "coordinates": [-519.6144368370796, -138.25863699085048]}, "properties": {"osm_id": null, "category": "restauracion", "name": "Sal fina", "extrude": false}}, {"type": "Feature", "geometry": {"type": "Point", "coordinates": [-438.46486301736303, -141.37559699089067]}, "properties": {"osm_id": null, "category": "restauracion", "name": "Linares", "extrude": false}}, {"type": "Feature", "geometry": {"type": "Point", "coordinates": [-647.6264158771472, -144.38123699081643]}, "properties": {"osm_id": null, "category": "restauracion", "name": "La Piazzetta", "extrude": false}}, {"type": "Feature", "geometry": {"type": "Point", "coordinates": [-521.9722937038417, -146.27367699078434]}, "properties": {"osm_id": null, "category": "alojamiento", "name": "Pensión Playa", "extrude": false}}, {"type": "Feature", "geometry": {"type": "Point", "coordinates": [-549.2841357398213, -150.16987699083458]}, "properties": {"osm_id": null, "category": "restauracion", "name": "100 Pizze Social Club", "extrude": false}}, {"type": "Feature", "geometry": {"type": "Point", "coordinates": [-451.8260519272694, -151.28307699079244]}, "properties": {"osm_id": null, "category": "restauracion", "name": "The Cottage", "extrude": false}}, {"type": "Feature", "geometry": {"type": "Point", "coordinates": [-598.5043978265854, -151.8396769909691]}, "properties": {"osm_id": null, "category": "alojamiento", "name": "Pension Casa Maravillas", "extrude": false}}, {"type": "Feature", "geometry": {"type": "Point", "coordinates": [-377.06234045407354, -121.89459699103494]}, "properties": {"osm_id": null, "category": "restauracion", "name": "La Mareta", "extrude": false}}, {"type": "Feature", "geometry": {"type": "Point", "coordinates": [444.0613132807998, -138.70391699091272]}, "properties": {"osm_id": null, "category": "restauracion", "name": "", "extrude": false}}, {"type": "Feature", "geometry": {"type": "Point", "coordinates": [444.0613132807998, -141.59823699072405]}, "properties": {"osm_id": null, "category": "restauracion", "name": "", "extrude": false}}, {"type": "Feature", "geometry": {"type": "Point", "coordinates": [-382.4657624396179, -164.08487699090102]}, "properties": {"osm_id": null, "category": "restauracion", "name": "Café 5", "extrude": false}}, {"type": "Feature", "geometry": {"type": "Point", "coordinates": [-398.77427243245324, -166.8678769909934]}, "properties": {"osm_id": null, "category": "restauracion", "name": "", "extrude": false}}, {"type": "Feature", "geometry": {"type": "Point", "coordinates": [345.0313248907555, -167.20183699094122]}, "properties": {"osm_id": null, "category": "restauracion", "name": "Taberna Vasca Txupinazo", "extrude": false}}, {"type": "Feature", "geometry": {"type": "Point", "coordinates": [-524.4283946061079, -155.40191699067606]}, "properties": {"osm_id": null, "category": "restauracion", "name": "La Paloma", "extrude": false}}, {"type": "Feature", "geometry": {"type": "Point", "coordinates": [-456.4435216242421, -156.1811569906861]}, "properties": {"osm_id": null, "category": "publico", "name": "", "extrude": false}}, {"type": "Feature", "geometry": {"type": "Point", "coordinates": [-466.26792523435444, -160.74527699102745]}, "properties": {"osm_id": null, "category": "restauracion", "name": "Coffee & co", "extrude": false}}, {"type": "Feature", "geometry": {"type": "Point", "coordinates": [-521.5793175593813, -162.86035699082873]}, "properties": {"osm_id": null, "category": "alojamiento", "name": "Pensión La Paloma", "extrude": false}}, {"type": "Feature", "geometry": {"type": "Point", "coordinates": [-494.5622076313105, -162.97167699094317]}, "properties": {"osm_id": null, "category": "restauracion", "name": "La Piazzetta del Mar", "extrude": false}}, {"type": "Feature", "geometry": {"type": "Point", "coordinates": [-540.3439284544829, -165.19807699085888]}, "properties": {"osm_id": null, "category": "restauracion", "name": "Arte del Gusto", "extrude": false}}, {"type": "Feature", "geometry": {"type": "Point", "coordinates": [-526.5897634004652, -167.09051699082679]}, "properties": {"osm_id": null, "category": "restauracion", "name": "Norio Coffee", "extrude": false}}, {"type": "Feature", "geometry": {"type": "Point", "coordinates": [-633.1845425704112, -168.53767699073245]}, "properties": {"osm_id": null, "category": "restauracion", "name": "Blue", "extrude": false}}, {"type": "Feature", "geometry": {"type": "Point", "coordinates": [-535.038750505141, -177.33195699067636]}, "properties": {"osm_id": null, "category": "restauracion", "name": "Frasqueta 28", "extrude": false}}, {"type": "Feature", "geometry": {"type": "Point", "coordinates": [-554.785801761568, -178.4451569910297]}, "properties": {"osm_id": null, "category": "restauracion", "name": "500 Gradi", "extrude": false}}, {"type": "Feature", "geometry": {"type": "Point", "coordinates": [-545.8455944762296, -185.9035969907869]}, "properties": {"osm_id": null, "category": "restauracion", "name": "Jamón y Mojo", "extrude": false}}, {"type": "Feature", "geometry": {"type": "Point", "coordinates": [-319.3930912626337, -173.65839699085498]}, "properties": {"osm_id": null, "category": "restauracion", "name": "Casa Tagoro", "extrude": false}}, {"type": "Feature", "geometry": {"type": "Point", "coordinates": [-242.36976695922712, -182.11871699085108]}, "properties": {"osm_id": null, "category": "restauracion", "name": "Oro di Napoli", "extrude": false}}, {"type": "Feature", "geometry": {"type": "Point", "coordinates": [-228.5173578690071, -186.01491699090133]}, "properties": {"osm_id": null, "category": "restauracion", "name": "El Rincón de Pancho", "extrude": false}}, {"type": "Feature", "geometry": {"type": "Point", "coordinates": [-217.9070019699741, -193.91863699072076]}, "properties": {"osm_id": null, "category": "restauracion", "name": "Churrería Marcos", "extrude": false}}, {"type": "Feature", "geometry": {"type": "Point", "coordinates": [-201.10727179682505, -198.59407699078105]}, "properties": {"osm_id": null, "category": "restauracion", "name": "Taste", "extrude": false}}, {"type": "Feature", "geometry": {"type": "Point", "coordinates": [-196.98102228051502, -202.37895699071686]}, "properties": {"osm_id": null, "category": "restauracion", "name": "Restaurante Fortuna Nova", "extrude": false}}, {"type": "Feature", "geometry": {"type": "Point", "coordinates": [-470.0011986062042, -201.265756990759]}, "properties": {"osm_id": null, "category": "restauracion", "name": "Fortuna", "extrude": false}}, {"type": "Feature", "geometry": {"type": "Point", "coordinates": [-496.5270883532632, -201.37707699087343]}, "properties": {"osm_id": null, "category": "restauracion", "name": "Smash N Pasta Tenerife", "extrude": false}}, {"type": "Feature", "geometry": {"type": "Point", "coordinates": [-497.0183085339259, -201.93367699065462]}, "properties": {"osm_id": null, "category": "restauracion", "name": "Smash & Pasta", "extrude": false}}, {"type": "Feature", "geometry": {"type": "Point", "coordinates": [-415.08278242528866, -221.52599699102026]}, "properties": {"osm_id": null, "category": "restauracion", "name": "The House BBQ", "extrude": false}}, {"type": "Feature", "geometry": {"type": "Point", "coordinates": [-306.42487849718765, -211.95247699067082]}, "properties": {"osm_id": null, "category": "alojamiento", "name": "LABRANDA Reveron Plaza", "extrude": false}}, {"type": "Feature", "geometry": {"type": "Point", "coordinates": [-324.6982692123247, -215.18075699082544]}, "properties": {"osm_id": null, "category": "finanzas", "name": "BBVA", "extrude": false}}, {"type": "Feature", "geometry": {"type": "Point", "coordinates": [441.11399219787086, -231.3221569908076]}, "properties": {"osm_id": null, "category": "restauracion", "name": "The 19th hole", "extrude": false}}, {"type": "Feature", "geometry": {"type": "Point", "coordinates": [-379.6166853928912, -235.66363699092008]}, "properties": {"osm_id": null, "category": "restauracion", "name": "El Burgado", "extrude": false}}, {"type": "Feature", "geometry": {"type": "Point", "coordinates": [432.46851702113946, -240.56171699081375]}, "properties": {"osm_id": null, "category": "restauracion", "name": "The Swan", "extrude": false}}, {"type": "Feature", "geometry": {"type": "Point", "coordinates": [426.7703629269881, -246.79563699089414]}, "properties": {"osm_id": null, "category": "restauracion", "name": "The Fox", "extrude": false}}, {"type": "Feature", "geometry": {"type": "Point", "coordinates": [270.071125345504, -254.69935699071357]}, "properties": {"osm_id": null, "category": "alojamiento", "name": "HG Cristian Sur", "extrude": false}}, {"type": "Feature", "geometry": {"type": "Point", "coordinates": [323.90885712889184, -259.1521569909405]}, "properties": {"osm_id": null, "category": "restauracion", "name": "Arco Iris", "extrude": false}}, {"type": "Feature", "geometry": {"type": "Point", "coordinates": [424.0195299161148, -264.94079699095863]}, "properties": {"osm_id": null, "category": "restauracion", "name": "", "extrude": false}}, {"type": "Feature", "geometry": {"type": "Point", "coordinates": [-94.11951648241873, -276.74071699082833]}, "properties": {"osm_id": null, "category": "finanzas", "name": "Banco Santander", "extrude": false}}, {"type": "Feature", "geometry": {"type": "Point", "coordinates": [-151.0028133849379, -283.41991699097093]}, "properties": {"osm_id": null, "category": "restauracion", "name": "Panaria", "extrude": false}}, {"type": "Feature", "geometry": {"type": "Point", "coordinates": [-339.8278507717791, -284.08783699086655]}, "properties": {"osm_id": null, "category": "restauracion", "name": "", "extrude": false}}, {"type": "Feature", "geometry": {"type": "Point", "coordinates": [-237.35932111814313, -288.3179969908646]}, "properties": {"osm_id": null, "category": "restauracion", "name": "Raymond", "extrude": false}}, {"type": "Feature", "geometry": {"type": "Point", "coordinates": [-137.2486483309202, -304.12543699089895]}, "properties": {"osm_id": null, "category": "finanzas", "name": "Cajamar", "extrude": false}}, {"type": "Feature", "geometry": {"type": "Point", "coordinates": [-473.6362279418515, -232.8806369908277]}, "properties": {"osm_id": null, "category": "salud", "name": "Clinica Dental Caser", "extrude": false}}, {"type": "Feature", "geometry": {"type": "Point", "coordinates": [-34.976606749339894, -308.24427699078257]}, "properties": {"osm_id": null, "category": "publico", "name": "Policía Local (Objetos Perdidos)", "extrude": false}}, {"type": "Feature", "geometry": {"type": "Point", "coordinates": [375.58522011827125, -314.47819699086295]}, "properties": {"osm_id": null, "category": "restauracion", "name": "", "extrude": false}}, {"type": "Feature", "geometry": {"type": "Point", "coordinates": [-46.07818282868658, -318.9309969906944]}, "properties": {"osm_id": null, "category": "publico", "name": "Biblioteca Municipal", "extrude": false}}, {"type": "Feature", "geometry": {"type": "Point", "coordinates": [150.11515726565165, -323.9403969907025]}, "properties": {"osm_id": null, "category": "restauracion", "name": "Kismat Tandoori", "extrude": false}}, {"type": "Feature", "geometry": {"type": "Point", "coordinates": [135.77152799476892, -327.1686769908571]}, "properties": {"osm_id": null, "category": "restauracion", "name": "", "extrude": false}}, {"type": "Feature", "geometry": {"type": "Point", "coordinates": [-110.32978243905177, -365.0174769910062]}, "properties": {"osm_id": null, "category": "restauracion", "name": "Comida Sana", "extrude": false}}, {"type": "Feature", "geometry": {"type": "Point", "coordinates": [198.2547349552371, -390.73239699094233]}, "properties": {"osm_id": null, "category": "salud", "name": "Centro Médico Quirónsalud", "extrude": false}}, {"type": "Feature", "geometry": {"type": "Point", "coordinates": [82.03204024758347, -413.2190369907238]}, "properties": {"osm_id": null, "category": "finanzas", "name": "Deutsche Bank", "extrude": false}}, {"type": "Feature", "geometry": {"type": "Point", "coordinates": [-131.7469823091735, -414.8888369908583]}, "properties": {"osm_id": null, "category": "restauracion", "name": "Palmera", "extrude": false}}, {"type": "Feature", "geometry": {"type": "Point", "coordinates": [-76.63207805620233, -423.34915699085445]}, "properties": {"osm_id": null, "category": "restauracion", "name": "Buffet Libre", "extrude": false}}, {"type": "Feature", "geometry": {"type": "Point", "coordinates": [-62.288448785319616, -435.5943569907863]}, "properties": {"osm_id": null, "category": "salud", "name": "Blesa", "extrude": false}}, {"type": "Feature", "geometry": {"type": "Point", "coordinates": [86.94424205246513, -438.7113169908265]}, "properties": {"osm_id": null, "category": "restauracion", "name": "Bananas Cafeteria", "extrude": false}}, {"type": "Feature", "geometry": {"type": "Point", "coordinates": [-141.57138591928586, -447.0603169907082]}, "properties": {"osm_id": null, "category": "restauracion", "name": "Mandarina", "extrude": false}}, {"type": "Feature", "geometry": {"type": "Point", "coordinates": [89.98980717159647, -448.50747699100936]}, "properties": {"osm_id": null, "category": "salud", "name": "Centro de salud / Urgencias", "extrude": false}}, {"type": "Feature", "geometry": {"type": "Point", "coordinates": [489.84303410432125, -464.64887699099154]}, "properties": {"osm_id": null, "category": "restauracion", "name": "Pizza May", "extrude": false}}, {"type": "Feature", "geometry": {"type": "Point", "coordinates": [-55.607854330540945, -467.20923699085506]}, "properties": {"osm_id": null, "category": "restauracion", "name": "Jamm'Ja'", "extrude": false}}, {"type": "Feature", "geometry": {"type": "Point", "coordinates": [-93.92302841001406, -467.5431969908028]}, "properties": {"osm_id": null, "category": "restauracion", "name": "Petrin", "extrude": false}}, {"type": "Feature", "geometry": {"type": "Point", "coordinates": [-91.95814768806139, -472.8865569907588]}, "properties": {"osm_id": null, "category": "restauracion", "name": "Pizza y Pasta", "extrude": false}}, {"type": "Feature", "geometry": {"type": "Point", "coordinates": [-90.38624311056905, -480.0110369909636]}, "properties": {"osm_id": null, "category": "restauracion", "name": "kVegan", "extrude": false}}, {"type": "Feature", "geometry": {"type": "Point", "coordinates": [97.84933005975616, -480.79027699097367]}, "properties": {"osm_id": null, "category": "finanzas", "name": "Bankinter", "extrude": false}}, {"type": "Feature", "geometry": {"type": "Point", "coordinates": [-50.79389656151259, -483.2393169907227]}, "properties": {"osm_id": null, "category": "finanzas", "name": "CajaSiete", "extrude": false}}, {"type": "Feature", "geometry": {"type": "Point", "coordinates": [-122.70853098763278, -495.7071569908835]}, "properties": {"osm_id": null, "category": "restauracion", "name": "Bar Restaurante Alba", "extrude": false}}, {"type": "Feature", "geometry": {"type": "Point", "coordinates": [490.1377662125793, -509.0655569907733]}, "properties": {"osm_id": null, "category": "restauracion", "name": "Oliver's With A Twist", "extrude": false}}, {"type": "Feature", "geometry": {"type": "Point", "coordinates": [94.31254475996214, -523.7597969908497]}, "properties": {"osm_id": null, "category": "publico", "name": "Academia Infotec", "extrude": false}}, {"type": "Feature", "geometry": {"type": "Point", "coordinates": [116.90867306346489, -524.984316990922]}, "properties": {"osm_id": null, "category": "finanzas", "name": "Solbank", "extrude": false}}, {"type": "Feature", "geometry": {"type": "Point", "coordinates": [275.4745473310483, -542.6841969909243]}, "properties": {"osm_id": null, "category": "restauracion", "name": "Mediterraneo", "extrude": false}}, {"type": "Feature", "geometry": {"type": "Point", "coordinates": [44.50281845668201, -543.3521169908199]}, "properties": {"osm_id": null, "category": "finanzas", "name": "Banca March", "extrude": false}}, {"type": "Feature", "geometry": {"type": "Point", "coordinates": [254.45032360538693, -548.2501969907137]}, "properties": {"osm_id": null, "category": "restauracion", "name": "El Tejar 2", "extrude": false}}, {"type": "Feature", "geometry": {"type": "Point", "coordinates": [-92.94058804903771, -629.8477569907488]}, "properties": {"osm_id": null, "category": "restauracion", "name": "El Rincon del Arroz", "extrude": false}}, {"type": "Feature", "geometry": {"type": "Point", "coordinates": [-191.675844330824, -668.9210769909703]}, "properties": {"osm_id": null, "category": "restauracion", "name": "apartamentai los cristianos", "extrude": false}}, {"type": "Feature", "geometry": {"type": "Point", "coordinates": [128.30498125106956, -682.3907969909744]}, "properties": {"osm_id": null, "category": "restauracion", "name": "La Gloria", "extrude": false}}, {"type": "Feature", "geometry": {"type": "Point", "coordinates": [111.9964712582342, -687.1775569907537]}, "properties": {"osm_id": null, "category": "salud", "name": "", "extrude": false}}, {"type": "Feature", "geometry": {"type": "Point", "coordinates": [161.02024527294267, -692.632236990824]}, "properties": {"osm_id": null, "category": "restauracion", "name": "Orinoco", "extrude": false}}, {"type": "Feature", "geometry": {"type": "Point", "coordinates": [366.8415009053376, 772.6729230090316]}, "properties": {"osm_id": null, "category": "restauracion", "name": "Callao Beach Club", "extrude": false}}, {"type": "Feature", "geometry": {"type": "Point", "coordinates": [425.19845834949575, 584.9874030090973]}, "properties": {"osm_id": null, "category": "restauracion", "name": "Olaff", "extrude": false}}, {"type": "Feature", "geometry": {"type": "Point", "coordinates": [395.33227137469834, 422.1262430089746]}, "properties": {"osm_id": null, "category": "alojamiento", "name": "Arona Gran Hotel", "extrude": false}}, {"type": "Feature", "geometry": {"type": "Point", "coordinates": [295.418086659531, 327.281603009164]}, "properties": {"osm_id": null, "category": "restauracion", "name": "Restaurant Marina Bay", "extrude": false}}, {"type": "Feature", "geometry": {"type": "Point", "coordinates": [354.36450832055425, 245.01612300923313]}, "properties": {"osm_id": null, "category": "restauracion", "name": "La Buena Paella", "extrude": false}}, {"type": "Feature", "geometry": {"type": "Point", "coordinates": [341.1015634468502, 242.45576300897412]}, "properties": {"osm_id": null, "category": "restauracion", "name": "The Queen Vic", "extrude": false}}, {"type": "Feature", "geometry": {"type": "Point", "coordinates": [200.6125918216501, 223.53136300929506]}, "properties": {"osm_id": null, "category": "restauracion", "name": "Läuft Tasca 7", "extrude": false}}, {"type": "Feature", "geometry": {"type": "Point", "coordinates": [199.63015146067377, 217.85404300899586]}, "properties": {"osm_id": null, "category": "restauracion", "name": "", "extrude": false}}, {"type": "Feature", "geometry": {"type": "Point", "coordinates": [319.5861195405261, 215.5163230089657]}, "properties": {"osm_id": null, "category": "restauracion", "name": "Fuxin", "extrude": false}}, {"type": "Feature", "geometry": {"type": "Point", "coordinates": [314.08445351877947, 208.16920300932296]}, "properties": {"osm_id": null, "category": "restauracion", "name": "Pollos Mari", "extrude": false}}, {"type": "Feature", "geometry": {"type": "Point", "coordinates": [190.78818821153774, 207.16732300908404]}, "properties": {"osm_id": null, "category": "restauracion", "name": "Rosario Restaurante", "extrude": false}}, {"type": "Feature", "geometry": {"type": "Point", "coordinates": [180.0795882766514, 197.70512300924452]}, "properties": {"osm_id": null, "category": "restauracion", "name": "Mokelino", "extrude": false}}, {"type": "Feature", "geometry": {"type": "Point", "coordinates": [199.13893128036014, 186.57312300927046]}, "properties": {"osm_id": null, "category": "restauracion", "name": "EL RINCÓN DEL POLLO DE ADEJE", "extrude": false}}, {"type": "Feature", "geometry": {"type": "Point", "coordinates": [286.0849032300814, 175.21848300906754]}, "properties": {"osm_id": null, "category": "restauracion", "name": "Mint", "extrude": false}}]}