{"type": "FeatureCollection", "crs": {"type": "name", "properties": {"name": "EPSG:32628_local_enu_m_section_centroid", "lng0": -15.428166005614425, "lat0": 28.120442977451784}}, "features": [{"type": "Feature", "geometry": {"type": "Polygon", "coordinates": [[[-219.82368178875245, 49.534889932726], [-217.46737022456253, 48.421689932768146], [-214.71834006628285, 48.755649932715954], [-212.26384885348332, 49.98016993278824], [-210.59479482886334, 51.53864993241285], [-209.2202797497235, 53.98768993255743], [-208.72938150719847, 56.659369932535384], [-209.02392045267862, 58.77444993273215], [-209.8093576408582, 60.889529932533435], [-213.4420046355783, 63.22724993256358], [-221.78727475885256, 50.98204993263167], [-219.82368178875245, 49.534889932726]]]}, "properties": {"name": "", "kind": "water", "category": "agua", "extrude": false}}, {"type": "Feature", "geometry": {"type": "Polygon", "coordinates": [[[-30.140600869895948, 29.831249932641413], [-29.35516368171638, 31.946329932442694], [-28.47154684527597, 33.727449932691655], [-27.78428930570605, 34.84064993264951], [-27.09703176613613, 36.0651699327218], [-26.507953875001455, 36.84440993273185], [-25.72251668699629, 37.846289932575274], [-24.54436090490134, 38.62552993258532], [-23.366205122806388, 39.40476993259537], [-22.482588286191575, 39.961369932772044], [-21.108073207051735, 40.62928993266766], [-20.224456370436922, 41.29720993256328], [-19.439019182431757, 41.74248993262552], [-18.35904304877205, 42.74436993246894], [-17.573605860766886, 43.96888993254123], [-17.08270761824186, 44.970769932780144], [-16.78816867276172, 46.083969932738], [-16.49362972710718, 47.976409932705906], [-16.78816867276172, 51.0933699327461], [-16.886348321196966, 52.87448993259957], [-16.591809375716828, 53.876369932443], [-16.1009111331918, 55.434849932463095], [-15.511833242057124, 56.325409932587576], [-14.039138514482037, 58.21784993255548], [-12.762803083777442, 59.44236993262777], [-11.290108356202355, 60.66688993270006], [-9.621054331582377, 61.334809932595675], [-8.34471890087778, 61.66876993254348], [-6.970203821737939, 62.225369932720156], [0.2950901678766507, 69.46116993264397], [-23.56256441985128, 78.0328099327545], [-37.50407450794578, 55.99144993263977], [-46.24206322530986, 42.521729932635566], [-30.140600869895948, 29.831249932641413]]]}, "properties": {"name": "", "kind": "water", "category": "agua", "extrude": false}}, {"type": "Feature", "geometry": {"type": "Polygon", "coordinates": [[[-193.70789528544427, 25.48976993252893], [-192.03884126082428, 26.269009932538978], [-186.83531988974505, 30.61048993265146], [-183.20267289502496, 36.51044993278404], [-183.1044932464153, 38.8481699324187], [-184.5771879741648, 39.516089932709804], [-195.37694931006425, 26.82560993271565], [-193.70789528544427, 25.48976993252893]]]}, "properties": {"name": "", "kind": "water", "category": "agua", "extrude": false}}, {"type": "Feature", "geometry": {"type": "Polygon", "coordinates": [[[-165.7266954604712, 19.144529932729597], [-162.2904077626216, 23.263369932613216], [-176.33009749932575, 35.06328993248289], [-179.76638519717537, 30.94444993259927], [-165.7266954604712, 19.144529932729597]]]}, "properties": {"name": "", "kind": "water", "category": "agua", "extrude": false}}, {"type": "Feature", "geometry": {"type": "Polygon", "coordinates": [[[-176.23191785089048, 7.3446099324644365], [-171.91201331642608, 12.242689932753592], [-184.67536762260005, 23.263369932613216], [-188.89709250845482, 18.253969932605116], [-176.23191785089048, 7.3446099324644365]]]}, "properties": {"name": "", "kind": "water", "category": "agua", "extrude": false}}, {"type": "Feature", "geometry": {"type": "Polygon", "coordinates": [[[-17.377246563721993, -31.172110067580263], [-12.762803083777442, -22.26651006752192], [-15.610012890492369, -20.819350067220768], [-20.224456370436922, -29.72495006727911], [-17.377246563721993, -31.172110067580263]]]}, "properties": {"name": "", "kind": "water", "category": "agua", "extrude": false}}, {"type": "Feature", "geometry": {"type": "Polygon", "coordinates": [[[-102.98990006326113, -30.17023006734135], [-102.00810357821108, -31.617390067247015], [-100.53540885063599, -32.61927006748593], [-98.37545658349099, -33.06455006754817], [-96.70640255869661, -32.73059006720487], [-95.13552818268627, -31.84003006747588], [-93.85919275198168, -30.281550067455782], [-93.36829450945665, -28.611750067321253], [-93.46647415806629, -26.83063006746778], [-94.64462994016124, -24.492910067437634], [-96.01914501930108, -23.379710067479778], [-97.09912115278638, -23.04575006753197], [-98.866354826016, -22.823110067303105], [-100.53540885063599, -23.268390067365345], [-101.51720533568604, -23.824990067542018], [-102.695361117781, -25.16083006733325], [-103.38261865735092, -26.719310067353348], [-103.48079830596056, -28.50043006720682], [-102.98990006326113, -30.17023006734135]]]}, "properties": {"name": "", "kind": "water", "category": "agua", "extrude": false}}, {"type": "Feature", "geometry": {"type": "Polygon", "coordinates": [[[-30.729678760856224, -54.99459006754847], [-19.04630058834197, -33.732470067443785], [-21.8935103950569, -32.28531006753812], [-33.478708919135904, -53.436110067528375], [-30.729678760856224, -54.99459006754847]]]}, "properties": {"name": "", "kind": "water", "category": "agua", "extrude": false}}, {"type": "Feature", "geometry": {"type": "Polygon", "coordinates": [[[-36.91499661698551, -66.79451006741814], [-32.30055313704096, -57.77759006724537], [-35.04958329532064, -56.330430067339705], [-39.76220642370044, -65.34735006751248], [-36.91499661698551, -66.79451006741814]]]}, "properties": {"name": "", "kind": "water", "category": "agua", "extrude": false}}, {"type": "Feature", "geometry": {"type": "Polygon", "coordinates": [[[64.40640064405216, -103.08483006754713], [69.11902377243196, -93.28867006736431], [74.42072479194643, -80.70951006748459], [70.39535920313655, -79.8189500673601], [65.68273607458235, -91.95283006757307], [61.46101118872758, -101.19239006757923], [64.40640064405216, -103.08483006754713]]]}, "properties": {"name": "", "kind": "water", "category": "agua", "extrude": false}}, {"type": "Feature", "geometry": {"type": "Polygon", "coordinates": [[[51.741225986487855, -115.44135006719799], [45.45772848192332, -122.89979006735066], [47.81404004611322, -125.79411006755748], [54.686615441638025, -117.11115006733252], [61.264651891682696, -107.87159006732637], [58.908340327492795, -105.97915006735846], [51.741225986487855, -115.44135006719799]]]}, "properties": {"name": "", "kind": "water", "category": "agua", "extrude": false}}, {"type": "Feature", "geometry": {"type": "Polygon", "coordinates": [[[116.93251259614868, -141.26759006724853], [118.11066837824362, -140.59967006735292], [118.89610556642319, -139.48647006739506], [119.38700380894822, -138.26195006732277], [119.38700380894822, -136.92611006753154], [118.99428521485841, -135.59027006734482], [118.11066837824362, -134.5883900675014], [116.93251259614868, -133.9204700672103], [115.65617716561846, -133.58651006726248], [114.28166208647862, -133.80915006749134], [113.2016859528189, -134.36575006727253], [112.31806911637851, -135.256310067397], [111.72899122524383, -136.36951006735487], [111.53263192819895, -137.59403006742716], [111.72899122524383, -138.81855006749944], [112.31806911637851, -139.9317500674573], [113.2016859528189, -140.82231006758178], [114.37984173491387, -141.37891006736297], [115.55799751700883, -141.4902300674774], [116.93251259614868, -141.26759006724853]]]}, "properties": {"name": "", "kind": "water", "category": "agua", "extrude": false}}]}