{"type": "FeatureCollection", "crs": {"type": "name", "properties": {"name": "EPSG:32628_local_enu_m_section_centroid", "lng0": -13.554858771402058, "lat0": 29.065256987847217}}, "features": [{"type": "Feature", "geometry": {"type": "Polygon", "coordinates": [[[2208.032406903774, 1945.8722471522142], [2205.5025774015708, 1945.093007152204], [2209.8811284630697, 1912.2536071520633], [2209.4919239242163, 1898.67256715234], [2212.216355695846, 1883.9783271522635], [2214.843486332849, 1878.1896871522454], [2331.2156434336753, 1849.2731424401481], [2331.2156434336753, 1917.8471896173708], [2208.032406903774, 1945.8722471522142]]]}, "properties": {"name": "", "kind": "farmland", "category": "parque", "extrude": false}}, {"type": "Feature", "geometry": {"type": "Polygon", "coordinates": [[[2307.960672240539, 1722.4530071523277], [2302.803712101333, 1707.3134871521888], [2306.0146495464433, 1702.9720071520765], [2323.9180583312923, 1698.519207152245], [2331.2156434336753, 1693.4985247199077], [2331.2156434336753, 1767.2764768471934], [2307.960672240539, 1722.4530071523277]]]}, "properties": {"name": "", "kind": "farmland", "category": "parque", "extrude": false}}, {"type": "Feature", "geometry": {"type": "Polygon", "coordinates": [[[-1797.4661041489012, 1508.9412471523426], [-1775.1841443025537, 1547.5692871521064], [-1661.2445155691305, 1483.8942471523021], [-1656.282157699351, 1499.0337671520454], [-1670.0016176921283, 1503.375247152158], [-1658.2281803934466, 1536.8825671521945], [-1775.1841443025537, 1626.0498871521013], [-1801.1635472674923, 1644.7516471523427], [-1827.3375525016856, 1659.2232471521902], [-1842.4192283801044, 1665.3458471521562], [-1845.9220692292688, 1657.7760871522846], [-1865.7715007080405, 1665.4571671522706], [-1868.9824381531514, 1656.6628871523267], [-1891.361699134126, 1664.6779271522605], [-1878.80985275791, 1688.3890871521144], [-1900.897210334831, 1709.651207152219], [-1909.9462158618821, 1716.8870071521428], [-1913.0598521721931, 1715.6624871520705], [-1917.3411020990648, 1717.666247152153], [-1917.0491986948382, 1720.8945271523075], [-1920.8439429482291, 1723.1610350936473], [-1920.8439429482291, 1577.5296401287706], [-1797.4661041489012, 1508.9412471523426]]]}, "properties": {"name": "", "kind": "farmland", "category": "parque", "extrude": false}}, {"type": "Feature", "geometry": {"type": "Polygon", "coordinates": [[[-1905.9568693390643, 1322.5915671521996], [-1774.8922408984997, 1242.9977671522468], [-1756.0158207666896, 1276.5050871522833], [-1557.1323014402935, 1191.1226471523123], [-1549.8347163377377, 1212.0508071520735], [-1920.8439429482291, 1519.885771787462], [-1920.8439429482291, 1329.227395723906], [-1905.9568693390643, 1322.5915671521996]]]}, "properties": {"name": "", "kind": "farmland", "category": "parque", "extrude": false}}, {"type": "Feature", "geometry": {"type": "Polygon", "coordinates": [[[-1566.5705115061985, 1491.7979671521216], [-1564.4298865428489, 1485.7866871522701], [-1514.8063078459202, 1462.0755271520209], [-1481.0428141051177, 1445.0435671523096], [-1456.3283258913668, 1428.011607152203], [-1421.883724207484, 1402.6306471522148], [-1345.2104300640278, 1336.0612871522037], [-1308.2359988781147, 1300.5502071520848], [-1306.484578453619, 1300.3275671522515], [-1305.025061433004, 1301.5520871523238], [-1349.5889811255265, 1464.0792871521032], [-1360.8759127507276, 1502.0394071523667], [-1392.5960826629803, 1567.6068871521388], [-1438.133013702464, 1596.8840471521773], [-1448.05772944185, 1572.616287152147], [-1486.394376513578, 1589.6482471522536], [-1497.0002001958712, 1555.5843271520403], [-1512.471080613144, 1553.6918871520722], [-1511.7899726702365, 1548.3485271521163], [-1541.6614210230207, 1555.9182871523835], [-1539.910000598352, 1566.7163271520142], [-1543.80204598637, 1568.7200871520965], [-1540.3965062720056, 1579.0728471520606], [-1564.527187677476, 1588.423727152181], [-1587.2956531973043, 1533.4316471522066], [-1618.14011289705, 1559.7031671523193], [-1634.8759080655107, 1530.4260071522808], [-1579.8034658253218, 1497.0300071523586], [-1567.251619449106, 1528.3109271520839], [-1555.1862787463708, 1524.3034071523148], [-1548.8617049907766, 1506.1582471522504], [-1552.559148109368, 1500.7035671521799], [-1562.0946593098997, 1502.3733671523146], [-1566.5705115061985, 1491.7979671521216]]]}, "properties": {"name": "", "kind": "farmland", "category": "parque", "extrude": false}}, {"type": "Feature", "geometry": {"type": "Polygon", "coordinates": [[[2320.5125186167547, 1643.6384471523847], [2321.3882288290893, 1649.7610471523508], [2185.750447057599, 1685.606087152022], [2181.1772937266733, 1684.381567152345], [2178.3555608204165, 1678.2589671523792], [2178.842066493897, 1638.4064071521477], [2181.955702804208, 1624.0461271520192], [2183.220617555396, 1605.0104071522255], [2182.7341118819154, 1580.8539671523095], [2183.8044243635036, 1563.5993671523695], [2188.572179963856, 1531.8731671521864], [2191.1020094660594, 1504.377127152397], [2193.1453332947817, 1487.9017671520714], [2205.210673997517, 1449.051087152079], [2206.475588748532, 1440.3681271522494], [2209.4919239242163, 1402.4080071523813], [2236.2497359666895, 1394.392967152052], [2239.752576815854, 1394.0590071521042], [2244.5203324162067, 1392.1665671521364], [2248.023173265371, 1388.270367152086], [2249.4826902859854, 1383.3722871521925], [2251.5260141145354, 1378.8081671522466], [2254.250445886165, 1378.0289271522365], [2260.3804173723324, 1377.5836471521743], [2255.4180595025537, 1356.8781271522462], [2211.827151157165, 1365.2271271521279], [2210.2703330019235, 1364.7818471520657], [2206.1836853444784, 1320.5878071521172], [2189.0586856373366, 1271.7183271521085], [2176.9933449346017, 1242.329847152351], [2177.674452877509, 1239.8808071522064], [2195.2859582581314, 1233.3129271521782], [2197.7184866255348, 1239.5468471522586], [2209.6865261936427, 1235.0940471520316], [2215.038088602103, 1246.893967152297], [2220.486952145363, 1245.1128471520478], [2213.189367042807, 1225.6318471521922], [2253.3747356738313, 1210.603647152168], [2272.543059209695, 1243.8883271523712], [2291.711382745559, 1233.3129271521782], [2316.7177743635366, 1274.3900071520866], [2321.582831098516, 1273.4994471523576], [2324.5018651394003, 1279.0654471521468], [2330.145330952087, 1274.6126471523153], [2331.2156434336753, 1276.1534339071611], [2331.2156434336753, 1637.3411783835209], [2320.5125186167547, 1643.6384471523847]]]}, "properties": {"name": "", "kind": "farmland", "category": "parque", "extrude": false}}, {"type": "Feature", "geometry": {"type": "Polygon", "coordinates": [[[2032.0146542318334, 1426.0078471521208], [2030.5551372113912, 1428.9021671523276], [2024.8143702640773, 1452.947287152129], [2023.5494555128894, 1453.6152071520248], [2014.208546581784, 1451.9454071522857], [2015.668063602226, 1449.4963671521411], [2015.4734613327996, 1446.8246871521633], [2013.8193420429304, 1443.0398071522272], [2012.5544272919153, 1438.6983271521149], [2011.3868136755273, 1435.5813671520746], [2012.6517284265424, 1434.5794871522312], [2018.100591969802, 1428.4568871522654], [2018.6843987779098, 1425.339927152225], [2032.0146542318334, 1426.0078471521208]]]}, "properties": {"name": "", "kind": "orchard", "category": "parque", "extrude": false}}, {"type": "Feature", "geometry": {"type": "Polygon", "coordinates": [[[1989.883262906714, 1419.4399671520925], [1991.245478792529, 1405.6362871521405], [1982.974882343185, 1404.4117671520683], [1983.0721834778117, 1401.0721671521947], [1985.2128084411615, 1374.689327152363], [2059.0643696783604, 1380.0326871523189], [2033.9606769257557, 1422.222967152185], [1989.883262906714, 1419.4399671520925]]]}, "properties": {"name": "", "kind": "orchard", "category": "parque", "extrude": false}}, {"type": "Feature", "geometry": {"type": "Polygon", "coordinates": [[[1913.2099687634309, 1285.8559671524038], [1901.1446280605226, 1316.1350071522859], [1902.0203382728569, 1324.595327152282], [1905.620480256821, 1331.8311271522057], [1923.7184913109243, 1339.2895671523584], [1921.5778663475749, 1347.4159271524068], [1913.1126676286308, 1377.3610071523408], [1906.106985930302, 1406.4155271521506], [1904.1609632362065, 1414.987167152261], [1900.0743155789344, 1430.683287152181], [1899.8797133095075, 1430.5719671520665], [1832.7419303665836, 1428.6795271520987], [1827.682271362177, 1413.428687152241], [1818.146760161645, 1400.404247152299], [1814.8385215819073, 1397.84388715204], [1811.0437773285162, 1397.732567152321], [1807.1517319404982, 1397.732567152321], [1803.0650842832258, 1397.06464715203], [1804.1353967648145, 1374.2440471523007], [1799.1730388952078, 1369.0120071520637], [1780.8804255716782, 1345.8574471523866], [1823.692924839532, 1321.3670471521273], [1833.520339444118, 1279.3994071520947], [1834.3960496564523, 1275.8371671523876], [1838.3853961792704, 1272.7202071523475], [1869.8136626872963, 1256.467487152251], [1878.473463675494, 1250.2335671521705], [1875.0679239609567, 1264.2598871523514], [1902.5068439463375, 1267.5994871522248], [1917.5885198247568, 1267.7108071523394], [1913.2099687634309, 1285.8559671524038]]]}, "properties": {"name": "", "kind": "farmland", "category": "parque", "extrude": false}}, {"type": "Feature", "geometry": {"type": "Polygon", "coordinates": [[[1904.1609632362065, 1414.987167152261], [1906.106985930302, 1406.4155271521506], [1913.1126676286308, 1377.3610071523408], [1921.5778663475749, 1347.4159271524068], [1923.7184913109243, 1339.2895671523584], [1930.3349684705724, 1314.5765271522657], [1939.2866728628237, 1281.1805271523435], [1944.44363300203, 1266.5976071523814], [1953.4926385290814, 1242.663807152299], [1957.7738884557803, 1235.3166871522606], [1963.2227519990404, 1217.0602071520816], [1967.6013030605393, 1198.2471271521215], [1973.3420700078532, 1169.5265671522598], [2006.716359209802, 1172.5322071521855], [2037.9500234485738, 1175.5378471521112], [2059.648176486641, 1178.7661271522659], [2066.5565570501703, 1181.5491271523583], [2070.1566990341344, 1183.4415671523261], [2073.0757330751912, 1186.1132471523042], [2074.14604555678, 1199.5829671523084], [2072.297323997484, 1201.5867271523907], [2065.097040029728, 1204.926327152264], [2060.4265855641756, 1208.0432871523044], [2052.1559891146585, 1211.9394871523546], [2048.458545996067, 1211.0489271522301], [2044.663801742849, 1210.9376071521158], [2040.674455220031, 1211.382887152178], [2033.8633757911286, 1211.9394871523546], [2030.3605349419643, 1210.26968715222], [2027.0522963620538, 1202.4772871521195], [2022.0899384924473, 1200.9188071520996], [2018.2951942392292, 1201.1414471523285], [2014.5977511206377, 1201.4754071522761], [2010.413802328393, 1202.3659671524006], [2014.403148851211, 1227.4129671520457], [2027.5388020357075, 1225.0752471520154], [2029.0956201907763, 1230.0846471520235], [2028.5118133826688, 1234.9827271523127], [2030.5551372113912, 1238.4336471523009], [2034.4471825992364, 1239.4355271521442], [2038.3392279872546, 1238.7676071522487], [2042.4258756446998, 1237.6544071522908], [2044.2745972039954, 1234.2034871523028], [2046.220619897918, 1230.7525671523147], [2066.848460454397, 1222.4035671520376], [2070.935108111669, 1221.179047152361], [2074.827153499687, 1220.6224471521841], [2078.7191988877053, 1220.2884871522363], [2081.6382329287617, 1217.5054871521438], [2080.2760170429474, 1209.49044715221], [2079.886812504093, 1205.5942471521598], [2092.1467554762553, 1194.6848871520192], [2095.260391786739, 1196.9112871523303], [2100.1254485217187, 1201.809367152224], [2102.0714712156414, 1205.7055671522742], [2102.168772350441, 1211.8281671522402], [2093.8008747661243, 1265.1504471520802], [2090.0061305129057, 1288.8616071523297], [2078.621897753078, 1305.0030071523117], [2072.8811308057643, 1318.3614071522015], [1975.4826949712026, 1321.4783671522418], [1985.2128084411615, 1374.689327152363], [1983.0721834778117, 1401.0721671521947], [1982.974882343185, 1404.4117671520683], [1991.245478792529, 1405.6362871521405], [1989.883262906714, 1419.4399671520925], [2033.9606769257557, 1422.222967152185], [2032.0146542318334, 1426.0078471521208], [2018.6843987779098, 1425.339927152225], [1979.958547167501, 1422.1116471520704], [1978.985535820367, 1427.9002871520886], [1978.4990301468863, 1433.2436471520446], [1987.7426379433646, 1433.1323271523256], [1985.6020129800152, 1459.0698871520951], [1944.9301386755105, 1460.1830871520528], [1900.0743155789344, 1430.683287152181], [1904.1609632362065, 1414.987167152261]]]}, "properties": {"name": "", "kind": "farmland", "category": "parque", "extrude": false}}, {"type": "Feature", "geometry": {"type": "Polygon", "coordinates": [[[-392.2431168140863, 1269.157967152245], [-381.83189540121987, 1241.2166471523933], [-347.4845948521369, 1250.2335671521705], [-269.7409882270925, 1279.0654471521468], [-276.55206765599456, 1312.35012715235], [-278.1088858112364, 1327.9349271521555], [-281.1252209869202, 1352.5366471521338], [-274.5087438272721, 1372.9082071521138], [-425.422803746781, 1342.4065271523987], [-420.9469515504824, 1317.470847152077], [-452.5698203279353, 1310.0124071523198], [-483.41428002785375, 1300.216247152137], [-473.7814676925218, 1275.6145271521589], [-449.55348515225154, 1283.6295671520927], [-439.6287694128657, 1253.016567152263], [-392.2431168140863, 1269.157967152245]]]}, "properties": {"name": "", "kind": "farmland", "category": "parque", "extrude": false}}, {"type": "Feature", "geometry": {"type": "Polygon", "coordinates": [[[1790.1240333681565, 1290.3087671522353], [1798.2973286828735, 1268.8240071522973], [1818.6332658351257, 1236.4298871522185], [1829.9201974603266, 1208.8225271523145], [1863.0025832582212, 1203.8131271523064], [1866.8946286462397, 1203.701807152192], [1871.565083111792, 1205.0376471523787], [1873.9976114793683, 1207.15272715218], [1885.479145373823, 1226.8563671522645], [1883.9223272187542, 1227.3016471523267], [1878.473463675494, 1250.2335671521705], [1869.8136626872963, 1256.467487152251], [1838.3853961792704, 1272.7202071523475], [1834.3960496564523, 1275.8371671523876], [1833.520339444118, 1279.3994071520947], [1823.692924839532, 1321.3670471521273], [1780.8804255716782, 1345.8574471523866], [1765.1176417501788, 1354.5404071522162], [1790.1240333681565, 1290.3087671522353]]]}, "properties": {"name": "", "kind": "farmland", "category": "parque", "extrude": false}}, {"type": "Feature", "geometry": {"type": "Polygon", "coordinates": [[[-473.7814676925218, 1275.6145271521589], [-462.3972349326941, 1243.7770071522568], [-439.6287694128657, 1253.016567152263], [-449.55348515225154, 1283.6295671520927], [-473.7814676925218, 1275.6145271521589]]]}, "properties": {"name": "", "kind": "vineyard", "category": "parque", "extrude": false}}, {"type": "Feature", "geometry": {"type": "Polygon", "coordinates": [[[-1613.761561835551, 1432.7983671523778], [-1635.7516182776722, 1370.459167152365], [-1687.7104242073774, 1397.84388715204], [-1704.446219375838, 1358.4366071522663], [-1544.9696596027582, 1227.52428715216], [-1522.0065918136759, 1312.1274871521211], [-1478.221081198688, 1290.8653671520165], [-1506.8276148004572, 1193.349047152228], [-1446.598212421235, 1146.1493671523538], [-1369.924918277779, 1080.5818871521863], [-1328.1827314916861, 1047.8538071521596], [-1310.3766238416372, 1035.2746471522798], [-1298.7977888122098, 1032.269007152354], [-1288.3865673993434, 1033.8274871523743], [-1277.1969369089425, 1034.4954071522698], [-1269.607448402333, 1029.0407271521995], [-1265.1315962062072, 1025.033207152035], [-1233.9952331022348, 1056.4254471522702], [-1233.0222217552734, 1087.3724071520478], [-1217.648642472628, 1147.1512471521971], [-1290.137987824012, 1271.4956871522752], [-1293.9327320772302, 1277.2843271522934], [-1301.5222205838397, 1285.0767271523937], [-1340.929180137329, 1321.7010071520751], [-1472.2857119821201, 1432.5757271521488], [-1480.4590072968374, 1438.587007152396], [-1593.133721279245, 1493.3564471521418], [-1613.761561835551, 1432.7983671523778]]]}, "properties": {"name": "", "kind": "farmland", "category": "parque", "extrude": false}}, {"type": "Feature", "geometry": {"type": "Polygon", "coordinates": [[[1905.620480256821, 1331.8311271522057], [1902.0203382728569, 1324.595327152282], [1901.1446280605226, 1316.1350071522859], [1913.2099687634309, 1285.8559671524038], [1917.5885198247568, 1267.7108071523394], [1921.3832640781477, 1237.2091271522286], [1914.7667869184995, 1229.639367152357], [1912.62616195515, 1226.188447152369], [1911.3612472039622, 1218.8413271523307], [1912.3342585510964, 1198.692407152184], [1912.0423551468698, 1177.2076471522457], [1912.4315596857234, 1177.2076471522457], [1947.362667042914, 1173.3114471521956], [1952.908831720801, 1180.1019671520571], [1952.3250249126934, 1181.3264871521294], [1952.714229451547, 1185.3340071522941], [1949.6005931410634, 1184.7774071521173], [1947.362667042914, 1186.7811671521997], [1946.6815591000066, 1194.3509271520713], [1947.9464738511947, 1198.0244871522882], [1951.8385192392127, 1199.0263671521316], [1955.730564627231, 1199.5829671523084], [1959.6226100150761, 1199.5829671523084], [1963.0281497296135, 1197.579207152226], [1967.6013030605393, 1198.2471271521215], [1963.2227519990404, 1217.0602071520816], [1957.7738884557803, 1235.3166871522606], [1953.4926385290814, 1242.663807152299], [1944.44363300203, 1266.5976071523814], [1939.2866728628237, 1281.1805271523435], [1930.3349684705724, 1314.5765271522657], [1923.7184913109243, 1339.2895671523584], [1905.620480256821, 1331.8311271522057]]]}, "properties": {"name": "", "kind": "farmland", "category": "parque", "extrude": false}}, {"type": "Feature", "geometry": {"type": "Polygon", "coordinates": [[[1863.0025832582212, 1129.8966471522572], [1888.5927816843066, 1133.2362471521308], [1900.0743155789344, 1137.8003671520767], [1897.2525826725043, 1164.8511271521993], [1894.3335486316205, 1172.9774871522477], [1891.8037191294175, 1176.3170871521213], [1889.273889627214, 1179.545367152276], [1881.1005943123241, 1187.8943671521577], [1876.1382364427177, 1190.7886871523644], [1873.7057080751415, 1193.4603671523423], [1873.6084069405144, 1197.1339271521638], [1875.1652250957566, 1200.9188071520996], [1866.505424107386, 1199.1376871522461], [1858.137526523242, 1197.4678871521114], [1850.6453391514324, 1195.3528071523103], [1844.6126687998922, 1192.9037671521658], [1838.1907939098435, 1189.0075671521154], [1863.0025832582212, 1129.8966471522572]]]}, "properties": {"name": "", "kind": "farmland", "category": "parque", "extrude": false}}, {"type": "Feature", "geometry": {"type": "Polygon", "coordinates": [[[1894.3335486316205, 1172.9774871522477], [1897.2525826725043, 1164.8511271521993], [1900.0743155789344, 1137.8003671520767], [1905.3285768525946, 1141.1399671523457], [1912.62616195515, 1147.0399271520828], [1926.929428756035, 1160.7322871523158], [1928.4862469112766, 1162.9586871522315], [1928.7781503153303, 1166.0756471522718], [1927.2213321600887, 1168.6360071521353], [1922.7454799639627, 1170.6397671522175], [1913.1126676286308, 1171.9756071524043], [1902.6041450811374, 1173.8680471523721], [1891.8037191294175, 1176.3170871521213], [1894.3335486316205, 1172.9774871522477]]]}, "properties": {"name": "", "kind": "farmland", "category": "parque", "extrude": false}}, {"type": "Feature", "geometry": {"type": "Polygon", "coordinates": [[[-981.7906919603186, 1294.5389271522333], [-990.5477940833161, 1277.7296071523556], [-1000.7644132267559, 1226.9676871523789], [-1013.3162596029716, 1163.4039671522937], [-1020.7111458401545, 1120.1004871520743], [-990.6450952179432, 1104.29304715204], [-979.7473681315961, 1097.9478071522406], [-990.7423963527431, 1049.0783271522319], [-1046.1067419968128, 1074.236647152387], [-1057.6855770260674, 1060.6556071522682], [-1071.3077358840446, 1042.6217671523182], [-1027.5222252692292, 1041.842527152308], [-1022.1706628607692, 1036.8331271523], [-985.3908339441101, 1018.2426871521733], [-993.7587315284268, 1040.8406471520693], [-988.0179645811131, 1042.3991271520892], [-982.3744987684264, 1041.2859271521315], [-977.0229363599661, 1021.470967152328], [-968.7523399104492, 1024.4766071522536], [-975.1742148006704, 1041.3972471522459], [-971.1848682780254, 1065.219727152214], [-952.2111470115882, 1063.9952071521418], [-947.054186872382, 1112.1967671522548], [-935.1834484390736, 1112.6420471523172], [-905.6039034903432, 1094.608207152367], [-887.0193867625868, 1070.785727152399], [-879.6245005254042, 1053.8650871524067], [-873.7864324434634, 1052.7518871520533], [-873.6891313088364, 1055.3122471523122], [-862.7914042224893, 1054.644327152021], [-853.8396998300648, 1053.8650871524067], [-852.4774839442499, 1066.7782071522342], [-875.8297562721859, 1082.3630071520397], [-935.3780507085005, 1124.9985671523634], [-946.5676811989014, 1128.2268471521227], [-954.2544708403107, 1115.425047152014], [-969.6280501227836, 1127.7815671520605], [-957.1735048811947, 1145.592767152177], [-936.8375677289423, 1145.815407152406], [-939.4646983659454, 1134.7947271521507], [-884.6841595298105, 1095.9440471521584], [-826.4980809793109, 1058.9858071521337], [-820.2708083585164, 1078.3554871522706], [-813.4597289296142, 1076.2404071520737], [-805.8702404230048, 1091.157287152379], [-769.0904115065186, 1065.9989671522242], [-765.1983661185005, 1106.853407152299], [-826.8872855181646, 1149.3776471521128], [-809.85958694565, 1176.9850071520168], [-924.1884202179266, 1257.9146471521565], [-976.6337318211125, 1295.3181671522434], [-981.7906919603186, 1294.5389271522333]]]}, "properties": {"name": "", "kind": "farmland", "category": "parque", "extrude": false}}, {"type": "Feature", "geometry": {"type": "Polygon", "coordinates": [[[-590.250925928148, 1090.6006871522025], [-592.3915508916704, 1094.8308471522005], [-602.4135677656831, 1115.7590071523573], [-574.8773466456752, 1127.7815671520605], [-583.9263521727266, 1146.9286071523638], [-610.1003574069196, 1136.9098071523476], [-616.0357266236603, 1166.8548871522817], [-625.4739366895652, 1173.5340871520289], [-629.0740786735296, 1158.5058871524002], [-631.312004771506, 1139.4701671522112], [-631.5066070409329, 1131.1211671523295], [-629.0740786735296, 1088.3742871522868], [-627.9064650569686, 1080.5818871521863], [-624.7928287466578, 1071.1196871523466], [-590.250925928148, 1090.6006871522025]]]}, "properties": {"name": "", "kind": "farmland", "category": "parque", "extrude": false}}, {"type": "Feature", "geometry": {"type": "Polygon", "coordinates": [[[2172.420191603676, 1037.723687152029], [2180.1069812449123, 1063.5499271520796], [2184.874736845265, 1072.12156715219], [2187.696469751522, 1075.906447152126], [2192.464225351874, 1075.015887152397], [2197.134679817427, 1073.7913671523247], [2201.8051342829795, 1077.9102071522082], [2203.3619524382216, 1078.244167152156], [2230.8981735582292, 1070.1178071521078], [2263.0075480091627, 1063.4386071523606], [2263.5913548174435, 1066.8895271523486], [2226.519622496731, 1077.464927152146], [2229.341355402987, 1091.4912471523269], [2212.4109579652727, 1095.2761271522627], [2213.8704749857147, 1102.8458871521343], [2202.0970376870337, 1109.302447152048], [2204.2376626505556, 1113.0873271523794], [2201.9024354177795, 1113.6439271521606], [2192.3669242170745, 1114.8684471522329], [2163.663089480678, 1120.2118071521888], [2154.614083953627, 1120.3231271523032], [2140.89462396085, 1117.6514471523253], [2146.7326920429637, 1087.5950471522767], [2123.866925388508, 1081.0271671522485], [2124.256129927189, 1077.9102071522082], [2133.305135454413, 1049.523607152294], [2134.667351340055, 1046.7406071522018], [2139.5324080750347, 1044.4028871521716], [2172.420191603676, 1037.723687152029]]]}, "properties": {"name": "", "kind": "farmland", "category": "parque", "extrude": false}}, {"type": "Feature", "geometry": {"type": "Polygon", "coordinates": [[[1887.9116737413995, 1027.1482871522317], [1868.3541456666815, 1073.1234471520336], [1839.9422143343393, 1061.1008871523304], [1859.4997424090568, 1015.0144071520186], [1887.9116737413995, 1027.1482871522317]]]}, "properties": {"name": "", "kind": "pitch", "category": "parque", "extrude": false}}, {"type": "Feature", "geometry": {"type": "Polygon", "coordinates": [[[-761.1117184610555, 1004.4390071522213], [-743.5002130804334, 980.7278471523675], [-739.5108665577882, 974.3826071521727], [-733.1862928021939, 953.5657671521302], [-731.0456678388445, 915.0490471520856], [-696.3091627510806, 914.8264071522522], [-665.6593053205889, 914.8264071522522], [-668.2864359574191, 923.2867271522482], [-637.7338796617274, 983.9561271521267], [-712.0719465724072, 973.9373271521105], [-712.363849976461, 989.410807152197], [-713.1422590541683, 1012.676687152384], [-764.8091615796469, 1014.2351671524041], [-761.1117184610555, 1004.4390071522213]]]}, "properties": {"name": "", "kind": "farmland", "category": "parque", "extrude": false}}, {"type": "Feature", "geometry": {"type": "Polygon", "coordinates": [[[-1339.9561687903677, 915.1603671522], [-1345.5996346028815, 905.0302471520694], [-1325.1663963160024, 882.5436071522879], [-1287.9973628606624, 884.102087152308], [-1260.6557440099084, 880.5398471522055], [-1254.8176759279677, 909.1490871523484], [-1244.601056784528, 910.1509671521919], [-1214.2431027580903, 903.2491271522158], [-1208.5023358107765, 964.6977671521042], [-1238.2764830289336, 973.8260071523915], [-1252.3851475603915, 977.2769271523795], [-1272.9156869820706, 978.9467271521186], [-1280.115970949999, 975.8297671520784], [-1285.95403903194, 976.1637271520261], [-1297.046368387714, 978.278807152223], [-1339.9561687903677, 915.1603671522]]]}, "properties": {"name": "", "kind": "vineyard", "category": "parque", "extrude": false}}, {"type": "Feature", "geometry": {"type": "Polygon", "coordinates": [[[-302.72607289018754, 896.9038871520211], [-305.35320352719054, 928.6300871522042], [-373.1720944128492, 922.841447152186], [-370.0584581025384, 891.4492071523462], [-302.72607289018754, 896.9038871520211]]]}, "properties": {"name": "Cementerio Viejo de Teguise", "kind": "cemetery", "category": "parque", "extrude": false}}, {"type": "Feature", "geometry": {"type": "Polygon", "coordinates": [[[-1079.6756334683612, 805.9554471522607], [-1044.549923841744, 921.282967152166], [-1046.88515107452, 925.4018071520495], [-1108.865973878238, 935.3092871523468], [-1158.489552575167, 945.8846871521441], [-1182.3283305765835, 955.4582071520981], [-1208.5023358107765, 964.6977671521042], [-1214.2431027580903, 903.2491271522158], [-1215.0215118357976, 869.296527152117], [-1079.6756334683612, 805.9554471522607]]]}, "properties": {"name": "", "kind": "farmland", "category": "parque", "extrude": false}}, {"type": "Feature", "geometry": {"type": "Polygon", "coordinates": [[[-603.3865791126444, 883.7681271523602], [-606.0137097496474, 871.9682071520949], [-603.5811813820712, 871.4116071523138], [-601.4405564187218, 883.5454871521313], [-603.3865791126444, 883.7681271523602]]]}, "properties": {"name": "", "kind": "garden", "category": "parque", "extrude": false}}, {"type": "Feature", "geometry": {"type": "Polygon", "coordinates": [[[-602.3162666310561, 864.287127152109], [-599.6891359940531, 863.9531671521611], [-596.5754996837424, 882.8775671522357], [-598.8134257818916, 883.1002071520691], [-602.3162666310561, 864.287127152109]]]}, "properties": {"name": "", "kind": "garden", "category": "parque", "extrude": false}}, {"type": "Feature", "geometry": {"type": "Polygon", "coordinates": [[[-608.9327437905314, 858.2758471522574], [-606.3056131537012, 857.7192471520807], [-604.2622893249787, 868.517287152107], [-606.5975165577551, 868.9625671521692], [-608.9327437905314, 858.2758471522574]]]}, "properties": {"name": "", "kind": "garden", "category": "parque", "extrude": false}}, {"type": "Feature", "geometry": {"type": "Polygon", "coordinates": [[[-609.3219483293851, 842.8023671521709], [-607.5705279047164, 842.4684071522231], [-606.500215423128, 842.3570871521086], [-603.2892779780175, 841.9118071520463], [-600.1756416675338, 860.8362071521209], [-599.9810393982798, 862.0607271521932], [-599.6891359940531, 863.9531671521611], [-596.5754996837424, 882.8775671522357], [-598.8134257818916, 883.1002071520691], [-599.9810393982798, 883.3228471522979], [-601.4405564187218, 883.5454871521313], [-603.3865791126444, 883.7681271523602], [-606.0137097496474, 871.9682071520949], [-606.2083120190742, 870.6323671523037], [-606.5975165577551, 868.9625671521692], [-608.9327437905314, 858.2758471522574], [-609.3219483293851, 856.8286871523517], [-609.6138517334389, 855.1588871522172], [-610.6841642152, 850.5947671522713], [-607.95973244357, 850.0381671520947], [-608.7381415211045, 846.3646071522733], [-611.3652721581076, 846.9212071520544], [-612.2409823704419, 843.2476471522331], [-609.3219483293851, 842.8023671521709]]]}, "properties": {"name": "Plaza Agrupación Folklórica Guanapay", "kind": "park", "category": "parque", "extrude": false}}, {"type": "Feature", "geometry": {"type": "Polygon", "coordinates": [[[-610.6841642152, 850.5947671522713], [-607.95973244357, 850.0381671520947], [-606.8894199618089, 854.713607152155], [-609.6138517334389, 855.1588871522172], [-610.6841642152, 850.5947671522713]]]}, "properties": {"name": "", "kind": "garden", "category": "parque", "extrude": false}}, {"type": "Feature", "geometry": {"type": "Polygon", "coordinates": [[[-606.500215423128, 842.3570871521086], [-603.2892779780175, 841.9118071520463], [-600.1756416675338, 860.8362071521209], [-602.9000734391639, 861.0588471523498], [-606.500215423128, 842.3570871521086]]]}, "properties": {"name": "", "kind": "garden", "category": "parque", "extrude": false}}, {"type": "Feature", "geometry": {"type": "Polygon", "coordinates": [[[-611.3652721581076, 846.9212071520544], [-612.2409823704419, 843.2476471522331], [-609.3219483293851, 842.8023671521709], [-608.7381415211045, 846.3646071522733], [-611.3652721581076, 846.9212071520544]]]}, "properties": {"name": "", "kind": "garden", "category": "parque", "extrude": false}}, {"type": "Feature", "geometry": {"type": "Polygon", "coordinates": [[[-1323.6095781607605, 875.307807152364], [-1311.1550329191716, 853.7117271523116], [-1293.0570218650687, 831.5590471520824], [-1259.9746360670008, 802.9498071523349], [-1229.8112843101628, 777.3462071521178], [-1191.8638417771156, 749.8501671523281], [-1189.625915679139, 752.1878871523584], [-1191.4746372384348, 755.9727671522942], [-1220.8595799177385, 779.3499671522001], [-1223.2921082851417, 784.3593671522082], [-1217.8432447420546, 802.3932071521583], [-1215.0215118357976, 869.296527152117], [-1214.2431027580903, 903.2491271522158], [-1244.601056784528, 910.1509671521919], [-1254.8176759279677, 909.1490871523484], [-1260.6557440099084, 880.5398471522055], [-1287.9973628606624, 884.102087152308], [-1325.1663963160024, 882.5436071522879], [-1323.6095781607605, 875.307807152364]]]}, "properties": {"name": "", "kind": "vineyard", "category": "parque", "extrude": false}}, {"type": "Feature", "geometry": {"type": "Polygon", "coordinates": [[[-1372.1628443759282, 887.8869671522438], [-1374.984577282185, 878.5360871521232], [-1335.1884131900151, 842.5797271523375], [-1354.1621344564523, 787.0310471521861], [-1343.167106235478, 783.3574871523648], [-1343.9455153130127, 779.3499671522001], [-1332.9504870918659, 773.0047271524007], [-1310.3766238416372, 754.9708871520552], [-1308.4306011475417, 772.7820871521719], [-1298.6031865429557, 811.1874871521022], [-1299.576197889917, 815.5289671522146], [-1312.6145499396137, 839.7967271522451], [-1334.9938109205884, 872.5248071522717], [-1347.1564527581234, 885.3266071523802], [-1357.9568787098435, 891.6718471521796], [-1372.1628443759282, 887.8869671522438]]]}, "properties": {"name": "", "kind": "vineyard", "category": "parque", "extrude": false}}, {"type": "Feature", "geometry": {"type": "Polygon", "coordinates": [[[-566.5094490615313, 764.8783671523524], [-560.3794775753638, 804.508287152355], [-580.1316079195083, 807.6252471523952], [-580.3262101887623, 806.7346871522707], [-586.261579405503, 767.8840071522782], [-566.5094490615313, 764.8783671523524]]]}, "properties": {"name": "", "kind": "pitch", "category": "parque", "extrude": false}}, {"type": "Feature", "geometry": {"type": "Polygon", "coordinates": [[[-471.73814386379934, 747.7350871521314], [-472.8084563455605, 746.8445271524024], [-473.10035974961437, 745.3973671521012], [-472.8084563455605, 743.9502071521956], [-471.6408427291724, 743.0596471520711], [-458.1159850058223, 742.5030471522899], [-455.87805890784585, 742.5030471522899], [-455.2942520995653, 742.9483271523521], [-455.2942520995653, 745.0634071521534], [-455.5861555036192, 748.1803671521936], [-455.9753600424728, 749.4048871522659], [-457.04567252423396, 750.4067671521093], [-458.6997918141028, 751.1860071521194], [-460.6458145080254, 750.9633671522861], [-470.08402457393055, 748.1803671521936], [-471.73814386379934, 747.7350871521314]]]}, "properties": {"name": "", "kind": "garden", "category": "parque", "extrude": false}}, {"type": "Feature", "geometry": {"type": "Polygon", "coordinates": [[[-1835.9000523552563, 705.2108471523175], [-1791.7253372015875, 701.5372871521006], [-1788.31979748705, 709.7749671522633], [-1762.5349967915377, 716.5654871521249], [-1745.7019004886229, 782.1329671522925], [-1814.493802721243, 787.9216071523106], [-1835.9000523552563, 705.2108471523175]]]}, "properties": {"name": "", "kind": "vineyard", "category": "parque", "extrude": false}}, {"type": "Feature", "geometry": {"type": "Polygon", "coordinates": [[[-472.4192518067069, 572.4060871522433], [-468.8191098229154, 571.8494871520668], [-465.5108712430049, 570.5136471522756], [-462.3972349326941, 568.6212071523075], [-459.77010429569106, 566.172167152163], [-457.7267804671415, 563.1665271522372], [-456.2672634465266, 559.9382471520826], [-454.90504756071164, 555.9307271523135], [-449.1642806135707, 557.0439271522713], [-450.23459309515897, 561.2740871522693], [-452.3752180585085, 565.9495271523297], [-456.0726611770998, 570.6249671523899], [-459.4782008916373, 574.4098471523257], [-463.8567519531361, 576.8588871520749], [-467.94339961058114, 578.0834071521472], [-472.32195067207994, 578.5286871522094], [-476.70050173357873, 578.5286871522094], [-476.0193937906712, 572.294767152129], [-472.4192518067069, 572.4060871522433]]]}, "properties": {"name": "", "kind": "garden", "category": "parque", "extrude": false}}, {"type": "Feature", "geometry": {"type": "Polygon", "coordinates": [[[-332.9867257818255, 551.1439671521387], [-348.5549073338981, 558.7137271524058], [-359.45263442024515, 536.3384071523433], [-344.6628619458799, 528.9912871523051], [-332.9867257818255, 551.1439671521387]]]}, "properties": {"name": "", "kind": "pitch", "category": "parque", "extrude": false}}, {"type": "Feature", "geometry": {"type": "Polygon", "coordinates": [[[-451.8887123850278, 541.1251671521225], [-452.27791692388155, 535.7818071521666], [-454.1266384831772, 531.2176871522207], [-455.87805890784585, 527.6554471521183], [-458.8943940835296, 525.3177271520882], [-462.98104174080174, 523.0913271521724], [-465.12166670432407, 522.3120871521623], [-463.0783428756016, 515.7442071521342], [-457.43487706291484, 517.7479671522166], [-454.02933734855014, 520.4196471521946], [-450.6237976340127, 524.0932071520159], [-448.4831726706632, 527.9894071520662], [-446.7317522459945, 533.5554071522508], [-446.05064430308704, 538.4534871521446], [-446.24524657251385, 544.1308071520483], [-447.2182579194752, 547.8043671522652], [-452.27791692388155, 546.245887152245], [-451.8887123850278, 541.1251671521225]]]}, "properties": {"name": "", "kind": "garden", "category": "parque", "extrude": false}}, {"type": "Feature", "geometry": {"type": "Polygon", "coordinates": [[[-207.85746655800156, 489.02740715235467], [-212.33331875412736, 529.3252471522528], [-235.88019335149016, 526.2082871522126], [-231.01513661651072, 486.2444071522623], [-207.85746655800156, 489.02740715235467]]]}, "properties": {"name": "", "kind": "pitch", "category": "parque", "extrude": false}}, {"type": "Feature", "geometry": {"type": "Polygon", "coordinates": [[[-178.3752227438981, 484.6859271522422], [-184.01868855641206, 531.8856071521163], [-210.4845971948317, 528.9912871523051], [-205.13303478637158, 481.6802871523164], [-178.3752227438981, 484.6859271522422]]]}, "properties": {"name": "", "kind": "pitch", "category": "parque", "extrude": false}}, {"type": "Feature", "geometry": {"type": "Polygon", "coordinates": [[[-522.1401316384355, 470.4369671522279], [-505.112433065921, 466.8747271521255], [-500.24737633094145, 503.05372715214], [-507.2530580292705, 505.83672715223247], [-522.1401316384355, 470.4369671522279]]]}, "properties": {"name": "", "kind": "park", "category": "parque", "extrude": false}}, {"type": "Feature", "geometry": {"type": "Polygon", "coordinates": [[[-1444.9440931313661, 303.90224715228385], [-1373.8169636657972, 302.5664071520971], [-1372.454747779982, 361.23204715228866], [-1435.9923887389418, 362.45656715236095], [-1444.9440931313661, 303.90224715228385]]]}, "properties": {"name": "", "kind": "vineyard", "category": "parque", "extrude": false}}, {"type": "Feature", "geometry": {"type": "Polygon", "coordinates": [[[-245.61030682144911, 335.9624071520193], [-252.42138625052408, 338.4114471521639], [-256.02152823431555, 327.8360471523665], [-249.11314767061359, 325.49832715233634], [-245.61030682144911, 335.9624071520193]]]}, "properties": {"name": "", "kind": "playground", "category": "parque", "extrude": false}}, {"type": "Feature", "geometry": {"type": "Polygon", "coordinates": [[[-231.11243775113772, 322.27004715218175], [-228.19340371025373, 321.71344715240053], [-225.66357420805062, 329.39452715238656], [-228.29070484488074, 330.39640715223004], [-231.11243775113772, 322.27004715218175]]]}, "properties": {"name": "", "kind": "garden", "category": "parque", "extrude": false}}, {"type": "Feature", "geometry": {"type": "Polygon", "coordinates": [[[-181.7807624584356, 308.46636715222974], [-112.50235455216206, 297.33436715225565], [-112.30775228273524, 297.66832715220346], [-165.43417182882854, 350.87928715232465], [-166.40718317578984, 351.32456715238686], [-167.477495657551, 351.10192715215805], [-168.15860360045852, 350.43400715226244], [-182.36456926654324, 308.6890071520631], [-181.7807624584356, 308.46636715222974]]]}, "properties": {"name": "", "kind": "park", "category": "parque", "extrude": false}}, {"type": "Feature", "geometry": {"type": "Polygon", "coordinates": [[[-329.0946803939802, 325.49832715233634], [-329.77578833688773, 324.83040715204527], [-330.2622940103684, 323.8285271522018], [-330.3595951449954, 322.38136715229615], [-330.0676917409415, 321.49080715217167], [-323.5485157160932, 315.14556715237234], [-322.7701066383859, 314.9229271521435], [-322.08899869547844, 315.0342471522579], [-315.6671238052571, 318.8191271521937], [-314.20760678481514, 321.60212715228613], [-314.0130045153883, 322.38136715229615], [-314.304907919615, 323.2719271520251], [-314.7914135930956, 323.8285271522018], [-328.1216690468461, 325.49832715233634], [-329.0946803939802, 325.49832715233634]]]}, "properties": {"name": "", "kind": "garden", "category": "parque", "extrude": false}}, {"type": "Feature", "geometry": {"type": "Polygon", "coordinates": [[[-183.62948401773122, 263.82704715221905], [-181.9753647278624, 268.39116715216494], [-201.43559166778024, 275.40432715225535], [-202.70050641879544, 271.8420871521529], [-203.0897109576491, 270.8402071523095], [-183.62948401773122, 263.82704715221905]]]}, "properties": {"name": "", "kind": "pitch", "category": "parque", "extrude": false}}, {"type": "Feature", "geometry": {"type": "Polygon", "coordinates": [[[95.13826689723165, 204.8274471520797], [100.10062476701094, 226.98012715230888], [59.1368470582799, 235.99704715208617], [54.27179032330043, 213.8443671522525], [95.13826689723165, 204.8274471520797]]]}, "properties": {"name": "", "kind": "pitch", "category": "parque", "extrude": false}}, {"type": "Feature", "geometry": {"type": "Polygon", "coordinates": [[[-73.77650294158033, 155.73532715223763], [-50.618832883071164, 219.07640715209396], [-148.5037743911138, 255.14408715238957], [-171.56414331499596, 191.46904715218994], [-73.77650294158033, 155.73532715223763]]]}, "properties": {"name": "", "kind": "pitch", "category": "parque", "extrude": false}}, {"type": "Feature", "geometry": {"type": "Polygon", "coordinates": [[[59.42875046250657, 193.91808715233452], [62.93159131167104, 209.61420715225444], [55.14750053563476, 211.28400715238897], [51.74196082109728, 195.58788715207356], [59.42875046250657, 193.91808715233452]]]}, "properties": {"name": "", "kind": "pitch", "category": "parque", "extrude": false}}, {"type": "Feature", "geometry": {"type": "Polygon", "coordinates": [[[89.88400562357135, 187.5728471521397], [93.09494306850915, 202.48972715204957], [65.75332421792803, 208.38968715218215], [62.54238677281737, 193.47280715227228], [89.88400562357135, 187.5728471521397]]]}, "properties": {"name": "", "kind": "pitch", "category": "parque", "extrude": false}}, {"type": "Feature", "geometry": {"type": "Polygon", "coordinates": [[[113.52818135556119, 189.35396715238866], [115.47420404948383, 198.37088715216595], [97.95999980366146, 202.2670871522162], [96.01397710956597, 193.25016715204342], [113.52818135556119, 189.35396715238866]]]}, "properties": {"name": "", "kind": "pitch", "category": "parque", "extrude": false}}, {"type": "Feature", "geometry": {"type": "Polygon", "coordinates": [[[-420.55774701180155, -156.29463284777472], [-423.5740821874854, -174.6624328476726], [-463.3702462796554, -188.4661128476246], [-459.57550202643716, -201.82451284790986], [-451.694110115601, -218.41119284795425], [-449.55348515225154, -234.7752328477698], [-442.1585989150689, -235.55447284777983], [-427.5634287101305, -243.34687284788032], [-421.7253606281897, -253.14303284766766], [-372.97749214359527, -272.73535284763784], [-371.22607171892656, -263.16183284768385], [-361.9824639224483, -230.7677128476051], [-370.1557592371654, -227.53943284784597], [-387.76726461796045, -149.28147284768428], [-420.55774701180155, -156.29463284777472]]]}, "properties": {"name": "", "kind": "vineyard", "category": "parque", "extrude": false}}]}