{"type": "FeatureCollection", "crs": {"type": "name", "properties": {"name": "wgs84_and_EPSG:32628_local_enu_m_section_centroid", "lng0": -16.666676285450528, "lat0": 28.012193572783165}}, "features": [{"type": "Feature", "geometry": {"type": "Polygon", "coordinates": [[[-16.66353, 28.01228], [-16.6681, 28.01155], [-16.6693, 28.01137], [-16.66951, 28.01238], [-16.66866, 28.01251], [-16.66861, 28.01226], [-16.66399, 28.01299], [-16.66399, 28.01298], [-16.66378, 28.01272], [-16.66367, 28.01258], [-16.66353, 28.01228]]]}, "properties": {"cusec": "3800601007", "mun": "006", "nmun": "Arona", "area_m2": 50959.167733170834, "perimeter_m": 1356.413037391622, "coords_system": "wgs84"}}, {"type": "Feature", "geometry": {"type": "Polygon", "coordinates": [[[309.21253433716095, -9.621077778151914], [-139.92067501090565, 71.64252222193554], [-257.85499694051435, 91.68012222196793], [-278.4935032780999, -20.75307777812597], [-194.95669191136645, -35.2246777779736], [-190.0427618311552, -7.3946777782362005], [264.0043775978209, -88.65827777792816], [264.0043775978209, -87.5450777779703], [284.6428839354064, -58.60187777827505], [295.45353011222034, -43.01707777807408], [309.21253433716095, -9.621077778151914]]]}, "properties": {"cusec": "3800601007", "mun": "006", "nmun": "Arona", "area_m2": 50959.167733170834, "perimeter_m": 1356.413037391622, "coords_system": "local_m_enu"}}]}