{"type": "FeatureCollection", "crs": {"type": "name", "properties": {"name": "EPSG:32628_local_enu_m_section_centroid", "lng0": -15.45247855784701, "lat0": 28.0413625775716}}, "features": [{"type": "Feature", "geometry": {"type": "Polygon", "coordinates": [[[-901.9965463680022, 1994.5847352707167], [-891.0905774639853, 1988.0168552706887], [-885.8832229420665, 1991.69041527051], [-882.7043363506474, 1999.5941352707248], [-904.2446847128361, 1999.5941352707248], [-901.9965463680022, 1994.5847352707167]]]}, "properties": {"name": "", "kind": "water", "category": "agua", "extrude": false}}, {"type": "Feature", "geometry": {"type": "Polygon", "coordinates": [[[783.2212792534932, 1980.7810552707647], [789.6076574405413, 1976.1056152707044], [797.566067181386, 1976.1056152707044], [803.9524453686086, 1980.6697352706503], [806.4087446712522, 1988.239495270522], [803.9524453686086, 1995.6979352706746], [798.8342031003075, 1999.5941352707248], [788.4894564251083, 1999.5941352707248], [783.3195312255292, 1995.8092552703936], [780.8632319228855, 1988.3508152706363], [783.2212792534932, 1980.7810552707647]]]}, "properties": {"name": "", "kind": "water", "category": "agua", "extrude": false}}, {"type": "Feature", "geometry": {"type": "Polygon", "coordinates": [[[-1614.8146040222425, 1961.5226952707424], [-1612.653060635881, 1955.7340552707242], [-1608.0352179467016, 1958.4057352707023], [-1606.9544462534336, 1962.7472152704192], [-1601.8453437037253, 1962.9698552706482], [-1601.8453437037253, 1967.8679352705417], [-1612.4565566916347, 1970.0943352704573], [-1614.8146040222425, 1961.5226952707424]]]}, "properties": {"name": "", "kind": "water", "category": "agua", "extrude": false}}, {"type": "Feature", "geometry": {"type": "Polygon", "coordinates": [[[-433.23638743375534, 1893.5061752704303], [-424.3937099438891, 1902.077815270541], [-434.3171591270233, 1914.3230152704728], [-441.1947971747746, 1908.645695270569], [-433.23638743375534, 1893.5061752704303]]]}, "properties": {"name": "", "kind": "water", "category": "agua", "extrude": false}}, {"type": "Feature", "geometry": {"type": "Polygon", "coordinates": [[[1417.0447513316767, 1815.248215270664], [1425.5926729050861, 1820.8142152704534], [1422.4486097976674, 1825.6009752706282], [1413.9006882240835, 1820.0349752704433], [1417.0447513316767, 1815.248215270664]]]}, "properties": {"name": "", "kind": "water", "category": "agua", "extrude": false}}, {"type": "Feature", "geometry": {"type": "Polygon", "coordinates": [[[1400.3419160730018, 1738.5487352705225], [1416.9464993594663, 1737.4355352705647], [1413.9006882240835, 1753.4656152704324], [1401.6191917105161, 1754.1335352707235], [1400.3419160730018, 1738.5487352705225]]]}, "properties": {"name": "", "kind": "water", "category": "agua", "extrude": false}}, {"type": "Feature", "geometry": {"type": "Polygon", "coordinates": [[[850.0326202878441, 1674.3170952705416], [845.2182736545927, 1696.8037352707186], [838.0458796905591, 1707.2678152704016], [823.50458781842, 1702.2584152703935], [834.8035646109298, 1669.5303352707624], [850.0326202878441, 1674.3170952705416]]]}, "properties": {"name": "", "kind": "water", "category": "agua", "extrude": false}}, {"type": "Feature", "geometry": {"type": "Polygon", "coordinates": [[[1098.904865641263, 940.7182952706298], [1098.0205978922415, 929.252335270708], [1120.4220475331895, 921.1259752706598], [1132.114032214192, 937.2673752706419], [1121.2080633100006, 948.7333352705638], [1106.470267493615, 950.8484152707605], [1098.904865641263, 940.7182952706298]]]}, "properties": {"name": "", "kind": "water", "category": "agua", "extrude": false}}, {"type": "Feature", "geometry": {"type": "Polygon", "coordinates": [[[1266.3262261156328, 836.3001352704698], [1269.568541195262, 840.3076552706345], [1257.2870446816946, 857.5622552705745], [1245.0055481679528, 844.0925352705704], [1266.3262261156328, 836.3001352704698]]]}, "properties": {"name": "", "kind": "water", "category": "agua", "extrude": false}}, {"type": "Feature", "geometry": {"type": "Polygon", "coordinates": [[[1121.404567254247, 567.7962952705103], [1125.9241579712161, 566.1264952707712], [1147.6378438075633, 578.5943352705365], [1148.5221115564102, 582.4905352705867], [1137.2231347639004, 605.8677352704927], [1134.7668354610823, 609.763935270543], [1128.969969106599, 608.3167752706373], [1109.7125825732444, 593.8451752703942], [1110.596850322266, 587.2772952707614], [1121.404567254247, 567.7962952705103]]]}, "properties": {"name": "", "kind": "water", "category": "agua", "extrude": false}}, {"type": "Feature", "geometry": {"type": "Polygon", "coordinates": [[[32.477960365108714, 1776.620175270505], [36.01503136102029, 1786.08237527074], [26.386338094343017, 1789.6446152704468], [22.84926709825691, 1780.1824152706074], [32.477960365108714, 1776.620175270505]]]}, "properties": {"name": "", "kind": "water", "category": "agua", "extrude": false}}, {"type": "Feature", "geometry": {"type": "Polygon", "coordinates": [[[802.4786657868478, 1700.811255270488], [821.0482885156017, 1703.59425527058], [832.7402731966044, 1717.0639752705845], [831.2664936150182, 1720.2922552707391], [830.9717376987359, 1725.8582552705284], [823.7993437347022, 1727.8620152706108], [823.7993437347022, 1733.5393352705144], [812.5003669420179, 1739.7732552705947], [812.7951228584748, 1744.0034152705928], [776.0488852894597, 1755.0240952704526], [770.05551499073, 1749.5694152707777], [760.8198296125455, 1726.3035352705906], [767.0097038553471, 1708.0470552704116], [802.4786657868478, 1700.811255270488]]]}, "properties": {"name": "", "kind": "water", "category": "agua", "extrude": false}}, {"type": "Feature", "geometry": {"type": "Polygon", "coordinates": [[[655.3954635391005, 1485.5183752706494], [664.4346449732132, 1468.0411352704805], [676.9126454310268, 1466.260015270627], [676.7161414867804, 1472.382615270593], [672.3930547140578, 1479.7297352706314], [656.6727391764404, 1489.971175270481], [655.3954635391005, 1485.5183752706494]]]}, "properties": {"name": "", "kind": "water", "category": "agua", "extrude": false}}, {"type": "Feature", "geometry": {"type": "Polygon", "coordinates": [[[-1602.041847647972, 960.0879752707667], [-1590.4481149391797, 973.2237352704276], [-1610.196761333063, 993.8179352706367], [-1619.9237065719508, 976.4520152705823], [-1602.041847647972, 960.0879752707667]]]}, "properties": {"name": "", "kind": "water", "category": "agua", "extrude": false}}, {"type": "Feature", "geometry": {"type": "Polygon", "coordinates": [[[709.1392922828984, 657.5202152705938], [718.178473717011, 664.3107352704554], [689.1941419447687, 699.9331352706888], [677.9934171242948, 689.1350952706625], [709.1392922828984, 657.5202152705938]]]}, "properties": {"name": "", "kind": "water", "category": "agua", "extrude": false}}, {"type": "Feature", "geometry": {"type": "Polygon", "coordinates": [[[-1601.6488397596536, 628.7996552707319], [-1596.441485237735, 626.2392952704729], [-1590.8411228274979, 628.2430552705553], [-1588.3848235248543, 633.4750952703968], [-1590.349862966969, 639.0410952705815], [-1595.6554694609238, 641.4901352707261], [-1601.1575798991248, 639.5976952707582], [-1603.7121311738044, 634.2543352704068], [-1601.6488397596536, 628.7996552707319]]]}, "properties": {"name": "", "kind": "water", "category": "agua", "extrude": false}}, {"type": "Feature", "geometry": {"type": "Polygon", "coordinates": [[[-1328.9013651837004, 311.5376552704827], [-1334.305223649691, 330.796015270505], [-1345.2111925538825, 317.10365527066745], [-1328.9013651837004, 311.5376552704827]]]}, "properties": {"name": "", "kind": "water", "category": "agua", "extrude": false}}, {"type": "Feature", "geometry": {"type": "Polygon", "coordinates": [[[-968.7096354304915, 223.03825527047138], [-973.0327222032142, 218.80809527047333], [-974.5065017848004, 212.90813527073624], [-972.4432103706497, 207.1194952707181], [-967.6288637372237, 203.44593527050122], [-961.537241466458, 202.88933527072004], [-956.1333830004675, 205.67233527041694], [-953.0875718650846, 211.01569527076833], [-953.4805797534028, 217.1382952707343], [-957.0176507493145, 222.03637527062796], [-962.7162651317619, 224.26277527054367], [-968.7096354304915, 223.03825527047138]]]}, "properties": {"name": "", "kind": "reservoir", "category": "agua", "extrude": false}}, {"type": "Feature", "geometry": {"type": "Polygon", "coordinates": [[[563.8246255330197, 106.04093527043162], [579.4466890984268, 105.92961527071267], [589.8613981420896, 120.06725527061249], [575.9096181025152, 134.53885527046012], [554.9819480431535, 114.94653527048996], [563.8246255330197, 106.04093527043162]]]}, "properties": {"name": "", "kind": "water", "category": "agua", "extrude": false}}, {"type": "Feature", "geometry": {"type": "Polygon", "coordinates": [[[1050.957903251774, 390.9088152706022], [1054.5932262198962, 383.1164152705017], [1073.6541088090044, 392.8012552705701], [1088.195400681318, 405.4917352705643], [1078.5667074144662, 414.7312952705704], [1050.957903251774, 390.9088152706022]]]}, "properties": {"name": "", "kind": "water", "category": "agua", "extrude": false}}, {"type": "Feature", "geometry": {"type": "Polygon", "coordinates": [[[1125.8259059991801, 380.6673752707526], [1134.8650874332927, 384.340935270574], [1131.524520381453, 392.3559752705079], [1122.583590919551, 388.6824152706865], [1125.8259059991801, 380.6673752707526]]]}, "properties": {"name": "", "kind": "water", "category": "agua", "extrude": false}}, {"type": "Feature", "geometry": {"type": "Polygon", "coordinates": [[[1076.306912056069, 235.9513752706944], [1090.4551960397152, 235.6174152707466], [1134.0790716563072, 214.6892552705897], [1144.9850405604986, 238.62305527067235], [1105.8807556608758, 258.7719752704237], [1089.4726763186577, 260.21913527072485], [1076.5034160001408, 255.09841527060232], [1076.306912056069, 235.9513752706944]]]}, "properties": {"name": "", "kind": "water", "category": "agua", "extrude": false}}, {"type": "Feature", "geometry": {"type": "Polygon", "coordinates": [[[1307.1007945410884, -182.3891847294459], [1290.2997073103772, -171.36850472958628], [1275.7584154382382, -169.36474472950394], [1293.3455184457603, -204.76450472950845], [1307.1007945410884, -182.3891847294459]]]}, "properties": {"name": "", "kind": "water", "category": "agua", "extrude": false}}, {"type": "Feature", "geometry": {"type": "Polygon", "coordinates": [[[1162.1791356797023, -296.7148247295077], [1179.6679867151884, -285.2488647295859], [1167.9760020341857, -267.43766472946913], [1150.3888990264893, -278.903624729391], [1162.1791356797023, -296.7148247295077]]]}, "properties": {"name": "", "kind": "water", "category": "agua", "extrude": false}}, {"type": "Feature", "geometry": {"type": "Polygon", "coordinates": [[[1222.1128386664764, -689.5631047295453], [1225.2569017738954, -677.3179047292178], [1196.4690739458995, -669.7481447293462], [1193.22675886627, -682.1046647293927], [1222.1128386664764, -689.5631047295453]]]}, "properties": {"name": "", "kind": "water", "category": "agua", "extrude": false}}, {"type": "Feature", "geometry": {"type": "Polygon", "coordinates": [[[1424.020641351464, -703.2554647293829], [1439.4462009726246, -695.2404247294489], [1437.2846575862634, -685.6669047294951], [1419.6975545785667, -695.0177847292201], [1424.020641351464, -703.2554647293829]]]}, "properties": {"name": "", "kind": "water", "category": "agua", "extrude": false}}, {"type": "Feature", "geometry": {"type": "Polygon", "coordinates": [[[808.2755321413312, -1261.9705447294689], [821.5395483761305, -1260.9686647292299], [819.6727609060515, -1234.8084647292317], [806.4087446712522, -1235.8103447294704], [808.2755321413312, -1261.9705447294689]]]}, "properties": {"name": "", "kind": "water", "category": "agua", "extrude": false}}, {"type": "Feature", "geometry": {"type": "Polygon", "coordinates": [[[-161.9626924395629, -93.88978472943464], [-153.21826692190717, -87.98982472930206], [-156.26407805729002, -72.85030472955881], [-172.2791495110153, -75.52198472953677], [-161.9626924395629, -93.88978472943464]]]}, "properties": {"name": "", "kind": "water", "category": "agua", "extrude": false}}, {"type": "Feature", "geometry": {"type": "Polygon", "coordinates": [[[-58.60161778044343, -99.23314472939055], [-54.47503495179266, -101.12558472935845], [-49.955444234823624, -100.3463447293484], [-46.81138112723031, -97.00674472947483], [-46.221869294665645, -92.44262472952897], [-48.38341268102697, -88.4351047293643], [-52.509995509677736, -86.43134472928196], [-57.02958622664678, -87.32190472940644], [-60.17364933424009, -90.66150472928001], [-60.76316116680476, -95.11430472950693], [-58.60161778044343, -99.23314472939055]]]}, "properties": {"name": "", "kind": "water", "category": "agua", "extrude": false}}, {"type": "Feature", "geometry": {"type": "Polygon", "coordinates": [[[-789.4980383027342, -522.8057447293723], [-774.4654865700664, -500.65306472953864], [-788.024258721148, -498.6493047294563], [-799.1267315694115, -516.460504729573], [-789.4980383027342, -522.8057447293723]]]}, "properties": {"name": "", "kind": "water", "category": "agua", "extrude": false}}, {"type": "Feature", "geometry": {"type": "Polygon", "coordinates": [[[254.13440944397956, -862.8883447293509], [304.2429152198299, -870.7920647295658], [312.2013249606746, -820.2527847294226], [262.09281918482424, -812.3490647296032], [254.13440944397956, -862.8883447293509]]]}, "properties": {"name": "", "kind": "water", "category": "agua", "extrude": false}}, {"type": "Feature", "geometry": {"type": "Polygon", "coordinates": [[[667.9717159691247, -1295.1439047295576], [698.7245832394101, -1289.8005447296018], [693.222472801209, -1257.9630247293042], [662.4696055309237, -1263.4177047293745], [667.9717159691247, -1295.1439047295576]]]}, "properties": {"name": "", "kind": "water", "category": "agua", "extrude": false}}, {"type": "Feature", "geometry": {"type": "Polygon", "coordinates": [[[-974.6047537570109, -1360.3774247293818], [-947.4872094548476, -1362.6038247292977], [-945.2274140962759, -1334.7738247295601], [-972.3449583984391, -1332.547424729249], [-974.6047537570109, -1360.3774247293818]]]}, "properties": {"name": "", "kind": "water", "category": "agua", "extrude": false}}, {"type": "Feature", "geometry": {"type": "Polygon", "coordinates": [[[-629.9368355969988, -1462.4578647295118], [-625.8102527683479, -1446.761744729592], [-654.4015766522721, -1439.3033047294393], [-658.5281594807483, -1454.9994247293591], [-629.9368355969988, -1462.4578647295118]]]}, "properties": {"name": "", "kind": "water", "category": "agua", "extrude": false}}, {"type": "Feature", "geometry": {"type": "Polygon", "coordinates": [[[949.3653640905233, -1263.0837447294268], [959.092309329411, -1261.9705447294689], [958.0115376361431, -1252.063064729567], [948.2845923974297, -1253.0649447294106], [949.3653640905233, -1263.0837447294268]]]}, "properties": {"name": "", "kind": "water", "category": "agua", "extrude": false}}, {"type": "Feature", "geometry": {"type": "Polygon", "coordinates": [[[1355.2442608748238, -1318.187144729516], [1367.525757388391, -1314.1796247293512], [1363.792182448233, -1302.6023447293148], [1351.5106859346658, -1306.4985447293652], [1355.2442608748238, -1318.187144729516]]]}, "properties": {"name": "", "kind": "water", "category": "agua", "extrude": false}}]}