{"type": "FeatureCollection", "crs": {"type": "name", "properties": {"name": "wgs84_and_EPSG:32628_local_enu_m_section_centroid", "lng0": -16.327800598754525, "lat0": 28.492029645503862}}, "features": [{"type": "Feature", "geometry": {"type": "Polygon", "coordinates": [[[-16.32747, 28.49361], [-16.32704, 28.49333], [-16.32687, 28.49324], [-16.3267, 28.49318], [-16.32657, 28.49306], [-16.32622, 28.49258], [-16.32536, 28.49144], [-16.32535, 28.4914], [-16.32537, 28.49133], [-16.32548, 28.49086], [-16.32548, 28.49076], [-16.32629, 28.49047], [-16.32646, 28.49037], [-16.32669, 28.49025], [-16.32691, 28.4901], [-16.32704, 28.48997], [-16.32776, 28.48996], [-16.3309, 28.49371], [-16.32747, 28.49361]]]}, "properties": {"cusec": "3802301028", "mun": "023", "nmun": "San Cristóbal de La Laguna", "area_m2": 127613.85661146347, "perimeter_m": 1503.8010197963113, "coords_system": "wgs84"}}, {"type": "Feature", "geometry": {"type": "Polygon", "coordinates": [[[32.34489254344379, -175.92506251007265], [74.41493546839762, -144.7554625100662], [91.04727802013164, -134.73666251005], [107.67962057186566, -128.05746250990737], [120.39847075830177, -114.6990625100176], [154.64152895300737, -61.26546251006303], [238.78161480256745, 65.6393374898785], [239.75998789380506, 70.09213749010542], [237.80324171132986, 77.88453748981041], [227.04113770736893, 130.20493748980712], [227.04113770736893, 141.33693748978118], [147.79291731399675, 173.61973749014098], [131.1605747622627, 184.75173749011503], [108.65799366310323, 198.1101374900048], [87.13378565483373, 214.80813748976814], [74.41493546839762, 229.27973749001126], [3.972072896511237, 230.3929374899691], [-303.2370777635589, -187.0570625100467], [32.34489254344379, -175.92506251007265]]]}, "properties": {"cusec": "3802301028", "mun": "023", "nmun": "San Cristóbal de La Laguna", "area_m2": 127613.85661146347, "perimeter_m": 1503.8010197963113, "coords_system": "local_m_enu"}}]}