{"type": "FeatureCollection", "crs": {"type": "name", "properties": {"name": "EPSG:32628_local_enu_m_section_centroid", "lng0": -16.51304110147885, "lat0": 28.37951004269773}}, "features": [{"type": "Feature", "geometry": {"type": "Polygon", "coordinates": [[[-422.1175271058972, 271.62555311147844], [-424.5660622917516, 273.96327311150856], [-427.8960701451679, 273.96327311150856], [-430.3446053310224, 271.514233111364], [-430.2466639238248, 268.1746331114904], [-427.79812873762233, 265.83691311146026], [-424.468120884554, 265.83691311146026], [-422.1175271058972, 268.28595311160484], [-422.1175271058972, 271.62555311147844]]]}, "properties": {"name": "", "kind": "reservoir", "category": "agua", "extrude": false}}, {"type": "Feature", "geometry": {"type": "Polygon", "coordinates": [[[175.91270675258986, -88.4946468885326], [181.49536697676956, -85.93428688866908], [183.1603709033037, -80.92488688866098], [181.20154275448093, -76.47208688843406], [175.71682393749882, -74.24568688851835], [171.70122623230773, -75.80416688853845], [168.9588668238167, -81.37016688872322], [170.91769497263945, -86.15692688850245], [175.91270675258986, -88.4946468885326]]]}, "properties": {"name": "", "kind": "reservoir", "category": "agua", "extrude": false}}]}