{"type": "FeatureCollection", "crs": {"type": "name", "properties": {"name": "EPSG:32628_local_enu_m_section_centroid", "lng0": -16.3686311584312, "lat0": 28.532622975742658}}, "features": [{"type": "Feature", "geometry": {"type": "Polygon", "coordinates": [[[-211.133974181103, 591.5517796728263], [-209.47137993940845, 594.0008196725755], [-207.41758705254796, 598.6762596726358], [-213.5789657131294, 602.1271796726238], [-217.97995047063793, 595.1140196725333], [-211.133974181103, 591.5517796728263]]]}, "properties": {"name": "", "kind": "water", "category": "agua", "extrude": false}}, {"type": "Feature", "geometry": {"type": "Polygon", "coordinates": [[[-180.8160791850875, 551.699219672595], [-192.45423887694943, 558.3784196727377], [-199.88701313405952, 548.4709396728358], [-188.73785174839438, 542.5709796727033], [-180.8160791850875, 551.699219672595]]]}, "properties": {"name": "", "kind": "water", "category": "agua", "extrude": false}}, {"type": "Feature", "geometry": {"type": "Polygon", "coordinates": [[[-181.20727783025342, 535.0012196728317], [-185.80386191017118, 538.2294996725908], [-191.1828432804208, 539.7879796726108], [-196.75742397342708, 539.5653396727776], [-202.03860568229834, 537.6728996728095], [-206.4395904398069, 534.2219796728216], [-209.56917960078678, 529.6578596728757], [-211.133974181103, 524.2031796728054], [-210.74277553593708, 518.0805796728395], [-208.39558366528902, 512.4032596725402], [-204.19019823053716, 507.9504596727088], [-198.7134171989092, 505.0561396728975], [-192.55203853832776, 504.27689967288745], [-186.586259200503, 505.6127396726787], [-181.40287715266265, 508.9523396725522], [-177.58869036272924, 513.8504196728413], [-175.73049679862547, 519.7503796725784], [-175.92609612103467, 525.3163796727632], [-177.78428968548593, 530.5484196726047], [-181.20727783025342, 535.0012196728317]]]}, "properties": {"name": "", "kind": "water", "category": "agua", "extrude": false}}, {"type": "Feature", "geometry": {"type": "Polygon", "coordinates": [[[-373.4814119023747, 428.8019396728181], [-367.3200332417932, 437.70753967287646], [-380.7185868367281, 446.6131396725393], [-386.4887668521436, 437.4848996726476], [-373.4814119023747, 428.8019396728181]]]}, "properties": {"name": "", "kind": "water", "category": "agua", "extrude": false}}, {"type": "Feature", "geometry": {"type": "Polygon", "coordinates": [[[-466.8800884227951, 384.7192196725887], [-457.58912060123373, 394.404059672657], [-467.5646860514011, 402.9756996727676], [-476.75785421158406, 392.7342596725225], [-466.8800884227951, 384.7192196725887]]]}, "properties": {"name": "", "kind": "water", "category": "agua", "extrude": false}}, {"type": "Feature", "geometry": {"type": "Polygon", "coordinates": [[[-456.51332432711433, 376.5928596725404], [-446.7333581993562, 385.1644996726509], [-457.58912060123373, 394.404059672657], [-466.8800884227951, 384.7192196725887], [-456.51332432711433, 376.5928596725404]]]}, "properties": {"name": "", "kind": "water", "category": "agua", "extrude": false}}, {"type": "Feature", "geometry": {"type": "Polygon", "coordinates": [[[-463.7504992618152, 369.13441967278317], [-457.58912060123373, 375.70229967281136], [-467.07568774520433, 382.71545967290183], [-473.6282650509517, 373.0306196728334], [-463.7504992618152, 369.13441967278317]]]}, "properties": {"name": "", "kind": "water", "category": "agua", "extrude": false}}, {"type": "Feature", "geometry": {"type": "Polygon", "coordinates": [[[-656.0246333339365, 233.9919396726789], [-651.1346502698838, 229.53913967284748], [-648.5918590768264, 232.32213967254438], [-653.3840424795009, 236.88625967288573], [-656.0246333339365, 233.9919396726789]]]}, "properties": {"name": "", "kind": "reservoir", "category": "agua", "extrude": false}}, {"type": "Feature", "geometry": {"type": "Polygon", "coordinates": [[[-94.65457759936795, 214.73357967265656], [-99.34896134066406, 219.63165967255023], [-103.55434677541592, 223.6391796727149], [-107.27073390397096, 226.31085967269286], [-110.4981227263292, 227.31273967253628], [-114.31230951626259, 225.86557967263062], [-117.63749799965171, 222.74861967259042], [-118.61549461239278, 219.74297967266466], [-116.5617017255323, 216.4033796727911], [-111.6717186614795, 213.39773967286533], [-101.59835354993378, 208.83361967252398], [-94.65457759936795, 214.73357967265656]]]}, "properties": {"name": "", "kind": "water", "category": "agua", "extrude": false}}, {"type": "Feature", "geometry": {"type": "Polygon", "coordinates": [[[-470.79207487375936, 72.35529967262849], [-473.53046538957335, 73.57981967270078], [-476.56225488917494, 73.69113967281521], [-479.3984450660198, 72.91189967280516], [-481.9412362594245, 71.24209967267063], [-483.70163016249745, 68.90437967264049], [-484.6796267752385, 66.01005967282916], [-484.6796267752385, 63.11573967262234], [-483.70163016249745, 60.22141967281101], [-481.9412362594245, 57.883699672780864], [-479.3984450660198, 56.213899672646335], [-476.4644552277966, 55.434659672636286], [-473.3348660668167, 55.65729967286515], [-470.4986758899718, 56.99313967265638], [-468.2492836803546, 59.10821967285315], [-466.8800884227951, 61.77989967283111], [-466.39109011625084, 64.8968596728713], [-467.07568774520433, 67.79117967268263], [-468.54268266448963, 70.46285967266058], [-470.79207487375936, 72.35529967262849]]]}, "properties": {"name": "", "kind": "water", "category": "agua", "extrude": false}}, {"type": "Feature", "geometry": {"type": "Polygon", "coordinates": [[[-229.81370948525657, 31.166899672605837], [-218.27334945442553, 42.18757967286095], [-230.40050745283173, 64.78553967275687], [-232.64989966210143, 68.90437967264049], [-236.85528509720072, 60.444059672644386], [-240.86507120954337, 50.313939672513754], [-241.5496688384969, 42.966819672871], [-240.18047358058985, 36.73289967279061], [-236.5618861134132, 31.946139672615885], [-233.23669763002408, 29.71973967270017], [-229.81370948525657, 31.166899672605837]]]}, "properties": {"name": "", "kind": "water", "category": "agua", "extrude": false}}, {"type": "Feature", "geometry": {"type": "Polygon", "coordinates": [[[-224.82592676017288, -386.61706032735776], [-227.27091829185184, -381.16238032728745], [-231.2807044045419, -376.59826032734156], [-236.5618861134132, -373.7039403271348], [-242.52766545123794, -372.59074032717695], [-248.59124445044102, -373.48130032730137], [-253.97022582069062, -376.15298032727935], [-256.4152173527171, -378.7133403271429], [-257.2954143044272, -380.27182032716297], [-259.153607868531, -382.60954032719314], [-260.8162021102256, -385.94914032746215], [-261.50079973917906, -391.9604203273137], [-260.2294041426505, -397.9717003271652], [-257.00201532029223, -403.31506032712116], [-252.20983191796518, -407.3225803272858], [-246.24405257979296, -409.54898032720155], [-239.98487425818064, -409.54898032720155], [-234.01909492000843, -407.5452203271192], [-229.12911185630307, -403.6490203274644], [-225.80392337291394, -398.52830032734187], [-224.33692845362862, -392.73966032732375], [-224.82592676017288, -386.61706032735776]]]}, "properties": {"name": "", "kind": "water", "category": "agua", "extrude": false}}, {"type": "Feature", "geometry": {"type": "Polygon", "coordinates": [[[-233.5300966138116, -413.2225403274184], [-239.49587595163638, -410.88482032738824], [-245.95065359600542, -410.6621803271594], [-252.11203225658684, -412.44330032740834], [-257.4910136268365, -416.1168603272297], [-261.3052004167699, -421.3489003274667], [-263.26119364225195, -427.47150032743264], [-263.16339398087365, -434.1507003271798], [-260.8162021102256, -440.38462032726017], [-256.6108166754737, -445.50534032738267], [-250.84063666005824, -448.9562603273707], [-244.3858590156892, -450.29210032716196], [-237.7354820485635, -449.40154032743294], [-231.76970271073873, -446.50722032722615], [-227.17311863082097, -441.72046032744686], [-224.33692845362862, -435.7091803271999], [-223.65233082467512, -429.02998032745273], [-225.11932574396047, -422.79606032737235], [-228.5423138887279, -417.341380327302], [-233.5300966138116, -413.2225403274184]]]}, "properties": {"name": "", "kind": "water", "category": "agua", "extrude": false}}, {"type": "Feature", "geometry": {"type": "Polygon", "coordinates": [[[-606.5380047272232, -442.83366032740474], [-609.3741949044155, -438.38086032717786], [-613.5795803391674, -435.1525803274187], [-618.4695634032201, -433.48278032728416], [-623.7507451120914, -433.37146032716976], [-628.7385278375225, -435.04126032730426], [-632.9439132722745, -438.15822032734445], [-635.975702771876, -442.3883803273425], [-637.4426976911612, -447.3977803273506], [-637.2470983684046, -452.6298203271921], [-635.3889048043008, -457.52790032748123], [-631.868116998155, -461.8693803271982], [-627.0759335958279, -464.65238032729064], [-621.5013529028217, -465.7655803272485], [-616.0245718711938, -464.875020327124], [-611.1345888074884, -462.0920203274271], [-607.4182016789333, -457.973180327148], [-605.4622084534511, -453.0751003272543], [-605.1688094693161, -447.84306032741284], [-606.5380047272232, -442.83366032740474]]]}, "properties": {"name": "", "kind": "water", "category": "agua", "extrude": false}}, {"type": "Feature", "geometry": {"type": "Polygon", "coordinates": [[[-54.45891681421595, 287.53685967274794], [-57.68630563622673, 286.42365967279005], [-60.326896490662364, 284.3085796725933], [-62.18509005511361, 281.41425967278195], [-62.96748734509799, 278.0746596725129], [-62.67408836131042, 274.7350596726393], [-61.20709344237254, 271.6180996725991], [-58.859901571724485, 269.16905967285004], [-55.828112072122934, 267.61057967282994], [-52.40512392735546, 267.05397967265327], [-49.177735104997225, 267.7218996725489], [-46.24374526677401, 269.39169967268344], [-44.09215271853519, 271.840739672828], [-42.7229574606282, 274.9576996728682], [-42.52735813821897, 278.29729967274176], [-43.30975542855081, 281.52557967289636], [-45.07014933127626, 284.3085796725933], [-47.80853984709024, 286.42365967279005], [-51.035928669448474, 287.53685967274794], [-54.45891681421595, 287.53685967274794]]]}, "properties": {"name": "", "kind": "water", "category": "agua", "extrude": false}}, {"type": "Feature", "geometry": {"type": "Polygon", "coordinates": [[[-443.3103700545887, 165.97541967276229], [-455.0463294081765, 181.11493967290102], [-464.239497568012, 172.8772596727383], [-457.39352127882455, 163.5263796726177], [-453.5793344888911, 158.73961967283847], [-443.3103700545887, 165.97541967276229]]]}, "properties": {"name": "", "kind": "water", "category": "agua", "extrude": false}}, {"type": "Feature", "geometry": {"type": "Polygon", "coordinates": [[[-332.1121551817249, 142.04161967267964], [-343.7503148739343, 163.74901967284657], [-352.5522843889514, 154.7320996726738], [-340.5229260515761, 136.9208996725571], [-332.1121551817249, 142.04161967267964]]]}, "properties": {"name": "", "kind": "water", "category": "agua", "extrude": false}}, {"type": "Feature", "geometry": {"type": "Polygon", "coordinates": [[[-463.45710027802755, 114.54557967289006], [-468.0536843579454, 121.78137967281387], [-472.94366742199816, 118.77573967288811], [-468.73828198689887, 111.42861967284986], [-463.45710027802755, 114.54557967289006]]]}, "properties": {"name": "", "kind": "water", "category": "agua", "extrude": false}}, {"type": "Feature", "geometry": {"type": "Polygon", "coordinates": [[[-228.4445142273496, 115.10217967267124], [-234.99709153309695, 121.2247796726372], [-263.4567929646612, 106.5305396725607], [-252.99222920794958, 97.29097967255456], [-228.4445142273496, 115.10217967267124]]]}, "properties": {"name": "", "kind": "water", "category": "agua", "extrude": false}}, {"type": "Feature", "geometry": {"type": "Polygon", "coordinates": [[[-457.19792195606783, 97.06833967272118], [-460.91430908462286, 100.18529967276137], [-465.41309350350974, 101.96641967261485], [-470.2052769061842, 102.18905967284371], [-474.801860986102, 100.74189967254256], [-478.81164709844467, 97.95889967284566], [-481.5500376142586, 94.06269967279542], [-482.91923287216554, 89.38725967273513], [-482.8214332107873, 84.6004996725604], [-481.06103930806177, 80.14769967272898], [-477.9314501470819, 76.47413967251211], [-473.82386437336095, 73.91377967264859], [-469.0316809706864, 72.91189967280516], [-464.239497568012, 73.46849967258635], [-459.83851281050346, 75.58357967278312], [-456.41552466573603, 79.14581967288555], [-454.2639321178446, 83.48729967260255], [-453.77493381130034, 88.27405967277727], [-454.7529304240414, 92.94949967283756], [-457.19792195606783, 97.06833967272118]]]}, "properties": {"name": "", "kind": "water", "category": "agua", "extrude": false}}, {"type": "Feature", "geometry": {"type": "Polygon", "coordinates": [[[-493.9705945964524, 79.47977967283336], [-495.53538917711603, 81.8174996728635], [-497.78478138638576, 83.3759796728836], [-500.32757257979057, 84.15521967289365], [-503.0659630952571, 84.04389967277922], [-505.60875428866177, 82.93069967282136], [-507.6625471755222, 81.03825967285346], [-508.83614311067254, 78.58921967270888], [-509.22734175583855, 75.91753967273092], [-508.6405437882633, 73.24585967275297], [-507.3691481917347, 71.1307796725562], [-505.5109546272834, 69.5722996725361], [-503.35936207939204, 68.57041967269268], [-500.9143705473656, 68.23645967274487], [-498.5671786767176, 68.79305967252606], [-496.4155861284788, 69.9062596728794], [-494.75299188678423, 71.68737967273287], [-493.57939595163396, 74.13641967287745], [-493.2859969674988, 76.8080996728554], [-493.9705945964524, 79.47977967283336]]]}, "properties": {"name": "", "kind": "water", "category": "agua", "extrude": false}}, {"type": "Feature", "geometry": {"type": "Polygon", "coordinates": [[[-207.90658535909222, -119.67170032741834], [-197.05082295721465, -137.92818032720177], [-194.60583142518826, -138.70742032721182], [-172.79650696040224, -120.22830032719952], [-197.34422194100225, -105.86802032746633], [-208.00438502012312, -116.88870032732595], [-207.90658535909222, -119.67170032741834]]]}, "properties": {"name": "", "kind": "water", "category": "agua", "extrude": false}}, {"type": "Feature", "geometry": {"type": "Polygon", "coordinates": [[[-127.90646243360668, -246.91046032730767], [-126.14606853088122, -243.79350032726748], [-125.1680719177927, -241.3444603271229], [-123.70107699885482, -239.22938032732162], [-122.42968140232618, -236.89166032729148], [-122.13628241819114, -235.22186032715695], [-124.87467293400512, -232.99546032724123], [-134.0678410941881, -225.31438032725518], [-145.60820112501918, -216.6314203274257], [-150.3025848663153, -221.52950032731937], [-154.6057699624455, -226.87286032727528], [-127.90646243360668, -246.91046032730767]]]}, "properties": {"name": "", "kind": "water", "category": "agua", "extrude": false}}, {"type": "Feature", "geometry": {"type": "Polygon", "coordinates": [[[-417.88245812227854, -288.3215003271637], [-419.3494530415639, -284.3139803273945], [-421.9900438959995, -281.0857003272399], [-425.51083170214537, -278.9706203274386], [-429.6184174758663, -277.9687403271997], [-433.7260032495873, -278.3027003271475], [-437.54019003917324, -279.97250032728203], [-440.5719795387747, -282.8668203274889], [-442.62577242563526, -286.54038032731023], [-443.3103700545887, -290.5479003274749], [-442.72357208701357, -294.6667403273585], [-440.6697792001531, -298.5629403274088], [-437.54019003917324, -301.56858032733453], [-433.53040392683056, -303.23838032746903], [-429.12941916932203, -303.46102032730244], [-424.9240337345702, -302.3478203273446], [-422.0878435573779, -300.34406032726224], [-421.4032459284244, -299.7874603274811], [-419.15385371915465, -296.55918032732643], [-418.958254396398, -296.44786032721197], [-417.78465846124766, -292.4403403274428], [-417.88245812227854, -288.3215003271637]]]}, "properties": {"name": "", "kind": "water", "category": "agua", "extrude": false}}, {"type": "Feature", "geometry": {"type": "Polygon", "coordinates": [[[-318.32240294162415, -312.811900327423], [-332.6011534882692, -304.57422032726026], [-338.9581314712599, -312.92322032714196], [-324.7771805859932, -321.49486032725247], [-318.32240294162415, -312.811900327423]]]}, "properties": {"name": "", "kind": "water", "category": "agua", "extrude": false}}, {"type": "Feature", "geometry": {"type": "Polygon", "coordinates": [[[-423.8482374604508, -302.3478203273446], [-426.0976296697205, -304.12894032719805], [-430.1074157820631, -310.14022032744504], [-431.867809685136, -317.15338032714], [-431.2810117175609, -324.2778603273449], [-428.2492222179593, -330.9570603274875], [-423.3592391539065, -336.189100327329], [-416.90446150953744, -339.52870032720256], [-409.7650862362149, -340.5305803274415], [-402.72351062427083, -339.0834203271403], [-396.6599316250677, -335.63250032715234], [-391.9655478837716, -330.2891403271964], [-389.3249570293359, -323.83258032728264], [-388.83595872279164, -316.81942032719223], [-390.5963526258646, -310.02890032733063], [-394.50833907717634, -304.2402603273125], [-399.98512010845684, -299.89878032720003], [-406.6354970755826, -297.67238032728426], [-413.67707268752673, -297.56106032716986], [-420.327449654305, -299.7874603274811], [-423.8482374604508, -302.3478203273446]]]}, "properties": {"name": "", "kind": "water", "category": "agua", "extrude": false}}, {"type": "Feature", "geometry": {"type": "Polygon", "coordinates": [[[-521.0611007704571, -349.992780327281], [-520.9633011090788, -348.54562032737533], [-522.1368970445765, -347.54374032713645], [-523.3104929800743, -347.76638032736525], [-525.5598851893441, -350.10410032739543], [-523.6038919638619, -352.33050032731114], [-521.0611007704571, -349.992780327281]]]}, "properties": {"name": "", "kind": "water", "category": "agua", "extrude": false}}, {"type": "Feature", "geometry": {"type": "Polygon", "coordinates": [[[-582.7726870369551, -337.30230032728684], [-588.4450673909922, -334.51930032719446], [-594.7042457126045, -333.85138032729884], [-600.8656243731859, -335.18722032748553], [-606.2446057434355, -338.6381403274736], [-610.1565921947473, -343.53622032736723], [-612.1125854202294, -349.54750032721876], [-612.0147857588511, -355.89274032741355], [-609.7653935495814, -361.79270032715067], [-605.6578077758604, -366.6907803274398], [-600.7678247118076, -369.69642032736556], [-595.0954443577705, -371.0322603271568], [-589.3252643423549, -370.47566032737564], [-583.9462829721053, -368.2492603274599], [-579.5452982145968, -364.57570032724306], [-576.5135087149952, -359.56630032723496], [-575.1443134570883, -353.88898032733124], [-575.7311114246634, -347.65506032725085], [-578.2739026180682, -341.86642032723273], [-582.7726870369551, -337.30230032728684]]]}, "properties": {"name": "", "kind": "water", "category": "agua", "extrude": false}}, {"type": "Feature", "geometry": {"type": "Polygon", "coordinates": [[[-74.60564703730739, -185.016540327357], [-75.19244500488254, -186.35238032714824], [-75.19244500488254, -187.35426032738715], [-73.72545008594467, -188.80142032729282], [-52.89412223355227, -199.15418032725682], [-51.72052629840197, -199.48814032720463], [-50.64473002428255, -199.26550032737126], [-47.221741879515086, -196.81646032722668], [-46.048145944364784, -194.92402032725877], [-41.842760509265474, -182.90146032716024], [-64.63008158714001, -169.09778032720823], [-74.60564703730739, -185.016540327357]]]}, "properties": {"name": "", "kind": "water", "category": "agua", "extrude": false}}, {"type": "Feature", "geometry": {"type": "Polygon", "coordinates": [[[814.0998749942402, -395.1887003274683], [808.6230939626122, -393.96418032739604], [803.048513269606, -394.63210032729165], [798.0607305445222, -397.08114032743623], [794.0509444321797, -400.97734032748644], [791.6059529001533, -406.0980603272135], [790.9213552711998, -411.55274032728386], [792.0949512066975, -417.11874032746863], [794.9311413835424, -421.90550032724786], [799.2343264800201, -425.46774032735027], [804.5155081888913, -427.47150032743264], [809.9922892205192, -427.5828203271516], [815.1756712680121, -426.0243403271315], [819.674455686899, -422.90738032748675], [822.9018445092572, -418.45458032725986], [824.4666390895735, -413.2225403274184], [824.3688394281952, -407.76786032734805], [822.412846202713, -402.42450032739214], [818.8920583965672, -398.08302032727966], [814.0998749942402, -395.1887003274683]]]}, "properties": {"name": "", "kind": "water", "category": "agua", "extrude": false}}, {"type": "Feature", "geometry": {"type": "Polygon", "coordinates": [[[128.0352511301472, -412.88858032747055], [122.94966874368517, -412.3319803272939], [117.96188601860148, -413.44518032725176], [113.65870092247128, -416.22818032734415], [110.5291117614914, -420.23570032711336], [108.86651751979683, -425.1337803274025], [108.96431718117516, -430.25450032712956], [110.82251074527896, -435.04126032730426], [114.14769922901554, -438.93746032735453], [118.54868398617663, -441.49782032721805], [123.14526806644186, -442.3883803273425], [127.74185214635963, -441.8317803271658], [132.04503724283728, -439.9393403271979], [135.46802538725728, -436.8223803271577], [137.81521725790535, -432.70354032727414], [138.79321387099387, -428.13942032732825], [138.3042155644496, -423.57530032738237], [136.25042267758914, -418.89986032732213], [132.63183521041242, -415.22630032710526], [128.0352511301472, -412.88858032747055]]]}, "properties": {"name": "", "kind": "water", "category": "agua", "extrude": false}}, {"type": "Feature", "geometry": {"type": "Polygon", "coordinates": [[[263.6833813225801, -452.85246032742094], [266.1283728546065, -452.51850032747313], [268.96456303145135, -451.29398032740085], [270.23595862832747, -450.29210032716196], [271.8007532086437, -448.62230032742286], [273.5611471117166, -445.7279803272161], [274.14794507929173, -443.39026032718596], [274.24574474067003, -440.27330032714576], [273.6589467730949, -437.9355803271156], [272.28975151518796, -435.26390032713766], [271.21395524106856, -433.92806032734643], [269.7469603217832, -432.70354032727414], [268.3777650638762, -431.59034032731626], [265.83497387081894, -430.81110032730624], [264.46577861291195, -430.47714032735837], [261.9229874195072, -430.47714032735837], [260.26039317781266, -430.6997803271918], [258.30439995233047, -431.3677003274829], [257.4242030009678, -431.70166032743066], [257.32640333958943, -432.14694032709747], [255.37041011410727, -435.82050032731433], [253.61001621103438, -439.1601003271879], [251.84962230796145, -442.83366032740474], [252.24082095312735, -446.28458032739275], [254.78361214618468, -449.2902203273185], [255.9572080816824, -450.40342032727636], [257.52200266199867, -451.62794032734865], [261.33618945193206, -452.74114032730654], [263.6833813225801, -452.85246032742094]]]}, "properties": {"name": "", "kind": "water", "category": "agua", "extrude": false}}, {"type": "Feature", "geometry": {"type": "Polygon", "coordinates": [[[304.46584007530726, -451.29398032740085], [301.3362509146748, -450.29210032716196], [297.815463108529, -450.29210032716196], [294.5880742865182, -451.62794032734865], [291.9474834317351, -453.85434032726437], [290.18708952900965, -456.8599803271901], [289.50249190005616, -460.1995803274592], [290.08928986763135, -463.65050032744716], [291.7518841093259, -466.76746032748736], [294.29467530273064, -469.10518032712207], [297.42426446336304, -470.44102032730876], [300.74945294675217, -470.6636603271421], [303.9768417691104, -469.8844203271321], [306.7152322849244, -468.1033003272786], [308.8668248328158, -465.54294032741507], [309.9426211069352, -462.4259803273749], [310.04042076831354, -459.08638032710587], [309.06242415557244, -455.85810032734673], [307.20423059112125, -453.18642032736875], [304.46584007530726, -451.29398032740085]]]}, "properties": {"name": "", "kind": "water", "category": "agua", "extrude": false}}, {"type": "Feature", "geometry": {"type": "Polygon", "coordinates": [[[334.8815347327011, -499.82950032746174], [342.2165093287803, -511.62942032733145], [347.20429205351655, -517.3067403272352], [363.9706057495797, -517.3067403272352], [367.84002058349967, -510.7388603272069], [370.57841109931366, -505.7294603271988], [370.7740104217229, -503.1691003273353], [368.2312192286656, -501.0540203271386], [341.04291339328256, -485.13526032738525], [338.2067232164377, -483.3541403271363], [334.1969371037476, -483.0201803271885], [331.7519455720687, -486.35978032745754], [329.9915516689958, -491.36918032746564], [334.8815347327011, -499.82950032746174]]]}, "properties": {"name": "", "kind": "water", "category": "agua", "extrude": false}}, {"type": "Feature", "geometry": {"type": "Polygon", "coordinates": [[[470.33406560272476, -501.2766603273674], [467.1066767803665, -502.38986032732527], [464.4660859259309, -504.3936203274076], [462.6078923618271, -507.1766203271045], [461.72769541011695, -510.40490032725916], [461.92329473287356, -513.8558203272471], [463.19469032940225, -516.8614603271728], [463.6028976113598, -517.3067403272352], [480.39892639587464, -517.3067403272352], [480.6030300366797, -517.0841003274018], [481.9722252945867, -513.9671403273616], [482.26562427837433, -510.62754032748796], [481.38542732701154, -507.28794032721896], [479.5272337629077, -504.5049403271265], [476.88664290812466, -502.38986032732527], [473.6592540861139, -501.2766603273674], [470.33406560272476, -501.2766603273674]]]}, "properties": {"name": "", "kind": "water", "category": "agua", "extrude": false}}]}