{"type": "FeatureCollection", "crs": {"type": "name", "properties": {"name": "EPSG:32628_local_enu_m_section_centroid", "lng0": -16.27296116028236, "lat0": 28.46297413213879}}, "features": [{"type": "Feature", "geometry": {"type": "Point", "coordinates": [105.31759329766345, 234.1206696899654]}, "properties": {"osm_id": null, "category": "restauracion", "name": "Jomaro", "extrude": false}}, {"type": "Feature", "geometry": {"type": "Point", "coordinates": [52.177318472334285, 198.49826969012753]}, "properties": {"osm_id": null, "category": "salud", "name": "Farmacia Los Gladiolos", "extrude": false}}, {"type": "Feature", "geometry": {"type": "Point", "coordinates": [175.58410770779113, 188.0341896900491]}, "properties": {"osm_id": null, "category": "restauracion", "name": "Noelia", "extrude": false}}, {"type": "Feature", "geometry": {"type": "Point", "coordinates": [20.469309184403993, 170.33430969004684]}, "properties": {"osm_id": null, "category": "restauracion", "name": "Genesis", "extrude": false}}, {"type": "Feature", "geometry": {"type": "Point", "coordinates": [6.376860612067791, 159.09098968995835]}, "properties": {"osm_id": null, "category": "restauracion", "name": "La Gardenia", "extrude": false}}, {"type": "Feature", "geometry": {"type": "Point", "coordinates": [-77.19918856070596, 158.20042969022936]}, "properties": {"osm_id": null, "category": "restauracion", "name": "El Galápago", "extrude": false}}, {"type": "Feature", "geometry": {"type": "Point", "coordinates": [63.33384025885403, -119.32033030990297]}, "properties": {"osm_id": null, "category": "salud", "name": "", "extrude": false}}, {"type": "Feature", "geometry": {"type": "Point", "coordinates": [86.82125454642872, -166.4086903100582]}, "properties": {"osm_id": null, "category": "restauracion", "name": "Asia Mao", "extrude": false}}, {"type": "Feature", "geometry": {"type": "Point", "coordinates": [94.25893573744189, -168.96905030992173]}, "properties": {"osm_id": null, "category": "finanzas", "name": "Caixabank", "extrude": false}}, {"type": "Feature", "geometry": {"type": "Point", "coordinates": [106.9812851429942, -201.8084503100627]}, "properties": {"osm_id": null, "category": "finanzas", "name": "BBVA", "extrude": false}}]}