{"type": "FeatureCollection", "crs": {"type": "name", "properties": {"name": "wgs84_and_EPSG:32628_local_enu_m_section_centroid", "lng0": -16.27296116028236, "lat0": 28.46297413213879}}, "features": [{"type": "Feature", "geometry": {"type": "Polygon", "coordinates": [[[-16.27484, 28.46251], [-16.27478, 28.46288], [-16.27476, 28.46289], [-16.27371, 28.46303], [-16.27334, 28.46318], [-16.2727, 28.46415], [-16.27257, 28.46417], [-16.27217, 28.46432], [-16.27221, 28.46427], [-16.27163, 28.46298], [-16.27227, 28.46249], [-16.2731, 28.46184], [-16.27338, 28.46202], [-16.27358, 28.46222], [-16.27367, 28.46232], [-16.27376, 28.46237], [-16.27387, 28.46241], [-16.27399, 28.46241], [-16.27484, 28.46251]]]}, "properties": {"cusec": "3803806019", "mun": "038", "nmun": "Santa Cruz de Tenerife", "area_m2": 37270.84854085168, "perimeter_m": 916.5489474004914, "coords_system": "wgs84"}}, {"type": "Feature", "geometry": {"type": "Polygon", "coordinates": [[[-183.87119511620935, 51.667189689872544], [-177.99934154422874, 10.478789690245378], [-176.0420570203511, 9.365589689892033], [-73.2846195129507, -6.21921030991345], [-37.07485581982369, -22.917210310072278], [25.558248946694455, -130.89761030993927], [38.28059835224678, -133.12401030985498], [77.42628883153792, -149.8220103100138], [73.51171978343496, -144.25601030982904], [130.2729709783202, -0.653210310124166], [67.63986621180206, 53.893589690183745], [-13.587441532249002, 126.25158969021285], [-40.98942486757896, 106.21398969018045], [-60.56227010705069, 83.94998969023234], [-69.37005046484774, 72.81798969025829], [-78.17783082264478, 67.25198969007351], [-88.94289570431947, 62.79918969024209], [-100.68660284828066, 62.79918969024209], [-183.87119511620935, 51.667189689872544]]]}, "properties": {"cusec": "3803806019", "mun": "038", "nmun": "Santa Cruz de Tenerife", "area_m2": 37270.84854085168, "perimeter_m": 916.5489474004914, "coords_system": "local_m_enu"}}]}