{"type": "FeatureCollection", "crs": {"type": "name", "properties": {"name": "EPSG:32628_local_enu_m_section_centroid", "lng0": -15.476816258218756, "lat0": 28.10300049312613}}, "features": [{"type": "Feature", "geometry": {"type": "Point", "coordinates": [131.50928678025542, 426.8557748009449]}, "properties": {"osm_id": null, "category": "salud", "name": "Centro de Salud de Tamaraceite", "extrude": false}}, {"type": "Feature", "geometry": {"type": "Point", "coordinates": [295.79055360548983, 277.1303748008786]}, "properties": {"osm_id": null, "category": "salud", "name": "", "extrude": false}}, {"type": "Feature", "geometry": {"type": "Point", "coordinates": [77.10891509983762, 256.75881480089845]}, "properties": {"osm_id": null, "category": "publico", "name": "Concejalía Distrito San Lorenzo / Tamaraceite", "extrude": false}}]}