{"type": "FeatureCollection", "crs": {"type": "name", "properties": {"name": "EPSG:32628_local_enu_m_section_centroid", "lng0": -13.870299639225976, "lat0": 28.506011861812624}}, "features": [{"type": "Feature", "geometry": {"type": "Point", "coordinates": [346.2628959471193, 248.8961369814676]}, "properties": {"osm_id": null, "category": "restauracion", "name": "Parrillada La Sierra", "extrude": false}}, {"type": "Feature", "geometry": {"type": "Point", "coordinates": [-136.9893783032529, 159.50617698133186]}, "properties": {"osm_id": null, "category": "restauracion", "name": "", "extrude": false}}, {"type": "Feature", "geometry": {"type": "Point", "coordinates": [370.22986096556474, 150.93453698122133]}, "properties": {"osm_id": null, "category": "restauracion", "name": "Bar Tapas 77", "extrude": false}}, {"type": "Feature", "geometry": {"type": "Point", "coordinates": [363.1865079804253, 142.58553698133966]}, "properties": {"osm_id": null, "category": "finanzas", "name": "", "extrude": false}}, {"type": "Feature", "geometry": {"type": "Point", "coordinates": [-104.70734378856598, 116.75929698128911]}, "properties": {"osm_id": null, "category": "restauracion", "name": "", "extrude": false}}, {"type": "Feature", "geometry": {"type": "Point", "coordinates": [337.1652316746547, 110.30273698137535]}, "properties": {"osm_id": null, "category": "salud", "name": "", "extrude": false}}, {"type": "Feature", "geometry": {"type": "Point", "coordinates": [378.1536330736946, -89.2940230185431]}, "properties": {"osm_id": null, "category": "salud", "name": "", "extrude": false}}]}