{"type": "FeatureCollection", "crs": {"type": "name", "properties": {"name": "EPSG:32628_local_enu_m_section_centroid", "lng0": -13.880526789180506, "lat0": 28.48124162611282}}, "features": [{"type": "Feature", "geometry": {"type": "Point", "coordinates": [976.2019448543452, -966.7445011210281]}, "properties": {"osm_id": null, "category": "salud", "name": "", "extrude": false}}, {"type": "Feature", "geometry": {"type": "Point", "coordinates": [1488.1390503769517, -1250.721821121074]}, "properties": {"osm_id": null, "category": "restauracion", "name": "Japonés Shou", "extrude": false}}, {"type": "Feature", "geometry": {"type": "Point", "coordinates": [1692.1506835985226, -1378.51718112114]}, "properties": {"osm_id": null, "category": "restauracion", "name": "Restaurante El Mirador", "extrude": false}}, {"type": "Feature", "geometry": {"type": "Point", "coordinates": [1658.0019737691316, -1414.4735411209258]}, "properties": {"osm_id": null, "category": "restauracion", "name": "Chen y Jiang", "extrude": false}}, {"type": "Feature", "geometry": {"type": "Point", "coordinates": [1706.9256268197305, -1420.1508611208296]}, "properties": {"osm_id": null, "category": "restauracion", "name": "Restaurante MAR & MONTE", "extrude": false}}, {"type": "Feature", "geometry": {"type": "Point", "coordinates": [1720.2328604494726, -1445.4205011210988]}, "properties": {"osm_id": null, "category": "restauracion", "name": "La Avutarda", "extrude": false}}, {"type": "Feature", "geometry": {"type": "Point", "coordinates": [1892.9333557185555, -1615.5174611211455]}, "properties": {"osm_id": null, "category": "restauracion", "name": "El Faro de Diego", "extrude": false}}, {"type": "Feature", "geometry": {"type": "Point", "coordinates": [1881.9744574352285, -1636.111661120959]}, "properties": {"osm_id": null, "category": "restauracion", "name": "The Influencer", "extrude": false}}, {"type": "Feature", "geometry": {"type": "Point", "coordinates": [1860.7415920111193, -1643.792741120945]}, "properties": {"osm_id": null, "category": "restauracion", "name": "Triana", "extrude": false}}, {"type": "Feature", "geometry": {"type": "Point", "coordinates": [1971.6025898241483, -1711.6979411211428]}, "properties": {"osm_id": null, "category": "restauracion", "name": "El Perenquén", "extrude": false}}, {"type": "Feature", "geometry": {"type": "Point", "coordinates": [1964.2640418664716, -1737.7468211210266]}, "properties": {"osm_id": null, "category": "restauracion", "name": "Blanco Café", "extrude": false}}, {"type": "Feature", "geometry": {"type": "Point", "coordinates": [1737.2582917112409, -1770.5862211207723]}, "properties": {"osm_id": null, "category": "restauracion", "name": "Mundotaberna", "extrude": false}}, {"type": "Feature", "geometry": {"type": "Point", "coordinates": [1953.7943801136328, -1773.8145011209267]}, "properties": {"osm_id": null, "category": "restauracion", "name": "Casa Toño", "extrude": false}}, {"type": "Feature", "geometry": {"type": "Point", "coordinates": [1922.5810894673473, -1840.04990112099]}, "properties": {"osm_id": null, "category": "finanzas", "name": "Banco Santander", "extrude": false}}, {"type": "Feature", "geometry": {"type": "Point", "coordinates": [1946.7493740743882, -1841.1631011209479]}, "properties": {"osm_id": null, "category": "restauracion", "name": "La Saranda", "extrude": false}}, {"type": "Feature", "geometry": {"type": "Point", "coordinates": [2030.1152788728102, -1842.3876211210202]}, "properties": {"osm_id": null, "category": "salud", "name": "", "extrude": false}}, {"type": "Feature", "geometry": {"type": "Point", "coordinates": [1835.8883762613593, -1860.0875011210223]}, "properties": {"osm_id": null, "category": "restauracion", "name": "Aynara", "extrude": false}}, {"type": "Feature", "geometry": {"type": "Point", "coordinates": [1903.6965593896527, -1865.2082211211448]}, "properties": {"osm_id": null, "category": "restauracion", "name": "Amaranto", "extrude": false}}, {"type": "Feature", "geometry": {"type": "Point", "coordinates": [1886.57328082203, -1871.9987411210063]}, "properties": {"osm_id": null, "category": "restauracion", "name": "Delegación", "extrude": false}}, {"type": "Feature", "geometry": {"type": "Point", "coordinates": [1958.5888981126643, -1873.8911811209744]}, "properties": {"osm_id": null, "category": "restauracion", "name": "Cappuccino", "extrude": false}}, {"type": "Feature", "geometry": {"type": "Point", "coordinates": [196.06537330769882, -1860.3101411208556]}, "properties": {"osm_id": null, "category": "restauracion", "name": "Bar Las Naves", "extrude": false}}, {"type": "Feature", "geometry": {"type": "Point", "coordinates": [1841.6613673213683, -1880.9043411210648]}, "properties": {"osm_id": null, "category": "restauracion", "name": "Planet Fun", "extrude": false}}]}