{"type": "FeatureCollection", "crs": {"type": "name", "properties": {"name": "EPSG:32628_local_enu_m_section_centroid", "lng0": -16.261948558349044, "lat0": 28.46939367487403}}, "features": [{"type": "Feature", "geometry": {"type": "Polygon", "coordinates": [[[-122.436760504, -108.668473023], [-121.81818356, -108.668473023], [-122.733691244, -98.485425499], [-122.0687593, -98.059949234], [-119.418867143, -96.364337785], [-119.094716874, -96.1569207], [-119.011517743, -96.324368286], [-115.2036466, -93.617058988], [-115.203646599, -93.617058988], [-115.122949539, -93.633451492], [-112.349336616, -94.196873023], [-112.140008708, -94.196873023], [-111.721179464, -94.315984229], [-108.323858899, -94.868079595], [-103.931582257, -95.530319802], [-103.849435913, -95.1565331], [-100.821343299, -95.58711402], [-100.912655912, -96.106483453], [-92.311532803, -97.577810208], [-92.215439178, -97.03124725], [-89.164370724, -97.609711222], [-89.266022471, -98.07225245], [-80.897936925, -99.324782439], [-80.507138712, -99.435921875], [-73.240152659, -100.49574975], [-73.238614666, -100.485869854], [-72.892204285, -100.54649505], [-72.546025289, -100.596982301], [-72.557981994, -100.671790606], [-65.311314721, -101.720968872], [-65.194612417, -101.004085007], [-58.872111989, -102.013522921], [-58.288991591, -102.676859348], [-56.625051106, -102.203649895], [-53.782355716, -102.682723414], [-53.49269745, -103.012228058], [-49.05053224, -103.624742555], [-49.04512182, -103.600123771], [-48.601094226, -103.686713978], [-44.704598806, -104.44657294], [-43.667599239, -105.963269348], [-42.934029147, -107.98986969], [-43.084427612, -108.731250116], [-43.165243858, -109.129629065], [-43.278780965, -109.689303589], [-44.507528631, -110.38819278], [-44.603120462, -110.370069152], [-48.287666663, -112.596753023], [-48.346256832, -112.596753023], [-51.778824237, -114.711833023], [-51.836316194, -114.711833023], [-51.852218225, -114.757056943], [-52.299857941, -115.032883664], [-52.381121851, -115.002069381], [-56.270352489, -117.384355937], [-56.282579019, -117.467806656], [-58.507559416, -118.848382811], [-58.630465162, -118.924644491], [-58.695737623, -118.965145343], [-58.703296227, -118.963425665], [-61.620104284, -120.622452723], [-62.512934715, -121.130278337], [-65.199166921, -122.658158069], [-65.223631491, -122.727733069], [-68.785369227, -124.753584328], [-68.701518875, -124.169350641], [-75.760864713, -128.410151935], [-76.707238168, -128.978672285], [-76.783164738, -129.024284089], [-77.17747089, -129.248558214], [-85.691141362, -134.146638214], [-85.886635073, -134.25783146], [-92.308452393, -137.964960259], [-92.309592938, -137.970150026], [-92.446002069, -138.044363696], [-93.129293972, -138.438808285], [-93.073431208, -138.184618541], [-104.960938837, -145.385067132], [-107.505484781, -146.943688401], [-112.01617039, -149.666361121], [-111.984796831, -149.724591216], [-112.328653321, -149.854977403], [-112.616176624, -150.028527927], [-112.646464376, -149.972313117], [-115.288202027, -151.600099497], [-118.092634029, -150.451620575], [-118.468738039, -146.921922754], [-118.50816472, -146.92652279], [-118.50816472, -146.551907372], [-118.542909804, -146.225828294], [-118.495295145, -146.220272941], [-119.092590749, -141.011067167], [-119.580456247, -137.459208362], [-119.679656057, -136.89497799], [-119.724455972, -136.410831926], [-120.269613783, -130.519391936], [-120.269613783, -130.298643424], [-120.659225468, -126.531375454], [-120.926062208, -123.900663295], [-120.954621752, -123.895687611], [-120.954621752, -123.61909809], [-121.066113334, -122.519915646], [-121.274142628, -118.615248181], [-121.346054877, -117.715396005], [-121.346054877, -117.640387103], [-121.784802721, -111.817513023], [-122.310931754, -111.817513023], [-122.436760504, -108.668473023]]]}, "properties": {"id": 0, "height_median_m": 9.0, "building_count": 57, "area_m2": 2439.4126828357153}}, {"type": "Feature", "geometry": {"type": "Polygon", "coordinates": [[[-135.86230663657648, 9.321049636148372], [-135.5736848070437, 9.430491513266007], [-136.1573240971633, 13.303397264630025], [-134.07960563574994, 14.298570525737876], [-131.06018051013172, 16.116987457295437], [-131.0671092826979, 16.129073065104457], [-130.76075711858363, 16.297312036393674], [-130.46039006694437, 16.478204924827548], [-130.42013868864964, 16.407995899030436], [-118.0401998592422, 23.584891732668193], [-118.0452968001473, 23.594340477579642], [-117.74183870976084, 23.7578576027051], [-115.18358930628003, 25.24092547066859], [-111.67220394816407, 27.098796864193325], [-111.3605506206053, 27.27605957527052], [-111.35551924949034, 27.266354503822093], [-107.4607538201307, 29.327072009228235], [-103.93018573336043, 31.229503882233598], [-103.95390998142813, 31.273099618103338], [-103.64982326758002, 31.439140219044695], [-101.74001538814262, 32.52540399936787], [-101.69086875861383, 32.55335770306597], [-98.75243698263854, 34.11326218742451], [-98.4409309161161, 34.2833539807414], [-98.4390035583786, 34.27965237148405], [-92.0864287719614, 37.65199879707574], [-92.0864287719614, 38.14161025848715], [-89.69865665726827, 39.318648538559486], [-86.77357193253478, 40.982383214150026], [-86.77357193253482, 40.982383214150104], [-86.29504625973469, 41.254559861980525], [-86.4305423414159, 41.51145216929258], [-80.18364215163378, 45.064574704645196], [-79.73629000875596, 44.42846041893244], [-77.20659810864045, 45.86730288893098], [-77.19722384415857, 45.84902205420872], [-73.00923596802768, 47.92037064649096], [-68.5310930315912, 50.289752759442024], [-68.93641445167493, 50.98137098401943], [-65.6322191330092, 52.65191840144526], [-65.33961123216605, 51.98619831905847], [-62.33293609269369, 53.53084253433761], [-62.33251005812933, 53.530060854771314], [-54.842155622421, 57.35347571720229], [-48.95155443603373, 54.282215050676314], [-50.973480647843836, 50.44876626331785], [-51.00061633153714, 50.43491498602166], [-50.99516437069445, 50.407655247207785], [-51.01128182957482, 50.37709752811824], [-50.67683034944428, 48.7860839627742], [-50.55371621616145, 48.20041976998279], [-49.803590217410424, 44.449798774446705], [-49.748541749603206, 44.180046246101476], [-49.74954585989746, 44.17957763517693], [-45.543725949121594, 23.150528532673626], [-46.15950014668754, 22.812796045828915], [-51.81830359655604, 19.59417217313316], [-49.24993639595775, 15.211651354480203], [-45.33086002641262, 13.874191993106828], [-44.25123975709873, 13.464813155341599], [-43.72944578364752, 9.78465602493585], [-43.72944578364752, 9.67524680724269], [-43.34217075980276, 7.142084902920135], [-41.91040142801077, -1.906406212218038], [-41.67442187654105, -1.7721853608608837], [-41.67442187654105, -2.335907119250788], [-41.62722814615563, -2.550650562221955], [-41.72815499178748, -2.6080559054439765], [-39.7172562508247, -13.47379882783054], [-39.7172562508247, -13.584879645712311], [-38.41519529000498, -20.567570766793214], [-38.41172468320104, -20.567044362085387], [-38.352840054470484, -20.901969356891108], [-38.28680478892968, -21.256103207951142], [-38.290480221151554, -21.256660679579074], [-36.39489073233319, -32.038426878723946], [-36.178937158913186, -33.389561736464906], [-37.2647843205152, -35.242391733850006], [-38.41860655895265, -35.95832589271347], [-42.25309644258568, -38.205404119540184], [-42.23380193962287, -38.23975863866455], [-42.51632726556343, -38.40045387445618], [-42.81847965613967, -38.629598876906314], [-42.8416120085163, -38.588247492084065], [-49.69930455326875, -42.65836580775241], [-49.66398305529527, -42.725333213695755], [-49.974255134775916, -42.8665148794973], [-50.27327279153709, -43.07060580641675], [-50.40279110477125, -42.82504698368614], [-53.3743764393573, -44.853267027592516], [-53.750733665617744, -45.110145153092915], [-53.8075546037937, -44.94855160296355], [-56.43834451300991, -46.74416580700016], [-56.47770049153419, -46.66954927184908], [-60.868355539653066, -49.34274143833106], [-62.42004322404916, -50.28746593098537], [-63.52134207512531, -50.9579771484206], [-63.641383485132366, -51.09453186393262], [-63.98725453211002, -51.22568194597302], [-65.83681239746637, -52.33304476162916], [-66.31658811034912, -52.55135487962977], [-66.78987091096629, -52.874388396949804], [-70.56926960361007, -55.12640564666911], [-70.56427042327383, -55.13285078257453], [-70.91221336135365, -55.3307543595015], [-71.23636941469647, -55.52390810778157], [-74.66948043211444, -57.70365590503491], [-74.49200244571506, -58.30933329402856], [-81.72510009806423, -62.537666170071304], [-81.72510009806425, -62.53766617007132], [-82.0230090742961, -62.711818155681556], [-82.2878662170476, -62.41052636200136], [-85.28393498827779, -64.22824273696091], [-86.08940374413098, -64.77800580664217], [-87.72838171521414, -61.670603526815206], [-93.72663416024615, -65.19602298277563], [-93.8905314469275, -64.90304025181342], [-100.29030711355256, -68.70137970649539], [-97.55057008827106, -71.81800429498584], [-99.31296284120812, -72.8204210484362], [-99.28993736309263, -72.86298457815954], [-99.53671439655427, -73.00334683967972], [-99.82961900223481, -73.33654440124218], [-99.90420405677318, -73.1986709043342], [-103.38626826635712, -75.35925390290002], [-103.86925680042751, -75.68891195255352], [-104.36547331698236, -76.02759860374786], [-112.99797743870386, -81.33266731796587], [-123.11255847157274, -79.64061183680646], [-125.7173793862192, -79.14675367709441], [-126.26900007584898, -74.44047733772123], [-126.27482787569124, -74.44424409445543], [-126.32850070680189, -73.93834946242795], [-127.09577574136306, -73.50193746069534], [-128.14360798312558, -64.91971302287038], [-127.26832002263933, -64.91971302287038], [-128.36231043346808, -55.959432110948626], [-128.391851130147, -55.976964849521664], [-128.391851130147, -55.32842268549197], [-129.02552570458698, -55.43140054398097], [-130.0979571135036, -47.50166880682471], [-129.45086812370334, -47.39651098432516], [-130.34901675586335, -40.24460384861612], [-130.34901675586335, -39.69028728912007], [-130.7368459680032, -36.896145260990124], [-131.54131507038977, -31.55786001156982], [-130.23170180290822, -29.8197971913427], [-121.86630871795313, -25.386129374212132], [-121.86966561902712, -25.380064399426914], [-121.54841367242913, -25.217644639752987], [-118.69141983004522, -23.70343466491046], [-115.76874526582216, -22.208778465703535], [-111.07975991715351, -19.708457455425467], [-114.28039157944798, -14.24707526304396], [-115.88856761300366, -15.031104781781611], [-115.92386280662832, -14.937420233329492], [-121.41528684758305, -17.82057856327335], [-121.8092523675264, -18.04465894329398], [-129.6977179482805, -22.020317712322186], [-131.99099283646018, -20.97681947289484], [-132.76095811218622, -13.218986894565782], [-132.89333206957272, -13.282390587266358], [-132.89333206957272, -12.800197439668096], [-133.00144320572946, -12.554230895048656], [-132.85851911926855, -12.48752927004362], [-133.19516392733433, -9.615368155063827], [-133.38238771172865, -8.018026207548596], [-133.48048175721812, -7.181114731965157], [-133.48048175721812, -7.095777372913397], [-133.54500049112633, -6.490275628501282], [-133.57834003860822, -6.300646382302517], [-133.57834003860822, -6.1773873720928645], [-134.56614714199955, 3.093081653185499], [-134.61044412054258, 3.0686062082675063], [-134.65311727732572, 3.602583848079918], [-135.00231616874808, 6.515646976929867], [-135.4923840496987, 6.515646976929867], [-135.86230663657648, 9.321049636148372]]]}, "properties": {"id": 1, "height_median_m": 12.0, "building_count": 216, "area_m2": 8557.678077591956}}, {"type": "Feature", "geometry": {"type": "Polygon", "coordinates": [[[-35.25451157156717, 1.0215501151875535], [-35.3239035198079, 1.5741143027011393], [-36.479646646592236, 6.833038678689038], [-37.92074124138812, 14.54756328605049], [-37.85011810032416, 14.574342719768149], [-38.790006652264026, 20.07299724655904], [-30.20129495778356, 24.95809932027955], [-39.003074516427546, 27.461244911094816], [-39.39196683834926, 27.608708136339597], [-39.60605995052818, 27.85225262587109], [-42.07346510646461, 38.742752324776845], [-42.765855001753856, 42.34338048117469], [-42.765855001753856, 42.44842962152626], [-43.34478842772115, 44.97296129844368], [-44.63065746004364, 51.032956900327775], [-44.638578053277804, 51.02995350798255], [-46.24186512088589, 59.41962073768823], [-46.3999289508431, 59.11994135585152], [-46.57564360498373, 60.11937416016699], [-46.60201804865545, 60.237241525309436], [-46.5977792987791, 60.245277936568414], [-46.913321521959205, 62.0400243709803], [-45.233951236346705, 62.99521946419266], [-45.23060072575877, 63.00284230066744], [-44.24294944785854, 63.51023660246398], [-44.32904215399228, 63.314364778362986], [-34.438268023007836, 68.83391102402805], [-31.42514982521578, 70.51538155566915], [-27.53944700772709, 72.68379791155911], [-27.929086517096472, 73.34865738382743], [-19.719362964556677, 77.76349572464092], [-19.807016158473395, 77.913062323635], [-13.966723788519557, 81.04688444356765], [-13.696539969068805, 80.43218199049119], [-13.01664456983697, 80.81889405364362], [-13.013651786923283, 80.8132822728771], [-6.180683214272661, 84.5400319394145], [-0.31192187314353714, 87.76680788063331], [-0.12546983950645205, 87.87285838626163], [0.759424796167032, 88.43209380712727], [6.835816662843514, 91.66525752048403], [16.801748801852046, 97.16449022605666], [19.949589084786425, 98.90147839679427], [25.025454200765584, 101.70235673567134], [25.625543826790647, 102.01852684107394], [25.927733233122765, 102.1844797567516], [25.93063661383441, 102.17927152729047], [35.03357605319596, 106.97535064147291], [34.73313008344461, 107.65890332422988], [39.63914422672249, 110.19567703795778], [39.94615922917287, 109.61359531736265], [45.78539031981793, 112.70579155500535], [50.846829921076235, 115.42761738402336], [50.451633320114794, 116.10195917296588], [56.650635444703845, 119.27525026638403], [58.360544024014416, 120.18297733433971], [58.813753752383256, 119.66742253066803], [69.73937416937684, 125.54880697715635], [70.2137418983311, 125.54880697715635], [70.56288870720974, 125.3502186598405], [70.88723499596402, 124.85826603339574], [75.47017208869526, 119.86673051706288], [81.93131636651896, 112.51676921047344], [82.12703817894274, 112.29412323844214], [82.32503523282338, 112.06888903538446], [82.32503524144045, 112.0688890251819], [82.41221650493706, 111.96971480993352], [82.40989861450339, 111.96841124944989], [87.12009094265608, 106.39156911859568], [88.78148215106351, 104.50163127293973], [90.64297422369867, 102.38406600659954], [90.81703654860495, 101.79004521254033], [90.92354927043516, 101.1842203364239], [90.92354927043516, 100.53734481354104], [90.69342592352704, 99.88289506571327], [90.22608264067645, 99.21724444313692], [78.31804743044954, 92.50014768896843], [74.02418522860063, 90.05787742828585], [68.66196291912333, 87.00794348490827], [68.95553776294126, 86.56266348485323], [53.08352876548976, 77.53495515803341], [56.10211266727843, 72.17063592533957], [71.31523131249597, 80.63947429348329], [73.44478403444512, 81.93147496107328], [75.92539027706103, 83.20585742851684], [77.40193776993883, 84.02782183645242], [78.07602248338475, 84.40307129172466], [80.4188459678097, 85.65056971521575], [80.72747732273204, 85.83781650769427], [80.73695110202623, 85.81995322023768], [85.02369006473333, 88.10254093264808], [96.48947175126241, 94.51162766209734], [97.56079965707737, 94.26788697703546], [98.33260725362129, 94.26788697703546], [99.85794405079263, 94.02000593066877], [107.76800647054677, 84.68437595500411], [108.16079390611712, 84.23755534103556], [108.43775363911601, 83.90280487958653], [115.33577086710676, 75.56543964186561], [115.89568365705753, 75.8839077927261], [117.73764874894523, 73.78855570471745], [117.42829041335813, 73.61259834350406], [120.05561676089151, 70.29176466133832], [120.08531709479084, 70.26924065264501], [120.08531709479084, 70.25422464683761], [121.17847367733292, 68.87251917176589], [121.85749513284722, 68.10008921048117], [124.11872035525549, 65.52780213899253], [123.6082152213584, 62.275703161103934], [123.6082152213584, 61.77003362000703], [117.07345139922535, 57.881632404410155], [116.68211187095162, 57.65904564080324], [110.52933478574928, 53.99281160295932], [110.04894060998616, 53.66492430155209], [109.47039802587001, 53.27004697713729], [109.04634547279319, 53.27004697713729], [106.51724002894213, 51.54383629144237], [100.54788487035316, 47.98159629131021], [99.59364650765501, 47.330292305063246], [99.58443523675686, 47.322433501517594], [99.5681510255492, 47.312890668558246], [99.5681510255491, 47.31289066855818], [90.64375419815329, 42.083037831308545], [90.67623377919988, 42.03247798100841], [90.17188498320404, 41.745613613320664], [89.6866719575594, 41.41443726330231], [85.27081416410833, 38.73533420069419], [85.27081416410815, 38.73533420069409], [83.78943554159034, 37.83658107273885], [83.2956426694645, 37.611892791922514], [82.72560794939328, 37.28766747239851], [77.15996487747795, 33.95541910223231], [76.6674421651689, 33.61925361320603], [73.78127410880268, 31.9776540290135], [73.82962761295809, 31.89383661645108], [73.62252736644723, 31.77604178509525], [73.91610221039075, 31.219441785084992], [69.81363207121227, 28.886031827974676], [69.7754065480701, 28.944010436514464], [66.57495788081151, 27.4877251203829], [66.27594022389293, 27.283634193356022], [66.23663104429838, 27.358162000590386], [60.42718401417943, 23.82597156447944], [58.061287419317864, 22.21115712561725], [56.682691624438036, 21.58386107270161], [53.746943185762966, 19.802741072787132], [53.266231625403, 19.584005120603734], [52.79726329777417, 19.263916394634542], [50.315797387556636, 17.683134496274594], [49.73389903154235, 17.462485737342938], [49.27035470979561, 17.146099102349407], [43.69243267655216, 13.806499102525478], [43.21895291361735, 13.483331150547576], [41.32639858108233, 12.048064113380256], [39.752354339801315, 11.451205737453328], [39.29000518851572, 11.135634851545202], [35.46585172721408, 8.802909768996424], [32.51868271030432, 7.0051432416259445], [32.22602247952514, 6.826621153558191], [32.22464667727519, 6.828968747003086], [25.295161924980643, 2.674557890233481], [23.823970268496346, 1.6704136124589968], [18.981528318402102, -1.083878770678466], [19.03021878059068, -1.167504527257136], [18.731152714119823, -1.3376078345090645], [14.769473099393482, -3.8848514405931693], [14.449524983861856, -4.006171863671057], [14.171530149237688, -4.322408614690967], [14.09776095188589, -4.182546715405097], [3.6114624574738716, -10.445182180326592], [3.6687802472390647, -10.553853214186367], [2.8608213897059516, -10.921494986510666], [-11.435406073956365, -19.617610427666555], [-11.401395071588135, -19.68209321399003], [-11.711667150985578, -19.82327487960324], [-12.01068480795101, -20.027365806517086], [-12.0499199643446, -19.95297834275744], [-27.425190812027356, -29.281162614705476], [-28.552591945569347, -28.639917475535686], [-29.97352490594902, -28.293545759566896], [-35.21174014506595, 1.0507432410211655], [-35.25451157156717, 1.0215501151875535]]]}, "properties": {"id": 2, "height_median_m": 9.0, "building_count": 319, "area_m2": 12073.31718224486}}, {"type": "Feature", "geometry": {"type": "Polygon", "coordinates": [[[-84.29192322167992, -76.08596160048141], [-84.2110596690172, -75.99397418190227], [-83.58144448332398, -75.75523178317943], [-82.60286614394072, -75.08731483660063], [-82.60286614318584, -75.08731483631439], [-81.64855953900211, -74.43596427219445], [-78.21542251923334, -72.4274671609271], [-75.28444410367884, -70.64924113595575], [-71.34309347778131, -68.17149741796669], [-71.3752910251608, -68.110452831708], [-70.88599961890546, -67.8878128318746], [-71.15745937885185, -67.37314168203528], [-68.84080387995765, -65.9090625014181], [-68.44693972536382, -66.46911931418103], [-63.848920415447665, -63.64462851448048], [-63.555034995071615, -63.421752980833546], [-56.760658100596636, -59.26883890094486], [-56.79440711298293, -59.20485283164963], [-56.484135033673965, -59.06367116607668], [-56.185117376721614, -58.859580238930064], [-56.14515531825753, -58.935345864685125], [-42.89405432739334, -50.72340828747784], [-36.518929228792466, -46.75741115831913], [-33.50424626146669, -47.26546938528227], [-31.593826697180724, -57.6969416621393], [-31.585498502463174, -57.691955425524085], [-31.502326136033556, -58.19656257514033], [-31.45917265937405, -58.43219369190596], [-31.55934962197586, -58.49217140086538], [-31.014438119640335, -60.97165694206954], [-30.524437175757992, -63.758692660390466], [-29.993184667662284, -66.47819302289048], [-29.398798598074908, -66.47819302289048], [-28.4107256958581, -72.28550351194178], [-27.52185196283365, -76.66715452348664], [-28.013544534841113, -76.77902081918178], [-27.834657701519326, -77.69474883930683], [-27.942301810865043, -77.75597483926545], [-25.903207684918222, -88.19416972929956], [-25.89347559380539, -88.19106988549332], [-25.827019317274097, -88.58418067355294], [-25.768100754733346, -88.88578687710202], [-25.775626848533488, -88.88818407159815], [-25.30921277564354, -91.64717710169249], [-25.517076489619754, -91.88363525663772], [-27.144913303702907, -93.7354028511207], [-27.341107637427356, -94.18176984185878], [-30.14746225118031, -93.66686559679765], [-30.35584387404349, -93.63039678000379], [-30.35643174771963, -93.62852429797209], [-36.2128014762646, -92.55400947397317], [-48.32878500446337, -90.5693007433125], [-48.32878500446337, -90.61686268531169], [-48.70703876549875, -90.55539302279644], [-49.02878500446337, -90.55539302279644], [-49.02878500446337, -90.50310634448138], [-55.61382020764985, -89.43297847454859], [-55.6227137962113, -89.4977274084416], [-55.949799197189776, -89.44219302283858], [-56.321658254064154, -89.44219302283858], [-56.31318379971822, -89.38049555612608], [-62.52759670718085, -88.32537783559476], [-75.49559334601001, -86.72190843806347], [-75.49054092502175, -86.73915078576269], [-75.91418538202973, -86.67370452951099], [-76.19272777943932, -86.83213434899606], [-76.25244891554293, -86.62832461182592], [-77.07206994072169, -86.5269799501908], [-77.02761882243725, -86.50169696738027], [-92.10760095822052, -84.17208221896618], [-92.93825732311787, -81.33730936207948], [-92.00383767152908, -80.88175438914215], [-84.29192322167992, -76.08596160048141]]]}, "properties": {"id": 3, "height_median_m": 9.0, "building_count": 50, "area_m2": 1697.143049311134}}, {"type": "Feature", "geometry": {"type": "Polygon", "coordinates": [[[-19.8963187712, -37.6283527457], [-19.8951507085, -37.6301895407], [-13.2224442296, -33.5676005894], [-12.7414832975, -33.3487511662], [-12.2699667355, -33.0269231739], [-2.0851567502, -26.7883793182], [4.2680828024, -22.8968031738], [4.7502427343, -22.5677106766], [5.2470551176, -22.2286173238], [5.2470551203, -22.2286173221], [5.2470551255, -22.2286173185], [12.1949930911, -17.9984573223], [12.6767585684, -17.6696340554], [13.1752043663, -17.3294258349], [17.6800750919, -14.6557339582], [19.7510747827, -13.3095091197], [20.2367574973, -13.0885111662], [20.7066982072, -12.7677587527], [23.5567091787, -10.9790314728], [23.5567091802, -10.9790314719], [23.5700961008, -10.9706295568], [24.0123362258, -10.7693990835], [24.3677825304, -10.3650563723], [24.441236074, -10.4799487094], [33.7836845646, -4.7745907631], [34.0488458185, -4.4729530228], [35.0388463497, -4.4729530228], [35.4915962643, -4.6017109569], [35.8804885865, -4.7491741823], [36.0357824401, -4.9258307877], [36.347934973, -5.2809240865], [39.60429213, -10.4669619319], [39.608443231, -10.4644322137], [41.199157422, -13.0782096958], [41.2740343148, -13.0356210891], [41.4368416695, -13.2962781333], [41.7486833061, -13.6510177683], [44.0957019426, -17.5531537584], [46.0005960605, -20.6029181335], [46.0378909698, -20.6453434577], [48.2508715011, -24.3070244401], [48.3157242477, -24.2669756367], [48.4835883125, -24.5406792621], [49.9100974104, -26.1634238136], [51.8183338971, -29.7813238157], [52.0747420036, -30.0730042952], [51.9758456905, -30.1292547087], [55.8400928556, -36.1735157007], [55.8441070257, -36.1708812547], [56.032155457, -36.4739303585], [56.2171748967, -36.7633284571], [56.2133079309, -36.7658662949], [59.6216057903, -42.2585024452], [59.2913740851, -44.888118974], [53.5411126822, -48.3355539934], [53.84144916, -48.9049736392], [51.5152072468, -50.5221249991], [51.2879914327, -50.1344164051], [45.7714528066, -53.7950736862], [45.4150932874, -54.0315462567], [43.4074930854, -55.2772403632], [42.4727883047, -53.9481329188], [38.5468185824, -58.414172433], [35.7478140687, -60.1830863852], [35.5505605185, -60.1485650897], [29.9844955136, -63.6159530228], [29.9844955135, -63.6159530228], [29.6388103679, -63.8312980648], [29.1113250482, -63.2312500663], [28.4494909158, -63.7959087847], [28.4058791952, -63.7260022383], [23.6335458717, -66.6764542825], [23.1507785872, -67.0059613209], [22.8611919547, -67.2036152149], [16.8968423271, -71.3412362241], [16.736073543, -71.4522733548], [16.5792168557, -71.5606085431], [16.5741889547, -71.5520292088], [7.2910562697, -77.4380156012], [7.1987994428, -77.2980849472], [4.3370909807, -78.6002348795], [3.8657583299, -78.9219373454], [-1.0271557344, -81.9275773457], [-1.5094975131, -82.2567939602], [-2.0048334028, -82.5948795501], [-2.0048334073, -82.5948795529], [-5.5465954312, -85.0122668794], [-6.6230365238, -85.5020748794], [-6.8831946401, -85.6796426914], [-6.9321023976, -85.6100980973], [-14.4939875397, -90.3761396819], [-17.479584171, -89.1182487635], [-20.2530883294, -73.5684243207], [-20.3497396832, -73.0186891035], [-20.4477726777, -72.5726141129], [-25.3470809324, -43.9259867987], [-25.3470809324, -42.4869086062], [-25.2287393034, -42.2176663931], [-25.1346288563, -41.8964965904], [-24.9133205206, -41.2671159282], [-24.5749436566, -40.8821907894], [-24.1706346785, -40.4222636903], [-23.6428906172, -39.9419898239], [-23.2077314805, -39.6732640781], [-20.1807949971, -37.8040266073], [-19.8963187712, -37.6283527457]]]}, "properties": {"id": 4, "height_median_m": 9.0, "building_count": 110, "area_m2": 3823.0874162061077}}, {"type": "Feature", "geometry": {"type": "Polygon", "coordinates": [[[43.305499037873815, 0.8659788786405433], [43.83872393949746, 1.1692674467177788], [43.83872393949746, 1.2758778812710392], [48.11035905868228, 3.821202351126193], [48.91467672814623, 4.370179760554088], [49.386630860634405, 3.475383508194293], [50.63747719001803, 1.3957355646355605], [50.80165394185932, 1.2089740992374454], [50.80165394185932, -3.3088471655372658], [55.65969674649213, -0.4503997184789713], [58.978703493083245, -5.891677681116266], [59.66584795081012, -5.445008885992311], [62.401624739224275, -10.002041110365512], [63.378359585434374, -9.33538241801298], [65.14994513235061, -12.24635815236548], [72.38506770409664, -7.863931679779842], [74.62995757909867, -6.478871569860631], [78.16720553007997, -4.2964477947107635], [83.51628219419905, -0.996155519855031], [79.94885898662615, 4.778932703724081], [68.46189584553314, -2.171678435846842], [67.13188400476531, -0.12471523220943556], [66.29192488239876, 1.1680292106154502], [66.27412690521268, 1.1579060468217195], [65.66157985759497, 2.138165740095051], [65.66157985759473, 2.138165740095429], [60.530077084876396, 10.350115097421218], [60.049259333421126, 11.079396004497994], [62.575762429544895, 12.803830487636949], [62.43724989743793, 12.961397276041074], [68.71615550949689, 16.72068846990283], [68.81237729476074, 16.501771705507387], [70.04246417954164, 17.255241921305878], [70.06986138114081, 17.210051142965536], [75.6318645187011, 20.644779533541755], [76.11383611362677, 20.86408883380021], [76.5868149026279, 21.186914851855647], [80.25615385087623, 23.383812599351888], [80.17456887778194, 23.519931116808603], [80.48442774130908, 23.637425818165195], [80.74356640497055, 23.932212479637904], [80.83848607861708, 23.773845996642237], [108.80610000972757, 40.804888854632935], [108.79201130507225, 40.82965753763836], [112.0106656544143, 42.782416691036765], [112.58146209441284, 43.172006977111046], [112.61983856340521, 43.172006977111046], [115.14328174208025, 44.67564235120477], [115.62367591784329, 45.00352965261196], [116.11995233101767, 45.34225718552791], [121.98780289784898, 48.94466625016387], [121.83451325815567, 49.18328697696257], [122.46051177472953, 49.18328697696257], [125.81888310507209, 51.59614613720761], [125.80741275796187, 51.614165145180294], [126.0964928159179, 51.79559791543573], [126.28996602884486, 51.934600892818], [126.38826850381837, 52.00522739712132], [126.40032416429348, 51.98628890815235], [130.21028417714783, 54.3775005489075], [130.27563459548026, 54.4518407935235], [131.22999644846894, 54.99466435467101], [134.70807572719204, 54.155399202225986], [138.67887846083826, 49.31571360371399], [138.68167328554367, 49.31783313059117], [138.89369636081466, 49.05388969390126], [139.12321041709393, 48.774153845172535], [139.12022439239675, 48.77188931688589], [143.52734324819684, 43.285552062254226], [144.5634021062381, 42.04804028408526], [145.0714294416648, 41.47012697726762], [145.07142944095418, 41.47012697726762], [152.87701374388007, 32.590779893386866], [152.94985390443068, 32.636813394115364], [153.10362757672306, 32.33299228931638], [155.61704561998988, 29.473819893383123], [155.6704162973711, 29.507549076548155], [155.8364584048368, 29.22422393801492], [156.5747635398056, 28.38435503226981], [157.17972937199372, 27.696168038825068], [157.1853961202248, 27.69021762150369], [157.18975515770734, 27.68476307181378], [158.43321051330398, 26.270253759237633], [158.8587171201226, 25.94755992918923], [158.75943224485647, 25.899155854380222], [162.67189873397706, 21.4484771395438], [162.4538662157573, 19.836309343805745], [162.3281626183199, 19.12133028059354], [158.5461774826005, 16.706033213019015], [156.69139717391874, 15.521510989955896], [156.61863864837315, 15.475045060798339], [155.54174492893185, 14.806844211889715], [148.20534931869307, 10.244576407714224], [143.99171866673885, 7.457790334462433], [141.8335478510775, 6.2302622600185975], [135.47808232861695, 2.3373226329942804], [133.23245176072965, 0.9518055279078741], [129.69672620597856, -1.2296789535790267], [129.45340248949148, -1.3798056823860798], [129.45231548696063, -1.3785691480821856], [124.22477929922714, -4.564276585643565], [121.48704804057812, -6.2721420478779235], [121.63176680005176, -6.508793023012094], [118.3759041968152, -6.508793023012094], [118.79226167828777, -7.929692133538306], [118.49996737527199, -8.040526567803456], [118.0684316396365, -8.2368862728465], [113.32949918397567, -11.032134650267073], [113.33402609150808, -11.037284294610679], [112.96281967510443, -11.248419712735371], [112.60767154972848, -11.457903015249043], [107.79276298466965, -14.418586149389283], [107.90361069012891, -14.544682443020454], [107.46876134257603, -14.709572011857576], [107.24699442757448, -14.857968439907854], [107.19978034311237, -14.80425942506452], [101.82998129087005, -18.136161377000125], [101.54634940739791, -18.351260878643025], [100.45270568246725, -19.142953931592736], [96.72870914831533, -21.31275700463074], [96.73056740089201, -21.31592782483265], [96.10676271687326, -21.670736514823897], [96.44599446953909, -22.185266685625383], [91.51554491995093, -25.244557045989637], [91.22980195274111, -24.702805806627612], [90.76248313981375, -25.02176867567792], [90.75028048778685, -25.00210351423434], [85.0508451240888, -28.604030801997112], [85.27897585286608, -28.99330055560557], [81.30252767430326, -31.319652412160867], [81.16969530716341, -31.16854717185666], [78.66860755433297, -32.59112012621576], [78.41644597613008, -32.73454501839477], [78.0450752840706, -32.945773873506944], [77.67610356689791, -33.225593022791635], [77.5629342911247, -33.225593022791635], [72.95636133696652, -36.17324423995173], [72.46422960316461, -36.50914287190867], [71.69650408032487, -36.97940096707695], [71.69650408032459, -36.97940096707713], [67.08810273032641, -39.8022041384567], [66.50279847026805, -38.96992825205908], [61.21845128037749, -30.62092825211543], [60.8261205126488, -30.063051844843216], [58.47400244760152, -26.27250030127056], [54.35728814269717, -19.91696833185353], [52.624709982303195, -16.63210580754062], [52.38006428078521, -16.799085806297228], [52.20506912419958, -16.467305661755613], [52.02488026777552, -16.19400399545828], [52.07272042983142, -16.161351264790856], [48.203977745573205, -10.139012161436165], [47.82766810958907, -9.603917071204894], [47.65519690954005, -9.407720145730156], [47.65519690954005, -9.296400144824743], [47.267715173191014, -8.855615101712113], [47.33438910395883, -8.816175273260045], [42.53579151392718, -1.882139479244827], [43.06914646218856, 0.05938075297152129], [43.305499037873815, 0.8659788786405433]]]}, "properties": {"id": 5, "height_median_m": 9.0, "building_count": 121, "area_m2": 4833.736219182043}}]}