{"type": "FeatureCollection", "crs": {"type": "name", "properties": {"name": "EPSG:32628_local_enu_m_section_centroid", "lng0": -15.448336472878063, "lat0": 28.089795189134303}}, "features": [{"type": "Feature", "geometry": {"type": "Polygon", "coordinates": [[[472.42547672919306, 201.84421443062917], [475.5681231257062, 211.86301443064536], [457.8907371457992, 216.6497744308201], [456.2212062477279, 205.85173443079384], [472.42547672919306, 201.84421443062917]]]}, "properties": {"name": "", "kind": "water", "category": "agua", "extrude": false}}, {"type": "Feature", "geometry": {"type": "Polygon", "coordinates": [[[1.6177634650572537, 356.5790144307036], [12.911648952297604, 362.1450144304929], [2.796255863706091, 382.6278944305875], [-8.497629623359806, 377.06189443079825], [1.6177634650572537, 356.5790144307036]]]}, "properties": {"name": "", "kind": "water", "category": "agua", "extrude": false}}, {"type": "Feature", "geometry": {"type": "Polygon", "coordinates": [[[-404.7656986723024, 349.2318944306653], [-442.37924772942495, 338.4338544306391], [-440.41509373173506, 332.5338944305065], [-428.8265851448761, 332.75653443073537], [-421.4610076533645, 327.63581443061287], [-414.5864686611009, 318.2849344304923], [-402.50692157481944, 315.6132544305143], [-399.8553136779032, 317.2830544306488], [-404.7656986723024, 349.2318944306653]]]}, "properties": {"name": "", "kind": "water", "category": "agua", "extrude": false}}, {"type": "Feature", "geometry": {"type": "Polygon", "coordinates": [[[191.84607814851265, 95.42229443078227], [199.21165564019873, 101.21093443080042], [187.3285239537212, 117.35233443078258], [181.53426966029173, 110.45049443080657], [191.84607814851265, 95.42229443078227]]]}, "properties": {"name": "", "kind": "water", "category": "agua", "extrude": false}}, {"type": "Feature", "geometry": {"type": "Polygon", "coordinates": [[[219.04961101759955, 94.08645443059555], [222.68329591353523, 89.8562944305975], [231.42378120349957, 87.18461443061955], [237.21803549692905, 89.29969443081632], [240.45888959325694, 94.08645443059555], [239.3786048944228, 99.31849443083252], [235.64671229867244, 102.76941443082052], [226.90622700870807, 106.4429744306419], [221.8976343143197, 105.44109443079847], [218.26394941855847, 100.43169443079037], [219.04961101759955, 94.08645443059555]]]}, "properties": {"name": "", "kind": "water", "category": "agua", "extrude": false}}, {"type": "Feature", "geometry": {"type": "Polygon", "coordinates": [[[777.6550079818588, 22.173734430628684], [775.5926462841798, 23.064294430753165], [773.235661486882, 23.398254430700973], [770.9768843893991, 22.8416544305243], [769.0127303917092, 21.6171344308475], [767.5396148932673, 19.83601443059854], [766.7539532942262, 17.609614430682825], [766.655745594237, 15.27189443065268], [767.3431994934633, 12.934174430622534], [768.8163149919053, 11.041734430654628], [770.7804689895952, 9.705894430467907], [773.1374537868928, 9.03797443057229], [775.4944385841906, 9.260614430801155], [777.6550079818588, 10.26249443064458], [779.4227465797449, 11.932294430779109], [779.4227465797449, 20.615254430608587], [777.6550079818588, 22.173734430628684]]]}, "properties": {"name": "", "kind": "water", "category": "agua", "extrude": false}}, {"type": "Feature", "geometry": {"type": "Polygon", "coordinates": [[[559.1428757304824, -16.009025569468207], [560.8124066285537, -20.6844655695285], [563.955053025067, -24.46934556946431], [568.1779841202398, -27.02970556932783], [570.8295920171561, -27.697625569223447], [575.7399770115553, -27.697625569223447], [580.3557389063359, -25.916505569369974], [584.1858392020755, -22.79954556932978], [586.5428239993732, -18.458065569217297], [587.2302778985995, -15.563745569405967], [587.0338624987955, -10.6656655695123], [585.1679162009204, -6.101545569170952], [581.8288544047778, -2.4279855693495733], [575.6417693117405, 0.2436944306283806], [570.7313843173414, 0.2436944306283806], [566.1156224225606, -1.4261055695061486], [562.2855221269956, -4.543065569150855], [559.2410834304715, -11.110945569179052], [559.1428757304824, -16.009025569468207]]]}, "properties": {"name": "", "kind": "water", "category": "agua", "extrude": false}}, {"type": "Feature", "geometry": {"type": "Polygon", "coordinates": [[[-257.84697963958433, -253.3432655694213], [-251.56168684673236, -254.67910556921254], [-245.17818635389128, -253.8998655692025], [-239.58034746026567, -251.00554556939116], [-235.8484548645153, -247.10934556934092], [-233.00043156779515, -241.4320255694372], [-232.31297766856875, -235.08678556924238], [-233.88430086682533, -228.852865569162], [-237.41977806277188, -223.62082556932052], [-244.58894015465407, -218.94538556926022], [-250.87423294750602, -217.9435055694168], [-257.15952574035794, -219.05670556937466], [-262.6591569339944, -222.39630556924823], [-265.507180230889, -225.51326556928842], [-268.35520352760915, -231.19058556919214], [-269.0426574268355, -237.53582556938696], [-267.5695419283936, -243.76974556946735], [-263.9358570326324, -249.00178556930882], [-257.84697963958433, -253.3432655694213]]]}, "properties": {"name": "", "kind": "water", "category": "agua", "extrude": false}}, {"type": "Feature", "geometry": {"type": "Polygon", "coordinates": [[[-230.2506159708897, -307.2221455694381], [-225.24202327667575, -310.7843855695405], [-219.25135358344238, -312.34286556916516], [-211.7875683919416, -311.34098556932173], [-206.48435259793462, -308.22402556928154], [-202.55604460255478, -303.54858556922125], [-200.39547520488654, -297.75994556920307], [-200.39547520488654, -291.63734556923714], [-201.57396760353535, -287.6298255694679], [-204.91302939985243, -282.5091055693454], [-209.92162209406638, -278.835545569524], [-215.8140840873106, -277.05442556927505], [-223.67070007841915, -277.9449855693996], [-229.07212357224086, -280.9506255693253], [-233.09863926778428, -285.6260655693856], [-235.2592086652781, -291.30338556928933], [-235.35741636509277, -297.4259855692553], [-233.88430086682533, -302.21274556943], [-230.2506159708897, -307.2221455694381]]]}, "properties": {"name": "", "kind": "water", "category": "agua", "extrude": false}}]}