{"type": "FeatureCollection", "crs": {"type": "name", "properties": {"name": "EPSG:32628_local_enu_m_section_centroid", "lng0": -15.416191606016497, "lat0": 28.10400553129549}}, "features": [{"type": "Feature", "geometry": {"type": "LineString", "coordinates": [[-57.38439008402342, 346.37566381373915], [-51.62751213919906, 356.83974381381756]]}, "properties": {"osm_id": null, "type": "pedestrian", "width_m": 4, "extrude": false}}, {"type": "Feature", "geometry": {"type": "LineString", "coordinates": [[92.0456956096253, 356.83974381381756], [93.93363784879695, 355.94918381369314]]}, "properties": {"osm_id": null, "type": "pedestrian", "width_m": 4, "extrude": false}}, {"type": "Feature", "geometry": {"type": "LineString", "coordinates": [[-88.06844099326368, 356.83974381381756], [-84.48612643012731, 351.38506381374725]]}, "properties": {"osm_id": null, "type": "service", "width_m": 3.5, "extrude": false}}, {"type": "Feature", "geometry": {"type": "LineString", "coordinates": [[198.3465190192999, 356.83974381381756], [193.3066711179608, 336.2455438136085]]}, "properties": {"osm_id": null, "type": "pedestrian", "width_m": 4, "extrude": false}}, {"type": "Feature", "geometry": {"type": "LineString", "coordinates": [[295.1534289682195, 290.4001737640813], [295.33096120370516, 285.4836238136319], [296.0183240820584, 262.44038381367375]]}, "properties": {"osm_id": null, "type": "pedestrian", "width_m": 4, "extrude": false}}, {"type": "Feature", "geometry": {"type": "LineString", "coordinates": [[181.71969688296156, 354.94730381384966], [183.29081203350836, 355.72654381385973], [184.665537790215, 355.94918381369314], [186.13845824375454, 355.6152238137453], [187.5131840004612, 355.0586238139641], [188.59332566649482, 353.9454238136108], [189.08429915100797, 353.05486381388175], [189.57527263552117, 350.6058238137372], [187.9059627881415, 346.37566381373915], [191.34277717973367, 344.70586381360465], [191.04819308906067, 344.14926381382344], [190.85180369522053, 343.59266381364677], [186.04026354692166, 346.04170381379134], [187.31679460662104, 348.71338381376927], [180.3449711262549, 352.16430381375733], [181.71969688296156, 354.94730381384966]]}, "properties": {"osm_id": null, "type": "pedestrian", "width_m": 4, "extrude": false}}, {"type": "Feature", "geometry": {"type": "LineString", "coordinates": [[-71.27324501961726, 356.83974381381756], [-57.38439008402342, 346.37566381373915], [-10.054546175174487, 311.4211838137969], [30.205279556475464, 280.58554381373824], [34.91862500794146, 276.80066381380243], [39.239191671901565, 273.2384238137]]}, "properties": {"osm_id": null, "type": "residential", "width_m": 5, "extrude": false}}, {"type": "Feature", "geometry": {"type": "LineString", "coordinates": [[-91.49987149276186, 356.83974381381756], [-84.48612643012731, 351.38506381374725], [21.760535622569822, 268.7856238138686], [26.473881074035813, 265.11206381365173], [31.089031828668944, 261.66114381366367], [47.97851969648023, 249.08198381378398], [58.387157568612984, 241.40090381379792]]}, "properties": {"osm_id": null, "type": "secondary", "width_m": 9, "extrude": false}}, {"type": "Feature", "geometry": {"type": "LineString", "coordinates": [[-287.94671783941, 308.4851905378329], [-268.4047937357037, 293.94394381362804], [-256.9160141977118, 284.14778381384065], [-254.1665626842985, 281.69874381369607], [-252.1044740492385, 278.47046381393693], [-250.72974829253184, 275.13086381366793], [-250.5333588986917, 268.89694381358754]]}, "properties": {"osm_id": null, "type": "residential", "width_m": 5, "extrude": false}}, {"type": "Feature", "geometry": {"type": "LineString", "coordinates": [[-296.79525104614385, 290.4161547423978], [-258.4871293482586, 270.34410381388864]]}, "properties": {"osm_id": null, "type": "residential", "width_m": 5, "extrude": false}}, {"type": "Feature", "geometry": {"type": "LineString", "coordinates": [[-151.356715023368, 278.3591438138225], [-149.09823699446784, 281.25346381363386]]}, "properties": {"osm_id": null, "type": "footway", "width_m": 2, "extrude": false}}, {"type": "Feature", "geometry": {"type": "LineString", "coordinates": [[-256.8955049725329, 341.26688848125525], [-213.2193740742952, 311.75514381374467], [-201.8287892331361, 305.5212238136643], [-151.356715023368, 278.3591438138225], [-138.19862563782192, 267.6724238139107], [-128.37915594720963, 254.09138381379208], [-122.58566882970999, 237.8386638136955], [-119.05065974111051, 228.04250381390816], [-118.7560756504375, 217.68974381394415]]}, "properties": {"osm_id": null, "type": "footway", "width_m": 2, "extrude": false}}, {"type": "Feature", "geometry": {"type": "LineString", "coordinates": [[-227.85038391338077, 272.01390381362773], [-222.5478702803943, 282.5893038138206], [-225.10093239996746, 284.03646381372624]]}, "properties": {"osm_id": null, "type": "footway", "width_m": 2, "extrude": false}}, {"type": "Feature", "geometry": {"type": "LineString", "coordinates": [[-246.90015511325933, 266.5592238139528], [-243.36514602465985, 269.67618381359756]]}, "properties": {"osm_id": null, "type": "footway", "width_m": 2, "extrude": false}}, {"type": "Feature", "geometry": {"type": "LineString", "coordinates": [[-231.97456118350073, 263.5535838136316], [-227.85038391338077, 272.01390381362773]]}, "properties": {"osm_id": null, "type": "footway", "width_m": 2, "extrude": false}}, {"type": "Feature", "geometry": {"type": "LineString", "coordinates": [[-224.80634830929446, 272.79314381363776], [-202.22156802081642, 261.77246381377813]]}, "properties": {"osm_id": null, "type": "footway", "width_m": 2, "extrude": false}}, {"type": "Feature", "geometry": {"type": "LineString", "coordinates": [[-160.48882183562696, 278.8044238138848], [-146.54517487489468, 270.6780638138365], [-137.41306806263572, 260.10266381364363], [-137.80584685031604, 251.6423438136475]]}, "properties": {"osm_id": null, "type": "service", "width_m": 3.5, "extrude": false}}, {"type": "Feature", "geometry": {"type": "LineString", "coordinates": [[-303.4456131911534, 266.43785065775035], [-293.0516626592418, 259.32342381363355], [-273.80550206552306, 252.75554381360536]]}, "properties": {"osm_id": null, "type": "pedestrian", "width_m": 4, "extrude": false}}, {"type": "Feature", "geometry": {"type": "LineString", "coordinates": [[-127.69179306885628, 213.01430381388386], [-128.18276655336948, 222.92178381378562], [-130.24485518842943, 235.27830381383197], [-135.8419529120889, 248.30274381377393], [-137.80584685031604, 251.6423438136475], [-141.4390506357484, 256.76306381377003], [-151.356715023368, 266.1139438138906], [-157.34659153470776, 270.34410381388864], [-183.26999151794513, 284.14778381384065], [-203.8908778681961, 295.27978381381473], [-218.91466649496195, 303.0721838139152]]}, "properties": {"osm_id": null, "type": "tertiary", "width_m": 7, "extrude": false}}, {"type": "Feature", "geometry": {"type": "LineString", "coordinates": [[-304.9177936489075, 252.6736616745876], [-299.9252914426006, 243.40466381388026]]}, "properties": {"osm_id": null, "type": "pedestrian", "width_m": 4, "extrude": false}}, {"type": "Feature", "geometry": {"type": "LineString", "coordinates": [[94.3798345516534, 356.83974381381756], [93.93363784879695, 355.94918381369314], [79.00804391886392, 325.89278381364454], [49.15685605934672, 266.00262381377615]]}, "properties": {"osm_id": null, "type": "residential", "width_m": 5, "extrude": false}}, {"type": "Feature", "geometry": {"type": "LineString", "coordinates": [[93.93363784879695, 355.94918381369314], [101.39643481367624, 352.27562381387173]]}, "properties": {"osm_id": null, "type": "pedestrian", "width_m": 4, "extrude": false}}, {"type": "Feature", "geometry": {"type": "LineString", "coordinates": [[-10.054546175174487, 311.4211838137969], [19.612114737122052, 356.83974381381756]]}, "properties": {"osm_id": null, "type": "residential", "width_m": 5, "extrude": false}}, {"type": "Feature", "geometry": {"type": "LineString", "coordinates": [[-105.91890829197307, 356.83974381381756], [-2.9845279978010684, 280.6968638138527], [-2.198970422614879, 281.81006381381053], [-58.85731053756294, 325.2248638137489], [-100.5920883372731, 356.83974381381756]]}, "properties": {"osm_id": null, "type": "pedestrian", "width_m": 4, "extrude": false}}, {"type": "Feature", "geometry": {"type": "LineString", "coordinates": [[103.7658933072033, 356.83974381381756], [101.39643481367624, 352.27562381387173], [85.97986739923005, 322.55318381377094], [61.62758256653946, 274.2403038139389], [54.45936969233318, 260.88190381365365]]}, "properties": {"osm_id": null, "type": "pedestrian", "width_m": 4, "extrude": false}}, {"type": "Feature", "geometry": {"type": "LineString", "coordinates": [[-62.58870902000259, 302.29294381390514], [-88.61030370024727, 264.5554638138705]]}, "properties": {"osm_id": null, "type": "residential", "width_m": 5, "extrude": false}}, {"type": "Feature", "geometry": {"type": "LineString", "coordinates": [[-44.913663576830686, 288.823223813901], [-55.5186908428036, 272.01390381362773]]}, "properties": {"osm_id": null, "type": "residential", "width_m": 5, "extrude": false}}, {"type": "Feature", "geometry": {"type": "LineString", "coordinates": [[39.239191671901565, 273.2384238137], [49.15685605934672, 266.00262381377615]]}, "properties": {"osm_id": null, "type": "residential", "width_m": 5, "extrude": false}}, {"type": "Feature", "geometry": {"type": "LineString", "coordinates": [[34.91862500794146, 227.04062381366924], [24.21540304513568, 234.3877438137075], [20.287615169030307, 237.2820638139143], [12.235650022630544, 243.62730381371364], [-16.04442268633984, 266.00262381377615], [-44.913663576830686, 288.823223813901], [-62.58870902000259, 302.29294381390514]]}, "properties": {"osm_id": null, "type": "residential", "width_m": 5, "extrude": false}}, {"type": "Feature", "geometry": {"type": "LineString", "coordinates": [[17.14538486793669, 252.3102638139386], [19.99303107818286, 256.20646381359336], [26.473881074035813, 265.11206381365173], [34.91862500794146, 276.80066381380243]]}, "properties": {"osm_id": null, "type": "footway", "width_m": 2, "extrude": false}}, {"type": "Feature", "geometry": {"type": "LineString", "coordinates": [[-62.58870902000259, 302.29294381390514], [-107.95465899079883, 336.9134638138996], [-134.8772498900081, 356.83974381381756]]}, "properties": {"osm_id": null, "type": "residential", "width_m": 5, "extrude": false}}, {"type": "Feature", "geometry": {"type": "LineString", "coordinates": [[-178.06567258196597, 346.04170381379134], [-172.06541425241733, 356.83974381381756]]}, "properties": {"osm_id": null, "type": "residential", "width_m": 5, "extrude": false}}, {"type": "Feature", "geometry": {"type": "LineString", "coordinates": [[-264.28061646558376, 332.34934381395374], [-259.14129106186726, 339.74089184342927]]}, "properties": {"osm_id": null, "type": "residential", "width_m": 5, "extrude": false}}, {"type": "Feature", "geometry": {"type": "LineString", "coordinates": [[41.595864397634564, 239.61978381394445], [24.902765923489007, 252.42158381365755], [24.60818183281599, 252.6442238138864], [19.99303107818286, 256.20646381359336], [-92.73448097019279, 342.7021038139178], [-112.28393471853633, 356.83974381381756]]}, "properties": {"osm_id": null, "type": "secondary", "width_m": 9, "extrude": false}}, {"type": "Feature", "geometry": {"type": "LineString", "coordinates": [[-192.10751423953107, 321.66262381364646], [-178.06567258196597, 346.04170381379134]]}, "properties": {"osm_id": null, "type": "residential", "width_m": 5, "extrude": false}}, {"type": "Feature", "geometry": {"type": "LineString", "coordinates": [[-143.79572336148138, 215.79730381358075], [-141.93002412026155, 232.05002381367734], [-142.42099760494915, 247.6348238138783], [-169.62092864788593, 264.11018381380825], [-193.87501878374363, 277.13462381375024], [-224.2171801279484, 293.8326238139091], [-240.4193051174064, 302.84954381368635], [-242.6777831463065, 307.4136638136322], [-270.89276921064175, 329.96261628713637]]}, "properties": {"osm_id": null, "type": "footway", "width_m": 2, "extrude": false}}, {"type": "Feature", "geometry": {"type": "LineString", "coordinates": [[-213.77193571370145, 356.4644352951325], [-178.06567258196597, 346.04170381379134], [-164.02383092422644, 337.02478381361857], [-128.4773506442169, 309.86270381377676], [-104.41964990219934, 292.49678381372235]]}, "properties": {"osm_id": null, "type": "residential", "width_m": 5, "extrude": false}}, {"type": "Feature", "geometry": {"type": "LineString", "coordinates": [[-128.4773506442169, 309.86270381377676], [-107.95465899079883, 336.9134638138996]]}, "properties": {"osm_id": null, "type": "residential", "width_m": 5, "extrude": false}}, {"type": "Feature", "geometry": {"type": "LineString", "coordinates": [[-218.91466649496195, 303.0721838139152], [-247.6857126884455, 319.77018381367856], [-264.28061646558376, 332.34934381395374], [-266.3775726111305, 334.05123735079417]]}, "properties": {"osm_id": null, "type": "tertiary", "width_m": 7, "extrude": false}}, {"type": "Feature", "geometry": {"type": "LineString", "coordinates": [[-194.66057635910425, 316.65322381363836], [-199.37392181057024, 308.97214381365234]]}, "properties": {"osm_id": null, "type": "footway", "width_m": 2, "extrude": false}}, {"type": "Feature", "geometry": {"type": "LineString", "coordinates": [[-201.8287892331361, 305.5212238136643], [-199.37392181057024, 308.97214381365234]]}, "properties": {"osm_id": null, "type": "footway", "width_m": 2, "extrude": false}}, {"type": "Feature", "geometry": {"type": "LineString", "coordinates": [[-224.2171801279484, 293.8326238139091], [-218.91466649496195, 303.0721838139152], [-213.2193740742952, 311.75514381374467]]}, "properties": {"osm_id": null, "type": "footway", "width_m": 2, "extrude": false}}, {"type": "Feature", "geometry": {"type": "LineString", "coordinates": [[-140.2607142728819, 292.27414381388894], [-128.4773506442169, 309.86270381377676]]}, "properties": {"osm_id": null, "type": "residential", "width_m": 5, "extrude": false}}, {"type": "Feature", "geometry": {"type": "LineString", "coordinates": [[-183.26999151794513, 284.14778381384065], [-190.73278848282442, 279.9176238138426], [-214.49590513416896, 292.27414381388894]]}, "properties": {"osm_id": null, "type": "service", "width_m": 3.5, "extrude": false}}, {"type": "Feature", "geometry": {"type": "LineString", "coordinates": [[-226.77024224734714, 284.9270238138507], [-228.83233088240715, 286.04022381380855]]}, "properties": {"osm_id": null, "type": "footway", "width_m": 2, "extrude": false}}, {"type": "Feature", "geometry": {"type": "LineString", "coordinates": [[-144.48308623983473, 286.81946381381863], [-149.09823699446784, 281.25346381363386]]}, "properties": {"osm_id": null, "type": "footway", "width_m": 2, "extrude": false}}, {"type": "Feature", "geometry": {"type": "LineString", "coordinates": [[193.3066711179608, 336.2455438136085], [198.02001656942682, 324.89090381380106]]}, "properties": {"osm_id": null, "type": "pedestrian", "width_m": 4, "extrude": false}}, {"type": "Feature", "geometry": {"type": "LineString", "coordinates": [[198.02001656942682, 324.89090381380106], [215.98964610327172, 328.67578381373687]]}, "properties": {"osm_id": null, "type": "pedestrian", "width_m": 4, "extrude": false}}, {"type": "Feature", "geometry": {"type": "LineString", "coordinates": [[215.98964610327172, 328.67578381373687], [274.21873201626045, 324.85139124607497]]}, "properties": {"osm_id": null, "type": "pedestrian", "width_m": 4, "extrude": false}}, {"type": "Feature", "geometry": {"type": "LineString", "coordinates": [[147.64613705649154, 320.32678381385523], [154.71615523369056, 316.65322381363836]]}, "properties": {"osm_id": null, "type": "footway", "width_m": 2, "extrude": false}}, {"type": "Feature", "geometry": {"type": "LineString", "coordinates": [[162.27714689557712, 312.75702381358815], [165.02659840899042, 311.4211838137969]]}, "properties": {"osm_id": null, "type": "footway", "width_m": 2, "extrude": false}}, {"type": "Feature", "geometry": {"type": "LineString", "coordinates": [[79.00804391886392, 325.89278381364454], [85.97986739923005, 322.55318381377094], [121.23176358874099, 305.29858381383093], [136.35374691233974, 305.07594381360207], [149.41364160087852, 287.7100238139431]]}, "properties": {"osm_id": null, "type": "pedestrian", "width_m": 4, "extrude": false}}, {"type": "Feature", "geometry": {"type": "LineString", "coordinates": [[198.02001656942682, 324.89090381380106], [184.56734309320774, 319.88150381379296], [166.9904923470431, 313.3136238137648], [165.02659840899042, 311.4211838137969], [149.41364160087852, 287.7100238139431]]}, "properties": {"osm_id": null, "type": "pedestrian", "width_m": 4, "extrude": false}}, {"type": "Feature", "geometry": {"type": "LineString", "coordinates": [[198.02001656942682, 324.89090381380106], [207.44670747253323, 311.1985438139635], [207.74129156320626, 308.97214381365234], [203.6171142930863, 300.95710381371845], [204.5990612621126, 299.06466381375054], [218.24812413217188, 292.83074381367015], [220.21201807022456, 289.15718381384875], [219.91743397955153, 267.89506381374406], [220.21201807022456, 262.21774381384034]]}, "properties": {"osm_id": null, "type": "pedestrian", "width_m": 4, "extrude": false}}, {"type": "Feature", "geometry": {"type": "LineString", "coordinates": [[39.239191671901565, 273.2384238137], [37.76627121836205, 271.01202381378425], [31.089031828668944, 261.66114381366367], [24.60818183281599, 252.6442238138864], [21.956925016409976, 248.8593438139506]]}, "properties": {"osm_id": null, "type": "footway", "width_m": 2, "extrude": false}}, {"type": "Feature", "geometry": {"type": "LineString", "coordinates": [[49.15685605934672, 266.00262381377615], [52.00450226976732, 255.53854381369774]]}, "properties": {"osm_id": null, "type": "residential", "width_m": 5, "extrude": false}}, {"type": "Feature", "geometry": {"type": "LineString", "coordinates": [[54.45936969233318, 260.88190381365365], [52.00450226976732, 255.53854381369774]]}, "properties": {"osm_id": null, "type": "residential", "width_m": 5, "extrude": false}}, {"type": "Feature", "geometry": {"type": "LineString", "coordinates": [[-88.61030370024727, 264.5554638138705], [-106.77632262793234, 237.94998381380992]]}, "properties": {"osm_id": null, "type": "residential", "width_m": 5, "extrude": false}}, {"type": "Feature", "geometry": {"type": "LineString", "coordinates": [[52.00450226976732, 255.53854381369774], [58.387157568612984, 241.40090381379792]]}, "properties": {"osm_id": null, "type": "residential", "width_m": 5, "extrude": false}}, {"type": "Feature", "geometry": {"type": "LineString", "coordinates": [[9.191614418544223, 250.19518381374183], [13.119402294824026, 255.20458381374993], [17.14538486793669, 252.3102638139386], [21.956925016409976, 248.8593438139506], [28.044996224582622, 243.96126381366145], [28.33958031525564, 242.8480638137036], [28.33958031525564, 241.84618381386016], [28.044996224582622, 241.06694381385012], [27.55402274006945, 240.28770381384007], [26.964854558548986, 239.7311038136634], [26.27749168019566, 239.28582381360116], [25.09915531732916, 239.06318381376778], [24.21540304513568, 239.1745038138822], [23.135261379276475, 239.7311038136634], [20.680393956536186, 241.6235438136313], [9.191614418544223, 250.19518381374183]]}, "properties": {"osm_id": null, "type": "pedestrian", "width_m": 4, "extrude": false}}, {"type": "Feature", "geometry": {"type": "LineString", "coordinates": [[17.14538486793669, 252.3102638139386], [15.476075020557023, 249.97254381390846], [19.894836381349997, 246.6329438136394], [20.680393956536186, 241.6235438136313]]}, "properties": {"osm_id": null, "type": "footway", "width_m": 2, "extrude": false}}, {"type": "Feature", "geometry": {"type": "LineString", "coordinates": [[100.80726663215577, 228.59910381368934], [70.46510528812541, 250.4178238135752], [63.886060595439595, 255.31590381386437], [54.45936969233318, 260.88190381365365]]}, "properties": {"osm_id": null, "type": "residential", "width_m": 5, "extrude": false}}, {"type": "Feature", "geometry": {"type": "LineString", "coordinates": [[41.595864397634564, 239.61978381394445], [47.97851969648023, 249.08198381378398]]}, "properties": {"osm_id": null, "type": "residential", "width_m": 5, "extrude": false}}, {"type": "Feature", "geometry": {"type": "LineString", "coordinates": [[21.956925016409976, 248.8593438139506], [24.21540304513568, 239.1745038138822]]}, "properties": {"osm_id": null, "type": "footway", "width_m": 2, "extrude": false}}, {"type": "Feature", "geometry": {"type": "LineString", "coordinates": [[149.41364160087852, 287.7100238139431], [220.21201807022456, 262.21774381384034]]}, "properties": {"osm_id": null, "type": "pedestrian", "width_m": 4, "extrude": false}}, {"type": "Feature", "geometry": {"type": "LineString", "coordinates": [[244.6624975999224, 264.2215038139227], [260.0790650141942, 270.90070381366985], [272.5497915213869, 276.1327438139068], [295.33096120370516, 285.4836238136319]]}, "properties": {"osm_id": null, "type": "pedestrian", "width_m": 4, "extrude": false}}, {"type": "Feature", "geometry": {"type": "LineString", "coordinates": [[238.7708157855899, 262.44038381367375], [237.19970063504311, 252.97818381383422], [238.57442639174977, 252.97818381383422], [237.4942847257161, 249.7499038136796], [233.3701074557706, 251.9763038135953], [225.1217529155307, 256.4291038138222], [221.29215973625818, 258.0989038139568], [220.21201807022456, 262.21774381384034], [219.91743397955153, 267.89506381374406], [222.37230140229184, 268.7856238138686], [247.01917032565544, 268.5629838136397], [259.78448092352113, 271.9025838139088], [260.0790650141942, 270.90070381366985], [260.5700384987074, 269.78750381371196], [261.55198546790814, 266.1139438138906], [260.0790650141942, 263.99886381369384], [257.52600289462106, 261.3271838137159], [238.7708157855899, 262.44038381367375]]}, "properties": {"osm_id": null, "type": "pedestrian", "width_m": 4, "extrude": false}}, {"type": "Feature", "geometry": {"type": "LineString", "coordinates": [[250.55417941442934, 199.9898638139419], [280.2089778801064, 221.36330381376553], [303.5793157437706, 236.73396152388136]]}, "properties": {"osm_id": null, "type": "pedestrian", "width_m": 4, "extrude": false}}, {"type": "Feature", "geometry": {"type": "LineString", "coordinates": [[220.21201807022456, 262.21774381384034], [223.84522185583134, 264.4441438137561], [244.6624975999224, 264.2215038139227], [260.0790650141942, 263.99886381369384], [296.0183240820584, 262.44038381367375], [302.4210361910954, 261.6695656482315]]}, "properties": {"osm_id": null, "type": "pedestrian", "width_m": 4, "extrude": false}}, {"type": "Feature", "geometry": {"type": "LineString", "coordinates": [[125.35594085868651, 211.2331838136349], [132.03318024837964, 236.2801838136754], [137.72847266887194, 251.86498381387636], [141.45987115131163, 263.88754381357944], [148.03891584417187, 285.92890381369415], [149.41364160087852, 287.7100238139431]]}, "properties": {"osm_id": null, "type": "pedestrian", "width_m": 4, "extrude": false}}, {"type": "Feature", "geometry": {"type": "LineString", "coordinates": [[195.76153854052666, 216.35390381375743], [221.29215973625818, 258.0989038139568], [220.21201807022456, 262.21774381384034]]}, "properties": {"osm_id": null, "type": "pedestrian", "width_m": 4, "extrude": false}}, {"type": "Feature", "geometry": {"type": "LineString", "coordinates": [[132.03318024837964, 236.2801838136754], [100.80726663215577, 228.59910381368934]]}, "properties": {"osm_id": null, "type": "pedestrian", "width_m": 4, "extrude": false}}, {"type": "Feature", "geometry": {"type": "LineString", "coordinates": [[99.53073557245642, 226.81798381383587], [100.80726663215577, 228.59910381368934]]}, "properties": {"osm_id": null, "type": "footway", "width_m": 2, "extrude": false}}, {"type": "Feature", "geometry": {"type": "LineString", "coordinates": [[70.46510528812541, 250.4178238135752], [68.10843256239242, 247.07822381370164], [83.42680527965689, 236.2801838136754]]}, "properties": {"osm_id": null, "type": "footway", "width_m": 2, "extrude": false}}, {"type": "Feature", "geometry": {"type": "LineString", "coordinates": [[-88.61030370024727, 264.5554638138705], [-33.326689342005864, 220.47274381364105]]}, "properties": {"osm_id": null, "type": "residential", "width_m": 5, "extrude": false}}, {"type": "Feature", "geometry": {"type": "LineString", "coordinates": [[20.680393956536186, 241.6235438136313], [20.287615169030307, 237.2820638139143]]}, "properties": {"osm_id": null, "type": "footway", "width_m": 2, "extrude": false}}, {"type": "Feature", "geometry": {"type": "LineString", "coordinates": [[24.21540304513568, 239.1745038138822], [24.21540304513568, 234.3877438137075], [24.21540304513568, 229.04438381375158], [25.688323498849623, 224.48026381380572]]}, "properties": {"osm_id": null, "type": "footway", "width_m": 2, "extrude": false}}, {"type": "Feature", "geometry": {"type": "LineString", "coordinates": [[28.53596970909579, 216.242583813643], [34.91862500794146, 227.04062381366924], [41.595864397634564, 239.61978381394445]]}, "properties": {"osm_id": null, "type": "residential", "width_m": 5, "extrude": false}}, {"type": "Feature", "geometry": {"type": "LineString", "coordinates": [[133.2115166112461, 203.4407838139299], [132.52415373289278, 202.43890381369098], [131.6404014606993, 201.32570381373313], [130.5602597948401, 199.6559038135986], [128.9891446442933, 200.43514381360865], [126.73066661539316, 205.22190381378337], [104.83324920526844, 220.25010381380767], [100.61087723831562, 220.47274381364105], [82.05207952312468, 233.71982381381187], [59.958272719159794, 249.4159438137318], [58.28896287178012, 252.08762381370974], [57.601599993426795, 254.7593038136877], [57.601599993426795, 255.4272238135833], [57.79798938709252, 255.7611838139266], [58.28896287178012, 255.98382381375998], [67.51926438087196, 249.30462381361735], [66.04634392733244, 247.41218381364945], [82.73944240130356, 235.27830381383197], [83.42680527965689, 236.2801838136754], [84.40875224885767, 237.6160238138621], [91.77335451672967, 232.38398381362515], [90.88960224453619, 231.15946381394835], [90.20223936635729, 230.15758381370944], [98.94156739093596, 224.3689438136913], [101.39643481367624, 223.70102381379567], [104.44047041776257, 223.58970381368124], [128.79275525045315, 206.44642381385566], [133.2115166112461, 203.4407838139299]]}, "properties": {"osm_id": null, "type": "pedestrian", "width_m": 4, "extrude": false}}, {"type": "Feature", "geometry": {"type": "LineString", "coordinates": [[-16.04442268633984, 266.00262381377615], [-17.71373253389394, 261.5498238139447], [-33.326689342005864, 220.47274381364105], [-46.68116812121765, 185.96354381376102]]}, "properties": {"osm_id": null, "type": "residential", "width_m": 5, "extrude": false}}, {"type": "Feature", "geometry": {"type": "LineString", "coordinates": [[68.30482195623257, 213.34826381383166], [71.64344165099192, 218.24634381372533], [78.22248634367773, 228.04250381390816], [82.05207952312468, 233.71982381381187]]}, "properties": {"osm_id": null, "type": "footway", "width_m": 2, "extrude": false}}, {"type": "Feature", "geometry": {"type": "LineString", "coordinates": [[95.30836360532916, 201.8823038139098], [76.74956589013821, 214.57278381390395], [71.64344165099192, 218.24634381372533], [41.595864397634564, 239.61978381394445]]}, "properties": {"osm_id": null, "type": "secondary", "width_m": 9, "extrude": false}}, {"type": "Feature", "geometry": {"type": "LineString", "coordinates": [[33.15112046372892, 205.6671838138456], [42.57781136666091, 220.0274638135788]]}, "properties": {"osm_id": null, "type": "footway", "width_m": 2, "extrude": false}}, {"type": "Feature", "geometry": {"type": "LineString", "coordinates": [[96.87947875587598, 226.9293038139503], [98.8433726941031, 225.92742381371139], [99.53073557245642, 226.81798381383587]]}, "properties": {"osm_id": null, "type": "footway", "width_m": 2, "extrude": false}}, {"type": "Feature", "geometry": {"type": "LineString", "coordinates": [[132.03318024837964, 236.2801838136754], [195.76153854052666, 216.35390381375743], [250.55417941442934, 199.9898638139419]]}, "properties": {"osm_id": null, "type": "pedestrian", "width_m": 4, "extrude": false}}, {"type": "Feature", "geometry": {"type": "LineString", "coordinates": [[280.2089778801064, 221.36330381376553], [303.5793157437706, 206.24918569269624]]}, "properties": {"osm_id": null, "type": "pedestrian", "width_m": 4, "extrude": false}}, {"type": "Feature", "geometry": {"type": "LineString", "coordinates": [[135.66638403398642, 200.21250381377527], [136.94291509368577, 199.3219438136508], [137.6302779720391, 200.43514381360865], [138.61222494106545, 201.8823038139098]]}, "properties": {"osm_id": null, "type": "footway", "width_m": 2, "extrude": false}}, {"type": "Feature", "geometry": {"type": "LineString", "coordinates": [[58.387157568612984, 241.40090381379792], [73.50914089221173, 231.15946381394835], [78.22248634367773, 228.04250381390816], [105.81519617429478, 209.00678381371918], [152.16309311411737, 177.3919038136505], [185.1565112747282, 157.46562381373252]]}, "properties": {"osm_id": null, "type": "secondary", "width_m": 9, "extrude": false}}, {"type": "Feature", "geometry": {"type": "LineString", "coordinates": [[174.35509461508954, 177.50322381376492], [195.76153854052666, 216.35390381375743]]}, "properties": {"osm_id": null, "type": "pedestrian", "width_m": 4, "extrude": false}}, {"type": "Feature", "geometry": {"type": "LineString", "coordinates": [[207.44670747253323, 155.2392238138168], [195.859733237534, 162.92030381380286], [181.5233074891214, 172.27118381392344], [174.35509461508954, 177.50322381376492], [138.61222494106545, 201.8823038139098], [125.35594085868651, 211.2331838136349], [100.80726663215577, 228.59910381368934]]}, "properties": {"osm_id": null, "type": "residential", "width_m": 5, "extrude": false}}, {"type": "Feature", "geometry": {"type": "LineString", "coordinates": [[58.48535226544585, 208.56150381365694], [61.43119317269931, 212.2350638138738], [68.30482195623257, 213.34826381383166]]}, "properties": {"osm_id": null, "type": "footway", "width_m": 2, "extrude": false}}, {"type": "Feature", "geometry": {"type": "LineString", "coordinates": [[29.026943193608965, 208.450183813938], [25.197350014336454, 210.6765838138537]]}, "properties": {"osm_id": null, "type": "footway", "width_m": 2, "extrude": false}}, {"type": "Feature", "geometry": {"type": "LineString", "coordinates": [[68.30482195623257, 213.34826381383166], [69.28676892525891, 207.33698381358465], [66.1445386241653, 202.99550381386766]]}, "properties": {"osm_id": null, "type": "footway", "width_m": 2, "extrude": false}}, {"type": "Feature", "geometry": {"type": "LineString", "coordinates": [[-127.69179306885628, 213.01430381388386], [-118.7560756504375, 217.68974381394415], [-46.68116812121765, 185.96354381376102]]}, "properties": {"osm_id": null, "type": "residential", "width_m": 5, "extrude": false}}, {"type": "Feature", "geometry": {"type": "LineString", "coordinates": [[-7.8942628431072155, 170.71270381390335], [0.7468704846385806, 175.38814381396364], [22.644287894763302, 206.78038381380347], [25.197350014336454, 210.6765838138537], [26.964854558548986, 213.7935438138939], [28.53596970909579, 216.242583813643]]}, "properties": {"osm_id": null, "type": "residential", "width_m": 5, "extrude": false}}, {"type": "Feature", "geometry": {"type": "LineString", "coordinates": [[69.18857422825162, 181.5107438139296], [78.61526513135804, 194.08990381380931]]}, "properties": {"osm_id": null, "type": "footway", "width_m": 2, "extrude": false}}, {"type": "Feature", "geometry": {"type": "LineString", "coordinates": [[66.73370680568577, 148.893983813622], [76.16039770861775, 176.8353038138693], [69.18857422825162, 181.5107438139296], [33.15112046372892, 205.6671838138456], [29.026943193608965, 208.450183813938]]}, "properties": {"osm_id": null, "type": "footway", "width_m": 2, "extrude": false}}, {"type": "Feature", "geometry": {"type": "LineString", "coordinates": [[-46.68116812121765, 185.96354381376102], [-25.078334801765944, 177.3919038136505], [-21.54332571316645, 176.05606381385925], [-16.535396170853012, 174.05230381377692], [-10.741909053527813, 171.8259038138612], [-7.8942628431072155, 170.71270381390335]]}, "properties": {"osm_id": null, "type": "residential", "width_m": 5, "extrude": false}}, {"type": "Feature", "geometry": {"type": "LineString", "coordinates": [[7.522304571164552, 170.8240238136223], [0.7468704846385806, 175.38814381396364]]}, "properties": {"osm_id": null, "type": "pedestrian", "width_m": 4, "extrude": false}}, {"type": "Feature", "geometry": {"type": "LineString", "coordinates": [[-45.01185827383798, 177.61454381387935], [-42.06601736658452, 167.03914381368648], [-31.65737949445176, 161.36182381378276]]}, "properties": {"osm_id": null, "type": "footway", "width_m": 2, "extrude": false}}, {"type": "Feature", "geometry": {"type": "LineString", "coordinates": [[303.5793157437706, 192.31237478131874], [294.2508195376715, 176.27870381369263]]}, "properties": {"osm_id": null, "type": "pedestrian", "width_m": 4, "extrude": false}}, {"type": "Feature", "geometry": {"type": "LineString", "coordinates": [[303.5793157437706, 170.969243731205], [294.2508195376715, 176.27870381369263], [255.16933016888802, 199.21062381393185], [250.55417941442934, 199.9898638139419]]}, "properties": {"osm_id": null, "type": "residential", "width_m": 5, "extrude": false}}, {"type": "Feature", "geometry": {"type": "LineString", "coordinates": [[159.1349165944835, 156.57506381360804], [152.8504559924707, 162.697663813574], [95.30836360532916, 201.8823038139098]]}, "properties": {"osm_id": null, "type": "secondary", "width_m": 9, "extrude": false}}, {"type": "Feature", "geometry": {"type": "LineString", "coordinates": [[250.55417941442934, 199.9898638139419], [239.6545680577834, 188.52390381362454], [219.3282657982055, 160.58258381377271], [219.62284988887853, 156.24110381366023], [219.81923928271866, 150.45246381364208]]}, "properties": {"osm_id": null, "type": "residential", "width_m": 5, "extrude": false}}, {"type": "Feature", "geometry": {"type": "LineString", "coordinates": [[181.5233074891214, 172.27118381392344], [180.83594461076805, 170.2674238138411]]}, "properties": {"osm_id": null, "type": "footway", "width_m": 2, "extrude": false}}, {"type": "Feature", "geometry": {"type": "LineString", "coordinates": [[180.83594461076805, 170.2674238138411], [180.54136052009505, 169.2655438136022], [189.67346733235402, 162.697663813574], [193.50306051180095, 159.02410381375262]]}, "properties": {"osm_id": null, "type": "footway", "width_m": 2, "extrude": false}}, {"type": "Feature", "geometry": {"type": "LineString", "coordinates": [[194.8777862685076, 161.1391838139494], [195.859733237534, 162.92030381380286]]}, "properties": {"osm_id": null, "type": "footway", "width_m": 2, "extrude": false}}, {"type": "Feature", "geometry": {"type": "LineString", "coordinates": [[192.71750293644033, 157.68826381396138], [193.50306051180095, 159.02410381375262], [193.69944990564113, 159.35806381370043]]}, "properties": {"osm_id": null, "type": "footway", "width_m": 2, "extrude": false}}, {"type": "Feature", "geometry": {"type": "LineString", "coordinates": [[219.3282657982055, 160.58258381377271], [215.3022832249184, 155.795823813598], [211.7672741363189, 154.5713038139212], [207.44670747253323, 155.2392238138168]]}, "properties": {"osm_id": null, "type": "residential", "width_m": 5, "extrude": false}}, {"type": "Feature", "geometry": {"type": "LineString", "coordinates": [[223.35424837131814, 91.45286381389823], [199.68932641680647, 109.37538381373386], [188.29874157564737, 118.2809838137922], [174.4532893119224, 128.07714381357954], [139.39778251642605, 152.90150381378666], [106.01158556813495, 175.610783813797], [89.61307118483683, 186.1861838135944], [78.61526513135804, 194.08990381380931], [66.1445386241653, 202.99550381386766], [58.48535226544585, 208.56150381365694], [42.57781136666091, 220.0274638135788]]}, "properties": {"osm_id": null, "type": "pedestrian", "width_m": 4, "extrude": false}}, {"type": "Feature", "geometry": {"type": "LineString", "coordinates": [[185.1565112747282, 157.46562381373252], [190.6554143015548, 154.45998381380676], [207.0539286848529, 145.10910381368618]]}, "properties": {"osm_id": null, "type": "secondary", "width_m": 9, "extrude": false}}, {"type": "Feature", "geometry": {"type": "LineString", "coordinates": [[177.10454612832845, 148.78266381390304], [181.9160862768017, 156.35242381377466], [186.72762642527502, 153.3467838138489], [184.7637324870479, 150.2298238138087], [183.78178551802154, 148.6713438137886], [181.9160862768017, 145.7770238135818], [177.10454612832845, 148.78266381390304]]}, "properties": {"osm_id": null, "type": "pedestrian", "width_m": 4, "extrude": false}}, {"type": "Feature", "geometry": {"type": "LineString", "coordinates": [[180.24677642942203, 137.42802381370012], [182.50525445832218, 141.101583813917], [190.6554143015548, 154.45998381380676], [192.71750293644033, 157.68826381396138]]}, "properties": {"osm_id": null, "type": "footway", "width_m": 2, "extrude": false}}, {"type": "Feature", "geometry": {"type": "LineString", "coordinates": [[227.38023094443085, 149.00530381373642], [225.41633700637814, 144.8864638138528]]}, "properties": {"osm_id": null, "type": "footway", "width_m": 2, "extrude": false}}, {"type": "Feature", "geometry": {"type": "LineString", "coordinates": [[171.70383779850908, 148.003423813893], [166.59771355936283, 145.66570381386285], [161.19700522954346, 144.44118381379056], [158.0547749286243, 144.32986381367613], [155.01073932453798, 144.77514381373837], [152.26128781112467, 145.99966381381066]]}, "properties": {"osm_id": null, "type": "service", "width_m": 3.5, "extrude": false}}, {"type": "Feature", "geometry": {"type": "LineString", "coordinates": [[187.12040521278087, 142.54874381382265], [191.83375066442127, 150.2298238138087], [200.76946808284012, 144.44118381379056], [201.35863626418615, 142.77138381365603], [197.82362717558667, 137.20538381386675], [196.35070672204714, 136.98274381363788], [187.12040521278087, 142.54874381382265]]}, "properties": {"osm_id": null, "type": "pedestrian", "width_m": 4, "extrude": false}}, {"type": "Feature", "geometry": {"type": "LineString", "coordinates": [[197.03806960040046, 128.18846381369397], [190.6554143015548, 135.64690381384665], [185.9420688499144, 139.09782381383465], [182.50525445832218, 141.101583813917], [171.70383779850908, 148.003423813893], [159.1349165944835, 156.57506381360804]]}, "properties": {"osm_id": null, "type": "secondary", "width_m": 9, "extrude": false}}, {"type": "Feature", "geometry": {"type": "LineString", "coordinates": [[227.77300973211112, 139.32046381366803], [223.64883246199116, 141.4355438138648], [224.0416112496715, 141.99214381364598]]}, "properties": {"osm_id": null, "type": "footway", "width_m": 2, "extrude": false}}, {"type": "Feature", "geometry": {"type": "LineString", "coordinates": [[197.03806960040046, 128.18846381369397], [200.27849459832694, 133.6431438137643], [202.43877793021977, 137.3167038135857], [207.0539286848529, 145.10910381368618], [213.0438051961927, 149.11662381385085], [219.81923928271866, 150.45246381364208]]}, "properties": {"osm_id": null, "type": "tertiary", "width_m": 7, "extrude": false}}, {"type": "Feature", "geometry": {"type": "LineString", "coordinates": [[300.73166953352444, 118.05834381395883], [303.5793157437706, 122.99089345840741]]}, "properties": {"osm_id": null, "type": "tertiary", "width_m": 7, "extrude": false}}, {"type": "Feature", "geometry": {"type": "LineString", "coordinates": [[174.4532893119224, 128.07714381357954], [180.24677642942203, 137.42802381370012]]}, "properties": {"osm_id": null, "type": "footway", "width_m": 2, "extrude": false}}, {"type": "Feature", "geometry": {"type": "LineString", "coordinates": [[219.81923928271866, 150.45246381364208], [227.38023094443085, 149.00530381373642], [283.84218166553876, 117.61306381389659], [290.2248369645588, 115.05270381363758], [294.839987719192, 115.05270381363758], [297.49124453559796, 115.38666381358539], [299.2587490798105, 116.3885438138243], [300.73166953352444, 118.05834381395883]]}, "properties": {"osm_id": null, "type": "tertiary", "width_m": 7, "extrude": false}}, {"type": "Feature", "geometry": {"type": "LineString", "coordinates": [[4.281879573238075, 168.26366381375877], [7.522304571164552, 170.8240238136223], [43.36336894202152, 157.46562381373252], [66.73370680568577, 148.893983813622], [74.98206134575125, 145.88834381369622], [128.59636585661298, 125.40546381360159]]}, "properties": {"osm_id": null, "type": "pedestrian", "width_m": 4, "extrude": false}}, {"type": "Feature", "geometry": {"type": "LineString", "coordinates": [[-7.8942628431072155, 170.71270381390335], [-37.549061308958684, 127.07526381373611], [-42.85157494177071, 119.17154381391668]]}, "properties": {"osm_id": null, "type": "residential", "width_m": 5, "extrude": false}}, {"type": "Feature", "geometry": {"type": "LineString", "coordinates": [[-55.81327493347662, 133.19786381370207], [-67.9894173498219, 141.54686381358374]]}, "properties": {"osm_id": null, "type": "footway", "width_m": 2, "extrude": false}}, {"type": "Feature", "geometry": {"type": "LineString", "coordinates": [[-46.68116812121765, 185.96354381376102], [-96.36768475579959, 108.262183813776], [-112.37342035159182, 85.66422381388008], [-118.36329686275715, 82.76990381367327]]}, "properties": {"osm_id": null, "type": "residential", "width_m": 5, "extrude": false}}, {"type": "Feature", "geometry": {"type": "LineString", "coordinates": [[-82.9150112795805, 93.56794381369951], [-79.57639158482117, 98.13206381364537], [-77.51430294976119, 100.80374381362333], [-69.85511659104174, 112.38102381365962], [-55.81327493347662, 133.19786381370207], [-49.13603554378351, 133.3091838138165], [-31.65737949445176, 161.36182381378276], [-20.855962834813123, 167.03914381368648]]}, "properties": {"osm_id": null, "type": "footway", "width_m": 2, "extrude": false}}, {"type": "Feature", "geometry": {"type": "LineString", "coordinates": [[-49.13603554378351, 133.3091838138165], [-42.949769638778, 129.96958381394293], [-40.691291609877865, 128.8563838135896], [-37.549061308958684, 127.07526381373611], [-35.29058328005855, 125.85074381366383]]}, "properties": {"osm_id": null, "type": "footway", "width_m": 2, "extrude": false}}, {"type": "Feature", "geometry": {"type": "LineString", "coordinates": [[-69.85511659104174, 112.38102381365962], [-82.12945370439431, 120.17342381376011]]}, "properties": {"osm_id": null, "type": "footway", "width_m": 2, "extrude": false}}, {"type": "Feature", "geometry": {"type": "LineString", "coordinates": [[-29.10431737487861, 64.29078381366097], [-15.749838595666823, 102.47354381375786], [4.281879573238075, 168.26366381375877]]}, "properties": {"osm_id": null, "type": "pedestrian", "width_m": 4, "extrude": false}}, {"type": "Feature", "geometry": {"type": "LineString", "coordinates": [[91.47877042605666, -5.284216186275756], [81.46291134160421, -5.618176186223565], [73.7055302860519, -5.3955361863901885], [29.419721981289275, 22.879743813804936], [-17.419148443046492, 53.381423813915774], [-66.22191280560938, 85.10762381370341], [-67.40024916847587, 87.66798381396242], [-67.10566507762843, 90.00570381359708], [-40.691291609877865, 128.8563838135896], [-10.741909053527813, 171.8259038138612], [-8.483431024627679, 176.27870381369263], [-5.144811329868339, 175.610783813797], [-2.1007757257820163, 177.61454381387935], [24.902765923489007, 217.35578381360085], [25.688323498849623, 224.48026381380572]]}, "properties": {"osm_id": null, "type": "footway", "width_m": 2, "extrude": false}}, {"type": "Feature", "geometry": {"type": "LineString", "coordinates": [[-42.85157494177071, 119.17154381391668], [-64.25801886738226, 88.11326381362917]]}, "properties": {"osm_id": null, "type": "residential", "width_m": 5, "extrude": false}}, {"type": "Feature", "geometry": {"type": "LineString", "coordinates": [[283.84218166553876, 117.61306381389659], [281.09273015229985, 113.16026381366967], [261.25740137706066, 123.95830381369592], [244.6624975999224, 132.9752238138687], [228.36217791345715, 140.32234381390694], [227.77300973211112, 139.32046381366803], [225.71092109705117, 135.31294381389884], [224.53258473418467, 133.19786381370207], [220.50660216107198, 125.85074381366383]]}, "properties": {"osm_id": null, "type": "footway", "width_m": 2, "extrude": false}}, {"type": "Feature", "geometry": {"type": "LineString", "coordinates": [[188.29874157564737, 118.2809838137922], [195.56514914686096, 123.73566381386254]]}, "properties": {"osm_id": null, "type": "pedestrian", "width_m": 4, "extrude": false}}, {"type": "Feature", "geometry": {"type": "LineString", "coordinates": [[211.37449534863862, 110.48858381369172], [201.84960974887375, 116.3885438138243], [196.84168020656028, 119.95078381392673], [195.56514914686096, 123.73566381386254], [197.03806960040046, 128.18846381369397]]}, "properties": {"osm_id": null, "type": "secondary", "width_m": 9, "extrude": false}}, {"type": "Feature", "geometry": {"type": "LineString", "coordinates": [[207.0539286848529, 145.10910381368618], [225.71092109705117, 135.31294381389884], [286.002464997606, 99.8018638137799], [290.02844757071864, 97.35282381363533], [292.67970438712473, 93.67926381381395], [294.839987719192, 89.00382381375366], [294.34901423450435, 79.4303038137997]]}, "properties": {"osm_id": null, "type": "secondary", "width_m": 9, "extrude": false}}, {"type": "Feature", "geometry": {"type": "LineString", "coordinates": [[303.5793157437706, 110.66174825822628], [302.20458998706397, 112.04706381371182], [301.12444832103034, 114.94138381391863], [300.92805892736465, 116.61118381365768], [300.73166953352444, 118.05834381395883]]}, "properties": {"osm_id": null, "type": "service", "width_m": 3.5, "extrude": false}}, {"type": "Feature", "geometry": {"type": "LineString", "coordinates": [[103.36032875172893, 49.81918381381334], [128.59636585661298, 125.40546381360159], [139.39778251642605, 152.90150381378666]]}, "properties": {"osm_id": null, "type": "pedestrian", "width_m": 4, "extrude": false}}, {"type": "Feature", "geometry": {"type": "LineString", "coordinates": [[303.5793157437706, 91.94267181368986], [303.2847316530976, 91.78682381384604], [294.34901423450435, 79.4303038137997]]}, "properties": {"osm_id": null, "type": "service", "width_m": 3.5, "extrude": false}}, {"type": "Feature", "geometry": {"type": "LineString", "coordinates": [[285.21690742224536, 62.620983813921924], [280.8963407584597, 68.52094381365902], [275.6920218223061, 73.53034381366712], [221.97952261461148, 106.70370381375591], [211.37449534863862, 110.48858381369172]]}, "properties": {"osm_id": null, "type": "secondary", "width_m": 9, "extrude": false}}, {"type": "Feature", "geometry": {"type": "LineString", "coordinates": [[294.34901423450435, 79.4303038137997], [285.21690742224536, 62.620983813921924]]}, "properties": {"osm_id": null, "type": "secondary", "width_m": 9, "extrude": false}}, {"type": "Feature", "geometry": {"type": "LineString", "coordinates": [[247.9029225978489, 17.091103813786788], [258.11517107614145, 34.67966381367461], [266.75630440388727, 50.041823813646715], [268.72019834194, 59.83798381382954], [269.0147824327874, 64.06814381382759], [268.2292248574268, 67.51906381381559], [266.46172031321424, 69.96810381396017], [264.4978263749872, 71.63790381369921], [256.936834713275, 77.09258381376955], [237.00331124120297, 91.3415438137838], [211.37449534863862, 110.48858381369172]]}, "properties": {"osm_id": null, "type": "tertiary", "width_m": 7, "extrude": false}}, {"type": "Feature", "geometry": {"type": "LineString", "coordinates": [[303.5793157437706, 72.28931223501462], [292.4833149932845, 53.27010381380134], [276.18299530681924, 25.21746381383508], [266.75630440388727, 29.892903813895373], [258.11517107614145, 34.67966381367461], [254.77655138138212, 36.572103813642514]]}, "properties": {"osm_id": null, "type": "footway", "width_m": 2, "extrude": false}}, {"type": "Feature", "geometry": {"type": "LineString", "coordinates": [[140.67431357612543, -21.75957618620572], [169.93633325429658, 19.540143813931365], [217.56076125381853, 84.32838381369336], [223.35424837131814, 91.45286381389823]]}, "properties": {"osm_id": null, "type": "pedestrian", "width_m": 4, "extrude": false}}, {"type": "Feature", "geometry": {"type": "LineString", "coordinates": [[285.21690742224536, 62.620983813921924], [266.75630440388727, 29.892903813895373], [250.2595953235819, 2.062903813762489]]}, "properties": {"osm_id": null, "type": "tertiary", "width_m": 7, "extrude": false}}, {"type": "Feature", "geometry": {"type": "LineString", "coordinates": [[274.80826955028704, 18.315623813859077], [292.2869255996188, 13.083583813622113], [302.6955634715771, 9.18738381357187], [303.5793157437706, 8.754753813585552]]}, "properties": {"osm_id": null, "type": "footway", "width_m": 2, "extrude": false}}, {"type": "Feature", "geometry": {"type": "LineString", "coordinates": [[303.5793157437706, 22.859128999261884], [287.08260666346524, 39.02114381378709]]}, "properties": {"osm_id": null, "type": "footway", "width_m": 2, "extrude": false}}, {"type": "Feature", "geometry": {"type": "LineString", "coordinates": [[233.95927563711663, 5.513823813750491], [230.81704533619745, 7.294943813603965], [239.45817866394324, 22.991063813919368], [242.8949930557099, 20.98730381383703], [233.95927563711663, 5.513823813750491]]}, "properties": {"osm_id": null, "type": "footway", "width_m": 2, "extrude": false}}, {"type": "Feature", "geometry": {"type": "LineString", "coordinates": [[242.01124078351643, 6.404383813874972], [244.36791350924938, 10.634543813873023], [247.9029225978489, 17.091103813786788]]}, "properties": {"osm_id": null, "type": "tertiary", "width_m": 7, "extrude": false}}, {"type": "Feature", "geometry": {"type": "LineString", "coordinates": [[242.01124078351643, 6.404383813874972], [250.2595953235819, 2.062903813762489]]}, "properties": {"osm_id": null, "type": "service", "width_m": 3.5, "extrude": false}}, {"type": "Feature", "geometry": {"type": "LineString", "coordinates": [[250.2595953235819, 2.062903813762489], [259.29350743900795, -4.393656186151276], [264.89060516266744, -8.512496186034895]]}, "properties": {"osm_id": null, "type": "service", "width_m": 3.5, "extrude": false}}, {"type": "Feature", "geometry": {"type": "LineString", "coordinates": [[254.97294077504787, -12.52001618619957], [250.2595953235819, 2.062903813762489]]}, "properties": {"osm_id": null, "type": "service", "width_m": 3.5, "extrude": false}}, {"type": "Feature", "geometry": {"type": "LineString", "coordinates": [[82.73944240130356, -2.05593618612113], [91.2823810322165, -1.833296186287754], [130.4620650978328, -17.52941618620767], [140.67431357612543, -21.75957618620572]]}, "properties": {"osm_id": null, "type": "residential", "width_m": 5, "extrude": false}}, {"type": "Feature", "geometry": {"type": "LineString", "coordinates": [[250.2595953235819, 2.062903813762489], [232.9773286680903, -27.436896186109436]]}, "properties": {"osm_id": null, "type": "tertiary", "width_m": 7, "extrude": false}}, {"type": "Feature", "geometry": {"type": "LineString", "coordinates": [[264.89060516266744, -8.512496186034895], [276.67396879150687, -17.418096186093237]]}, "properties": {"osm_id": null, "type": "service", "width_m": 3.5, "extrude": false}}, {"type": "Feature", "geometry": {"type": "LineString", "coordinates": [[303.5793157437706, 46.14484535224804], [292.4833149932845, 53.27010381380134], [285.21690742224536, 62.620983813921924]]}, "properties": {"osm_id": null, "type": "service", "width_m": 3.5, "extrude": false}}, {"type": "Feature", "geometry": {"type": "LineString", "coordinates": [[276.67396879150687, -17.418096186093237], [277.45952636669307, -20.98033618619567]]}, "properties": {"osm_id": null, "type": "service", "width_m": 3.5, "extrude": false}}, {"type": "Feature", "geometry": {"type": "LineString", "coordinates": [[-64.25801886738226, 88.11326381362917], [-67.10566507762843, 90.00570381359708], [-79.57639158482117, 98.13206381364537], [-96.36768475579959, 108.262183813776]]}, "properties": {"osm_id": null, "type": "footway", "width_m": 2, "extrude": false}}, {"type": "Feature", "geometry": {"type": "LineString", "coordinates": [[74.98206134575125, 145.88834381369622], [62.41314014172565, 115.38666381358539], [49.15685605934672, 86.77742381383794], [18.32372123080319, 33.12118381365451]]}, "properties": {"osm_id": null, "type": "pedestrian", "width_m": 4, "extrude": false}}, {"type": "Feature", "geometry": {"type": "LineString", "coordinates": [[-84.19154233945429, 92.12078381379385], [-80.5583385538475, 89.67174381364927], [-83.30779006726081, 86.22082381366127]]}, "properties": {"osm_id": null, "type": "footway", "width_m": 2, "extrude": false}}, {"type": "Feature", "geometry": {"type": "LineString", "coordinates": [[-109.03480065665805, 77.53786381383179], [-101.47380899494588, 76.98126381365512], [-91.16336581982041, 91.00758381383599], [-88.41391430640711, 89.11514381386809], [-85.86085218683397, 93.2339838137517], [-84.19154233945429, 92.12078381379385], [-82.9150112795805, 93.56794381369951]]}, "properties": {"osm_id": null, "type": "footway", "width_m": 2, "extrude": false}}, {"type": "Feature", "geometry": {"type": "LineString", "coordinates": [[-101.47380899494588, 76.98126381365512], [-87.33377264037348, 70.07942381367911], [-78.10347113128165, 83.32650381384994], [-83.30779006726081, 86.22082381366127], [-88.41391430640711, 89.11514381386809]]}, "properties": {"osm_id": null, "type": "footway", "width_m": 2, "extrude": false}}, {"type": "Feature", "geometry": {"type": "LineString", "coordinates": [[-64.25801886738226, 88.11326381362917], [-29.10431737487861, 64.29078381366097], [-16.04442268633984, 55.38518381360262], [-6.126758298894683, 48.92862381368886], [18.32372123080319, 33.12118381365451], [30.89264243482879, 25.21746381383508], [74.39289316440522, -2.05593618612113], [82.73944240130356, -2.05593618612113]]}, "properties": {"osm_id": null, "type": "residential", "width_m": 5, "extrude": false}}, {"type": "Feature", "geometry": {"type": "LineString", "coordinates": [[-69.56053250036871, -23.540696186059193], [-17.419148443046492, 53.381423813915774], [-16.04442268633984, 55.38518381360262]]}, "properties": {"osm_id": null, "type": "pedestrian", "width_m": 4, "extrude": false}}, {"type": "Feature", "geometry": {"type": "LineString", "coordinates": [[-118.46149155976447, 4.734583813740443], [-69.56053250036871, -23.540696186059193], [-19.48123707810647, -50.4801361860676], [47.68393560580721, -88.32893618621668]]}, "properties": {"osm_id": null, "type": "pedestrian", "width_m": 4, "extrude": false}}, {"type": "Feature", "geometry": {"type": "LineString", "coordinates": [[-110.50772111037199, -184.509416186214], [-88.90488779092028, -154.4530161861654], [-79.96917037250147, -140.31537618626558], [-53.260212813903465, -99.90621618625298], [-19.48123707810647, -50.4801361860676], [29.419721981289275, 22.879743813804936], [30.89264243482879, 25.21746381383508]]}, "properties": {"osm_id": null, "type": "pedestrian", "width_m": 4, "extrude": false}}, {"type": "Feature", "geometry": {"type": "LineString", "coordinates": [[-157.64117562538078, -53.819736186336655], [-53.260212813903465, -99.90621618625298], [27.357633346229296, -135.0833361864241]]}, "properties": {"osm_id": null, "type": "pedestrian", "width_m": 4, "extrude": false}}, {"type": "Feature", "geometry": {"type": "LineString", "coordinates": [[194.97598096534048, -45.13677618611169], [199.10015823546044, -44.91413618627831], [205.18822944363308, -45.24809618622612], [209.99976959210636, -44.246216186382696], [214.90950443741252, -39.90473618627021], [221.68493852393848, -28.995376186129533], [242.01124078351643, 6.404383813874972]]}, "properties": {"osm_id": null, "type": "tertiary", "width_m": 7, "extrude": false}}, {"type": "Feature", "geometry": {"type": "LineString", "coordinates": [[277.45952636669307, -20.98033618619567], [277.06674757901277, -24.65389618641254]]}, "properties": {"osm_id": null, "type": "service", "width_m": 3.5, "extrude": false}}, {"type": "Feature", "geometry": {"type": "LineString", "coordinates": [[277.45952636669307, -20.98033618619567], [295.13457180986495, -27.436896186109436]]}, "properties": {"osm_id": null, "type": "service", "width_m": 3.5, "extrude": false}}, {"type": "Feature", "geometry": {"type": "LineString", "coordinates": [[262.9267112246148, -39.01417618614573], [257.3296135009553, -24.319936186069242], [254.97294077504787, -12.52001618619957]]}, "properties": {"osm_id": null, "type": "service", "width_m": 3.5, "extrude": false}}, {"type": "Feature", "geometry": {"type": "LineString", "coordinates": [[277.06674757901277, -24.65389618641254], [276.28119000382657, -29.32933618607734]]}, "properties": {"osm_id": null, "type": "service", "width_m": 3.5, "extrude": false}}, {"type": "Feature", "geometry": {"type": "LineString", "coordinates": [[277.06674757901277, -24.65389618641254], [292.38512029645165, -35.56325618615773]]}, "properties": {"osm_id": null, "type": "service", "width_m": 3.5, "extrude": false}}, {"type": "Feature", "geometry": {"type": "LineString", "coordinates": [[276.28119000382657, -29.32933618607734], [274.4154907626068, -36.00853618621997]]}, "properties": {"osm_id": null, "type": "service", "width_m": 3.5, "extrude": false}}, {"type": "Feature", "geometry": {"type": "LineString", "coordinates": [[221.68493852393848, -28.995376186129533], [229.24593018565065, -33.78213618630426], [235.82497487833646, -37.455696186125635]]}, "properties": {"osm_id": null, "type": "footway", "width_m": 2, "extrude": false}}, {"type": "Feature", "geometry": {"type": "LineString", "coordinates": [[140.67431357612543, -21.75957618620572], [168.65980219442278, -34.00477618613763], [194.97598096534048, -45.13677618611169]]}, "properties": {"osm_id": null, "type": "residential", "width_m": 5, "extrude": false}}, {"type": "Feature", "geometry": {"type": "LineString", "coordinates": [[276.28119000382657, -29.32933618607734], [290.2248369645588, -41.68585618612369]]}, "properties": {"osm_id": null, "type": "service", "width_m": 3.5, "extrude": false}}, {"type": "Feature", "geometry": {"type": "LineString", "coordinates": [[274.4154907626068, -36.00853618621997], [272.7461809152271, -41.79717618623812]]}, "properties": {"osm_id": null, "type": "service", "width_m": 3.5, "extrude": false}}, {"type": "Feature", "geometry": {"type": "LineString", "coordinates": [[255.7584983504085, -45.025456186392745], [255.46391425973547, -40.350016186332454], [245.44805517528303, -34.116096186252065]]}, "properties": {"osm_id": null, "type": "service", "width_m": 3.5, "extrude": false}}, {"type": "Feature", "geometry": {"type": "LineString", "coordinates": [[232.9773286680903, -27.436896186109436], [229.24593018565065, -33.78213618630426], [215.98964610327172, -56.1574561863668]]}, "properties": {"osm_id": null, "type": "tertiary", "width_m": 7, "extrude": false}}, {"type": "Feature", "geometry": {"type": "LineString", "coordinates": [[274.4154907626068, -36.00853618621997], [288.26094302633174, -47.6971361863707]]}, "properties": {"osm_id": null, "type": "service", "width_m": 3.5, "extrude": false}}, {"type": "Feature", "geometry": {"type": "LineString", "coordinates": [[233.7628862432765, -47.6971361863707], [238.47623169491692, -39.125496186260165], [235.82497487833646, -37.455696186125635]]}, "properties": {"osm_id": null, "type": "footway", "width_m": 2, "extrude": false}}, {"type": "Feature", "geometry": {"type": "LineString", "coordinates": [[255.7584983504085, -45.025456186392745], [241.12748851132292, -40.68397618628026]]}, "properties": {"osm_id": null, "type": "service", "width_m": 3.5, "extrude": false}}, {"type": "Feature", "geometry": {"type": "LineString", "coordinates": [[272.7461809152271, -41.79717618623812], [271.17506576468026, -46.249976186069546]]}, "properties": {"osm_id": null, "type": "service", "width_m": 3.5, "extrude": false}}, {"type": "Feature", "geometry": {"type": "LineString", "coordinates": [[272.7461809152271, -41.79717618623812], [286.1988543912717, -53.9310561860556]]}, "properties": {"osm_id": null, "type": "service", "width_m": 3.5, "extrude": false}}, {"type": "Feature", "geometry": {"type": "LineString", "coordinates": [[271.17506576468026, -46.249976186069546], [269.4075612202933, -50.25749618623422]]}, "properties": {"osm_id": null, "type": "service", "width_m": 3.5, "extrude": false}}, {"type": "Feature", "geometry": {"type": "LineString", "coordinates": [[261.84656955858117, -52.26125618631656], [255.7584983504085, -45.025456186392745]]}, "properties": {"osm_id": null, "type": "service", "width_m": 3.5, "extrude": false}}, {"type": "Feature", "geometry": {"type": "LineString", "coordinates": [[269.4075612202933, -50.25749618623422], [267.0508884945603, -51.704656186139886]]}, "properties": {"osm_id": null, "type": "service", "width_m": 3.5, "extrude": false}}, {"type": "Feature", "geometry": {"type": "LineString", "coordinates": [[165.02659840899042, -42.019816186071495], [206.75934459417988, -59.94233618630261]]}, "properties": {"osm_id": null, "type": "service", "width_m": 3.5, "extrude": false}}, {"type": "Feature", "geometry": {"type": "LineString", "coordinates": [[269.4075612202933, -50.25749618623422], [270.8804816740072, -53.59709618610779]]}, "properties": {"osm_id": null, "type": "service", "width_m": 3.5, "extrude": false}}, {"type": "Feature", "geometry": {"type": "LineString", "coordinates": [[267.0508884945603, -51.704656186139886], [264.79241046583456, -52.149936186202126], [261.84656955858117, -52.26125618631656]]}, "properties": {"osm_id": null, "type": "service", "width_m": 3.5, "extrude": false}}, {"type": "Feature", "geometry": {"type": "LineString", "coordinates": [[261.84656955858117, -52.26125618631656], [256.8386400162677, -52.26125618631656]]}, "properties": {"osm_id": null, "type": "service", "width_m": 3.5, "extrude": false}}, {"type": "Feature", "geometry": {"type": "LineString", "coordinates": [[271.17506576468026, -46.249976186069546], [284.33315515005194, -59.38573618612594]]}, "properties": {"osm_id": null, "type": "service", "width_m": 3.5, "extrude": false}}, {"type": "Feature", "geometry": {"type": "LineString", "coordinates": [[229.34412488265792, -58.71781618623032], [230.71885063919018, -54.15369618628446], [233.7628862432765, -47.6971361863707]]}, "properties": {"osm_id": null, "type": "footway", "width_m": 2, "extrude": false}}, {"type": "Feature", "geometry": {"type": "LineString", "coordinates": [[256.8386400162677, -52.26125618631656], [249.3758430513884, -52.595216186264366], [230.71885063919018, -54.15369618628446], [226.10369988473144, -54.37633618611784], [215.98964610327172, -56.1574561863668]]}, "properties": {"osm_id": null, "type": "service", "width_m": 3.5, "extrude": false}}, {"type": "Feature", "geometry": {"type": "LineString", "coordinates": [[270.8804816740072, -53.59709618610779], [270.8804816740072, -59.83101618618818]]}, "properties": {"osm_id": null, "type": "service", "width_m": 3.5, "extrude": false}}, {"type": "Feature", "geometry": {"type": "LineString", "coordinates": [[249.3758430513884, -52.595216186264366], [236.80692184753727, -61.50081618632271]]}, "properties": {"osm_id": null, "type": "service", "width_m": 3.5, "extrude": false}}, {"type": "Feature", "geometry": {"type": "LineString", "coordinates": [[-273.80550206552306, 252.75554381360536], [-278.3224581233233, 243.5159838135992], [-277.83148463881014, 239.50846381383002]]}, "properties": {"osm_id": null, "type": "pedestrian", "width_m": 4, "extrude": false}}, {"type": "Feature", "geometry": {"type": "LineString", "coordinates": [[-269.7795194924104, 241.73486381374573], [-255.93406722868542, 245.0744638136193]]}, "properties": {"osm_id": null, "type": "pedestrian", "width_m": 4, "extrude": false}}, {"type": "Feature", "geometry": {"type": "LineString", "coordinates": [[-273.80550206552306, 252.75554381360536], [-271.6452187336302, 249.86122381379403], [-269.7795194924104, 241.73486381374573], [-266.63728919149116, 231.04814381383392]]}, "properties": {"osm_id": null, "type": "pedestrian", "width_m": 4, "extrude": false}}, {"type": "Feature", "geometry": {"type": "LineString", "coordinates": [[-258.4871293482586, 270.34410381388864], [-250.5333588986917, 268.89694381358754], [-246.90015511325933, 266.5592238139528], [-237.6698536039931, 260.4366238135914], [-208.8988074105095, 246.2989838136916], [-186.5104165158716, 231.71606381372953], [-168.73717637569243, 224.03498381374348], [-152.92783017391477, 219.02558381373538], [-143.79572336148138, 215.79730381358075], [-136.62751048744954, 214.01618381372728], [-127.69179306885628, 213.01430381388386]]}, "properties": {"osm_id": null, "type": "residential", "width_m": 5, "extrude": false}}, {"type": "Feature", "geometry": {"type": "LineString", "coordinates": [[-305.22780507558707, 240.96444123961263], [-299.9252914426006, 243.40466381388026], [-298.25598159522093, 243.8499438139425], [-293.9354149314353, 236.05754381384202], [-277.83148463881014, 239.50846381383002]]}, "properties": {"osm_id": null, "type": "pedestrian", "width_m": 4, "extrude": false}}, {"type": "Feature", "geometry": {"type": "LineString", "coordinates": [[-141.93002412026155, 232.05002381367734], [-130.24485518842943, 235.27830381383197], [-122.58566882970999, 237.8386638136955]]}, "properties": {"osm_id": null, "type": "footway", "width_m": 2, "extrude": false}}, {"type": "Feature", "geometry": {"type": "LineString", "coordinates": [[-290.59679523650146, 222.92178381378562], [-291.57874220570227, 231.71606381372953], [-293.9354149314353, 236.05754381384202]]}, "properties": {"osm_id": null, "type": "pedestrian", "width_m": 4, "extrude": false}}, {"type": "Feature", "geometry": {"type": "LineString", "coordinates": [[-277.83148463881014, 239.50846381383002], [-271.2524399459499, 214.57278381390395]]}, "properties": {"osm_id": null, "type": "pedestrian", "width_m": 4, "extrude": false}}, {"type": "Feature", "geometry": {"type": "LineString", "coordinates": [[-300.51445962412106, 209.56338381389585], [-285.8834497850355, 210.6765838138537], [-271.2524399459499, 214.57278381390395], [-250.72974829253184, 219.47086381379762]]}, "properties": {"osm_id": null, "type": "pedestrian", "width_m": 4, "extrude": false}}, {"type": "Feature", "geometry": {"type": "LineString", "coordinates": [[-237.6698536039931, 260.4366238135914], [-233.54567633404753, 241.51222381391236], [-223.62801194642793, 222.58782381383782], [-224.0207907341083, 189.85974381381126], [-220.87856043301463, 167.92970381381096]]}, "properties": {"osm_id": null, "type": "residential", "width_m": 5, "extrude": false}}, {"type": "Feature", "geometry": {"type": "LineString", "coordinates": [[-305.22780507558707, 195.33877506382012], [-301.8891853808277, 195.8710238136628]]}, "properties": {"osm_id": null, "type": "pedestrian", "width_m": 4, "extrude": false}}, {"type": "Feature", "geometry": {"type": "LineString", "coordinates": [[-305.22780507558707, 221.18375542663728], [-302.57654825918104, 218.4689838139542], [-300.51445962412106, 209.56338381389585], [-301.8891853808277, 195.8710238136628], [-302.08557477466786, 165.8146238136142], [-305.22780507558707, 162.25238381390724]]}, "properties": {"osm_id": null, "type": "pedestrian", "width_m": 4, "extrude": false}}, {"type": "Feature", "geometry": {"type": "LineString", "coordinates": [[-292.16791038704827, 194.20122381392375], [-291.57874220570227, 184.07110381379312], [-284.999697512842, 182.1786638138252], [-284.999697512842, 178.83906381395164], [-285.1960869066822, 171.04666381385115]]}, "properties": {"osm_id": null, "type": "pedestrian", "width_m": 4, "extrude": false}}, {"type": "Feature", "geometry": {"type": "LineString", "coordinates": [[-130.4412445822696, 196.65026381367284], [-122.29108473903698, 181.28810381370073], [-131.2268021576302, 166.03726381384305], [-146.25059078422166, 170.71270381390335]]}, "properties": {"osm_id": null, "type": "service", "width_m": 3.5, "extrude": false}}, {"type": "Feature", "geometry": {"type": "LineString", "coordinates": [[-178.94942485398502, 116.72250381377211], [-208.99700210734235, 131.19410381361973], [-230.40344603295395, 138.54122381365798], [-220.87856043301463, 167.92970381381096], [-207.22949756312985, 163.3655838138651], [-188.27792106008414, 227.04062381366924], [-186.5104165158716, 231.71606381372953]]}, "properties": {"osm_id": null, "type": "residential", "width_m": 5, "extrude": false}}, {"type": "Feature", "geometry": {"type": "LineString", "coordinates": [[-284.999697512842, 178.83906381395164], [-274.10008615637054, 178.95038381367058], [-268.6011831295439, 165.36934381394744], [-270.46688237076376, 159.46938381381486]]}, "properties": {"osm_id": null, "type": "pedestrian", "width_m": 4, "extrude": false}}, {"type": "Feature", "geometry": {"type": "LineString", "coordinates": [[-268.6011831295439, 165.36934381394744], [-245.918208144233, 166.70518381373867]]}, "properties": {"osm_id": null, "type": "pedestrian", "width_m": 4, "extrude": false}}, {"type": "Feature", "geometry": {"type": "LineString", "coordinates": [[-127.69179306885628, 213.01430381388386], [-128.57554534104975, 204.6653038136067], [-130.4412445822696, 196.65026381367284], [-146.25059078422166, 170.71270381390335], [-166.96967183147987, 135.86954381368002], [-178.94942485398502, 116.72250381377211]]}, "properties": {"osm_id": null, "type": "tertiary", "width_m": 7, "extrude": false}}, {"type": "Feature", "geometry": {"type": "LineString", "coordinates": [[-305.22780507558707, 165.2802878136977], [-302.08557477466786, 165.8146238136142], [-294.62277780978854, 161.91842381395944], [-270.46688237076376, 159.46938381381486]]}, "properties": {"osm_id": null, "type": "pedestrian", "width_m": 4, "extrude": false}}, {"type": "Feature", "geometry": {"type": "LineString", "coordinates": [[-294.62277780978854, 161.91842381395944], [-299.43431795808743, 143.99590381372832]]}, "properties": {"osm_id": null, "type": "pedestrian", "width_m": 4, "extrude": false}}, {"type": "Feature", "geometry": {"type": "LineString", "coordinates": [[-270.46688237076376, 159.46938381381486], [-277.1441217604568, 137.650663813929]]}, "properties": {"osm_id": null, "type": "pedestrian", "width_m": 4, "extrude": false}}, {"type": "Feature", "geometry": {"type": "LineString", "coordinates": [[-305.22780507558707, 145.68225138146346], [-299.43431795808743, 143.99590381372832], [-296.9794505355216, 143.3279838138327], [-295.8993088694879, 142.9940238138849], [-282.7412194841163, 139.20914381394908], [-277.1441217604568, 137.650663813929], [-253.87197859362547, 131.4167438138486]]}, "properties": {"osm_id": null, "type": "pedestrian", "width_m": 4, "extrude": false}}, {"type": "Feature", "geometry": {"type": "LineString", "coordinates": [[-305.22780507558707, 111.57071776725317], [-296.8812558385143, 108.93010381367162], [-291.57874220570227, 109.4867038138483], [-290.2040164489956, 112.38102381365962]]}, "properties": {"osm_id": null, "type": "pedestrian", "width_m": 4, "extrude": false}}, {"type": "Feature", "geometry": {"type": "LineString", "coordinates": [[-305.22780507558707, 84.85650660440967], [-302.96932704668694, 84.4397038138078], [-279.4025997891825, 72.8624238137715]]}, "properties": {"osm_id": null, "type": "pedestrian", "width_m": 4, "extrude": false}}, {"type": "Feature", "geometry": {"type": "LineString", "coordinates": [[-305.22780507558707, 111.83833881384331], [-299.04153917058153, 126.7413038137883], [-298.25598159522093, 132.6412638139209], [-295.8993088694879, 142.9940238138849]]}, "properties": {"osm_id": null, "type": "pedestrian", "width_m": 4, "extrude": false}}, {"type": "Feature", "geometry": {"type": "LineString", "coordinates": [[-290.2040164489956, 112.38102381365962], [-288.53470660144154, 115.83194381364763], [-285.39247630052233, 128.6337438137562], [-282.7412194841163, 139.20914381394908]]}, "properties": {"osm_id": null, "type": "pedestrian", "width_m": 4, "extrude": false}}, {"type": "Feature", "geometry": {"type": "LineString", "coordinates": [[-305.22780507558707, 26.258633225669712], [-302.6747429560139, 32.898543813821135], [-279.4025997891825, 72.8624238137715], [-276.0639800944232, 78.20578381372741], [-268.6011831295439, 92.67738381357503], [-262.21852783069824, 105.70182381391248], [-253.87197859362547, 131.4167438138486], [-250.14058011118578, 145.33174381391504], [-245.918208144233, 166.70518381373867], [-244.5434823875263, 182.06734381371078], [-245.4272346597198, 191.41822381383136], [-250.72974829253184, 219.47086381379762], [-252.2026687462458, 228.71042381380377], [-255.93406722868542, 245.0744638136193], [-258.58532404509145, 258.65550381373794], [-258.4871293482586, 270.34410381388864]]}, "properties": {"osm_id": null, "type": "residential", "width_m": 5, "extrude": false}}, {"type": "Feature", "geometry": {"type": "LineString", "coordinates": [[-290.2040164489956, 112.38102381365962], [-277.929679335643, 107.81690381371376], [-262.21852783069824, 105.70182381391248]]}, "properties": {"osm_id": null, "type": "pedestrian", "width_m": 4, "extrude": false}}, {"type": "Feature", "geometry": {"type": "LineString", "coordinates": [[-118.36329686275715, 82.76990381367327], [-139.76974078836872, 89.67174381364927], [-172.8613536458124, 109.70934381368167], [-178.94942485398502, 116.72250381377211]]}, "properties": {"osm_id": null, "type": "residential", "width_m": 5, "extrude": false}}, {"type": "Feature", "geometry": {"type": "LineString", "coordinates": [[-178.94942485398502, 116.72250381377211], [-191.32195666417047, 96.01698381384409], [-203.30170968685005, 76.86994381393617], [-221.66411800837525, 46.81354381388758]]}, "properties": {"osm_id": null, "type": "tertiary", "width_m": 7, "extrude": false}}, {"type": "Feature", "geometry": {"type": "LineString", "coordinates": [[-172.8613536458124, 16.979783813672356], [-187.3941687880651, 25.774063813616266], [-215.28146270935517, 42.8060238137229], [-221.66411800837525, 46.81354381388758]]}, "properties": {"osm_id": null, "type": "residential", "width_m": 5, "extrude": false}}, {"type": "Feature", "geometry": {"type": "LineString", "coordinates": [[-128.37915594720963, -10.182296186169424], [-172.8613536458124, 16.979783813672356]]}, "properties": {"osm_id": null, "type": "residential", "width_m": 5, "extrude": false}}, {"type": "Feature", "geometry": {"type": "LineString", "coordinates": [[-64.25801886738226, 88.11326381362917], [-66.22191280560938, 85.10762381370341], [-118.46149155976447, 4.734583813740443], [-128.37915594720963, -10.182296186169424], [-130.93221806678278, -13.85585618638629], [-157.64117562538078, -53.819736186336655], [-183.66277030562546, -91.33457618614244], [-208.30963922898906, -129.4060161861249]]}, "properties": {"osm_id": null, "type": "pedestrian", "width_m": 4, "extrude": false}}, {"type": "Feature", "geometry": {"type": "LineString", "coordinates": [[-303.95127401588775, -89.55345618628897], [-286.47261796655596, -59.38573618612594], [-254.65753616881165, -7.621936186305902], [-221.66411800837525, 46.81354381388758]]}, "properties": {"osm_id": null, "type": "tertiary", "width_m": 7, "extrude": false}}, {"type": "Feature", "geometry": {"type": "LineString", "coordinates": [[-296.8812558385143, 108.93010381367162], [-305.22780507558707, 89.73535524268158]]}, "properties": {"osm_id": null, "type": "pedestrian", "width_m": 4, "extrude": false}}, {"type": "Feature", "geometry": {"type": "LineString", "coordinates": [[256.8386400162677, -52.26125618631656], [242.10943548034925, -63.72721618623842]]}, "properties": {"osm_id": null, "type": "service", "width_m": 3.5, "extrude": false}}, {"type": "Feature", "geometry": {"type": "LineString", "coordinates": [[261.84656955858117, -52.26125618631656], [257.3296135009553, -58.49517618639695], [247.80472790101604, -66.06493618626857]]}, "properties": {"osm_id": null, "type": "service", "width_m": 3.5, "extrude": false}}, {"type": "Feature", "geometry": {"type": "LineString", "coordinates": [[270.8804816740072, -53.59709618610779], [274.9064642471199, -57.938576186220274], [282.27106651516635, -65.5083361860919]]}, "properties": {"osm_id": null, "type": "service", "width_m": 3.5, "extrude": false}}, {"type": "Feature", "geometry": {"type": "LineString", "coordinates": [[264.79241046583456, -52.149936186202126], [261.84656955858117, -59.16309618629256], [253.8927991091887, -68.62529618613209]]}, "properties": {"osm_id": null, "type": "service", "width_m": 3.5, "extrude": false}}, {"type": "Feature", "geometry": {"type": "LineString", "coordinates": [[194.97598096534048, -45.13677618611169], [203.32253020241328, -50.70277618629646], [206.46476050333246, -54.71029618606565], [206.75934459417988, -59.94233618630261], [204.00989308076657, -76.30637618611814]]}, "properties": {"osm_id": null, "type": "residential", "width_m": 5, "extrude": false}}, {"type": "Feature", "geometry": {"type": "LineString", "coordinates": [[229.34412488265792, -58.71781618623032], [228.46037261046447, -63.9498561860718]]}, "properties": {"osm_id": null, "type": "footway", "width_m": 2, "extrude": false}}, {"type": "Feature", "geometry": {"type": "LineString", "coordinates": [[267.0508884945603, -51.704656186139886], [267.8364460699209, -58.829136186344755], [262.6321271337673, -72.07621618612009]]}, "properties": {"osm_id": null, "type": "service", "width_m": 3.5, "extrude": false}}, {"type": "Feature", "geometry": {"type": "LineString", "coordinates": [[228.46037261046447, -63.9498561860718], [227.18384155059064, -66.95549618639305]]}, "properties": {"osm_id": null, "type": "footway", "width_m": 2, "extrude": false}}, {"type": "Feature", "geometry": {"type": "LineString", "coordinates": [[274.9064642471199, -57.938576186220274], [276.28119000382657, -62.947976186228374], [279.22703091108, -72.96677618624457]]}, "properties": {"osm_id": null, "type": "service", "width_m": 3.5, "extrude": false}}, {"type": "Feature", "geometry": {"type": "LineString", "coordinates": [[215.98964610327172, -56.1574561863668], [212.06185822699192, -63.059296186342806], [204.00989308076657, -76.30637618611814]]}, "properties": {"osm_id": null, "type": "tertiary", "width_m": 7, "extrude": false}}, {"type": "Feature", "geometry": {"type": "LineString", "coordinates": [[270.8804816740072, -59.83101618618818], [268.1310301605939, -73.968656186088]]}, "properties": {"osm_id": null, "type": "service", "width_m": 3.5, "extrude": false}}, {"type": "Feature", "geometry": {"type": "LineString", "coordinates": [[280.9945354552926, -160.35297618629798], [290.71581044907197, -115.26837618622508], [290.1266422675515, -101.24205618604421], [283.7439869687059, -91.00061618619463], [257.8205869854685, -79.97993618633501], [227.18384155059064, -66.95549618639305], [220.21201807022456, -64.95173618631071], [212.06185822699192, -63.059296186342806]]}, "properties": {"osm_id": null, "type": "residential", "width_m": 5, "extrude": false}}, {"type": "Feature", "geometry": {"type": "LineString", "coordinates": [[168.65980219442278, -34.00477618613763], [165.02659840899042, -42.019816186071495], [163.35728856143632, -46.02733618623617], [113.67077192685439, -164.36049618606717], [95.11197421166344, -207.10737618610992], [94.22822193946996, -211.1148961862746]]}, "properties": {"osm_id": null, "type": "service", "width_m": 3.5, "extrude": false}}, {"type": "Feature", "geometry": {"type": "LineString", "coordinates": [[168.56160749758993, -132.5229761861651], [171.9984218891821, -148.77569618626168]]}, "properties": {"osm_id": null, "type": "service", "width_m": 3.5, "extrude": false}}, {"type": "Feature", "geometry": {"type": "LineString", "coordinates": [[303.5793157437706, -138.53084407853643], [292.4833149932845, -164.02653618611936], [225.31814230937084, -319.65189618631825], [214.99726952114403, -343.94089455786184]]}, "properties": {"osm_id": null, "type": "primary", "width_m": 13, "extrude": false}}, {"type": "Feature", "geometry": {"type": "LineString", "coordinates": [[89.51487648800396, -153.33981618620754], [110.33215223209505, -162.9133361861615]]}, "properties": {"osm_id": null, "type": "footway", "width_m": 2, "extrude": false}}, {"type": "Feature", "geometry": {"type": "LineString", "coordinates": [[110.33215223209505, -162.9133361861615], [113.67077192685439, -164.36049618606717], [117.69675449996707, -166.25293618603507]]}, "properties": {"osm_id": null, "type": "footway", "width_m": 2, "extrude": false}}, {"type": "Feature", "geometry": {"type": "LineString", "coordinates": [[249.96501123290886, -231.152496186307], [280.9945354552926, -160.35297618629798], [303.5793157437706, -106.4559038125985]]}, "properties": {"osm_id": null, "type": "primary", "width_m": 13, "extrude": false}}, {"type": "Feature", "geometry": {"type": "LineString", "coordinates": [[117.69675449996707, -166.25293618603507], [147.8425264503317, -179.94529618626814]]}, "properties": {"osm_id": null, "type": "footway", "width_m": 2, "extrude": false}}, {"type": "Feature", "geometry": {"type": "LineString", "coordinates": [[204.00989308076657, -76.30637618611814], [171.9984218891821, -148.77569618626168], [156.8764385657578, -183.50753618637057], [136.35374691233974, -230.81853618635918], [124.57038328350033, -258.09193618631537], [118.48231207532768, -272.22957618621524]]}, "properties": {"osm_id": null, "type": "tertiary", "width_m": 7, "extrude": false}}, {"type": "Feature", "geometry": {"type": "LineString", "coordinates": [[47.68393560580721, -88.32893618621668], [95.60294769617661, -110.59293618616479], [98.15600981574977, -111.81745618623708], [100.90546132898864, -113.04197618630937]]}, "properties": {"osm_id": null, "type": "pedestrian", "width_m": 4, "extrude": false}}, {"type": "Feature", "geometry": {"type": "LineString", "coordinates": [[91.47877042605666, -5.284216186275756], [130.1674810071598, -20.646376186247863], [133.50610070191914, -22.53881618621577], [134.48804767111992, -26.32369618615158], [133.89887948959944, -30.10857618608739], [131.54220676386646, -35.340616186324354], [98.15600981574977, -111.81745618623708], [81.85569012928451, -149.22097618632392], [69.38496362209177, -179.27737618637252], [64.27883938294548, -189.96409618628434], [59.56549393147948, -199.76025618607167], [42.47961666982805, -240.94865618609433], [37.471687127514606, -247.85049618607033], [35.311403795621764, -250.96745618611052]]}, "properties": {"osm_id": null, "type": "footway", "width_m": 2, "extrude": false}}, {"type": "Feature", "geometry": {"type": "LineString", "coordinates": [[44.44351060788073, -241.8392161862188], [60.547440900505826, -206.21681618638092], [62.7077242325731, -201.0960961862584], [66.93009619952592, -191.0772961862422], [71.83983104483207, -180.1679361861015], [83.72138937050434, -150.33417618628178], [100.90546132898864, -113.04197618630937], [133.2115166112461, -35.89721618610554], [140.67431357612543, -21.75957618620572]]}, "properties": {"osm_id": null, "type": "residential", "width_m": 5, "extrude": false}}, {"type": "Feature", "geometry": {"type": "LineString", "coordinates": [[83.72138937050434, -150.33417618628178], [89.51487648800396, -153.33981618620754]]}, "properties": {"osm_id": null, "type": "footway", "width_m": 2, "extrude": false}}, {"type": "Feature", "geometry": {"type": "LineString", "coordinates": [[188.29874157564737, 118.2809838137922], [103.36032875172893, 49.81918381381334], [85.88167270239718, 9.521343813915166], [82.73944240130356, -2.05593618612113], [81.46291134160421, -5.618176186223565], [76.55317649629806, -19.087896186227766], [47.68393560580721, -88.32893618621668], [27.357633346229296, -135.0833361864241], [13.512181082329906, -165.91897618608726], [8.897030327871205, -176.7170161861135], [0.648675787631289, -195.53009618607362], [-13.000387082253518, -228.59213618604798], [-40.10212342853183, -294.93885618622556], [-61.500319622154954, -344.47625618652535]]}, "properties": {"osm_id": null, "type": "pedestrian", "width_m": 4, "extrude": false}}, {"type": "Feature", "geometry": {"type": "LineString", "coordinates": [[20.189420472023013, -169.1472561862419], [13.512181082329906, -165.91897618608726]]}, "properties": {"osm_id": null, "type": "footway", "width_m": 2, "extrude": false}}, {"type": "Feature", "geometry": {"type": "LineString", "coordinates": [[-88.90488779092028, -154.4530161861654], [0.648675787631289, -195.53009618607362]]}, "properties": {"osm_id": null, "type": "pedestrian", "width_m": 4, "extrude": false}}, {"type": "Feature", "geometry": {"type": "LineString", "coordinates": [[8.897030327871205, -176.7170161861135], [15.672464414397176, -179.8339761861537]]}, "properties": {"osm_id": null, "type": "footway", "width_m": 2, "extrude": false}}, {"type": "Feature", "geometry": {"type": "LineString", "coordinates": [[59.46729923464662, -187.84901618608757], [20.189420472023013, -169.1472561862419]]}, "properties": {"osm_id": null, "type": "footway", "width_m": 2, "extrude": false}}, {"type": "Feature", "geometry": {"type": "LineString", "coordinates": [[15.672464414397176, -179.8339761861537], [55.14673257068651, -197.86781618610377]]}, "properties": {"osm_id": null, "type": "footway", "width_m": 2, "extrude": false}}, {"type": "Feature", "geometry": {"type": "LineString", "coordinates": [[55.14673257068651, -197.86781618610377], [57.01243181190633, -198.75837618622825], [59.56549393147948, -199.76025618607167], [62.7077242325731, -201.0960961862584]]}, "properties": {"osm_id": null, "type": "footway", "width_m": 2, "extrude": false}}, {"type": "Feature", "geometry": {"type": "LineString", "coordinates": [[-13.000387082253518, -228.59213618604798], [-91.45794991049344, -193.19237618604348], [-110.50772111037199, -184.509416186214]]}, "properties": {"osm_id": null, "type": "pedestrian", "width_m": 4, "extrude": false}}, {"type": "Feature", "geometry": {"type": "LineString", "coordinates": [[60.547440900505826, -206.21681618638092], [66.43912271501274, -208.77717618624445], [87.55098254977685, -217.57145618618836]]}, "properties": {"osm_id": null, "type": "service", "width_m": 3.5, "extrude": false}}, {"type": "Feature", "geometry": {"type": "LineString", "coordinates": [[-91.45794991049344, -193.19237618604348], [-102.75034005464525, -220.79973618634298], [-98.92074687537273, -222.46953618608202], [-102.06297717629192, -231.93173618631704], [-111.19508398872532, -259.09381618615885]]}, "properties": {"osm_id": null, "type": "pedestrian", "width_m": 4, "extrude": false}}, {"type": "Feature", "geometry": {"type": "LineString", "coordinates": [[-76.33596658689468, -243.50901618635334], [-102.06297717629192, -231.93173618631704]]}, "properties": {"osm_id": null, "type": "pedestrian", "width_m": 4, "extrude": false}}, {"type": "Feature", "geometry": {"type": "LineString", "coordinates": [[-13.000387082253518, -228.59213618604798], [-6.617731783407854, -232.59965618621266], [37.471687127514606, -247.85049618607033], [43.06878485117408, -249.6316161863193]]}, "properties": {"osm_id": null, "type": "pedestrian", "width_m": 4, "extrude": false}}, {"type": "Feature", "geometry": {"type": "LineString", "coordinates": [[27.652217436902312, -263.32397618615687], [33.05292576672163, -250.52217618604828], [17.636358352449864, -244.06561618613452], [14.788712142203696, -250.74481618627715], [12.235650022630544, -256.7560961861287], [27.652217436902312, -263.32397618615687]]}, "properties": {"osm_id": null, "type": "pedestrian", "width_m": 4, "extrude": false}}, {"type": "Feature", "geometry": {"type": "LineString", "coordinates": [[44.44351060788073, -241.8392161862188], [85.58708861172417, -258.759856186211], [102.37838178270259, -265.99565618613485], [118.48231207532768, -272.22957618621524]]}, "properties": {"osm_id": null, "type": "residential", "width_m": 5, "extrude": false}}, {"type": "Feature", "geometry": {"type": "LineString", "coordinates": [[-40.10212342853183, -294.93885618622556], [-111.19508398872532, -259.09381618615885], [-146.25059078422166, -239.6128161863031]]}, "properties": {"osm_id": null, "type": "pedestrian", "width_m": 4, "extrude": false}}, {"type": "Feature", "geometry": {"type": "LineString", "coordinates": [[29.32152728428198, -283.13893618635586], [34.42765152342828, -286.70117618606287], [50.826165906900826, -294.15961618621554]]}, "properties": {"osm_id": null, "type": "service", "width_m": 3.5, "extrude": false}}, {"type": "Feature", "geometry": {"type": "LineString", "coordinates": [[147.8425264503317, -179.94529618626814], [156.8764385657578, -183.50753618637057]]}, "properties": {"osm_id": null, "type": "footway", "width_m": 2, "extrude": false}}, {"type": "Feature", "geometry": {"type": "LineString", "coordinates": [[163.45548325844362, -291.82189618618537], [255.26752486589535, -85.65725618623873], [257.8205869854685, -79.97993618633501]]}, "properties": {"osm_id": null, "type": "service", "width_m": 3.5, "extrude": false}}, {"type": "Feature", "geometry": {"type": "LineString", "coordinates": [[136.35374691233974, -230.81853618635918], [97.86142572490232, -213.89789618636698], [94.22822193946996, -211.1148961862746]]}, "properties": {"osm_id": null, "type": "service", "width_m": 3.5, "extrude": false}}, {"type": "Feature", "geometry": {"type": "LineString", "coordinates": [[184.46914839637486, -299.94825618623366], [195.07417566217336, -306.07085618619965], [199.2965476293006, -306.07085618619965], [202.92975141473295, -304.62369618629396], [207.44670747253323, -301.6180561863682], [211.66907943948604, -298.38977618621357], [249.96501123290886, -231.152496186307]]}, "properties": {"osm_id": null, "type": "residential", "width_m": 5, "extrude": false}}, {"type": "Feature", "geometry": {"type": "LineString", "coordinates": [[303.5793157437706, -163.89204898112595], [227.80611843213748, -341.41021145090815]]}, "properties": {"osm_id": null, "type": "footway", "width_m": 2, "extrude": false}}, {"type": "Feature", "geometry": {"type": "LineString", "coordinates": [[118.48231207532768, -272.22957618621524], [163.45548325844362, -291.82189618618537], [184.46914839637486, -299.94825618623366]]}, "properties": {"osm_id": null, "type": "residential", "width_m": 5, "extrude": false}}, {"type": "Feature", "geometry": {"type": "LineString", "coordinates": [[201.16224687052042, -323.5480961863685], [199.78752111381377, -317.8707761860693], [197.23445899424064, -312.97269618617565], [191.63736127058115, -307.40669618638634], [184.46914839637486, -299.94825618623366]]}, "properties": {"osm_id": null, "type": "residential", "width_m": 5, "extrude": false}}, {"type": "Feature", "geometry": {"type": "LineString", "coordinates": [[194.80993262947618, -344.47625618652535], [201.16224687052042, -323.5480961863685], [206.75934459417988, -310.1896961860832], [211.66907943948604, -298.38977618621357]]}, "properties": {"osm_id": null, "type": "residential", "width_m": 5, "extrude": false}}, {"type": "Feature", "geometry": {"type": "LineString", "coordinates": [[202.2686748899995, -344.47625618652535], [214.41853095272492, -316.3122961860492], [249.96501123290886, -231.152496186307]]}, "properties": {"osm_id": null, "type": "primary", "width_m": 13, "extrude": false}}, {"type": "Feature", "geometry": {"type": "LineString", "coordinates": [[163.45548325844362, -291.82189618618537], [142.2582151408995, -344.47625618652535]]}, "properties": {"osm_id": null, "type": "service", "width_m": 3.5, "extrude": false}}, {"type": "Feature", "geometry": {"type": "LineString", "coordinates": [[30.990837131661653, -280.35593618626353], [101.20004541983609, -311.9708161863322]]}, "properties": {"osm_id": null, "type": "footway", "width_m": 2, "extrude": false}}, {"type": "Feature", "geometry": {"type": "LineString", "coordinates": [[14.003154567017507, -319.20661618625604], [6.834941692811226, -316.08965618621585], [-40.10212342853183, -294.93885618622556]]}, "properties": {"osm_id": null, "type": "pedestrian", "width_m": 4, "extrude": false}}, {"type": "Feature", "geometry": {"type": "LineString", "coordinates": [[17.341774261776845, -328.11221618631436], [11.15550835659691, -325.6631761861698]]}, "properties": {"osm_id": null, "type": "footway", "width_m": 2, "extrude": false}}, {"type": "Feature", "geometry": {"type": "LineString", "coordinates": [[4.308659945038155, -344.47625618652535], [5.165631845431556, -342.2498561862142], [11.15550835659691, -325.6631761861698], [14.003154567017507, -319.20661618625604], [29.32152728428198, -283.13893618635586], [30.990837131661653, -280.35593618626353], [40.90850151928124, -257.20137618619094], [43.06878485117408, -249.6316161863193], [44.44351060788073, -241.8392161862188]]}, "properties": {"osm_id": null, "type": "residential", "width_m": 5, "extrude": false}}, {"type": "Feature", "geometry": {"type": "LineString", "coordinates": [[38.6500234903811, -337.2404561862061], [17.341774261776845, -328.11221618631436]]}, "properties": {"osm_id": null, "type": "footway", "width_m": 2, "extrude": false}}, {"type": "Feature", "geometry": {"type": "LineString", "coordinates": [[53.18283863263382, -343.47437618628646], [38.6500234903811, -337.2404561862061]]}, "properties": {"osm_id": null, "type": "footway", "width_m": 2, "extrude": false}}, {"type": "Feature", "geometry": {"type": "LineString", "coordinates": [[55.54324027154729, -344.47625618652535], [53.18283863263382, -343.47437618628646]]}, "properties": {"osm_id": null, "type": "footway", "width_m": 2, "extrude": false}}, {"type": "Feature", "geometry": {"type": "LineString", "coordinates": [[118.48231207532768, -272.22957618621524], [103.94949693307497, -305.6255761861374], [101.20004541983609, -311.9708161863322], [87.08305475918516, -344.47625618652535]]}, "properties": {"osm_id": null, "type": "tertiary", "width_m": 7, "extrude": false}}, {"type": "Feature", "geometry": {"type": "LineString", "coordinates": [[-305.22780507558707, -88.9015406590751], [-303.95127401588775, -89.55345618628897]]}, "properties": {"osm_id": null, "type": "pedestrian", "width_m": 4, "extrude": false}}, {"type": "Feature", "geometry": {"type": "LineString", "coordinates": [[-248.6676596574719, -111.37217618617484], [-245.62362405338556, -106.02881618621893], [-174.62885819019934, 13.862823813632161], [-172.8613536458124, 16.979783813672356]]}, "properties": {"osm_id": null, "type": "residential", "width_m": 5, "extrude": false}}, {"type": "Feature", "geometry": {"type": "LineString", "coordinates": [[-303.95127401588775, -89.55345618628897], [-300.7108490179612, -90.77797618636126], [-248.6676596574719, -111.37217618617484]]}, "properties": {"osm_id": null, "type": "tertiary", "width_m": 7, "extrude": false}}, {"type": "Feature", "geometry": {"type": "LineString", "coordinates": [[-252.69364223075897, -118.05137618631747], [-293.0516626592418, -100.12885618608635]]}, "properties": {"osm_id": null, "type": "service", "width_m": 3.5, "extrude": false}}, {"type": "Feature", "geometry": {"type": "LineString", "coordinates": [[-183.66277030562546, -91.33457618614244], [-79.96917037250147, -140.31537618626558]]}, "properties": {"osm_id": null, "type": "pedestrian", "width_m": 4, "extrude": false}}, {"type": "Feature", "geometry": {"type": "LineString", "coordinates": [[-208.30963922898906, -129.4060161861249], [-212.63020589294916, -117.60609618625523], [-223.62801194642793, -112.4853761861327]]}, "properties": {"osm_id": null, "type": "service", "width_m": 3.5, "extrude": false}}, {"type": "Feature", "geometry": {"type": "LineString", "coordinates": [[-248.6676596574719, -111.37217618617484], [-216.45979907222167, -125.9550961861369], [-213.71034755880837, -127.29093618632362], [-208.30963922898906, -129.4060161861249], [-115.41745595567815, -172.04157618605322], [-110.4095264133647, -177.27361618629018], [-110.50772111037199, -184.509416186214]]}, "properties": {"osm_id": null, "type": "tertiary", "width_m": 7, "extrude": false}}, {"type": "Feature", "geometry": {"type": "LineString", "coordinates": [[-146.25059078422166, -239.6128161863031], [-150.66935214501464, -237.49773618610632], [-247.78390738545284, -188.85089618632648], [-282.54483009027615, -169.59253618630413], [-305.22780507558707, -158.50080086719728]]}, "properties": {"osm_id": null, "type": "residential", "width_m": 5, "extrude": false}}, {"type": "Feature", "geometry": {"type": "LineString", "coordinates": [[-305.22780507558707, -208.24655085290615], [-282.54483009027615, -169.59253618630413], [-252.79183692759185, -118.38533618626528], [-252.69364223075897, -118.05137618631747], [-248.6676596574719, -111.37217618617484]]}, "properties": {"osm_id": null, "type": "residential", "width_m": 5, "extrude": false}}, {"type": "Feature", "geometry": {"type": "LineString", "coordinates": [[-300.5023569577917, -267.0461224875005], [-247.78390738545284, -188.85089618632648], [-208.30963922898906, -129.4060161861249]]}, "properties": {"osm_id": null, "type": "pedestrian", "width_m": 4, "extrude": false}}, {"type": "Feature", "geometry": {"type": "LineString", "coordinates": [[-272.6137900729289, -315.8307882104947], [-186.2158324250242, -335.90461618641484]]}, "properties": {"osm_id": null, "type": "residential", "width_m": 5, "extrude": false}}, {"type": "Feature", "geometry": {"type": "LineString", "coordinates": [[-305.22780507558707, -90.50444704330204], [-303.95127401588775, -89.55345618628897]]}, "properties": {"osm_id": null, "type": "tertiary", "width_m": 7, "extrude": false}}, {"type": "Feature", "geometry": {"type": "LineString", "coordinates": [[-303.95127401588775, -89.55345618628897], [-305.22780507558707, -91.65009461971451]]}, "properties": {"osm_id": null, "type": "tertiary", "width_m": 7, "extrude": false}}, {"type": "Feature", "geometry": {"type": "LineString", "coordinates": [[-110.50772111037199, -184.509416186214], [-146.25059078422166, -239.6128161863031], [-175.11983167471254, -307.96329618616755], [-184.2519384869715, -330.44993618634453], [-186.2158324250242, -335.90461618641484], [-189.86639304738645, -344.47625618652535]]}, "properties": {"osm_id": null, "type": "tertiary", "width_m": 7, "extrude": false}}, {"type": "Feature", "geometry": {"type": "LineString", "coordinates": [[-152.3207405258808, -344.47625618652535], [-186.2158324250242, -335.90461618641484]]}, "properties": {"osm_id": null, "type": "pedestrian", "width_m": 4, "extrude": false}}, {"type": "Feature", "geometry": {"type": "LineString", "coordinates": [[-130.93221806678278, -13.85585618638629], [-174.62885819019934, 13.862823813632161], [-219.79841876715545, 42.02678381371285], [-262.21852783069824, -26.991616186047196], [-300.7108490179612, -90.77797618636126], [-305.22780507558707, -98.25854606569024]]}, "properties": {"osm_id": null, "type": "footway", "width_m": 2, "extrude": false}}, {"type": "Feature", "geometry": {"type": "LineString", "coordinates": [[35.311403795621764, -250.96745618611052], [34.034872735922406, -254.19573618626515], [6.834941692811226, -316.08965618621585], [-3.08272269480836, -338.9102561863406], [-5.283884750677141, -344.47625618652535]]}, "properties": {"osm_id": null, "type": "footway", "width_m": 2, "extrude": false}}]}