{"type": "FeatureCollection", "crs": {"type": "name", "properties": {"name": "EPSG:32628_local_enu_m_section_centroid", "lng0": -16.289818909850077, "lat0": 28.450743959350444}}, "features": [{"type": "Feature", "geometry": {"type": "Polygon", "coordinates": [[[-47.830902219371545, -131.86318285879807], [-46.25291695189073, -131.07798340414905], [-59.67297259812377, -95.20325606450257], [-41.89334290274454, -88.38559098980379], [-32.13697493183143, -113.94123395302212], [-29.2906029010539, -114.92225135470879], [-27.740039289168458, -114.33919905831321], [-27.406517402348026, -114.1969482985869], [-27.40115621340975, -114.21177019695197], [-6.985562782770437, -106.53497542325103], [-3.750687460647412, -105.31857806253663], [-3.421353504684956, -105.19473991888803], [-3.4211538353419746, -105.19529346652484], [11.444112846899852, -99.63371448669666], [18.555855206381082, -117.31314996488268], [2.759341893584904, -123.33984212124972], [-20.80223814914384, -132.455576560442], [-20.801153524198476, -132.45857518647244], [-21.123041295670482, -132.5796920181359], [-21.455240580195287, -132.70821652511404], [-21.456363735110468, -132.70511137657465], [-33.37546348694063, -137.1899154796335], [-32.860347564077315, -139.18188587360706], [-35.86388056621177, -139.9702181323275], [-46.47582421788217, -135.07404785265783], [-47.830902219371545, -131.86318285879807]]]}, "properties": {"id": 0, "height_median_m": 9.0, "building_count": 5, "area_m2": 1822.7852994282955}}, {"type": "Feature", "geometry": {"type": "Polygon", "coordinates": [[[19.997283729241726, -126.38526913921234], [20.249463403117353, -126.63623642828502], [22.028237570846578, -124.8379151663389], [22.893492882978975, -125.8220242982677], [26.752703522593475, -123.26704564722908], [26.752703522593475, -122.67486926353278], [29.546028957058528, -121.41773305019122], [29.684004488649606, -121.32638676969482], [29.744601833170115, -121.60207141129227], [31.307448129836526, -128.71216385144126], [31.518408346565558, -129.1120609934211], [31.509423417569494, -129.11512673039636], [33.182918407083676, -132.47401639112212], [32.7500616210309, -132.59709518377136], [36.731793951169195, -140.1448850181029], [38.75376419341227, -148.96045369686092], [39.34793647112018, -148.45361164974338], [39.68981775828529, -149.2084245895019], [39.459588894133326, -149.33935145294052], [41.42685783907361, -155.8280966738497], [42.33303465116109, -155.38638879354943], [44.03029492179341, -158.76458976071413], [44.46393700525307, -159.21296097724849], [44.27044735576287, -159.24258550405426], [45.08307889779872, -160.86003493638634], [43.707964544769645, -159.4382133031572], [36.41821247379424, -160.39487779000075], [36.21137237905062, -161.92401716695153], [33.756226144596134, -161.5889301520589], [33.56195375541703, -162.80420010097203], [31.074098825540936, -162.53471501098534], [31.074098825540936, -163.77228510854567], [28.827027287270205, -163.77228510854567], [27.750396251268217, -164.99680510861796], [25.634767840199387, -164.99680510861796], [25.545009522975867, -165.50724392681488], [24.092833374753894, -165.75323450264202], [20.7251407554126, -166.32646321558042], [20.362717453565928, -166.46947372112828], [20.350246707270916, -166.3872079021806], [17.39581886276837, -166.8876715736152], [18.92265962480798, -166.28518749447966], [18.92265962480798, -160.65532510850548], [17.91683241392891, -160.65532510850548], [17.10526455447852, -157.09500086753175], [14.887154623230456, -154.8749407944643], [16.039932164104975, -153.45455408229725], [14.63924198917102, -152.31663066583488], [15.430904914646016, -151.52877375685722], [13.393881538127918, -149.76356656338538], [14.272942139276829, -148.76375580985214], [12.329079192678593, -147.10559787885612], [13.204875218763947, -145.99882260408438], [11.820355661702207, -144.87403622884983], [12.610379117418669, -143.97549300533868], [9.782335527005944, -141.53538095340312], [11.027033377026058, -140.00173528143173], [9.735992931520332, -137.4845102491046], [9.06593432817282, -136.43934498260933], [16.349896941593492, -129.02689089830997], [6.4246300241009715, -132.31940755763057], [6.398931418029976, -132.2793225705435], [8.395332625632992, -131.64859137557656], [9.64020240976077, -130.54736033583504], [9.692417084243363, -130.49787114914162], [9.69838447562614, -130.49589158166964], [11.690026861776918, -128.734053963263], [12.444984980616207, -129.73582538337655], [13.849733412213988, -127.81857519193997], [14.743993924191994, -128.72266280554723], [16.737991050125753, -126.86710990635088], [17.403853226769083, -127.54028929697263], [17.503736085593516, -127.85269765632255], [17.607958117893087, -127.74663711345684], [19.821476857817704, -129.98448039205238], [19.997283729241726, -126.38526913921234]]]}, "properties": {"id": 1, "height_median_m": 24.0, "building_count": 36, "area_m2": 901.4548240090962}}, {"type": "Feature", "geometry": {"type": "Polygon", "coordinates": [[[39.42997699692033, -118.29733602891315], [40.23424793816263, -117.34447375530584], [40.29087816343585, -117.26396237170609], [40.3067855301121, -117.25853463797283], [42.59200049241288, -114.55111974455899], [48.65789164403563, -107.20689688914403], [52.20595590583302, -102.81539299761229], [96.00403653271233, -138.7043347226252], [77.42178601075611, -146.06063203197488], [77.1302410020688, -145.39744718568886], [76.03173862344019, -145.85177287654065], [76.02383523611765, -145.82994240406885], [64.98556549897093, -149.5695856039703], [65.37383634273581, -150.5955361069002], [64.91463886260043, -151.6400842921314], [64.65314656017898, -150.7478495035243], [53.83181406829476, -154.85044287782117], [53.59676446499847, -154.31576956705692], [39.77067507302894, -118.18108684209398], [39.42997699692033, -118.29733602891315]]]}, "properties": {"id": 2, "height_median_m": 21.0, "building_count": 8, "area_m2": 1441.9409821105342}}, {"type": "Feature", "geometry": {"type": "Polygon", "coordinates": [[[-42.252178550376975, -67.70717400907984], [-16.543053772732485, -57.8841599456199], [-4.64678327280671, -89.15183219180818], [-30.455934166480006, -98.97469395883911], [-42.252178550376975, -67.70717400907984]]]}, "properties": {"id": 3, "height_median_m": 3.0, "building_count": 1, "area_m2": 921.7913690573264}}, {"type": "Feature", "geometry": {"type": "Polygon", "coordinates": [[[-94.50251355060904, 50.32815489132478], [-94.23273539041763, 50.32815489132478], [-95.59173237939204, 55.274306914789335], [-95.59173237939204, 55.697189366150695], [-94.94224209210725, 55.881865875731144], [-85.20075626290655, 58.420941514438816], [-84.4163936874145, 55.29857489053909], [-83.05291046553266, 55.63088381548732], [-82.17373262580695, 52.40884172668908], [-82.16315519023973, 52.411631380220044], [-82.0809501203515, 52.06880911420321], [-81.98945810616198, 51.73350593981981], [-82.0472476556114, 51.718264738902064], [-79.61391480330147, 42.49299119570852], [-77.86147018249589, 35.01862179109225], [-77.75965610860538, 35.04547385640861], [-77.67693457915843, 34.70441796636975], [-77.58286620216194, 34.36816410548067], [-77.59462553828128, 34.365062741892245], [-76.81152516943405, 31.13638702624089], [-76.92792218920803, 31.105836496105535], [-74.53943982566601, 22.35244172664035], [-74.52886239014529, 22.35523138015905], [-74.44665732021681, 22.012409114177416], [-74.35516530602112, 21.677105939771394], [-74.41295485494138, 21.661864738993216], [-72.88680961212016, 15.875929073076522], [-72.94221086583698, 15.863326808991475], [-70.09836212674288, 5.0817017143971395], [-70.02483593861155, 5.101093237894065], [-69.94489754254263, 4.760147170476], [-69.84644155058089, 4.424206646974638], [-69.86498603676968, 4.419315793133203], [-68.52527081532273, -1.294717245741754], [-66.14011459452192, -10.1629299161299], [-66.10855273328661, -10.155126158685544], [-66.02938348838973, -10.492791711794307], [-65.93418303560304, -10.83309225513139], [-65.94875187205571, -10.836694440220398], [-63.98317324086237, -19.220103888485887], [-63.77359985145543, -19.156540965938188], [-62.89077093565166, -22.50352994675696], [-62.882963696331366, -22.501342203717783], [-62.799120735025205, -22.850995017389963], [-62.712218440887774, -23.18045978194294], [-62.76690194609547, -23.19578318282357], [-61.24103088790058, -28.980679355218292], [-61.287012689111656, -28.991886066576612], [-58.97299774960225, -37.76480046285445], [-58.96903357822821, -37.76382031052336], [-58.88457949126537, -38.10001256464922], [-58.794444746467, -38.44173222546267], [-58.82200969661231, -38.448547735588804], [-55.974158931267496, -49.245345348348636], [-55.937224761925904, -49.23694383891179], [-55.05934641063869, -52.565164193387496], [-55.051628194288114, -52.56312861970207], [-54.96907683724359, -52.90739501742236], [-54.88081486374812, -53.24201461053921], [-54.9534937718721, -53.26118267556132], [-53.40803367672557, -58.92503957179304], [-54.78530275722053, -59.260708394231536], [-54.003654107115025, -62.37227150769198], [-63.717198723765485, -64.90406439206798], [-64.2200142571053, -65.09469227263921], [-64.53338886523166, -64.73827167697209], [-65.57479846565002, -60.67726441165872], [-66.31033617334391, -59.00411808211733], [-67.09334056289222, -55.664518082187556], [-67.30528891050064, -55.1823937852835], [-67.06917944741244, -55.048122734847766], [-68.39985722096168, -50.00324510866054], [-68.40315717910659, -50.00324510866054], [-68.46915634216967, -49.740517652738326], [-69.83862778701847, -44.5485651085902], [-70.14408971167613, -44.5485651085902], [-70.14408971167613, -44.021308427534315], [-71.00640500910033, -40.75209086339836], [-72.39522733250244, -37.59290139886585], [-72.41684576780627, -37.543725394202994], [-73.3303900958647, -35.46566287464624], [-73.33039009586471, -35.46566287464625], [-73.49713451255967, -35.08636510875068], [-74.55585547741495, -35.08636510875068], [-72.44236005593127, -34.48541238459901], [-73.47335524638977, -30.465016416218244], [-74.14038007080104, -28.947718081972198], [-74.9233844606707, -25.608118082154913], [-75.13533280857864, -25.12599378456952], [-74.90044292765305, -24.99241628848775], [-76.22850215876028, -20.058165108726378], [-76.23453513958141, -20.058165108726378], [-76.29920115269114, -19.795491136029852], [-77.72659729240644, -14.492165108541604], [-77.97413360946162, -14.492165108541604], [-77.97413360946162, -13.964908427485712], [-78.84529255291889, -10.662162752427191], [-79.03817685208593, -9.784645108772418], [-78.85821756070165, -9.784645108772418], [-80.13590280841025, -4.802274030161629], [-80.19559010844078, -4.734387920441897], [-81.42409618732248, 0.4247148913682621], [-81.72270304170651, 0.4247148913682621], [-81.87943456325802, 1.1377572473597966], [-82.75147085559485, 4.4438291363487865], [-83.05410331621206, 5.132234891532937], [-82.67857390536037, 5.132234891532937], [-84.03086431131823, 10.259050525439811], [-85.38295777796569, 15.385119520399904], [-85.70630195842483, 15.201239712302963], [-85.70630195842483, 16.091491572557725], [-86.57746090188921, 19.39423724725209], [-86.7703452009661, 20.27175489127618], [-86.59038590967327, 20.27175489127618], [-87.86807115751864, 25.254125970052165], [-87.927758457404, 25.322012079606775], [-89.15626453628569, 30.48111489141686], [-89.4548713906697, 30.48111489141686], [-89.61160291222114, 31.194157247408153], [-90.50220384584887, 34.570611572587325], [-90.50220384584887, 35.535384905682], [-91.69423781667354, 40.05463489137082], [-91.69887183750784, 40.05463489137082], [-91.76374812928324, 40.318163018047656], [-92.06924284168657, 41.47635733838368], [-93.42580330187512, 46.09986830660769], [-94.3096292508192, 49.45063724717476], [-94.50251355060904, 50.32815489132478]]]}, "properties": {"id": 4, "height_median_m": 27.0, "building_count": 16, "area_m2": 1525.5303918527015}}, {"type": "Feature", "geometry": {"type": "Polygon", "coordinates": [[[-41.13609148667361, 8.513360953847094], [-40.87978364333791, 8.659118446360704], [-44.880906286479856, 11.761887345757842], [-45.203993670564415, 12.129354891981704], [-42.800740101025575, 14.862725900933315], [-47.28584535388494, 18.773639380692696], [-41.54203033056947, 25.42741823779478], [-37.97772723374866, 22.288910789851954], [-38.20296620122185, 22.037390175050778], [-30.660215380952295, 16.000426185351248], [-30.60077129884788, 16.075718563829756], [-30.33150469701123, 15.856965853943501], [-30.047421750474104, 15.646947375275525], [-30.057412589481036, 15.634292893867158], [-27.302339305997553, 13.396066011712499], [-27.3608138339664, 13.329559263743285], [-20.24887931510321, 7.840697329296348], [-18.288949412543325, 6.28029149015134], [-10.977019646247518, 0.42806890635367384], [-10.929080602022658, 0.48865121920273347], [-8.012016796634992, -1.8460685095012117], [-6.05450582226294, -3.4045485095313497], [0.9593230231767305, -9.018181146574932], [1.0043421234634085, -8.955599645639525], [3.9274526477659433, -11.418293666308575], [5.87893478067773, -12.860996629290943], [8.902771349045706, -15.19473879029908], [8.693317578635455, -15.459433133951185], [16.258697666193513, -20.990949651852354], [18.12181768865384, -22.552349941805804], [24.886003058994532, -27.772825396323654], [28.200588730995204, -30.565333666210215], [30.152070863593934, -32.00803662921742], [33.17590743191743, -34.34177879062761], [32.288772723371714, -35.46288317060402], [34.73335991423156, -37.464758446954555], [28.567591121324448, -45.39717439179869], [28.13845772325411, -46.1292948830314], [27.740893483334812, -45.67712013741747], [23.724831720394594, -42.45895453669731], [23.45372550800459, -42.613127585552775], [22.971541146372143, -42.24751524208057], [20.248962460955674, -40.035687034849325], [19.803949451345975, -39.782616432044215], [19.8594868130964, -39.65628418298259], [15.63046954469144, -36.23589195593834], [11.391527495034468, -32.9868125201556], [11.246864629492187, -33.15134666963306], [10.810550330412198, -32.65509905306335], [8.070034966169889, -30.540019052866583], [7.209614917320859, -29.561409368539366], [3.7929688675846713, -26.82356980405634], [3.3604473780592907, -27.315503619864234], [3.3604473780592907, -26.73736510847352], [2.936673498317823, -26.73736510847352], [2.9613251513077397, -26.7093272374891], [-1.4063086412280303, -22.983639361472225], [-4.023056893905164, -20.889282097008028], [-4.469186631560081, -20.63557643268256], [-4.353076159689012, -20.371456989215783], [-8.642637756182376, -16.97751790702704], [-11.98969353242099, -14.35504435170119], [-13.419109571652298, -13.542162096809745], [-16.08764094960717, -11.406359361446269], [-16.68130441203024, -10.899951345242217], [-16.56538661828503, -10.636270191608832], [-19.885304343203224, -8.118969762985017], [-19.95021554056113, -8.069751379136195], [-20.81481315601004, -7.4141773172788925], [-20.81481315601004, -7.375480069916673], [-24.827146585688958, -4.160302070860831], [-25.064963946137222, -4.4307866700366985], [-25.59915379427294, -3.8232190530870573], [-28.339669158515246, -1.7081390528902893], [-29.117798880693, -0.8231233180702826], [-32.82002133206798, 2.1712018627426124], [-36.965562429509106, 5.451190652022799], [-37.05960716048489, 5.2372647109607], [-37.710281823521264, 5.730633445660682], [-40.360777032510896, 7.852000638586412], [-41.13609148667361, 8.513360953847094]]]}, "properties": {"id": 5, "height_median_m": 12.0, "building_count": 8, "area_m2": 1196.6184332992432}}, {"type": "Feature", "geometry": {"type": "Polygon", "coordinates": [[[-187.28653781074743, 330.88759809873966], [-186.7456419975136, 330.4288690792079], [-181.97103644368698, 334.7510706185513], [-167.7459283842274, 323.11541108024653], [-160.8951332953675, 333.32903776470795], [-172.70612460285582, 342.95629426378497], [-156.2175383475634, 358.1377016635636], [-156.4073790925989, 358.3536194490918], [-152.16150131616902, 362.47602451996033], [-134.36331253050793, 381.49554306902434], [-129.32933509603905, 387.80523175362333], [-122.1762090509639, 380.5070312948836], [-129.92750598615865, 371.13999289555875], [-130.37819957670501, 370.50134111556673], [-130.59771716497298, 370.1268344344862], [-130.62415852769624, 370.15280693369596], [-142.32612776580402, 353.5706241822865], [-161.11533858486067, 326.14192924447303], [-151.15287513704777, 319.2779977728162], [-149.97447937988386, 317.0442254392791], [-152.83285488376072, 316.91418504998506], [-156.15711263997474, 313.45737423168976], [-162.8854048949332, 305.9126472869351], [-161.64632608624544, 304.3467783538696], [-166.4131408189918, 298.1858722690255], [-175.66330799481793, 311.5655792973738], [-191.94573459124175, 325.3419271251772], [-187.28653781074743, 330.88759809873966]]]}, "properties": {"id": 6, "height_median_m": 6.0, "building_count": 3, "area_m2": 1474.3352201823916}}, {"type": "Feature", "geometry": {"type": "Polygon", "coordinates": [[[-167.3226335606938, 357.23946432499883], [-186.76555056973098, 339.70895508448353], [-194.3818953012954, 347.18485141030936], [-178.08839132289077, 365.71647536098334], [-167.3226335606938, 357.23946432499883]]]}, "properties": {"id": 7, "height_median_m": 3.0, "building_count": 1, "area_m2": 308.24941047985754}}, {"type": "Feature", "geometry": {"type": "Polygon", "coordinates": [[[-217.28326774413335, 371.7882842311561], [-215.54779196670074, 373.76214967573577], [-214.7647875772014, 372.9829096757614], [-209.46637628042458, 379.00912514285875], [-210.3526136474765, 379.79310440704563], [-207.43702039857956, 382.97654798314886], [-206.65928678822684, 382.31312407405176], [-201.5641316826871, 388.108163527282], [-191.35384285061207, 378.95868328565217], [-208.9428222914929, 358.83931927550896], [-219.15458376511364, 367.990119157386], [-216.50026335421882, 371.00904423111456], [-217.28326774413335, 371.7882842311561]]]}, "properties": {"id": 8, "height_median_m": 3.0, "building_count": 1, "area_m2": 373.792691851575}}, {"type": "Feature", "geometry": {"type": "Polygon", "coordinates": [[[-169.3947879105525, 395.9374207539242], [-150.7051773158277, 391.43188931372856], [-153.0249165250652, 381.9576890287669], [-171.71452711979, 386.4632204689625], [-169.3947879105525, 395.9374207539242]]]}, "properties": {"id": 9, "height_median_m": 3.0, "building_count": 1, "area_m2": 187.52077196263863}}, {"type": "Feature", "geometry": {"type": "Polygon", "coordinates": [[[-198.4440629269706, 425.2882136000469], [-198.4440629269706, 424.95697214484176], [-197.73173475839602, 422.6614748915588], [-198.04849464944655, 422.6614748915588], [-199.31129773557177, 421.2252097431959], [-229.1595212687946, 385.4960609838979], [-230.74835167154268, 383.55990763061953], [-238.65214802708627, 389.8986458518055], [-242.67222801985133, 393.0992482235268], [-247.58778927743631, 423.0658081526777], [-250.3203334873738, 439.5261351385847], [-206.24088023199016, 427.24604162996377], [-198.4440629269706, 425.2882136000469]]]}, "properties": {"id": 10, "height_median_m": 3.0, "building_count": 1, "area_m2": 1596.6017632242329}}, {"type": "Feature", "geometry": {"type": "Polygon", "coordinates": [[[74.21059024531311, -225.43980120164824], [74.22362406922356, -225.4352551181341], [70.9924515447164, -216.24771721698292], [70.9924515447164, -215.82849719571465], [71.19788361394353, -214.42659253874564], [71.71233221339284, -213.13934029381488], [71.99017441813328, -212.66532924658705], [77.89456373400641, -210.84419507096084], [81.12253052060856, -209.84291259632184], [90.4227494759648, -206.9479586450133], [101.37063052492448, -203.5914102648085], [101.36346173902555, -203.5587962255846], [101.69562639697006, -203.49176866631018], [102.04701416773592, -203.3840354851116], [102.05429009186783, -203.41939386214497], [114.17641159595127, -200.9732690315432], [114.18119404788271, -200.9923068703678], [170.51499221585232, -189.68549009454375], [171.00292827552605, -189.5744980379762], [173.64271323704142, -189.02142564405491], [173.64271323704145, -189.02142564405491], [173.9227264047556, -188.96275891352386], [174.76063532875946, -188.7872051084818], [175.00187114807179, -188.7872051084818], [175.6154701875324, -188.68146500684733], [175.95135493814996, -188.6177945415838], [175.97079384953247, -188.71254779755566], [187.87648993378227, -186.2781936686625], [188.73989038938203, -189.71519187721472], [190.11016805591797, -194.59850042925862], [190.11755514011955, -194.59625995081674], [190.25296594010663, -195.10739446300204], [190.2993280308286, -195.27261673848844], [190.29422461980005, -195.27416458633715], [190.59275597276266, -196.40595935529873], [190.59186623739134, -196.40617620212137], [192.45180870189697, -203.53183250305827], [192.2706466175295, -203.57533131426078], [196.78054954675324, -217.90226342653455], [123.11155129100192, -232.5568385023212], [109.03980404628166, -237.33601398206682], [99.46910112223995, -240.62430002074203], [99.48630069887756, -240.67442804859002], [99.1852170782287, -240.77648008709252], [98.85085903887531, -240.96662327143767], [98.82657229442839, -240.89804243314853], [84.25970445400249, -245.83546996410587], [81.1549198500896, -244.73955974802337], [80.41001406852101, -242.8030384598536], [78.37646988217867, -237.02084510869926], [78.2352421502636, -237.02084510869926], [78.2352421502636, -236.62009315092664], [74.47753794346592, -226.08804979685584], [74.45586455251266, -226.09560928561254], [74.34228400252745, -225.77265357838613], [74.21059024531311, -225.43980120164824]]]}, "properties": {"id": 11, "height_median_m": 9.0, "building_count": 23, "area_m2": 3725.4772351023366}}, {"type": "Feature", "geometry": {"type": "Polygon", "coordinates": [[[64.30350611188278, -189.29028040878757], [63.47775312337841, -187.14358175209819], [61.6169537267988, -181.908266948021], [60.22614118539173, -178.06661100234317], [60.22614118539173, -177.8064529379689], [62.21855967592593, -174.06738380048222], [62.37193292136268, -173.71850177888066], [68.7681785521103, -171.4451107449558], [70.33206943090468, -170.7780940530128], [74.54728256108055, -169.21718317850647], [116.14269267486115, -153.41038847578105], [165.2675672416148, -134.63712740759328], [173.0573538380392, -140.88443133784372], [183.6262209529239, -149.23209482031436], [195.19603250720505, -158.278957027912], [192.08745619060608, -158.86822016212452], [183.66818685177063, -160.42706530957977], [178.65015720249633, -161.3188340333848], [180.71131937882788, -168.79823231169763], [175.76370577993745, -169.9955155551759], [171.83984711957035, -171.03338777514503], [174.05535076682972, -179.57281589037987], [174.38645070467538, -180.51426770279534], [165.22384884241256, -181.90376126922698], [165.0286274288879, -182.01478004805378], [156.35817138300175, -183.35952369927764], [146.91014462958802, -185.16822832701266], [146.91574651057834, -185.18097106815443], [146.4735960164593, -185.2518000100111], [146.20484632369858, -185.30324872260317], [146.20139767273565, -185.29540398856028], [137.83982424795101, -186.6348605894496], [138.24874632093164, -188.262685108805], [137.73341367183096, -188.262685108805], [131.59892194597603, -189.37016799378844], [108.80167270472779, -193.5988897560664], [108.31479914547604, -193.70964012256698], [103.65799346061112, -194.6443125637295], [103.6589295920679, -194.6492711216084], [103.31627144025113, -194.71289995529852], [102.97086750364437, -194.78222634820872], [102.96993237114852, -194.77721230541036], [92.27147585014824, -196.76382872503027], [92.50550692141427, -197.69545247749977], [88.06376761764676, -199.50894379912728], [87.8056837123857, -198.7541394834505], [81.11314232991285, -200.9289529258839], [80.62248711276348, -199.58962584425657], [76.72143629488, -200.8097760274145], [75.989159579511, -199.05788918960846], [68.88483527436902, -202.07288679880799], [67.7109554583673, -198.73506895667293], [67.70613275270136, -198.73714442474486], [67.58582579719555, -198.37927442818204], [67.47817434490722, -198.073177557547], [67.48232341127593, -198.07139199247774], [66.3127695623406, -194.59238921879114], [64.4882123210765, -189.196912428394], [64.30350611188278, -189.29028040878757]]]}, "properties": {"id": 12, "height_median_m": 6.0, "building_count": 37, "area_m2": 3944.9516382542906}}, {"type": "Feature", "geometry": {"type": "Polygon", "coordinates": [[[185.03368456610656, -169.83915195213044], [190.38389402713602, -168.64598944864252], [194.52516727350633, -167.80058153755567], [196.4737014719948, -174.91571833322854], [196.5723734004006, -175.3646214246691], [196.85986845486832, -176.50907297023883], [187.1378717041387, -178.07153684270423], [186.98284747521382, -177.18994294994457], [185.03368456610656, -169.83915195213044]]]}, "properties": {"id": 13, "height_median_m": 3.0, "building_count": 1, "area_m2": 85.4595550952038}}, {"type": "Feature", "geometry": {"type": "Polygon", "coordinates": [[[14.080356015, -55.835452752], [14.297789394, -55.561655638], [14.508692888, -55.281802905], [14.515710246, -55.287244687], [17.040873353, -52.107501205], [18.136444062, -50.722988673], [44.424752249, -71.072730688], [44.366408746, -71.150148034], [74.455905231, -94.437003432], [74.455905231, -94.437003433], [73.970315829, -95.173391809], [73.970315827, -95.173391811], [73.277011789, -95.961929975], [70.641705453, -99.40327347], [67.996725603, -102.85724923], [66.755075596, -104.410676298], [66.402291563, -104.009432892], [62.220499739, -100.691143977], [53.510736426, -94.012833822], [10.564420486, -60.515549342], [14.087357675, -55.840882361], [14.080356015, -55.835452752]]]}, "properties": {"id": 14, "height_median_m": 21.0, "building_count": 6, "area_m2": 888.1304115000187}}, {"type": "Feature", "geometry": {"type": "Polygon", "coordinates": [[[88.56843206993851, -87.33936906367305], [88.78010308489786, -87.06652278027892], [88.99418295651125, -86.7836487996005], [88.9975164040052, -86.78627460321886], [91.92572504875525, -83.01178121839706], [94.64796493703768, -84.99333267740161], [101.90160755348955, -90.34469873526325], [102.29693904277724, -90.6819252080752], [119.92701390458431, -104.488075590745], [119.92898202413033, -104.48556579576427], [120.20364216504646, -104.70470378965926], [120.47813549696326, -104.91966012133618], [120.47618256673518, -104.922150546521], [126.7572117216994, -109.93347881579143], [128.42121455533922, -111.15808602879635], [132.04748578742402, -114.05630300738893], [144.45809532655863, -123.89077833113716], [138.23343338780708, -126.41924205033668], [138.22639370088416, -126.4137425143148], [115.28425333467233, -135.69443283241773], [115.2887863033328, -135.6981154249551], [114.73330649515864, -135.9173051066539], [114.54313621069976, -135.99423391493406], [114.54157156620455, -135.99296279470948], [109.75099469183309, -137.88330156993644], [72.99628774934688, -109.49273454046727], [72.2117359117947, -108.95734253507506], [75.46759911563497, -104.65697133866037], [88.57167747466923, -87.34192551476472], [88.56843206993851, -87.33936906367305]]]}, "properties": {"id": 15, "height_median_m": 9.0, "building_count": 14, "area_m2": 1862.0113063072015}}, {"type": "Feature", "geometry": {"type": "Polygon", "coordinates": [[[256.125265146, -180.204792683], [256.125265147, -180.204792683], [254.748268188, -172.150332671], [255.778212622, -171.982986899], [264.757649309, -170.335748753], [264.855437344, -170.224528288], [271.912567206, -168.924997063], [275.259308443, -168.308713272], [278.98621969, -167.622423288], [279.071802045, -167.525085109], [279.484438024, -167.525085109], [279.941461138, -167.421124899], [293.492187731, -164.833693527], [295.504479781, -166.105196834], [295.871056349, -168.398314701], [296.40679339, -171.140287713], [297.656914063, -176.353703412], [304.083767409, -174.526287567], [302.477332576, -165.952976471], [302.237888573, -165.135972425], [303.892427758, -162.877799006], [312.054373033, -161.5192977], [316.953705482, -160.57305501], [316.953705482, -160.511925109], [317.270215943, -160.511925109], [321.633396354, -159.669233249], [321.570165328, -159.525400027], [323.01721129, -158.428189274], [323.49209144, -158.29316153], [328.404277713, -157.510990276], [331.985673922, -156.893816561], [332.083569728, -157.561874801], [340.176715781, -156.170445109], [340.794620365, -156.170445109], [342.28180507, -157.081235805], [342.926701991, -160.329511968], [343.913239596, -160.10510175], [344.628611548, -164.173288684], [343.64414643, -164.285258076], [344.042622818, -166.777925108], [343.409040534, -166.777925108], [345.00050819, -175.375785997], [346.060823559, -175.134593364], [347.533760872, -182.792943007], [348.254873879, -186.534325105], [348.252036951, -186.534821508], [348.8368084, -189.638608648], [348.735394733, -189.657832669], [351.829822273, -206.00641519], [351.017098557, -207.458983502], [347.335949425, -208.715024035], [347.72745162, -209.605584036], [345.074447559, -210.510812408], [341.078596364, -198.391526629], [339.773579494, -198.601116131], [339.773579494, -211.912194061], [335.704825996, -212.705505238], [335.620997401, -212.133444127], [330.139094677, -213.202286145], [327.236881775, -213.77070052], [326.765841483, -213.859991131], [320.653474976, -215.05175875], [320.660702473, -215.090805109], [320.272852257, -215.090805109], [319.956686605, -215.150737613], [319.863667113, -214.6217531], [311.931103935, -216.153825071], [311.685800918, -214.758832539], [311.358527893, -214.882908585], [309.221537133, -203.251069136], [309.221537133, -203.251069135], [309.221537133, -203.251069134], [309.221537133, -202.012541402], [309.074061167, -201.677074071], [309.213969304, -201.650553021], [307.226159921, -191.602285109], [307.223266993, -191.602285109], [306.095180718, -185.303709049], [305.479924618, -181.979804641], [305.471819447, -181.981438303], [305.428731533, -181.736405367], [298.575592511, -182.849906053], [299.081405636, -185.678429923], [298.988013869, -185.707631574], [300.225931489, -192.078656674], [300.225931493, -192.078656694], [302.339013393, -202.953772777], [302.472530764, -203.640928777], [302.733085926, -204.981893193], [304.026617869, -211.639141089], [304.026617869, -211.63914109], [304.026617869, -211.639141091], [304.260292611, -212.841763641], [303.732771882, -212.641769504], [303.634397942, -212.977430059], [298.101412588, -210.850214987], [296.770492126, -210.338528459], [296.29572906, -210.156000748], [296.295729058, -210.156000747], [295.9881509, -210.037749053], [296.01150291, -209.984629641], [289.203879564, -205.88004618], [289.084550385, -205.808097931], [285.916514303, -203.897964564], [285.916514302, -203.897964563], [285.916514298, -203.897964561], [276.21380219, -196.45232398], [276.54444966, -195.950902508], [257.098128808, -180.701454291], [256.23804781, -180.864491635], [256.125265146, -180.204792683]]]}, "properties": {"id": 16, "height_median_m": 6.0, "building_count": 81, "area_m2": 3495.86883306588}}, {"type": "Feature", "geometry": {"type": "Polygon", "coordinates": [[[355.693099636, -204.742476121], [358.888058741, -203.50165702], [356.870515233, -194.010031219], [356.866259379, -194.010999309], [356.729046084, -193.324329653], [356.376881635, -191.561959309], [356.181977024, -190.586579463], [356.196249476, -190.589826054], [355.230325962, -185.646101794], [355.133330063, -185.204823717], [355.034321973, -184.754391273], [354.446310013, -181.633404499], [354.446310005, -181.633404458], [352.57414105, -171.696507], [352.390311513, -170.720796315], [352.234386072, -169.834077397], [353.051548767, -169.648195321], [357.885890496, -168.638285109], [358.276082997, -168.638285109], [363.089711866, -167.59545806], [363.075962133, -167.525085109], [363.342649495, -167.525085109], [363.83202724, -166.968485109], [366.691551935, -166.968485109], [367.144176849, -166.865525368], [371.429171587, -165.932284106], [370.792150377, -162.712176662], [370.183365704, -159.744709564], [371.46485979, -158.287185974], [369.970963442, -158.609429459], [364.310601157, -159.830407653], [363.353834791, -155.477646079], [363.325634448, -155.483144482], [363.258892561, -155.157817052], [363.154974017, -154.80323782], [363.316042917, -154.771833175], [362.174949372, -150.229402789], [368.094878067, -147.985034058], [368.38011813, -150.255983947], [369.162751521, -150.094140667], [369.164445616, -150.103224156], [372.185420418, -149.560706664], [372.190571522, -149.585374762], [374.98614274, -149.051888441], [389.94480047, -146.329741308], [390.469000969, -149.787736714], [391.153879652, -154.127631524], [392.426113327, -162.030429342], [393.340586337, -167.63090053], [393.375539464, -167.635154687], [393.455575858, -169.501278114], [393.703006839, -169.451615978], [393.703006839, -169.850458199], [393.752828135, -170.155576807], [393.703006839, -170.165576492], [393.703006839, -173.650920211], [393.800882388, -174.986760211], [393.800882388, -175.995851457], [393.985118247, -181.758283892], [394.120354064, -181.752131405], [393.998793539, -182.16690663], [394.11712001, -184.925799027], [394.177695151, -186.338165109], [394.205036466, -186.97565346], [393.585082968, -187.093172126], [393.294542529, -191.168720437], [390.041116924, -192.365884403], [390.250991375, -193.320697905], [385.194959329, -194.125773833], [381.631785755, -195.476647425], [381.844494997, -196.32339389], [377.704461578, -196.996068127], [377.780885986, -197.604524034], [377.230858608, -197.813050911], [377.559955258, -199.060725108], [375.606239347, -199.060725108], [371.738045517, -200.076328693], [371.824413389, -200.665718279], [367.974389211, -201.349917336], [367.999312184, -201.548342558], [367.421521694, -201.667825715], [363.899144048, -203.089388008], [363.931243069, -203.21716681], [359.388370747, -204.058289025], [359.035506179, -204.195330246], [359.020841139, -204.126337893], [355.693099636, -204.742476121]]]}, "properties": {"id": 17, "height_median_m": 6.0, "building_count": 48, "area_m2": 1675.104183095037}}, {"type": "Feature", "geometry": {"type": "Polygon", "coordinates": [[[345.910990572, -140.537015203], [344.586518966, -132.904565109], [345.061472219, -132.904565109], [344.196401352, -128.750323402], [344.203463017, -128.748912432], [343.204210621, -123.748257785], [342.50535039, -120.296010644], [342.212505068, -118.963725241], [342.212505066, -118.963725232], [341.820353664, -116.845137909], [341.753176727, -116.50677493], [341.757554948, -116.505869544], [341.04019024, -112.630326146], [340.839087258, -111.944145046], [347.578558938, -110.646953323], [351.420769792, -109.89781263], [351.420769792, -110.505322268], [353.132082679, -117.901579473], [362.155542989, -116.1029186], [362.642641521, -115.992117058], [365.813072861, -115.316005108], [366.054978147, -115.316005108], [381.619005514, -112.149803662], [384.153248797, -117.914511311], [383.129106898, -118.154327361], [387.566744491, -129.319353394], [388.613478306, -128.994667208], [388.613478306, -129.347480298], [389.389948414, -133.409869796], [389.423768272, -133.578156121], [389.422409438, -133.579701608], [390.434629282, -138.87550272], [377.984515097, -141.273617313], [377.659162965, -141.396965108], [377.33832164, -141.396965108], [374.244717858, -142.056693159], [370.783060726, -142.844125109], [367.449160079, -142.844125109], [367.60121484, -144.05471502], [360.950421636, -145.354840121], [357.992426839, -145.933081418], [354.496680676, -146.61644462], [354.048538448, -146.704049352], [354.048538448, -146.484596049], [350.52897534, -147.199421024], [347.549906226, -145.747300106], [347.46675098, -145.32958204], [347.045535965, -141.97606226], [346.806884115, -142.014838505], [346.491050022, -140.428292681], [345.910990572, -140.537015203]]]}, "properties": {"id": 18, "height_median_m": 3.0, "building_count": 22, "area_m2": 1266.967384956028}}, {"type": "Feature", "geometry": {"type": "Polygon", "coordinates": [[[355.643887325, -152.70546495], [357.235635929, -161.153977363], [356.774110731, -161.416438139], [350.886166236, -162.612282522], [350.726738732, -161.705648024], [350.126751011, -158.691698507], [350.093658464, -158.525462995], [349.522169279, -155.654671658], [350.970490004, -153.753980126], [354.986803245, -152.954579262], [355.643887325, -152.70546495]]]}, "properties": {"id": 19, "height_median_m": 3.0, "building_count": 1, "area_m2": 55.167476301839464}}, {"type": "Feature", "geometry": {"type": "Polygon", "coordinates": [[[197.61085587929546, -194.21464551379566], [197.5521071978942, -193.88055271365596], [197.23657995222115, -192.44507701350904], [196.57671738161574, -189.77662159717133], [195.69381863583746, -186.09464250387893], [195.42972259497915, -184.74296404813825], [204.5256745856191, -182.9385343967095], [206.43839804366957, -191.64037579318259], [202.82443993957364, -192.325439327713], [204.0313833749782, -199.1891016491932], [207.85327960996173, -198.28791873629305], [208.61239944671001, -201.8648392216452], [209.38818449682694, -205.50453465308698], [209.64571789170927, -206.09035241537407], [207.42885645874654, -206.5487843321583], [207.43039791177196, -206.55474518224105], [207.06599841690806, -206.62382091548608], [206.7425318436413, -206.69071161013818], [206.74115772905517, -206.68539786336203], [200.91706964465624, -207.7894146377642], [200.69395287097984, -207.2818852380306], [199.209420370128, -200.86576794916968], [199.209420370128, -200.65339692495928], [198.82941498768284, -199.35678505938677], [197.61622476070076, -194.21375500215422], [197.61085587929546, -194.21464551379566]]]}, "properties": {"id": 20, "height_median_m": 6.0, "building_count": 4, "area_m2": 189.4938582059723}}, {"type": "Feature", "geometry": {"type": "Polygon", "coordinates": [[[211.77125562574778, -181.51336744579515], [218.13646847124878, -180.2882118534447], [218.1222744759467, -180.21556510876675], [218.5138997096115, -180.21556510876675], [222.33045041900812, -179.48096776558262], [222.32063766179627, -179.4363251087567], [222.70713284733475, -179.4363251087567], [223.01792400232017, -179.34795454089615], [223.03304984307732, -179.41676881027504], [224.3737216848886, -179.18217955342013], [229.54169048447426, -185.9820510636121], [232.78516547465816, -201.18523359847939], [233.18193953883602, -202.53906168121776], [216.81146731447677, -205.91378529490694], [216.34528058807877, -203.7928916882637], [211.77125562574778, -181.51336744579515]]]}, "properties": {"id": 21, "height_median_m": 6.0, "building_count": 2, "area_m2": 396.0977072312504}}, {"type": "Feature", "geometry": {"type": "Polygon", "coordinates": [[[249.90895460826295, -147.09211703347674], [249.90895460826295, -146.8705990590323], [248.25497281005252, -138.68194522955636], [248.1471947312004, -138.314196922969], [248.1471947312004, -137.8857824931205], [256.91695417739203, -135.47816932054332], [267.33080228054877, -132.43559104541723], [267.33080228054877, -132.32447003074557], [287.297608129134, -126.47505322375766], [287.5080364760164, -127.19305329434847], [287.5080364760164, -127.31749893208931], [287.82308388504975, -128.78662395751587], [288.48554008932365, -131.86422178920623], [288.5846675120184, -132.20245329435656], [288.5846675120184, -132.32689893211023], [289.5570070740123, -136.86110027224572], [289.65554095013084, -137.42144405703016], [290.8288626649935, -143.53786743362016], [291.6830920565577, -147.5455881634941], [290.20996661328985, -147.88068375471573], [292.16991699540046, -157.8005102418651], [285.37901813575894, -159.0877961042438], [284.24893666167225, -159.4091242384155], [283.45938364787975, -155.59258955389535], [282.27460034683844, -155.81717761270633], [281.98097370073094, -154.147377612638], [279.6422372476785, -154.59070955371465], [279.2447932385834, -152.66954806272565], [272.00755850729445, -153.6984681820636], [273.47176023916, -161.47000099329526], [266.58005260643193, -162.87388839307087], [265.56684586061556, -163.10436510865006], [265.0408154024529, -163.10436510865006], [263.5842092940394, -155.2627015669122], [261.3442496568425, -155.7057705371595], [261.3432371029205, -155.70116397284215], [252.60447618902467, -157.30425120753847], [251.8664655826224, -157.58404645730548], [251.8664655826224, -157.00035208562667], [251.58072768570472, -155.57040651081027], [251.3473030059369, -154.4652884474899], [251.2884696599843, -154.26454388515867], [251.28582920131524, -154.25052914201126], [251.3067470309088, -154.24620347664964], [249.90895460826295, -147.09211703347674]]]}, "properties": {"id": 22, "height_median_m": 6.0, "building_count": 20, "area_m2": 1032.4395728848021}}, {"type": "Feature", "geometry": {"type": "Polygon", "coordinates": [[[295.45151060008936, -130.2027184097569], [295.4594818685712, -130.2010184928364], [294.31793999260225, -124.35845623126936], [294.5964451607939, -124.04169483766418], [301.12514925125396, -122.125435580267], [302.23895301292566, -127.41618381199615], [312.0013361022759, -125.41140857342681], [311.5138822338254, -122.86111403620355], [313.8464888119403, -122.3084015870957], [313.66753353242075, -121.57057973416649], [312.9533957779942, -118.3216451084206], [313.7192374659659, -118.3216451084206], [315.89619262800477, -117.53975427560792], [315.9046825393533, -117.57837871015414], [322.75103227540455, -115.44083045320629], [322.7584030504507, -115.47436343212378], [332.7251870786261, -112.44082649380087], [334.02047349581727, -117.65372510852498], [334.02822069985405, -117.65372510852498], [334.08761593056647, -117.92394079244474], [334.1944075311873, -118.35372510852497], [334.18208542338, -118.35372510852497], [335.06296536173744, -122.36124510868964], [333.3247379079595, -122.36124510868964], [334.2925487650848, -126.98440344922098], [334.2925487650848, -127.20746092990866], [335.0060590987324, -130.65642114834958], [335.2027741719607, -130.6198629146684], [335.57154419963973, -132.6470851031897], [336.244733618078, -136.19907339055996], [336.8793769900599, -139.44726208695798], [337.0588332590684, -139.41292635187997], [338.8549900805559, -148.786148738613], [330.3400533104829, -150.3445855507114], [330.3413974647592, -150.35157430938335], [329.9892290448523, -150.4087947709205], [329.6514631302282, -150.4706140009907], [329.6434844665559, -150.42912995714738], [322.20656273410543, -151.79340052259528], [322.2092976474138, -151.81019770011443], [321.86079834545546, -151.85682947814783], [321.51791378968426, -151.91973014103152], [321.49851232467023, -151.80057102510037], [315.02685078965516, -153.18936848643503], [310.3873416731038, -154.1487875214831], [310.47855534347156, -154.5637596328605], [307.1509176071487, -155.26463576153367], [307.0570246793017, -154.83747450028412], [303.0534234848098, -155.66539208773608], [302.74298164503983, -155.48884960090888], [302.3314186421677, -155.25480139316542], [302.0230048622019, -155.02094917018866], [300.05407742964707, -153.6066009677069], [299.1983352440878, -149.18936510858362], [298.70715367688086, -149.18936510858362], [298.0946841546722, -145.70636510849124], [298.52358068548153, -145.70636510849124], [297.4822843118645, -140.33132136384992], [297.3851668940734, -139.77903271390917], [297.28800111888535, -139.33698179411962], [296.30860332511855, -134.32429438406942], [295.62081966541, -130.88235261877023], [295.59373214929406, -130.88812918081737], [295.52624124216544, -130.54270179414902], [295.45151060008936, -130.2027184097569]]]}, "properties": {"id": 23, "height_median_m": 6.0, "building_count": 34, "area_m2": 1287.3120151169271}}]}