{"type": "FeatureCollection", "crs": {"type": "name", "properties": {"name": "EPSG:32628_local_enu_m_section_centroid", "lng0": -16.289818909850077, "lat0": 28.450743959350444}}, "features": [{"type": "Feature", "geometry": {"type": "Point", "coordinates": [82.9896418427462, 332.6196348915796]}, "properties": {"osm_id": null, "category": "restauracion", "name": "J & Parada", "extrude": false}}, {"type": "Feature", "geometry": {"type": "Point", "coordinates": [365.849977648465, 312.4707148914328]}, "properties": {"osm_id": null, "category": "restauracion", "name": "", "extrude": false}}, {"type": "Feature", "geometry": {"type": "Point", "coordinates": [144.94486418362183, 298.2217548914185]}, "properties": {"osm_id": null, "category": "restauracion", "name": "Los Esperanceros", "extrude": false}}, {"type": "Feature", "geometry": {"type": "Point", "coordinates": [163.44334289190968, 295.77271489127395]}, "properties": {"osm_id": null, "category": "restauracion", "name": "Tropical", "extrude": false}}, {"type": "Feature", "geometry": {"type": "Point", "coordinates": [-91.71821262526687, 504.38639489136517]}, "properties": {"osm_id": null, "category": "salud", "name": "Farmacia Las Moraditas", "extrude": false}}, {"type": "Feature", "geometry": {"type": "Point", "coordinates": [-262.3152940472642, 444.83019489144465]}, "properties": {"osm_id": null, "category": "restauracion", "name": "Tamanaco", "extrude": false}}, {"type": "Feature", "geometry": {"type": "Point", "coordinates": [209.73847743721433, 271.3936348915246]}, "properties": {"osm_id": null, "category": "restauracion", "name": "La Rotonda", "extrude": false}}, {"type": "Feature", "geometry": {"type": "Point", "coordinates": [518.1443314594713, 97.957074891209]}, "properties": {"osm_id": null, "category": "salud", "name": "Juan XXIII", "extrude": false}}, {"type": "Feature", "geometry": {"type": "Point", "coordinates": [165.89023161003286, 19.14251489126613]}, "properties": {"osm_id": null, "category": "restauracion", "name": "Bodegón Casa Rosi", "extrude": false}}, {"type": "Feature", "geometry": {"type": "Point", "coordinates": [148.8598861323407, -0.895085108766267]}, "properties": {"osm_id": null, "category": "restauracion", "name": "Bar La Placita", "extrude": false}}, {"type": "Feature", "geometry": {"type": "Point", "coordinates": [359.4880669816229, -131.5847651086436]}, "properties": {"osm_id": null, "category": "restauracion", "name": "Asadero el Bimba", "extrude": false}}, {"type": "Feature", "geometry": {"type": "Point", "coordinates": [265.23391356242564, -183.01460510851584]}, "properties": {"osm_id": null, "category": "salud", "name": "Farmacia Garcigall", "extrude": false}}, {"type": "Feature", "geometry": {"type": "Point", "coordinates": [392.08062470571605, -187.69004510857613]}, "properties": {"osm_id": null, "category": "restauracion", "name": "Los Príncipes", "extrude": false}}]}