{"type": "FeatureCollection", "crs": {"type": "name", "properties": {"name": "EPSG:32628_local_enu_m_section_centroid", "lng0": -15.42711367676768, "lat0": 28.07761090235691}}, "features": [{"type": "Feature", "geometry": {"type": "Polygon", "coordinates": [[[98.18709664018044, -327.4029896289675], [97.59778357540247, -327.95958962874863], [101.33009965291114, -331.0765496287888], [100.9372242762762, -335.52934962901577], [102.11585040600659, -337.8670696290459], [103.09803884741952, -337.5331096287026], [106.5356983925392, -340.31610962879495], [107.41966798988062, -339.7595096290138], [103.88378960051496, -336.865189628807], [105.25885341856284, -335.30670962878685], [104.2766649771499, -334.4161496290579], [104.17844613307841, -332.7463496289233], [101.52653734105415, -332.0784296290277], [101.62475618530013, -330.51994962900767], [98.18709664018044, -327.4029896289675]]]}, "properties": {"id": 0, "height_m": 3.0, "levels": 1, "category": "residencial", "extrude": true, "manzana_id": 22}}, {"type": "Feature", "geometry": {"type": "Polygon", "coordinates": [[[-131.841436347484, 407.53165037113104], [-132.23431172394453, 398.6260503710727], [-112.09944867428176, 397.73549037094824], [-92.0628044686905, 396.7336103711048], [-72.22259795141673, 395.84305037098034], [-71.92794141902775, 402.0769703710607], [-80.47298085952953, 402.6335703712374], [-84.2052969370382, 402.8562103710708], [-91.964585624619, 403.19017037101855], [-91.86636678037303, 404.5260103712053], [-100.70606275343826, 404.9712903712675], [-103.94728461024047, 405.08261037098646], [-120.44805042664052, 405.86185037099654], [-121.9213330887599, 405.973170371111], [-121.8231142446884, 407.9769303711933], [-127.32336951670545, 408.19957037102665], [-127.4215883609514, 407.42033037101663], [-131.841436347484, 407.53165037113104]]]}, "properties": {"id": 1, "height_m": 9.0, "levels": 3, "category": "residencial", "extrude": true, "manzana_id": 8}}, {"type": "Feature", "geometry": {"type": "Polygon", "coordinates": [[[-71.6332848864643, 408.4222103712556], [-71.33862835407531, 416.1032903712416], [-91.08061602727759, 416.99385037097056], [-111.21547907694034, 417.8844103710951], [-131.35034212677758, 418.7749703712195], [-131.64499865916656, 411.4278503711813], [-131.64499865916656, 411.20521037095244], [-127.22515067263394, 410.9825703711191], [-120.34983158239456, 410.64861037117123], [-103.75084692192299, 409.9806903712756], [-100.50962506512077, 409.7580503710468], [-83.91064040464921, 408.97881037103673], [-80.08010548306903, 408.8674903713178], [-71.6332848864643, 408.4222103712556]]]}, "properties": {"id": 2, "height_m": 9.0, "levels": 3, "category": "residencial", "extrude": true, "manzana_id": 8}}, {"type": "Feature", "geometry": {"type": "Polygon", "coordinates": [[[-127.22515067263394, 410.9825703711191], [-127.32336951670545, 408.19957037102665], [-121.8231142446884, 407.9769303711933], [-121.9213330887599, 405.973170371111], [-120.44805042664052, 405.86185037099654], [-120.34983158239456, 410.64861037117123], [-127.22515067263394, 410.9825703711191]]]}, "properties": {"id": 3, "height_m": 6.0, "levels": 2, "category": "residencial", "extrude": true, "manzana_id": 8}}, {"type": "Feature", "geometry": {"type": "Polygon", "coordinates": [[[-103.75084692192299, 409.9806903712756], [-103.94728461024047, 405.08261037098646], [-100.70606275343826, 404.9712903712675], [-100.50962506512077, 409.7580503710468], [-103.75084692192299, 409.9806903712756]]]}, "properties": {"id": 4, "height_m": 6.0, "levels": 2, "category": "residencial", "extrude": true, "manzana_id": 8}}, {"type": "Feature", "geometry": {"type": "Polygon", "coordinates": [[[-271.80328925405934, 412.6523703712536], [-271.80328925405934, 412.42973037102473], [-272.09794578644835, 404.7486503710387], [-212.08623201392055, 402.1882903711752], [-211.6933566372856, 409.7580503710468], [-211.6933566372856, 409.9806903712756], [-215.03279733833378, 410.09201037099456], [-218.27401919496154, 410.203330371109], [-221.51524105176375, 410.4259703709424], [-224.75646290856594, 410.5372903710568], [-224.5600252202485, 415.2127303711171], [-221.22058451937477, 415.10141037100266], [-219.84552070132688, 415.10141037100266], [-219.5508641689379, 422.6711703712698], [-271.2139761891069, 425.0088903712999], [-271.5086327216704, 417.3278103713139], [-268.26741086486817, 417.2164903711995], [-268.46384855318564, 412.54105037113914], [-271.80328925405934, 412.6523703712536]]]}, "properties": {"id": 5, "height_m": 9.0, "levels": 3, "category": "residencial", "extrude": true, "manzana_id": 9}}, {"type": "Feature", "geometry": {"type": "Polygon", "coordinates": [[[-219.5508641689379, 422.6711703712698], [-219.84552070132688, 415.10141037100266], [-218.17580035089003, 414.9900903712837], [-218.27401919496154, 410.203330371109], [-215.03279733833378, 410.09201037099456], [-214.8363596500163, 414.8787703711693], [-211.4969189489681, 414.65613037094045], [-211.20226241657912, 422.337210371322], [-219.5508641689379, 422.6711703712698]]]}, "properties": {"id": 6, "height_m": 12.0, "levels": 4, "category": "residencial", "extrude": true, "manzana_id": 9}}, {"type": "Feature", "geometry": {"type": "Polygon", "coordinates": [[[-270.33000659194, 444.6012103712701], [-270.7228819684005, 436.140890371274], [-250.4898000746662, 435.2503303711495], [-230.55137471314643, 434.35977037102504], [-210.61294935180115, 433.580530371015], [-190.57630514620993, 432.689970371286], [-170.63787978469017, 431.7994103711615], [-150.6012355790989, 430.90885037103703], [-130.56459137350765, 430.018290371308], [-110.52794716791641, 429.1277303711836], [-90.58952180657113, 428.23717037105905], [-70.65109644505137, 427.3466103709346], [-70.25822106841642, 436.140890371274], [-77.32997784697328, 436.25221037099294], [-77.2317590027273, 439.36917037103314], [-70.06178338027341, 439.1465303711998], [-69.76712684770996, 447.60685037119583], [-89.70555220922971, 448.49741037132037], [-109.64397757057499, 449.38797037104933], [-129.68062177616622, 450.2785303711738], [-149.7172659817575, 451.0577703711839], [-169.75391018734874, 451.9483303713083], [-189.6923355488685, 452.83889037103734], [-209.72897975445974, 453.7294503711618], [-229.667405115805, 454.6200103712863], [-249.60583047732476, 455.5105703710153], [-269.74069352698757, 456.40113037113974], [-270.1335689036225, 448.16345037097705], [-270.1335689036225, 447.9408103711437], [-259.62415258012044, 447.49553037108143], [-259.7223714241919, 444.1559303712079], [-270.33000659194, 444.6012103712701]]]}, "properties": {"id": 7, "height_m": 9.0, "levels": 3, "category": "residencial", "extrude": true, "manzana_id": 10}}, {"type": "Feature", "geometry": {"type": "Polygon", "coordinates": [[[-198.53203152193373, 329.27369037096935], [-197.54984308052082, 330.8321703709895], [-200.98750262546602, 337.2887303712987], [-205.01447523553816, 335.173650371102], [-205.7020071443876, 336.5094903712887], [-208.94322900118985, 334.8396903711541], [-207.1752898066815, 331.3887703711662], [-206.8806332742925, 331.6114103709995], [-204.6215998589032, 327.0472903710537], [-202.2643475994424, 327.4925703711159], [-198.53203152193373, 329.27369037096935]]]}, "properties": {"id": 8, "height_m": 15.0, "levels": 5, "category": "residencial", "extrude": true, "manzana_id": 7}}, {"type": "Feature", "geometry": {"type": "Polygon", "coordinates": [[[-202.7554418201489, 325.2661703712002], [-204.71981870297472, 324.9322103712524], [-206.684195585975, 322.14921037116], [-207.27350865075297, 321.2586503710355], [-207.46994633907048, 321.4812903712644], [-210.02363628684873, 317.9190503711619], [-206.58597674172904, 315.47001037101734], [-205.60378830031613, 316.91717037131855], [-202.36256644351388, 314.5794503712884], [-198.23737498937027, 320.47941037102544], [-199.31778227502915, 322.8171303710556], [-202.7554418201489, 325.2661703712002]]]}, "properties": {"id": 9, "height_m": 15.0, "levels": 5, "category": "residencial", "extrude": true, "manzana_id": 7}}, {"type": "Feature", "geometry": {"type": "Polygon", "coordinates": [[[-196.4694357948619, 327.7152103709493], [-197.05874885963988, 323.9303303710135], [-196.2729981065444, 321.8152503712122], [-191.65671243169433, 320.9246903710877], [-191.75493127594032, 320.47941037102544], [-187.82617751011418, 319.7001703710154], [-187.04042675684425, 324.0416503711279], [-188.51370941913808, 324.26429037096125], [-187.82617751011418, 328.0491703712926], [-195.29080966513152, 329.27369037096935], [-196.4694357948619, 327.7152103709493]]]}, "properties": {"id": 10, "height_m": 15.0, "levels": 5, "category": "residencial", "extrude": true, "manzana_id": 7}}, {"type": "Feature", "geometry": {"type": "Polygon", "coordinates": [[[-188.31727173082064, 310.1266503710615], [-191.75493127594032, 308.345530371208], [-192.3442443407183, 309.5700503712803], [-196.07656041822696, 307.56629037119797], [-194.40684006779009, 304.1153703712099], [-193.91574584708366, 304.3380103710433], [-191.8531501200118, 300.2191703711597], [-189.49589786055103, 300.1078503710453], [-186.0582383154313, 301.88897037129425], [-184.87961218570092, 303.4474503713143], [-188.31727173082064, 310.1266503710615]]]}, "properties": {"id": 11, "height_m": 15.0, "levels": 5, "category": "residencial", "extrude": true, "manzana_id": 6}}, {"type": "Feature", "geometry": {"type": "Polygon", "coordinates": [[[-183.897423744288, 300.44181037099304], [-184.192080276677, 296.1003303712761], [-183.60276721189902, 294.3192103710271], [-178.59360616041397, 293.9852503710793], [-178.69182500465996, 293.6512903711315], [-174.7630712388338, 293.4286503712981], [-174.56663355051634, 297.65881037129617], [-175.84347852431821, 297.65881037129617], [-175.54882199192923, 301.7776503711798], [-182.9152353028751, 302.222930371242], [-183.897423744288, 300.44181037099304]]]}, "properties": {"id": 12, "height_m": 15.0, "levels": 5, "category": "residencial", "extrude": true, "manzana_id": 6}}, {"type": "Feature", "geometry": {"type": "Polygon", "coordinates": [[[-169.75391018734874, 275.72877037129587], [-168.6735029018643, 272.1665303711934], [-170.3432232523012, 271.7212503711312], [-169.26281596664228, 267.6024103712476], [-164.84296798010968, 268.9382503710388], [-165.03940566842715, 269.3835303711011], [-160.61955768189452, 270.60805037117336], [-160.1284634611881, 272.3891703710268], [-161.30708959091848, 276.3966903711915], [-162.97680994135536, 278.0664903709305], [-169.85212903159473, 276.0627303712437], [-169.75391018734874, 275.72877037129587]]]}, "properties": {"id": 13, "height_m": 15.0, "levels": 5, "category": "salud", "extrude": true, "manzana_id": 5}}, {"type": "Feature", "geometry": {"type": "Polygon", "coordinates": [[[-159.53915039623564, 288.1966103710612], [-160.42311999357705, 284.5230503712398], [-160.03024461711655, 284.4117303711254], [-161.20887074684697, 279.5136503712317], [-159.53915039623564, 278.4004503712738], [-155.512177786338, 277.3985703710349], [-153.35136321519465, 278.0664903709305], [-151.58342402051184, 284.8570103711876], [-155.512177786338, 285.858890371031], [-155.21752125394903, 287.1947303712177], [-159.53915039623564, 288.1966103710612]]]}, "properties": {"id": 14, "height_m": 15.0, "levels": 5, "category": "salud", "extrude": true, "manzana_id": 5}}, {"type": "Feature", "geometry": {"type": "Polygon", "coordinates": [[[-132.528968256508, 276.84197037125375], [-130.85924790589664, 275.1721703711192], [-124.27858534822072, 277.3985703710349], [-125.4572114779511, 281.0721303712518], [-124.1803665041492, 281.517410371314], [-125.6536491662686, 285.858890371031], [-129.28774639970575, 284.4117303711254], [-129.1895275554598, 284.18909037129197], [-133.90403207455586, 282.29665037132406], [-134.00225091862734, 280.62685037118956], [-132.528968256508, 276.84197037125375]]]}, "properties": {"id": 15, "height_m": 15.0, "levels": 5, "category": "residencial", "extrude": true, "manzana_id": 5}}, {"type": "Feature", "geometry": {"type": "Polygon", "coordinates": [[[-136.45772202215966, 281.0721303712518], [-136.06484664569916, 282.8532503711052], [-141.95797729435117, 287.7513303709989], [-144.51166724212945, 284.7456903710731], [-145.49385568354236, 285.5249303710832], [-148.24398331963812, 282.29665037132406], [-144.9045426187644, 279.6249703709506], [-144.60988608620093, 279.95893037129395], [-141.2704453853272, 277.1759303712015], [-139.1096308141839, 277.8438503710971], [-136.45772202215966, 281.0721303712518]]]}, "properties": {"id": 16, "height_m": 15.0, "levels": 5, "category": "salud", "extrude": true, "manzana_id": 5}}, {"type": "Feature", "geometry": {"type": "Polygon", "coordinates": [[[-138.32388006091398, 275.39481037095254], [-140.09181925559682, 274.8382103711714], [-140.8775700086923, 270.1627703711111], [-141.2704453853272, 270.2740903712255], [-142.05619613842268, 265.932610371113], [-138.029223528525, 265.153370371103], [-137.83278584020755, 266.4892103712897], [-133.90403207455586, 265.8212903709986], [-132.528968256508, 273.05709037131794], [-134.19868860694484, 274.7268903710569], [-138.32388006091398, 275.39481037095254]]]}, "properties": {"id": 17, "height_m": 15.0, "levels": 5, "category": "salud", "extrude": true, "manzana_id": 5}}, {"type": "Feature", "geometry": {"type": "Polygon", "coordinates": [[[-113.67095018064711, 251.90629037093217], [-115.63532706347296, 253.2421303711189], [-122.21598962114888, 250.4591303710265], [-120.64448811495802, 246.56293037097626], [-121.72489540044243, 246.1176503713095], [-121.03736349141849, 244.5591703712894], [-120.05517505000557, 242.3327703709782], [-116.61751550488587, 243.8912503709983], [-116.71573434913185, 244.22521037094612], [-112.19766751835326, 246.22897037102845], [-112.00122983021025, 248.0100903712774], [-113.67095018064711, 251.90629037093217]]]}, "properties": {"id": 18, "height_m": 15.0, "levels": 5, "category": "residencial", "extrude": true, "manzana_id": 1}}, {"type": "Feature", "geometry": {"type": "Polygon", "coordinates": [[[-105.42056727235985, 261.59113037100053], [-109.15288334986853, 261.9250903709484], [-108.95644566155104, 263.48357037096844], [-113.57273133640113, 263.48357037096844], [-113.9656067130361, 259.8100103711471], [-113.47451249232965, 259.8100103711471], [-114.16204440135357, 254.800610371139], [-112.19766751835326, 253.79873037129556], [-107.97425722013813, 253.46477037095227], [-106.20631802562977, 254.13269037124337], [-105.42056727235985, 261.59113037100053]]]}, "properties": {"id": 19, "height_m": 15.0, "levels": 5, "category": "residencial", "extrude": true, "manzana_id": 1}}, {"type": "Feature", "geometry": {"type": "Polygon", "coordinates": [[[-109.64397757057499, 247.78745037104855], [-109.93863410313844, 245.67237037124727], [-106.30453686970127, 242.88937037115488], [-106.40275571394724, 242.6667303713215], [-103.06331501289905, 240.21769037117693], [-100.60784390936675, 243.44597037093607], [-101.68825119485118, 244.33653037106055], [-99.23278009131887, 247.56481037121517], [-105.12591073997086, 251.90629037093217], [-107.09028762279671, 251.23837037103655], [-109.64397757057499, 247.78745037104855]]]}, "properties": {"id": 20, "height_m": 15.0, "levels": 5, "category": "residencial", "extrude": true, "manzana_id": 1}}, {"type": "Feature", "geometry": {"type": "Polygon", "coordinates": [[[-81.94626352182337, 263.1496103710207], [-79.4907924181166, 263.70621037119736], [-78.01750975599722, 271.1646503709545], [-81.94626352182337, 271.83257037124565], [-81.7498258335059, 273.05709037131794], [-86.07145497579253, 273.8363303709325], [-86.85720572906244, 269.8288103711633], [-86.36611150835598, 269.7174903710488], [-87.34829994976891, 264.93073037126965], [-85.77679844340355, 263.81753037131176], [-81.94626352182337, 263.1496103710207]]]}, "properties": {"id": 21, "height_m": 15.0, "levels": 5, "category": "residencial", "extrude": true, "manzana_id": 2}}, {"type": "Feature", "geometry": {"type": "Polygon", "coordinates": [[[-72.71369217212319, 229.5309703712651], [-74.28519367848854, 228.863050370974], [-75.16916327582996, 224.29893037102815], [-75.66025749653642, 224.41025037114258], [-76.44600824963186, 220.18009037114453], [-74.87450674326651, 219.84613037119672], [-72.32081679548823, 219.40085037113448], [-72.02616026309924, 220.7366903713212], [-68.29384418559057, 219.84613037119672], [-66.52590499090773, 227.41589037106834], [-68.29384418559057, 228.75173037125506], [-72.71369217212319, 229.5309703712651]]]}, "properties": {"id": 22, "height_m": 15.0, "levels": 5, "category": "residencial", "extrude": true, "manzana_id": 3}}, {"type": "Feature", "geometry": {"type": "Polygon", "coordinates": [[[-65.15084117303434, 229.41965037115068], [-60.829212030573224, 230.86681037105635], [-60.63277434225574, 230.31021037127516], [-56.90045826474707, 231.6460503710664], [-58.27552208279495, 235.87621037106445], [-59.257710524207866, 235.54225037111664], [-60.53455549818424, 239.21581037093802], [-67.90096880895561, 236.6554503710745], [-68.19562534151908, 234.65169037099216], [-66.8205615234712, 230.4215303709941], [-65.15084117303434, 229.41965037115068]]]}, "properties": {"id": 23, "height_m": 15.0, "levels": 5, "category": "residencial", "extrude": true, "manzana_id": 3}}, {"type": "Feature", "geometry": {"type": "Polygon", "coordinates": [[[-56.01648866740565, 260.9232103711049], [-55.72183213501667, 262.9269703711873], [-61.51674393959716, 267.6024103712476], [-63.97221504330393, 264.4854503712074], [-64.95440348471685, 265.37601037093634], [-67.60631227656664, 262.0364103710628], [-64.46330926401039, 259.4760503711993], [-64.16865273144694, 259.92133037126155], [-60.53455549818424, 257.0270103710547], [-58.57017861518393, 257.8062503710647], [-56.01648866740565, 260.9232103711049]]]}, "properties": {"id": 24, "height_m": 15.0, "levels": 5, "category": "residencial", "extrude": true, "manzana_id": 4}}, {"type": "Feature", "geometry": {"type": "Polygon", "coordinates": [[[-57.784427862088485, 255.35721037131566], [-59.65058590084283, 254.46665037119118], [-60.338117809866766, 249.90253037124532], [-60.73099318650172, 250.01385037096426], [-61.51674393959716, 245.89501037108064], [-57.29333364138203, 245.1157703710706], [-57.096895953064546, 246.45161037125732], [-53.168142187238395, 245.7836903709662], [-51.891297213436495, 253.2421303711189], [-53.75745525219083, 254.68929037102455], [-57.784427862088485, 255.35721037131566]]]}, "properties": {"id": 25, "height_m": 15.0, "levels": 5, "category": "residencial", "extrude": true, "manzana_id": 4}}, {"type": "Feature", "geometry": {"type": "Polygon", "coordinates": [[[-202.2643475994424, 327.4925703711159], [-202.7554418201489, 325.2661703712002], [-199.31778227502915, 322.8171303710556], [-197.05874885963988, 323.9303303710135], [-196.4694357948619, 327.7152103709493], [-198.53203152193373, 329.27369037096935], [-202.2643475994424, 327.4925703711159]]]}, "properties": {"id": 26, "height_m": 18.0, "levels": 6, "category": "residencial", "extrude": true, "manzana_id": 7}}, {"type": "Feature", "geometry": {"type": "Polygon", "coordinates": [[[-189.49589786055103, 300.1078503710453], [-189.6923355488685, 297.4361703710673], [-186.3528948478203, 294.98713037131824], [-184.192080276677, 296.1003303712761], [-183.897423744288, 300.44181037099304], [-186.0582383154313, 301.88897037129425], [-189.49589786055103, 300.1078503710453]]]}, "properties": {"id": 27, "height_m": 18.0, "levels": 6, "category": "residencial", "extrude": true, "manzana_id": 6}}, {"type": "Feature", "geometry": {"type": "Polygon", "coordinates": [[[-159.53915039623564, 278.4004503712738], [-161.30708959091848, 276.3966903711915], [-160.1284634611881, 272.3891703710268], [-157.57477351340978, 272.055210371079], [-154.82464587731403, 274.94953037128585], [-155.512177786338, 277.3985703710349], [-159.53915039623564, 278.4004503712738]]]}, "properties": {"id": 28, "height_m": 18.0, "levels": 6, "category": "salud", "extrude": true, "manzana_id": 5}}, {"type": "Feature", "geometry": {"type": "Polygon", "coordinates": [[[-136.45772202215966, 281.0721303712518], [-139.1096308141839, 277.8438503710971], [-138.32388006091398, 275.39481037095254], [-134.19868860694484, 274.7268903710569], [-132.528968256508, 276.84197037125375], [-134.00225091862734, 280.62685037118956], [-136.45772202215966, 281.0721303712518]]]}, "properties": {"id": 29, "height_m": 18.0, "levels": 6, "category": "residencial", "extrude": true, "manzana_id": 5}}, {"type": "Feature", "geometry": {"type": "Polygon", "coordinates": [[[-112.19766751835326, 253.79873037129556], [-113.67095018064711, 251.90629037093217], [-112.00122983021025, 248.0100903712774], [-109.64397757057499, 247.78745037104855], [-107.09028762279671, 251.23837037103655], [-107.97425722013813, 253.46477037095227], [-112.19766751835326, 253.79873037129556]]]}, "properties": {"id": 30, "height_m": 18.0, "levels": 6, "category": "residencial", "extrude": true, "manzana_id": 1}}, {"type": "Feature", "geometry": {"type": "Polygon", "coordinates": [[[-85.77679844340355, 263.81753037131176], [-87.25008110552294, 262.1477303711772], [-86.07145497579253, 257.8062503710647], [-83.81242156057772, 257.3609703710025], [-81.06229392448196, 260.70057037127157], [-81.94626352182337, 263.1496103710207], [-85.77679844340355, 263.81753037131176]]]}, "properties": {"id": 31, "height_m": 18.0, "levels": 6, "category": "residencial", "extrude": true, "manzana_id": 2}}, {"type": "Feature", "geometry": {"type": "Polygon", "coordinates": [[[-70.45465875673389, 234.98565037093996], [-73.20478639282965, 231.86869037129526], [-72.71369217212319, 229.5309703712651], [-68.29384418559057, 228.75173037125506], [-66.8205615234712, 230.4215303709941], [-68.19562534151908, 234.65169037099216], [-70.45465875673389, 234.98565037093996]]]}, "properties": {"id": 32, "height_m": 18.0, "levels": 6, "category": "residencial", "extrude": true, "manzana_id": 3}}, {"type": "Feature", "geometry": {"type": "Polygon", "coordinates": [[[-70.45465875673389, 234.98565037093996], [-70.06178338027341, 237.10073037113673], [-75.46381980821894, 241.9988103710304], [-78.11572860006872, 238.99317037110464], [-79.29435472979912, 239.99505037094806], [-82.04448236589488, 236.87809037130336], [-78.90147935333864, 234.09509037121097], [-78.70504166502116, 234.31773037104435], [-75.26738211990147, 231.20077037100415], [-73.20478639282965, 231.86869037129526], [-70.45465875673389, 234.98565037093996]]]}, "properties": {"id": 33, "height_m": 15.0, "levels": 5, "category": "residencial", "extrude": true, "manzana_id": 3}}, {"type": "Feature", "geometry": {"type": "Polygon", "coordinates": [[[-189.6923355488685, 297.4361703710673], [-192.1478066524008, 297.4361703710673], [-194.60327775610756, 293.76261037124596], [-194.70149660017907, 293.8739303709649], [-197.15696770388584, 290.2003703711435], [-193.62108931469467, 287.8626503711133], [-192.3442443407183, 289.7550903710812], [-188.90658479559858, 287.7513303709989], [-185.46892525065334, 292.9833703712359], [-186.3528948478203, 294.98713037131824], [-189.6923355488685, 297.4361703710673]]]}, "properties": {"id": 34, "height_m": 15.0, "levels": 5, "category": "residencial", "extrude": true, "manzana_id": 6}}, {"type": "Feature", "geometry": {"type": "Polygon", "coordinates": [[[-157.57477351340978, 272.055210371079], [-158.26230542243374, 270.2740903712255], [-154.43177050085356, 266.60053037100863], [-155.02108356563153, 265.8212903709986], [-152.66383130617072, 263.5948903710829], [-149.61904713768598, 266.4892103712897], [-150.40479789078142, 267.26845037129976], [-147.36001372229669, 270.38541037094444], [-152.5656124620992, 275.506130371067], [-154.82464587731403, 274.94953037128585], [-157.57477351340978, 272.055210371079]]]}, "properties": {"id": 35, "height_m": 15.0, "levels": 5, "category": "salud", "extrude": true, "manzana_id": 5}}, {"type": "Feature", "geometry": {"type": "Polygon", "coordinates": [[[-87.25008110552294, 262.1477303711772], [-89.11623914427727, 263.3722503712495], [-96.18799592283413, 260.9232103711049], [-94.91115094885777, 257.24965037128356], [-96.08977707858816, 256.80437037122135], [-94.71471326054028, 252.79685037105665], [-90.68774065064262, 254.24401037096231], [-90.7859594948886, 254.68929037102455], [-86.4643303524275, 256.1364503709302], [-86.07145497579253, 257.8062503710647], [-87.25008110552294, 262.1477303711772]]]}, "properties": {"id": 36, "height_m": 15.0, "levels": 5, "category": "residencial", "extrude": true, "manzana_id": 2}}, {"type": "Feature", "geometry": {"type": "Polygon", "coordinates": [[[-83.81242156057772, 257.3609703710025], [-84.00885924872073, 256.0251303712113], [-79.78544895050558, 252.68553037094222], [-80.37476201545802, 251.79497037121322], [-77.72285322360824, 249.45725037118308], [-74.77628789919501, 252.90817037117108], [-75.36560096397297, 253.35345037123332], [-72.81191101619468, 256.2477703710447], [-78.99969819741014, 261.3684903711672], [-81.06229392448196, 260.70057037127157], [-83.81242156057772, 257.3609703710025]]]}, "properties": {"id": 37, "height_m": 15.0, "levels": 5, "category": "residencial", "extrude": true, "manzana_id": 2}}, {"type": "Feature", "geometry": {"type": "Polygon", "coordinates": [[[-98.93812355892989, 186.45013037127455], [-101.4918135065337, 183.4444903709533], [-101.00071928582723, 180.9954503712042], [-96.67909014354059, 179.9935703709653], [-95.20580748142122, 181.77469037121426], [-96.38443361115162, 185.78221037098345], [-98.93812355892989, 186.45013037127455]]]}, "properties": {"id": 38, "height_m": 18.0, "levels": 6, "category": "residencial", "extrude": true, "manzana_id": 14}}, {"type": "Feature", "geometry": {"type": "Polygon", "coordinates": [[[79.52551625263706, 92.05077037113071], [81.19523660307392, 92.27341037096409], [82.96317579775675, 96.50357037096214], [83.35605117421724, 96.3922503712432], [84.9275526805826, 100.28845037129344], [80.99879891475643, 101.95825037103248], [80.50770469404998, 100.73373037096019], [76.7753886165413, 102.18089037126134], [74.02526098044555, 95.1677303711709], [75.79320017512839, 93.60925037115081], [79.52551625263706, 92.05077037113071]]]}, "properties": {"id": 39, "height_m": 15.0, "levels": 5, "category": "residencial", "extrude": true, "manzana_id": 19}}, {"type": "Feature", "geometry": {"type": "Polygon", "coordinates": [[[76.38251324008083, 86.7074103711748], [75.89141901919989, 85.03761037104027], [78.73976549954162, 81.3640503712189], [78.54332781122415, 81.14141037099003], [80.99879891475643, 78.02445037094984], [84.14180192748715, 80.47349037109441], [83.35605117421724, 81.3640503712189], [86.49905418694794, 83.92441037108242], [81.98098735634383, 89.60173037098613], [79.72195394095453, 89.26777037103832], [76.38251324008083, 86.7074103711748]]]}, "properties": {"id": 40, "height_m": 15.0, "levels": 5, "category": "residencial", "extrude": true, "manzana_id": 19}}, {"type": "Feature", "geometry": {"type": "Polygon", "coordinates": [[[-124.47502303653819, 210.82921037102395], [-126.53761876361, 209.1594103712849], [-125.85008685458607, 205.15189037112023], [-123.29639690680777, 204.26133037099575], [-120.15339389425155, 207.04433037108814], [-120.64448811495802, 209.60469037095166], [-124.47502303653819, 210.82921037102395]]]}, "properties": {"id": 41, "height_m": 18.0, "levels": 6, "category": "residencial", "extrude": true, "manzana_id": 0}}, {"type": "Feature", "geometry": {"type": "Polygon", "coordinates": [[[-96.67909014354059, 151.8296103712801], [-99.42921777963635, 148.7126503712399], [-98.64346702636644, 146.26361037109533], [-94.51827557239727, 145.2617303712519], [-92.65211753364294, 147.37681037105318], [-94.12540019576232, 151.27301037110342], [-96.67909014354059, 151.8296103712801]]]}, "properties": {"id": 42, "height_m": 18.0, "levels": 6, "category": "residencial", "extrude": true, "manzana_id": 13}}, {"type": "Feature", "geometry": {"type": "Polygon", "coordinates": [[[-85.67857959933205, 118.99021037113911], [-86.4643303524275, 116.42985037127559], [-83.51776502801425, 113.42421037095434], [-80.96407508023599, 113.86949037101658], [-79.78544895050558, 117.98833037129569], [-81.55338814518842, 119.99209037098254], [-85.67857959933205, 118.99021037113911]]]}, "properties": {"id": 43, "height_m": 18.0, "levels": 6, "category": "residencial", "extrude": true, "manzana_id": 11}}, {"type": "Feature", "geometry": {"type": "Polygon", "coordinates": [[[-61.22208740720818, 140.2523303712438], [-61.22208740720818, 137.6919703709848], [-57.58799017377101, 135.35425037095465], [-55.42717560262769, 136.467450371308], [-55.42717560262769, 141.03157037125385], [-57.58799017377101, 142.36741037104508], [-61.22208740720818, 140.2523303712438]]]}, "properties": {"id": 44, "height_m": 18.0, "levels": 6, "category": "residencial", "extrude": true, "manzana_id": 12}}, {"type": "Feature", "geometry": {"type": "Polygon", "coordinates": [[[-24.095364320264434, 159.0654103712039], [-25.568646982558285, 156.72769037117376], [-23.50605125548647, 153.0541303709569], [-20.85414246363669, 152.83149037112352], [-18.791546736564875, 156.5050503709449], [-20.068391710366775, 159.0654103712039], [-24.095364320264434, 159.0654103712039]]]}, "properties": {"id": 45, "height_m": 18.0, "levels": 6, "category": "residencial", "extrude": true, "manzana_id": 20}}, {"type": "Feature", "geometry": {"type": "Polygon", "coordinates": [[[0.6557844042484166, 69.00753037117255], [-0.424622881410479, 66.44717037130903], [2.521942443002754, 63.2188903711544], [5.272070078924037, 63.775490370935586], [6.352477364582933, 67.89433037121469], [4.584538170074571, 70.00941037101597], [0.6557844042484166, 69.00753037117255]]]}, "properties": {"id": 46, "height_m": 18.0, "levels": 6, "category": "residencial", "extrude": true, "manzana_id": 17}}, {"type": "Feature", "geometry": {"type": "Polygon", "coordinates": [[[12.834921078187364, 93.49793037103638], [10.772325351115548, 90.1583303711628], [11.950951480845946, 87.70929037101823], [16.272580623307057, 87.48665037118485], [17.451206753037457, 89.93569037093394], [15.486829870037143, 93.49793037103638], [12.834921078187364, 93.49793037103638]]]}, "properties": {"id": 47, "height_m": 18.0, "levels": 6, "category": "residencial", "extrude": true, "manzana_id": 17}}, {"type": "Feature", "geometry": {"type": "Polygon", "coordinates": [[[38.96113362074809, 84.59233037097803], [37.09497558199375, 82.47725037117675], [38.273601711724154, 78.46973037101208], [40.92551050357393, 77.80181037111646], [44.06851351630464, 80.91877037115665], [42.79166854232827, 83.59045037113461], [38.96113362074809, 84.59233037097803]]]}, "properties": {"id": 48, "height_m": 18.0, "levels": 6, "category": "residencial", "extrude": true, "manzana_id": 18}}, {"type": "Feature", "geometry": {"type": "Polygon", "coordinates": [[[75.79320017512839, 93.60925037115081], [73.5341667597391, 92.05077037113071], [74.12347982469153, 87.93193037124709], [76.38251324008083, 86.7074103711748], [79.72195394095453, 89.26777037103832], [79.52551625263706, 92.05077037113071], [75.79320017512839, 93.60925037115081]]]}, "properties": {"id": 49, "height_m": 18.0, "levels": 6, "category": "residencial", "extrude": true, "manzana_id": 19}}, {"type": "Feature", "geometry": {"type": "Polygon", "coordinates": [[[-126.53761876361, 209.1594103712849], [-128.01090142572937, 210.82921037102395], [-135.18087704835773, 209.60469037095166], [-134.49334513933383, 205.59717037118247], [-135.77019011331018, 205.48585037106804], [-134.98443936004028, 201.36701037118442], [-130.9574667501426, 202.03493037108004], [-131.0556855942141, 202.5915303712567], [-126.34118107529251, 203.37077037126676], [-125.85008685458607, 205.15189037112023], [-126.53761876361, 209.1594103712849]]]}, "properties": {"id": 50, "height_m": 15.0, "levels": 5, "category": "residencial", "extrude": true, "manzana_id": 0}}, {"type": "Feature", "geometry": {"type": "Polygon", "coordinates": [[[-120.64448811495802, 209.60469037095166], [-118.58189238788617, 209.60469037095166], [-115.92998359586194, 216.6178503710421], [-119.8587373616881, 218.06501037094776], [-119.36764314098163, 219.40085037113448], [-123.29639690680777, 220.84801037104015], [-124.76967956892716, 216.84049037127096], [-124.37680419246666, 216.72917037115653], [-125.94830569865758, 212.49901037115848], [-124.47502303653819, 210.82921037102395], [-120.64448811495802, 209.60469037095166]]]}, "properties": {"id": 51, "height_m": 15.0, "levels": 5, "category": "residencial", "extrude": true, "manzana_id": 0}}, {"type": "Feature", "geometry": {"type": "Polygon", "coordinates": [[[-123.29639690680777, 204.26133037099575], [-124.08214765990323, 202.5915303712567], [-121.13558233566447, 199.02929037115427], [-121.52845771212496, 198.8066503713209], [-118.58189238788617, 195.24441037121846], [-115.34067053108397, 198.02741037131085], [-116.2246401284254, 199.02929037115427], [-113.37629364808365, 201.47833037129885], [-118.18901701125124, 207.266970371317], [-120.15339389425155, 207.04433037108814], [-123.29639690680777, 204.26133037099575]]]}, "properties": {"id": 52, "height_m": 15.0, "levels": 5, "category": "residencial", "extrude": true, "manzana_id": 0}}, {"type": "Feature", "geometry": {"type": "Polygon", "coordinates": [[[-103.65262807785149, 193.4632903709695], [-106.20631802562977, 190.45765037104374], [-107.48316299943167, 191.5708503710016], [-110.33150947959892, 188.34257037124246], [-107.28672531111418, 185.6708903712645], [-106.99206877872521, 186.11617037093126], [-103.45619038953402, 182.99921037128655], [-101.4918135065337, 183.4444903709533], [-98.93812355892989, 186.45013037127455], [-98.34881049397745, 188.7878503713047], [-103.65262807785149, 193.4632903709695]]]}, "properties": {"id": 53, "height_m": 15.0, "levels": 5, "category": "residencial", "extrude": true, "manzana_id": 14}}, {"type": "Feature", "geometry": {"type": "Polygon", "coordinates": [[[-96.18799592283413, 153.94469037108138], [-101.98290772741463, 158.62013037114167], [-104.34015998687542, 155.72581037093485], [-105.51878611660582, 156.61637037105933], [-108.1706949084556, 153.3880903713002], [-105.02769189589937, 150.82773037104118], [-104.73303536333592, 151.05037037127005], [-101.09893813007321, 148.15605037106323], [-99.42921777963635, 148.7126503712399], [-96.67909014354059, 151.8296103712801], [-96.18799592283413, 153.94469037108138]]]}, "properties": {"id": 54, "height_m": 15.0, "levels": 5, "category": "residencial", "extrude": true, "manzana_id": 13}}, {"type": "Feature", "geometry": {"type": "Polygon", "coordinates": [[[-88.62514492357082, 117.20909037128564], [-93.92896250744484, 112.19969037127754], [-91.27705371559506, 109.30537037107072], [-92.25924215700799, 108.3034903712273], [-89.41089567684072, 105.29785037130154], [-86.36611150835598, 108.19217037111287], [-86.66076804074497, 108.52613037106067], [-83.22310849562528, 111.7544103712153], [-83.51776502801425, 113.42421037095434], [-86.4643303524275, 116.42985037127559], [-88.62514492357082, 117.20909037128564]]]}, "properties": {"id": 55, "height_m": 15.0, "levels": 5, "category": "residencial", "extrude": true, "manzana_id": 11}}, {"type": "Feature", "geometry": {"type": "Polygon", "coordinates": [[[-98.64346702636644, 146.26361037109533], [-100.41140622104928, 145.48437037108528], [-101.2953758183907, 140.92025037113942], [-101.68825119485118, 141.03157037125385], [-102.5722207921926, 136.69009037114137], [-98.44702933804896, 136.02217037124575], [-98.25059164990596, 137.1353703712036], [-94.3218378840798, 136.467450371308], [-92.84855522178594, 143.81457037095075], [-94.51827557239727, 145.2617303712519], [-98.64346702636644, 146.26361037109533]]]}, "properties": {"id": 56, "height_m": 15.0, "levels": 5, "category": "residencial", "extrude": true, "manzana_id": 13}}, {"type": "Feature", "geometry": {"type": "Polygon", "coordinates": [[[-92.65211753364294, 147.37681037105318], [-91.47349140373807, 145.81833037103308], [-87.15186226145143, 147.59945037128205], [-86.95542457313395, 147.04285037110537], [-83.0266708073078, 148.49001037101104], [-84.49995346960165, 152.38621037106128], [-85.67857959933205, 151.94093037099904], [-86.95542457313395, 155.72581037093485], [-94.12540019576232, 153.27677037118576], [-94.12540019576232, 151.27301037110342], [-92.65211753364294, 147.37681037105318]]]}, "properties": {"id": 57, "height_m": 15.0, "levels": 5, "category": "residencial", "extrude": true, "manzana_id": 13}}, {"type": "Feature", "geometry": {"type": "Polygon", "coordinates": [[[-79.78544895050558, 117.98833037129569], [-80.96407508023599, 113.86949037101658], [-80.57119970377549, 112.19969037127754], [-76.34778940556036, 110.86385037109082], [-76.44600824963186, 110.41857037102858], [-72.4190356397342, 109.19405037095629], [-71.14219066575784, 113.20157037112097], [-72.51725448380571, 113.6468503711832], [-71.33862835407531, 117.20909037128564], [-78.31216628838621, 119.54681037131579], [-79.78544895050558, 117.98833037129569]]]}, "properties": {"id": 58, "height_m": 15.0, "levels": 5, "category": "residencial", "extrude": true, "manzana_id": 11}}, {"type": "Feature", "geometry": {"type": "Polygon", "coordinates": [[[-61.22208740720818, 137.6919703709848], [-63.3829019783515, 137.6919703709848], [-67.11521805586017, 131.1240903709566], [-63.77577735498646, 129.12033037126974], [-64.36509041976441, 128.0071303713119], [-60.73099318650172, 125.89205037111512], [-58.76661630350141, 129.67693037105093], [-59.15949168013636, 129.78825037116536], [-56.60580173235809, 133.79577037093455], [-57.58799017377101, 135.35425037095465], [-61.22208740720818, 137.6919703709848]]]}, "properties": {"id": 59, "height_m": 15.0, "levels": 5, "category": "residencial", "extrude": true, "manzana_id": 12}}, {"type": "Feature", "geometry": {"type": "Polygon", "coordinates": [[[-57.58799017377101, 142.36741037104508], [-56.311145199969104, 144.37117037112742], [-60.04346127747778, 150.71641037132224], [-63.57933966666898, 148.60133037112547], [-64.26687157569292, 149.82585037119776], [-67.90096880895561, 147.4881303711676], [-65.83837308205827, 143.92589037106518], [-65.54371654949482, 144.0372103711796], [-63.186464290034024, 139.918370371296], [-61.22208740720818, 140.2523303712438], [-57.58799017377101, 142.36741037104508]]]}, "properties": {"id": 60, "height_m": 15.0, "levels": 5, "category": "residencial", "extrude": true, "manzana_id": 12}}, {"type": "Feature", "geometry": {"type": "Polygon", "coordinates": [[[-55.42717560262769, 141.03157037125385], [-55.42717560262769, 136.467450371308], [-54.44498716121477, 135.2429303712357], [-49.82870148636468, 135.2429303712357], [-49.82870148636468, 134.68633037105903], [-45.70351003222105, 134.5750103709446], [-45.60529118814954, 138.80517037094265], [-46.98035500619742, 138.80517037094265], [-46.98035500619742, 142.81269037110732], [-54.64142484953225, 142.92401037122175], [-55.42717560262769, 141.03157037125385]]]}, "properties": {"id": 61, "height_m": 15.0, "levels": 5, "category": "residencial", "extrude": true, "manzana_id": 12}}, {"type": "Feature", "geometry": {"type": "Polygon", "coordinates": [[[-25.568646982558285, 156.72769037117376], [-27.33658617706665, 157.95221037124605], [-33.81902989067108, 154.16733037131024], [-31.756434163599263, 150.6050903712078], [-32.83684144925816, 149.9371703713122], [-30.872464566432317, 146.4862503713242], [-27.238367332995146, 148.3786903712921], [-27.533023865384127, 148.82397037095885], [-23.407832411414965, 150.93905037115562], [-23.50605125548647, 153.0541303709569], [-25.568646982558285, 156.72769037117376]]]}, "properties": {"id": 62, "height_m": 15.0, "levels": 5, "category": "residencial", "extrude": true, "manzana_id": 20}}, {"type": "Feature", "geometry": {"type": "Polygon", "coordinates": [[[-20.068391710366775, 159.0654103712039], [-17.809358295151952, 160.06729037104733], [-17.907577139223456, 167.7483703710334], [-22.032768593367088, 167.7483703710334], [-22.032768593367088, 169.0842103712201], [-26.452616579899704, 168.86157037099125], [-26.256178891582223, 164.85405037122206], [-25.666865826629788, 164.85405037122206], [-25.666865826629788, 160.2899303712762], [-24.095364320264434, 159.0654103712039], [-20.068391710366775, 159.0654103712039]]]}, "properties": {"id": 63, "height_m": 15.0, "levels": 5, "category": "residencial", "extrude": true, "manzana_id": 20}}, {"type": "Feature", "geometry": {"type": "Polygon", "coordinates": [[[-18.791546736564875, 156.5050503709449], [-20.85414246363669, 152.83149037112352], [-20.65770477531921, 151.161690370989], [-16.630732165247082, 148.93529037107328], [-16.827169853564563, 148.60133037112547], [-13.19307262030186, 146.70889037115757], [-11.326914581547523, 150.15981037114557], [-12.407321867031948, 150.71641037132224], [-10.442944984206106, 154.2786503710292], [-16.827169853564563, 157.7295703710172], [-18.791546736564875, 156.5050503709449]]]}, "properties": {"id": 64, "height_m": 15.0, "levels": 5, "category": "residencial", "extrude": true, "manzana_id": 20}}, {"type": "Feature", "geometry": {"type": "Polygon", "coordinates": [[[12.834921078187364, 93.49793037103638], [12.834921078187364, 95.72433037095209], [6.548915052900411, 99.50921037128339], [4.486319325828595, 96.05829037129539], [3.504130884415675, 96.726210371191], [1.3433163132723553, 93.16397037108857], [4.780975858217577, 91.16021037100623], [4.977413546535056, 91.49417037095404], [9.102605000678688, 89.04513037120495], [10.772325351115548, 90.1583303711628], [12.834921078187364, 93.49793037103638]]]}, "properties": {"id": 65, "height_m": 15.0, "levels": 5, "category": "residencial", "extrude": true, "manzana_id": 17}}, {"type": "Feature", "geometry": {"type": "Polygon", "coordinates": [[[6.352477364582933, 67.89433037121469], [5.272070078924037, 63.775490370935586], [5.370288923170013, 61.771730371248736], [10.084793442091609, 60.54721037117645], [9.986574598020105, 59.990610370999775], [13.71889067552878, 58.98873037115635], [14.89751680525918, 63.10757037103997], [13.71889067552878, 63.44153037098778], [14.799297961013204, 67.44905037115245], [7.629322338559307, 69.45281037123479], [6.352477364582933, 67.89433037121469]]]}, "properties": {"id": 66, "height_m": 15.0, "levels": 5, "category": "residencial", "extrude": true, "manzana_id": 17}}, {"type": "Feature", "geometry": {"type": "Polygon", "coordinates": [[[11.950951480845946, 87.70929037101823], [10.183012286337583, 86.81873037128923], [10.183012286337583, 82.03197037111451], [9.691918065456651, 82.03197037111451], [9.691918065456651, 77.91313037123089], [13.71889067552878, 77.91313037123089], [13.71889067552878, 79.13765037130318], [17.84408212949794, 79.13765037130318], [17.84408212949794, 86.48477037094594], [16.272580623307057, 87.48665037118485], [11.950951480845946, 87.70929037101823]]]}, "properties": {"id": 67, "height_m": 15.0, "levels": 5, "category": "residencial", "extrude": true, "manzana_id": 17}}, {"type": "Feature", "geometry": {"type": "Polygon", "coordinates": [[[25.603370817078744, 92.38473037107852], [23.540775090006928, 95.94697037118095], [24.71940121973733, 96.61489037107657], [22.656805492665512, 100.06581037106457], [19.21914594754582, 98.17337037109667], [19.513802480109273, 97.72809037103443], [15.290392181719664, 95.39037037100428], [15.486829870037143, 93.49793037103638], [17.451206753037457, 89.93569037093394], [19.317364791791793, 88.82249037097608], [25.603370817078744, 92.38473037107852]]]}, "properties": {"id": 68, "height_m": 15.0, "levels": 5, "category": "residencial", "extrude": true, "manzana_id": 17}}, {"type": "Feature", "geometry": {"type": "Polygon", "coordinates": [[[37.09497558199375, 82.47725037117675], [35.71991176394587, 84.03573037119685], [28.549936141317506, 82.03197037111451], [29.728562271047906, 78.13577037106427], [28.255279608928525, 77.69049037100203], [28.3534984531745, 77.24521037093979], [29.335686894587422, 73.68297037123284], [33.559097192802554, 74.7961703711907], [33.36265950448508, 75.35277037097188], [37.88072633508919, 76.6886103711586], [38.273601711724154, 78.46973037101208], [37.09497558199375, 82.47725037117675]]]}, "properties": {"id": 69, "height_m": 15.0, "levels": 5, "category": "residencial", "extrude": true, "manzana_id": 18}}, {"type": "Feature", "geometry": {"type": "Polygon", "coordinates": [[[42.79166854232827, 83.59045037113461], [45.050701957717564, 84.14705037131128], [46.03289039913049, 88.59985037114271], [46.42576577576544, 88.48853037102828], [47.30973537310686, 92.38473037107852], [43.2827627632092, 93.49793037103638], [42.889887386574244, 92.27341037096409], [39.0593524648196, 93.16397037108857], [37.29141327031123, 85.92817037116475], [38.96113362074809, 84.59233037097803], [42.79166854232827, 83.59045037113461]]]}, "properties": {"id": 70, "height_m": 15.0, "levels": 5, "category": "residencial", "extrude": true, "manzana_id": 18}}, {"type": "Feature", "geometry": {"type": "Polygon", "coordinates": [[[40.92551050357393, 77.80181037111646], [40.33619743879597, 75.79805037103412], [43.67563813966969, 72.68109037099393], [43.479200451352206, 72.45845037116055], [46.62220346408292, 69.67545037106817], [49.47054994425018, 72.68109037099393], [48.39014265859128, 73.68297037123284], [51.140270294687035, 76.6886103711586], [45.64001502267, 81.6980103711667], [44.06851351630464, 80.91877037115665], [40.92551050357393, 77.80181037111646]]]}, "properties": {"id": 71, "height_m": 15.0, "levels": 5, "category": "residencial", "extrude": true, "manzana_id": 18}}, {"type": "Feature", "geometry": {"type": "Polygon", "coordinates": [[[73.5341667597391, 92.05077037113071], [72.35554063000869, 93.83189037098418], [64.98912731923731, 92.94133037125519], [65.48022153994377, 88.82249037097608], [64.2033765659674, 88.71117037125714], [64.69447078667386, 84.70365037109246], [68.721443396746, 85.03761037104027], [68.721443396746, 85.59421037121695], [73.3377290714216, 85.92817037116475], [74.12347982469153, 87.93193037124709], [73.5341667597391, 92.05077037113071]]]}, "properties": {"id": 72, "height_m": 15.0, "levels": 5, "category": "residencial", "extrude": true, "manzana_id": 19}}, {"type": "Feature", "geometry": {"type": "Polygon", "coordinates": [[[-101.00071928582723, 180.9954503712042], [-102.67043963643857, 180.43885037102754], [-103.55440923360551, 175.87473037108168], [-104.04550345431197, 175.98605037119611], [-104.83125420758189, 171.64457037108363], [-100.80428159768422, 170.86533037107358], [-100.50962506512077, 172.08985037114587], [-96.97374667592958, 171.42193037125026], [-95.40224516956422, 179.1030103712363], [-96.67909014354059, 179.9935703709653], [-101.00071928582723, 180.9954503712042]]]}, "properties": {"id": 73, "height_m": 15.0, "levels": 5, "category": "residencial", "extrude": true, "manzana_id": 14}}, {"type": "Feature", "geometry": {"type": "Polygon", "coordinates": [[[-95.20580748142122, 181.77469037121426], [-93.53608713080989, 180.3275303713086], [-86.36611150835598, 182.66525037094326], [-87.64295648215789, 186.33881037116012], [-86.36611150835598, 186.78409037122236], [-87.83939417047537, 191.0142503712204], [-91.57171024798404, 189.6784103710337], [-91.47349140373807, 189.34445037108588], [-95.99155823451666, 187.67465037095135], [-96.38443361115162, 185.78221037098345], [-95.20580748142122, 181.77469037121426]]]}, "properties": {"id": 74, "height_m": 15.0, "levels": 5, "category": "residencial", "extrude": true, "manzana_id": 14}}, {"type": "Feature", "geometry": {"type": "Polygon", "coordinates": [[[-81.55338814518842, 119.99209037098254], [-80.08010548306903, 121.1052903709404], [-81.45516930111691, 128.56373037109307], [-85.48214191101457, 127.78449037108302], [-85.67857959933205, 129.0090103711553], [-90.09842758586467, 127.89581037119746], [-89.21445798852325, 123.99961037114721], [-88.62514492357082, 124.11093037126165], [-87.64295648215789, 119.99209037098254], [-85.67857959933205, 118.99021037113911], [-81.55338814518842, 119.99209037098254]]]}, "properties": {"id": 75, "height_m": 15.0, "levels": 5, "category": "residencial", "extrude": true, "manzana_id": 11}}, {"type": "Feature", "geometry": {"type": "Polygon", "coordinates": [[[-0.424622881410479, 66.44717037130903], [-1.9961243877758348, 66.89245037097578], [-5.433783932721057, 63.775490370935586], [-5.7284404652845105, 63.99813037116445], [-8.969662322086725, 60.99249037123869], [-6.21953468599097, 57.875530371198494], [-5.23734624457805, 58.87741037104192], [-2.6836562967997737, 55.98309037123059], [2.9148178194632393, 61.215130371072064], [2.521942443002754, 63.2188903711544], [-0.424622881410479, 66.44717037130903]]]}, "properties": {"id": 76, "height_m": 15.0, "levels": 5, "category": "residencial", "extrude": true, "manzana_id": 17}}, {"type": "Feature", "geometry": {"type": "Polygon", "coordinates": [[[4.584538170074571, 70.00941037101597], [6.0578208321939515, 71.3452503712027], [4.191662793439614, 78.46973037101208], [0.2629090276134597, 77.35653037105422], [-0.1299663490214972, 78.69237037124094], [-4.058720114847651, 77.57917037128308], [-2.9783128291887553, 73.68297037123284], [-2.5854374525537986, 73.79429037095179], [-1.4068113228233996, 69.23017037100593], [0.6557844042484166, 69.00753037117255], [4.584538170074571, 70.00941037101597]]]}, "properties": {"id": 77, "height_m": 15.0, "levels": 5, "category": "residencial", "extrude": true, "manzana_id": 17}}, {"type": "Feature", "geometry": {"type": "Polygon", "coordinates": [[[110.95554637907182, 92.16209037124514], [112.23239135287372, 90.04701037104837], [108.30363758704756, 87.37533037107042], [112.52704788543717, 81.14141037099003], [113.11636095021514, 81.47537037093784], [114.49142476826302, 79.13765037130318], [121.85783807920888, 83.70177037124904], [122.15249461159786, 83.92441037108242], [122.44715114398684, 84.14705037131128], [122.74180767637583, 83.70177037124904], [124.21509033866965, 83.81309037096798], [126.96521797476541, 83.81309037096798], [127.65274988361489, 83.92441037108242], [127.84918757193235, 83.92441037108242], [127.84918757193235, 83.92441037108242], [123.82221496203472, 90.60361037122505], [116.06292627462838, 85.70553037093589], [113.41101748260412, 89.93569037093394], [117.43799009267626, 92.49605037119295], [117.33977124843027, 92.60737037130738], [116.25936396294586, 94.38849037116086], [115.6700508979934, 95.1677303711709], [113.11636095021514, 93.49793037103638], [110.95554637907182, 92.16209037124514]]]}, "properties": {"id": 78, "height_m": 3.0, "levels": 1, "category": "publico", "extrude": true, "manzana_id": 23}}, {"type": "Feature", "geometry": {"type": "Polygon", "coordinates": [[[117.43799009267626, 92.49605037119295], [113.41101748260412, 89.93569037093394], [116.06292627462838, 85.70553037093589], [123.82221496203472, 90.60361037122505], [121.26852501425643, 94.8337703712231], [117.43799009267626, 92.49605037119295]]]}, "properties": {"id": 79, "height_m": 6.0, "levels": 2, "category": "publico", "extrude": true, "manzana_id": 23}}, {"type": "Feature", "geometry": {"type": "Polygon", "coordinates": [[[12.73670223411586, -135.70994962886843], [-4.353376647236633, -150.18154962871606], [-1.4068113228233996, -154.30038962899516], [15.486829870037143, -139.49482962880424], [12.73670223411586, -135.70994962886843]]]}, "properties": {"id": 80, "height_m": 8.0, "levels": 0, "category": "residencial", "extrude": true, "manzana_id": 16}}, {"type": "Feature", "geometry": {"type": "Polygon", "coordinates": [[[4.388100481757092, -162.42674962904346], [-2.2907809201648166, -167.2135096288227], [12.147389169163425, -187.5850696288029], [22.755024336737016, -202.50194962871277], [21.37996051886361, -203.50382962895168], [25.01405775212631, -208.62454962867872], [26.487340414420164, -207.6226696288353], [29.728562271047906, -212.18678962878116], [29.924999959365383, -212.40942962901002], [30.7107507126353, -211.85282962883335], [55.952993657854606, -193.37370962882105], [45.14892080196354, -178.34550962879675], [40.532635127113444, -171.77762962876855], [39.45222784145455, -172.5568696287786], [21.085303986300158, -185.80394962894943], [4.388100481757092, -162.42674962904346]]]}, "properties": {"id": 81, "height_m": 3.0, "levels": 1, "category": "publico", "extrude": true, "manzana_id": 15}}, {"type": "Feature", "geometry": {"type": "Polygon", "coordinates": [[[68.23034917603952, -269.1826296288382], [73.3377290714216, -265.5090696290168], [72.84663485071515, -264.72982962900676], [82.07920620041534, -258.0506296288641], [78.83798434361312, -253.48650962891824], [77.36470168149374, -251.4827496288359], [43.97029467205867, -204.61702962890953], [34.83594216660446, -211.18490962893773], [34.73772332253296, -211.0735896288233], [34.44306679014397, -211.29622962905216], [59.78352857943479, -246.91862962889005], [66.36419113728519, -256.0468696287818], [61.355030085800145, -259.72042962899866], [68.23034917603952, -269.1826296288382]]]}, "properties": {"id": 82, "height_m": 3.0, "levels": 1, "category": "residencial", "extrude": true, "manzana_id": 15}}, {"type": "Feature", "geometry": {"type": "Polygon", "coordinates": [[[61.355030085800145, -259.72042962899866], [53.693960242465316, -249.2563496289202], [49.666987632567654, -252.15066962873152], [47.30973537310686, -251.4827496288359], [47.30973537310686, -253.93178962898048], [43.2827627632092, -256.9374296289062], [80.1148293175895, -307.8106696289973], [90.62424564109158, -300.1295896290112], [68.23034917603952, -269.1826296288382], [61.355030085800145, -259.72042962899866]]]}, "properties": {"id": 83, "height_m": 6.0, "levels": 2, "category": "residencial", "extrude": true, "manzana_id": 15}}, {"type": "Feature", "geometry": {"type": "Polygon", "coordinates": [[[64.69447078667386, -177.45494962906776], [57.13161978758501, -183.02094962885704], [62.14078083889559, -190.25674962878085], [50.747394918226554, -198.49442962894358], [49.37233110017868, -199.38498962906806], [45.050701957717564, -202.50194962871277], [50.747394918226554, -210.62830962876106], [56.24765019024359, -206.84342962882525], [77.75757705795422, -237.01114962898828], [86.30261649863047, -249.2563496289202], [86.8919295635829, -249.9242696288158], [87.08836725172591, -250.14690962904467], [87.18658609597189, -250.14690962904467], [87.38302378428936, -250.14690962904467], [87.77589916074986, -249.81294962870138], [89.6420571995042, -252.59594962879376], [95.92806322479115, -248.0318296288479], [64.98912731923731, -204.72834962902397], [70.19472605886537, -201.0547896288071], [71.86444640930223, -199.94158962884924], [74.12347982469153, -203.05854962888944], [75.98963786344586, -205.61890962875296], [100.74078658795871, -240.46206962897628], [101.0354431203477, -240.46206962897628], [106.73213608085668, -236.4545496288116], [106.83035492492819, -236.34322962869717], [106.92857376917416, -236.23190962897823], [106.92857376917416, -235.89794962903042], [69.9982883705479, -184.24546962892933], [69.60541299391294, -184.4681096287627], [64.69447078667386, -177.45494962906776]]]}, "properties": {"id": 84, "height_m": 3.0, "levels": 1, "category": "publico", "extrude": true, "manzana_id": null}}, {"type": "Feature", "geometry": {"type": "Polygon", "coordinates": [[[86.00795996624149, -283.6542296286858], [84.8293338365111, -284.54478962881024], [81.4898931354629, -286.9938296289548], [84.63289614819361, -291.3353096290673], [84.8293338365111, -291.1126696288385], [84.73111499226512, -290.8900296290051], [87.97233684906733, -288.55230962897497], [108.9911694960715, -317.94078962873243], [110.66088984668284, -318.1634296289613], [86.00795996624149, -283.6542296286858]]]}, "properties": {"id": 85, "height_m": 9.0, "levels": 3, "category": "salud", "extrude": true, "manzana_id": 15}}, {"type": "Feature", "geometry": {"type": "Polygon", "coordinates": [[[92.8832790563064, -278.6448296286777], [89.34740066711521, -281.3165096290511], [86.00795996624149, -283.6542296286858], [110.66088984668284, -318.1634296289613], [110.95554637907182, -318.1634296289613], [117.83086546913674, -313.1540296289532], [112.3306101971197, -305.6955896288005], [92.8832790563064, -278.6448296286777]]]}, "properties": {"id": 86, "height_m": 6.0, "levels": 2, "category": "salud", "extrude": true, "manzana_id": 15}}, {"type": "Feature", "geometry": {"type": "Polygon", "coordinates": [[[98.48175317256941, -274.6373096289085], [98.48175317256941, -274.6373096289085], [92.8832790563064, -278.6448296286777], [112.3306101971197, -305.6955896288005], [117.83086546913674, -313.1540296289532], [127.45631219547188, -306.2521896289772], [127.06343681883692, -305.8069096289149], [125.78659184486055, -304.47106962872823], [123.33112074132825, -306.1408696288628], [117.9290843133827, -298.57110962899117], [116.16114511869988, -299.79562962906346], [115.8664885863109, -299.1277096287723], [103.58913306812597, -282.0957496290612], [102.50872578264155, -280.20330962869775], [98.48175317256941, -274.6373096289085]]]}, "properties": {"id": 87, "height_m": 9.0, "levels": 3, "category": "salud", "extrude": true, "manzana_id": 15}}, {"type": "Feature", "geometry": {"type": "Polygon", "coordinates": [[[170.2797282425757, -292.67114962885853], [168.80644558045628, -291.2239896289529], [174.11026316433032, -285.7693096288825], [174.01204432008433, -283.208949629019], [170.2797282425757, -279.53538962880214], [168.02069482736087, -279.6467096289166], [162.91331493180428, -284.8787496287581], [159.96674960739105, -281.9844296289467], [159.86853076331954, -281.2051896289367], [157.90415388031926, -279.2014296288544], [157.1184031272238, -279.2014296288544], [156.1362146858109, -278.1995496290109], [156.03799584156488, -277.5316296287198], [151.4217101667148, -272.967509628774], [150.6359594136194, -272.85618962905505], [149.75198981627796, -271.9656296289305], [149.65377097220644, -271.1863896289205], [144.93926645328483, -266.62226962897466], [144.15351570001494, -266.62226962897466], [143.465983790991, -265.95434962868353], [141.59982575223665, -267.84678962904695], [139.14435464870434, -264.9524696288401], [141.2069503757762, -263.39398962882], [140.71585615489525, -262.61474962880993], [140.8140749991412, -261.8355096287999], [136.98354007738655, -256.492149628844], [136.19778932429114, -256.38082962872954], [135.3138197269497, -255.26762962877172], [135.51025741526718, -254.48838962876167], [131.679722493687, -249.14502962880576], [130.9921905846631, -249.03370962869133], [130.5010963639566, -248.47710962891014], [130.59931520802812, -247.80918962901453], [128.53671948095632, -244.80354962869328], [127.84918757193235, -244.80354962869328], [125.29549762415408, -241.24130962898633], [128.14384410449583, -239.12622962878956], [124.01865265035218, -233.3375896287714], [116.7504581836523, -238.56962962900838], [109.77692024934142, -228.77346962882555], [109.08938834031748, -228.55082962899218], [108.20541874297606, -227.43762962903432], [108.40185643129354, -226.76970962874321], [104.57132150953889, -221.4263496287873], [103.88378960051496, -221.20370962895393], [102.999820003348, -220.09050962899607], [103.09803884741952, -219.42258962870497], [99.36572276991083, -214.07922962874906], [98.6781908608869, -213.96790962903012], [98.08887779610893, -213.07734962890564], [93.8654674978938, -215.97166962871697], [109.9733579376589, -238.68094962872732], [112.3306101971197, -241.90922962888195], [112.3306101971197, -242.02054962899638], [114.39320592419152, -244.9148696288077], [120.482774261161, -240.35074962886185], [121.26852501425643, -240.57338962869522], [126.081248377424, -247.25258962883785], [125.98302953317803, -248.25446962868128], [137.6710719864105, -264.2845496289445], [142.09091997294314, -269.405269629067], [146.11789258301525, -273.52410962895067], [156.43087121819988, -283.54290962896687], [157.41305965961277, -283.4315896288524], [163.20797146419326, -289.1089096287561], [163.20797146419326, -289.6655096289328], [160.94893804880397, -292.0032296289629], [167.62781945072587, -298.4597896288767], [169.00288326877376, -296.5673496289088], [167.7260382947974, -295.3428296288365], [170.2797282425757, -292.67114962885853]]]}, "properties": {"id": 88, "height_m": 3.0, "levels": 1, "category": "residencial", "extrude": true, "manzana_id": 15}}, {"type": "Feature", "geometry": {"type": "Polygon", "coordinates": [[[119.79524235213704, -259.2751496289364], [105.7499476392693, -269.405269629067], [99.85681699061729, -273.6354296290651], [98.48175317256941, -274.6373096289085], [102.50872578264155, -280.20330962869775], [103.58913306812597, -282.0957496290612], [115.8664885863109, -299.1277096287723], [116.16114511869988, -299.79562962906346], [117.9290843133827, -298.57110962899117], [123.33112074132825, -306.1408696288628], [125.78659184486055, -304.47106962872823], [127.06343681883692, -305.8069096289149], [127.45631219547188, -306.2521896289772], [127.55453103954336, -306.1408696288628], [129.81356445493267, -304.58238962884263], [141.99270112887163, -295.7881096288987], [147.98405062176957, -291.3353096290673], [135.70669510358468, -279.42406962868773], [132.95656746748892, -276.5297496288764], [130.89397174041707, -274.1920296288463], [128.24206294856734, -270.96374962869163], [119.79524235213704, -259.2751496289364]]]}, "properties": {"id": 89, "height_m": 6.0, "levels": 2, "category": "salud", "extrude": true, "manzana_id": 15}}, {"type": "Feature", "geometry": {"type": "Polygon", "coordinates": [[[147.98405062176957, -291.3353096290673], [148.18048831008707, -291.3353096290673], [145.62679836230882, -286.9938296289548], [138.06394736304546, -279.53538962880214], [134.92094435048924, -276.41842962876194], [131.7779413377585, -273.4127896288362], [126.37590490981297, -265.7317096288501], [122.6435888323043, -260.6109896287276], [121.07208732593897, -258.3845896288119], [119.79524235213704, -259.2751496289364], [128.24206294856734, -270.96374962869163], [130.89397174041707, -274.1920296288463], [132.95656746748892, -276.5297496288764], [135.70669510358468, -279.42406962868773], [147.98405062176957, -291.3353096290673]]]}, "properties": {"id": 90, "height_m": 18.0, "levels": 6, "category": "salud", "extrude": true, "manzana_id": 15}}, {"type": "Feature", "geometry": {"type": "Polygon", "coordinates": [[[114.39320592419152, -244.9148696288077], [109.58048256102394, -248.47710962891014], [111.54485944384979, -251.26010962900253], [113.21457979446112, -250.03558962893024], [119.79524235213704, -259.2751496289364], [121.07208732593897, -258.3845896288119], [122.6435888323043, -260.6109896287276], [126.37590490981297, -265.7317096288501], [131.7779413377585, -273.4127896288362], [134.92094435048924, -276.41842962876194], [138.06394736304546, -279.53538962880214], [145.62679836230882, -286.9938296289548], [148.18048831008707, -291.3353096290673], [147.98405062176957, -291.3353096290673], [148.47514484247606, -291.7805896287341], [152.60033629644522, -295.8994296290132], [151.2252724785718, -297.2352696288044], [151.71636669927827, -297.68054962886663], [153.58252473803262, -299.57298962883453], [155.84155815324743, -297.2352696288044], [159.18099885429564, -293.8956696289308], [158.98456116597814, -293.673029628702], [157.70771619200175, -294.8975496287743], [156.62730890651733, -294.0069896290453], [155.9397769974934, -294.6749096289409], [155.055807400152, -293.7843496288164], [159.7703119190736, -288.8862696289227], [159.08278001004962, -288.1070296289127], [158.88634232173217, -287.9957096287983], [158.1988104127082, -287.3277896289027], [153.68074358210413, -282.9863096287902], [141.2069503757762, -270.96374962869163], [140.51941846675223, -270.18450962868155], [138.35860389543444, -268.0694296288803], [121.56318154664541, -244.80354962869328], [121.75961923496287, -244.5809096288599], [121.66140039089139, -244.46958962874547], [121.66140039089139, -244.46958962874547], [121.07208732593897, -243.80166962884985], [115.37539436560442, -247.92050962873347], [114.6878624565805, -246.91862962889005], [115.37539436560442, -246.36202962871337], [114.39320592419152, -244.9148696288077]]]}, "properties": {"id": 91, "height_m": 15.0, "levels": 5, "category": "salud", "extrude": true, "manzana_id": 15}}, {"type": "Feature", "geometry": {"type": "Polygon", "coordinates": [[[117.83086546913674, -313.1540296289532], [110.95554637907182, -318.1634296289613], [112.03595366455625, -318.38606962879464], [116.35758280701737, -315.26910962875445], [119.10771044311312, -313.2653496290676], [119.50058581957359, -313.59930962901547], [119.89346119620855, -313.9332696289632], [120.18811772859753, -314.1559096287966], [120.67921194947846, -314.3785496290255], [121.07208732593897, -314.60118962885883], [121.85783807920888, -314.82382962869224], [122.34893229991532, -314.82382962869224], [122.84002652062178, -314.82382962869224], [123.23290189708227, -314.82382962869224], [123.9204338061062, -314.7125096289733], [124.60796571513015, -314.48986962874443], [125.29549762415408, -314.1559096287966], [126.96521797476541, -312.8200696290054], [127.25987450715438, -313.1540296289532], [130.6975340522741, -310.48234962897527], [129.7153456106867, -309.3691496290174], [127.55453103954336, -306.1408696288628], [127.45631219547188, -306.2521896289772], [117.83086546913674, -313.1540296289532]]]}, "properties": {"id": 92, "height_m": 9.0, "levels": 3, "category": "residencial", "extrude": true, "manzana_id": 15}}, {"type": "Feature", "geometry": {"type": "Polygon", "coordinates": [[[160.94893804880397, -292.0032296289629], [163.20797146419326, -289.6655096289328], [163.20797146419326, -289.1089096287561], [157.41305965961277, -283.4315896288524], [156.43087121819988, -283.54290962896687], [146.11789258301525, -273.52410962895067], [142.09091997294314, -269.405269629067], [137.6710719864105, -264.2845496289445], [125.98302953317803, -248.25446962868128], [126.081248377424, -247.25258962883785], [121.26852501425643, -240.57338962869522], [120.482774261161, -240.35074962886185], [114.39320592419152, -244.9148696288077], [114.39320592419152, -244.9148696288077], [115.37539436560442, -246.36202962871337], [114.6878624565805, -246.91862962889005], [115.37539436560442, -247.92050962873347], [121.07208732593897, -243.80166962884985], [121.66140039089139, -244.46958962874547], [121.66140039089139, -244.46958962874547], [121.75961923496287, -244.5809096288599], [121.56318154664541, -244.80354962869328], [138.35860389543444, -268.0694296288803], [140.51941846675223, -270.18450962868155], [141.2069503757762, -270.96374962869163], [153.68074358210413, -282.9863096287902], [158.1988104127082, -287.3277896289027], [158.88634232173217, -287.9957096287983], [159.08278001004962, -288.1070296289127], [159.7703119190736, -288.8862696289227], [155.055807400152, -293.7843496288164], [155.9397769974934, -294.6749096289409], [156.62730890651733, -294.0069896290453], [157.70771619200175, -294.8975496287743], [158.98456116597814, -293.673029628702], [159.18099885429564, -293.8956696289308], [159.86853076331954, -293.1164296289208], [159.67209307500207, -292.89378962869193], [160.7525003604865, -291.7805896287341], [160.94893804880397, -292.0032296289629]]]}, "properties": {"id": 93, "height_m": 18.0, "levels": 6, "category": "residencial", "extrude": true, "manzana_id": 15}}, {"type": "Feature", "geometry": {"type": "Polygon", "coordinates": [[[129.81356445493267, -304.58238962884263], [127.55453103954336, -306.1408696288628], [129.7153456106867, -309.3691496290174], [134.1351935972193, -306.2521896289772], [130.6975340522741, -304.9163496287905], [129.81356445493267, -304.58238962884263]]]}, "properties": {"id": 94, "height_m": 3.0, "levels": 1, "category": "residencial", "extrude": true, "manzana_id": 15}}, {"type": "Feature", "geometry": {"type": "Polygon", "coordinates": [[[134.1351935972193, -306.2521896289772], [129.7153456106867, -309.3691496290174], [130.6975340522741, -310.48234962897527], [136.59066470092608, -317.718149628899], [139.7336677134823, -315.1577896290355], [141.59982575223665, -317.4955096290657], [154.27005664705655, -306.9201096288728], [146.51076795947574, -297.5692296287522], [144.5463910766499, -298.9050696289389], [144.44817223240392, -298.9050696289389], [140.51941846675223, -301.68806962903136], [140.61763731082374, -301.68806962903136], [134.1351935972193, -306.2521896289772]]]}, "properties": {"id": 95, "height_m": 6.0, "levels": 2, "category": "residencial", "extrude": true, "manzana_id": 15}}, {"type": "Feature", "geometry": {"type": "Polygon", "coordinates": [[[136.59066470092608, -351.2254696289357], [132.17081671439348, -357.23674962878715], [153.18964936139764, -373.155509628936], [157.70771619200175, -367.25554962880335], [136.59066470092608, -351.2254696289357]]]}, "properties": {"id": 96, "height_m": 3.0, "levels": 1, "category": "residencial", "extrude": true, "manzana_id": 21}}, {"type": "Feature", "geometry": {"type": "Polygon", "coordinates": [[[154.27005664705655, -306.9201096288728], [141.59982575223665, -317.4955096290657], [139.7336677134823, -315.1577896290355], [136.59066470092608, -317.718149628899], [153.28786820546912, -337.8670696290459], [161.5382511137564, -330.9652296290699], [157.90415388031926, -326.51242962884294], [161.04715689304996, -323.9520696289794], [153.38608704971514, -314.82382962869224], [156.52909006227137, -311.48422962881864], [157.41305965961277, -310.5936696286942], [154.27005664705655, -306.9201096288728]]]}, "properties": {"id": 97, "height_m": 6.0, "levels": 2, "category": "residencial", "extrude": true, "manzana_id": 15}}, {"type": "Feature", "geometry": {"type": "Polygon", "coordinates": [[[148.47514484247606, -291.7805896287341], [148.67158253079353, -292.11454962868186], [147.39473755681715, -293.4503896288686], [151.2252724785718, -297.2352696288044], [152.60033629644522, -295.8994296290132], [148.47514484247606, -291.7805896287341]]]}, "properties": {"id": 98, "height_m": 3.0, "levels": 1, "category": "residencial", "extrude": true, "manzana_id": 15}}, {"type": "Feature", "geometry": {"type": "Polygon", "coordinates": [[[151.71636669927827, -297.68054962886663], [150.6359594136194, -298.7937496288245], [158.49346694527168, -306.47482962881054], [160.94893804880397, -303.914469628947], [155.055807400152, -298.1258296289289], [155.9397769974934, -297.3465896289189], [155.84155815324743, -297.2352696288044], [153.58252473803262, -299.57298962883453], [151.71636669927827, -297.68054962886663]]]}, "properties": {"id": 99, "height_m": 3.0, "levels": 1, "category": "residencial", "extrude": true, "manzana_id": 15}}, {"type": "Feature", "geometry": {"type": "Polygon", "coordinates": [[[156.52909006227137, -377.8309496289962], [157.80593503624775, -376.04982962874726], [156.72552775058887, -375.27058962873724], [160.94893804880397, -369.8159096290624], [158.49346694527168, -368.0347896288134], [153.09143051732616, -375.1592696290183], [156.52909006227137, -377.8309496289962]]]}, "properties": {"id": 100, "height_m": 3.0, "levels": 1, "category": "residencial", "extrude": true, "manzana_id": 21}}, {"type": "Feature", "geometry": {"type": "Polygon", "coordinates": [[[157.41305965961277, -310.5936696286942], [156.52909006227137, -311.48422962881864], [161.83290764614537, -316.6049496289412], [164.68125412631267, -313.487989628901], [173.52095009937787, -304.47106962872823], [175.68176467052118, -306.47482962881054], [175.68176467052118, -307.0314296289872], [181.96777069580816, -300.574869628678], [180.00339381298232, -298.6824296287101], [182.6553026048321, -296.0107496287321], [176.4675154237911, -289.9994696288806], [175.5835458264497, -289.77682962904726], [173.91382547601285, -291.44662962878624], [173.22629356698891, -292.4485096290252], [171.26191668416305, -290.4447496289429], [169.8868528661152, -291.8919096288485], [170.47616593089316, -292.4485096290252], [170.2797282425757, -292.67114962885853], [167.7260382947974, -295.3428296288365], [169.00288326877376, -296.5673496289088], [169.00288326877376, -297.7918696289811], [168.02069482736087, -298.7937496288245], [167.62781945072587, -298.4597896288767], [159.27921769836712, -307.14274962870616], [159.08278001004962, -306.9201096288728], [158.2970292569542, -307.6993496288828], [158.2970292569542, -308.7012296287263], [157.41305965961277, -310.5936696286942]]]}, "properties": {"id": 101, "height_m": 3.0, "levels": 1, "category": "residencial", "extrude": true, "manzana_id": 15}}, {"type": "Feature", "geometry": {"type": "Polygon", "coordinates": [[[175.68176467052118, -307.2540696288206], [172.53876165796495, -310.48234962897527], [169.10110211284527, -313.9332696289632], [171.94944859301253, -316.71626962905566], [171.06547899584558, -317.8294696290135], [172.63698050203647, -319.3879496290336], [170.47616593089316, -321.72566962906376], [165.95809910028902, -326.6237496289574], [165.56522372365407, -326.9577096289052], [165.76166141197155, -327.291669628853], [166.05631794436053, -326.9577096289052], [170.37794708682162, -331.0765496287888], [175.38710813813222, -326.51242962884294], [181.47667647510167, -332.4123896289756], [189.03952747436503, -324.3973496290417], [183.735709890491, -319.1653096288047], [182.4588649166891, -317.94078962873243], [185.79830561756282, -314.3785496290255], [185.8965244616343, -313.2653496290676], [185.20899255261037, -312.5974296287765], [186.8787129032217, -310.9276296290375], [187.46802596799967, -311.5955496289331], [188.74487094197605, -311.48422962881864], [189.33418400675401, -310.816309628923], [183.441053358102, -305.0276696289049], [180.49448803368878, -308.1446296289451], [179.31586190395836, -306.9201096288728], [177.44970386520404, -308.9238696289551], [175.68176467052118, -307.2540696288206]]]}, "properties": {"id": 103, "height_m": 3.0, "levels": 1, "category": "residencial", "extrude": true, "manzana_id": 15}}, {"type": "Feature", "geometry": {"type": "Polygon", "coordinates": [[[169.00288326877376, -296.5673496289088], [167.62781945072587, -298.4597896288767], [168.02069482736087, -298.7937496288245], [169.00288326877376, -297.7918696289811], [169.00288326877376, -296.5673496289088]]]}, "properties": {"id": 104, "height_m": 6.0, "levels": 2, "category": "residencial", "extrude": true, "manzana_id": 15}}, {"type": "Feature", "geometry": {"type": "Polygon", "coordinates": [[[175.68176467052118, -307.0314296289872], [175.7799835147672, -307.2540696288206], [175.68176467052118, -307.2540696288206], [177.44970386520404, -308.9238696289551], [179.31586190395836, -306.9201096288728], [180.49448803368878, -308.1446296289451], [183.441053358102, -305.0276696289049], [189.33418400675401, -310.816309628923], [193.45937546089763, -306.47482962881054], [187.36980712392818, -300.574869628678], [186.38761868234076, -301.46542962880244], [184.03036642287998, -299.1277096287723], [184.9143360202214, -298.2371496290433], [182.6553026048321, -296.0107496287321], [180.00339381298232, -298.6824296287101], [181.96777069580816, -300.574869628678], [175.68176467052118, -307.0314296289872]]]}, "properties": {"id": 105, "height_m": 6.0, "levels": 2, "category": "residencial", "extrude": true, "manzana_id": 15}}, {"type": "Feature", "geometry": {"type": "Polygon", "coordinates": [[[184.9143360202214, -298.2371496290433], [184.03036642287998, -299.1277096287723], [186.38761868234076, -301.46542962880244], [187.36980712392818, -300.574869628678], [184.9143360202214, -298.2371496290433]]]}, "properties": {"id": 106, "height_m": 3.0, "levels": 1, "category": "residencial", "extrude": true, "manzana_id": 15}}]}