{"type": "FeatureCollection", "crs": {"type": "name", "properties": {"name": "EPSG:32628_local_enu_m_section_centroid", "lng0": -15.436027435001945, "lat0": 28.114031276678308}}, "features": [{"type": "Feature", "geometry": {"type": "Polygon", "coordinates": [[[-103.45229705215242, -28.314573404501342], [-56.718506523996055, -58.75303297298068], [-74.76718430227332, -87.17398693697892], [-121.50097483042818, -56.73552736890109], [-103.45229705215242, -28.314573404501342]]]}, "properties": {"id": 0, "height_median_m": 6.8, "building_count": 1, "area_m2": 1877.5928579881872}}, {"type": "Feature", "geometry": {"type": "Polygon", "coordinates": [[[-95.6003562747859, -7.144391791829631], [-94.67625726922238, -7.79921532117296], [-86.62044387865426, 5.900969073359591], [-79.860415193726, 15.09816717141784], [-63.87703956719449, 3.7722265786577176], [-48.48051760890262, -6.046855910377221], [-48.47130698720514, -6.031191791867982], [-48.167356471218724, -6.246573421358472], [-47.88993857940356, -6.4234957919462135], [-47.898097929163626, -6.437372056306835], [-32.45767337541728, -17.378573421332575], [-19.814830207101696, -25.441506095472384], [-16.755133631200152, -27.392817771679557], [-16.470788661110074, -27.57415786421604], [-16.470788661110934, -27.5741578642175], [-1.3514683213231509, -37.21645591038212], [-1.3476604142641022, -37.20997996235123], [-1.0424838627419073, -37.41350975766604], [-0.7608892918259511, -37.59309579195411], [-0.7643596474525862, -37.59899768040315], [15.985308883092584, -48.769766176897086], [6.414678035552352, -59.6206801708551], [8.278317397141203, -59.6206801708551], [0.5627989774010063, -70.55522933019466], [1.222939986780732, -71.02301023142375], [-4.100967585542182, -78.2663275133068], [-20.084343212073858, -66.94038692014419], [-35.48086517018065, -57.12130443150587], [-35.490075791882575, -57.136968550023596], [-35.79402630787453, -56.92158692052392], [-36.07144419968475, -56.74466454994435], [-36.06328484992115, -56.7307882855769], [-51.503709403850465, -45.78958692015427], [-67.49081039146189, -35.59386454995408], [-63.19913488956195, -28.29519179181416], [-54.65121908741337, -34.35230943872606], [-54.34953131419625, -33.83924167978169], [-47.18311401882421, -39.64287297057703], [-38.97835669118387, -44.29403534017219], [-39.26277549198666, -44.61650143413429], [-31.787655952130716, -49.45940531489258], [-31.779768697784743, -49.44599179180445], [-31.474794862864353, -49.66209855280909], [-31.199622521903233, -49.840374390514775], [-31.20655963973795, -49.85217205623714], [-23.26651307055896, -55.478548977192254], [-22.897425719190757, -55.06008804492913], [-16.07797285632148, -59.47820531491387], [-16.070085601977407, -59.464791791829775], [-15.76511176706472, -59.680898552824154], [-15.489939426094573, -59.859174390535685], [-15.496876543928087, -59.870972056255304], [-10.29446681639328, -63.5574388507101], [-5.462828618169377, -55.34047415181635], [-1.0052788232820267, -47.759705932452604], [-5.349079921349984, -44.68165569251349], [-5.643067222431406, -44.51499839633195], [-5.625773851783897, -44.48558828525108], [-13.565820421035603, -38.85921136424443], [-13.93490777253486, -39.27767229654463], [-20.754360635195724, -34.8595550265828], [-20.762247889537647, -34.87296854966324], [-21.067221724452047, -34.65686178866765], [-21.342394065418553, -34.47858595095395], [-21.335456947587048, -34.46678828523775], [-29.310163691731958, -28.81585090285343], [-29.61185146489883, -29.328918661697152], [-36.778268760443154, -23.525287370909574], [-44.98302608792378, -18.874125001301678], [-44.69860728710693, -18.551658907352273], [-52.17372682697076, -13.708755026588879], [-52.18161408131483, -13.722168549672967], [-52.486587916227464, -13.506061788678618], [-52.76176025719763, -13.327785950967073], [-52.75482313936415, -13.315988285247517], [-60.694869708684145, -7.689611364317403], [-61.05231301916824, -8.09487060807652], [-68.88383262495354, -3.6552914912513406], [-68.91692861607397, -3.7003194638788592], [-69.17949014567566, -3.4876873708759577], [-69.49706409446618, -3.307659133437004], [-69.46151477184594, -3.259293338315582], [-76.46002436140928, 2.4083600463491326], [-77.16751752882344, 0.0019520571089166503], [-85.68222950790232, -14.478661944951105], [-78.31831555684626, -18.653161945153027], [-82.61372236499982, -25.958180379542984], [-99.88856142106805, -14.437162661103317], [-95.6003562747859, -7.144391791829631]]]}, "properties": {"id": 1, "height_median_m": 5.2, "building_count": 13, "area_m2": 2219.852688795782}}, {"type": "Feature", "geometry": {"type": "Polygon", "coordinates": [[[-146.07515968875146, -24.462205965546183], [-145.8769162440673, -24.18125236351799], [-155.86394712674976, -16.632574546284847], [-144.87660119366785, -0.7780250959602979], [-135.27041902484154, 14.469684429386891], [-135.27466760522543, 14.471748824442782], [-135.06102470572068, 14.802052033717121], [-134.89502500987908, 15.065540181141897], [-134.8916569001116, 15.06390360879928], [-124.26061757736765, 31.500052033876695], [-114.25423267533412, 47.382995715441226], [-106.79371733732894, 42.54955345569561], [-112.09035233747119, 34.14230585965366], [-112.21660033285697, 34.237730160770326], [-117.78502406837116, 26.661742161389608], [-122.9913675467959, 18.397812574065167], [-122.49720235503428, 18.024298777541556], [-127.60357600326641, 11.076942161587386], [-132.65857276141185, 3.0532423329647718], [-132.88515472928492, 3.138873102244945], [-136.6839210785416, -2.8908361861722707], [-138.39758463485555, -5.6109016265619225], [-141.5608313653335, -10.631862759391383], [-135.85105740720522, -13.868653893029983], [-131.90805630967273, -8.280573223558868], [-126.43156132328423, -12.00603147384236], [-126.78976832374325, -12.559838420427111], [-115.61741856548839, -19.79806594435134], [-126.80561630187813, -35.942441060230195], [-133.29387166424075, -32.264339687493475], [-133.0354887187819, -31.854213372010324], [-146.07515968875146, -24.462205965546183]]]}, "properties": {"id": 2, "height_median_m": 6.8, "building_count": 6, "area_m2": 1135.3125991856773}}, {"type": "Feature", "geometry": {"type": "Polygon", "coordinates": [[[-107.36704714361117, 8.443533798838667], [-107.1499730403933, 8.279458761207566], [-102.83637512532206, 15.61541404871644], [-102.8709271248931, 15.637799244284684], [-102.65621112750996, 15.921811413141794], [-102.48122988367253, 16.219394684976006], [-102.44767183691829, 16.197653441377717], [-96.4283838454247, 24.15957084983756], [-96.9601971260702, 24.561540880926668], [-91.8538234776575, 31.508897496879655], [-86.79882671951052, 39.53259732550475], [-86.57224475180558, 39.44696655628306], [-80.85695691929041, 48.51873379847966], [-74.41314781594016, 43.64819325361252], [-84.21980297056149, 26.97042560934214], [-84.198052373716, 26.956334055446195], [-84.39629352780402, 26.670275511404654], [-84.57494821219733, 26.366444973071918], [-84.59696551485368, 26.38070931759677], [-95.20361998269303, 11.075491043521001], [-106.21228427234561, -4.809820425009687], [-112.65080625274953, 0.05672385872098826], [-107.36704714361117, 8.443533798838667]]]}, "properties": {"id": 3, "height_median_m": 7.3, "building_count": 3, "area_m2": 496.36600769871814}}, {"type": "Feature", "geometry": {"type": "Polygon", "coordinates": [[[-82.6356558724608, 55.32546468745458], [-93.37821512733515, 62.28524394297533], [-96.36647006432953, 57.54204394262807], [-103.83998091560666, 62.3839056028304], [-92.65178317922997, 78.52828071828075], [-86.1635278166722, 74.85017934597789], [-86.24590720083081, 74.7194201225441], [-74.37692365750951, 67.02986463683027], [-82.6356558724608, 55.32546468745458]]]}, "properties": {"id": 4, "height_median_m": 6.9, "building_count": 2, "area_m2": 356.76411015596887}}, {"type": "Feature", "geometry": {"type": "Polygon", "coordinates": [[[-67.70962446649538, 35.41451982907997], [-62.28584179507889, 42.7937198292226], [-61.794914198118896, 42.7937198292226], [-54.341885571751455, 52.93376270568071], [-38.66196567401204, 42.933944089752586], [-38.65275505231563, 42.949608208260926], [-38.34880453632021, 42.73422657876406], [-38.07138664451408, 42.557304208180106], [-38.07954599427271, 42.54342794382109], [-22.6391214405196, 31.602226578790546], [-9.99627827228325, 23.539293904701267], [-6.936087980472302, 21.587667362756648], [-6.6518904248971795, 21.40642128335419], [-6.651890424898042, 21.406421283352724], [8.467083613566546, 11.764344089746094], [8.476294235261935, 11.780008208252704], [8.780244751257383, 11.564626578758206], [9.057662643064319, 11.387704208173744], [9.049503293306532, 11.37382794381617], [24.48605127165942, 0.435373549491524], [41.463589738425114, -9.755092987711398], [36.04213767902612, -18.97512941357333], [26.542574690644276, -31.899536502125592], [26.773599441872225, -32.030501207898986], [21.43697285423037, -39.291123047306755], [5.7272897584290146, -29.272323047290566], [5.717584349539136, -29.28552751318095], [5.443891818800071, -29.09158692039072], [5.1358040857026355, -28.89510495690754], [5.146355035464591, -28.88075011026237], [-10.26579127717578, -17.95958692041662], [-25.66231323528625, -8.140504431388354], [-25.671523856981636, -8.156168549894963], [-25.975474372977118, -7.940786920400442], [-26.252892264784034, -7.763864549815993], [-26.244732915026248, -7.749988285458416], [-41.68515746895297, 3.1912130795736675], [-57.081679427063506, 13.010295568601972], [-57.08548733412249, 13.003819620570807], [-57.390663885652486, 13.207349415890823], [-57.672258456561266, 13.38693545017432], [-57.66878810093487, 13.392837338623305], [-74.41845663147525, 24.563605835114053], [-64.8478257846081, 35.41451982907997], [-67.70962446649538, 35.41451982907997]]]}, "properties": {"id": 5, "height_median_m": 6.8, "building_count": 14, "area_m2": 2290.731044862806}}, {"type": "Feature", "geometry": {"type": "Polygon", "coordinates": [[[-62.023973875015336, 80.93004805491], [-74.0932433424048, 88.91226512188715], [-77.30979966686064, 91.34349294771032], [-71.03793733260117, 100.82464277722771], [-65.10809136501591, 96.62270917326026], [-63.22142400392141, 100.90081070985785], [-58.953759557827965, 97.27189162942523], [-51.701334297780384, 92.5732646379373], [-51.4239237268053, 93.0057301310994], [-51.42392372680239, 93.00573013109775], [-45.74399117606648, 101.8603848870172], [-35.68913984016797, 117.53526067228361], [-29.226242104887042, 112.6502920221959], [-37.27191428601627, 101.2478439686047], [-45.11891928083013, 89.01486065759043], [-53.169532863447444, 75.32351935883486], [-61.510792840254446, 81.62824444679595], [-62.023973875015336, 80.93004805491]]]}, "properties": {"id": 6, "height_median_m": 5.6, "building_count": 5, "area_m2": 632.0190482735534}}, {"type": "Feature", "geometry": {"type": "Polygon", "coordinates": [[[4.72557226396417, -100.53611628678763], [-1.7042580627442572, -95.67614157255392], [9.271688737554253, -78.70674796630165], [18.90491378424662, -63.41611379718829], [18.891918270962883, -63.407694397153236], [19.093216119577484, -63.117225095971605], [19.278073639592183, -62.82380428432713], [19.29083141210058, -62.8320696593038], [29.898019796324718, -47.52608095315313], [40.69403037628185, -31.947625095966327], [50.67560656007034, -16.104059818864513], [58.18202260010265, -19.751444771085353], [52.912058808537594, -28.11635766704166], [52.68547684080537, -28.03072689781472], [48.88671049160668, -34.06043618613986], [47.1733514359248, -36.7800182984907], [46.970243454433565, -37.102407719148026], [46.97024345442169, -37.10240771913905], [42.06091304068341, -44.8948941401228], [41.39578532899677, -44.39215865627737], [38.086303363128714, -49.6452361858676], [37.88606969474512, -49.96306326421441], [34.34147194630517, -55.589335585925674], [31.15989783139097, -60.63938742610785], [31.654063023132146, -61.01290122263812], [26.547689374903502, -67.96025783858755], [21.441953977443884, -76.06449414012377], [21.315705982065094, -75.96906983901239], [15.747282246553297, -83.54505783838988], [15.138128431680094, -84.51195605689558], [14.985791263130684, -84.41326141250654], [12.438949096265898, -87.83550293972036], [12.833109339524297, -88.17066884734407], [10.540938768136622, -91.8089874261209], [11.038848057503404, -92.18533119151802], [8.72715970811935, -95.24308017069299], [15.08430266913072, -95.24308017069299], [16.666107604086204, -96.43868434610813], [17.883217913059706, -93.67883298527653], [18.272557055774442, -92.79598928990721], [22.78160426145834, -96.63016314447448], [16.542185874477415, -107.24128064096494], [5.796687020550154, -99.11931628673453], [4.72557226396417, -100.53611628678763]]]}, "properties": {"id": 7, "height_median_m": 6.9, "building_count": 6, "area_m2": 925.3174463344029}}, {"type": "Feature", "geometry": {"type": "Polygon", "coordinates": [[[30.661379190038172, -94.56900075548583], [37.10392246948078, -86.04722914996708], [36.572109188866214, -85.64525911882993], [41.67848283709291, -78.69790250329454], [46.73347959541593, -70.67420267467507], [46.99278927957705, -70.77220203422812], [51.29271928786437, -63.45949118283661], [51.25044034037886, -63.43894774425874], [51.495054250833974, -63.115388586638055], [51.6486484279697, -62.85417740327316], [51.680742733639335, -62.86977210078661], [57.770909604179124, -54.81410078293288], [57.15310126160152, -54.58061616745694], [62.290752199964736, -46.42572093727691], [67.40317729796826, -38.31086620139642], [68.06830500967946, -38.81360168523065], [73.28010928152474, -30.54100428436473], [80.7536201329879, -35.38286594456473], [69.7463254769656, -51.26620105513963], [58.94724177513815, -66.84909137344304], [48.154157593664266, -82.42332448841833], [38.156950974374325, -99.42515502690816], [30.661379190038172, -94.56900075548583]]]}, "properties": {"id": 8, "height_median_m": 6.7, "building_count": 4, "area_m2": 638.1711196895941}}, {"type": "Feature", "geometry": {"type": "Polygon", "coordinates": [[[-43.911116226080814, 70.2162857802843], [-41.15908554383637, 74.37651982918692], [-42.165085308263905, 74.37651982918692], [-32.739275451069126, 87.73491982907669], [-33.32838856682114, 87.73491982907669], [-28.907041357019708, 94.00091982926145], [-27.917952931789273, 94.00091982926145], [-22.304312859925872, 101.42627290670795], [-23.2743238690037, 102.5260443009735], [-20.077070446976887, 107.35931982915122], [-19.09521525352663, 107.35931982915122], [-13.667140126037205, 115.56491982920957], [-14.673139890480705, 115.56491982920957], [-10.251792680679278, 121.83091982939433], [-9.281707900574506, 121.83091982939433], [-4.529266440225678, 129.37437941076004], [-4.529266440225678, 130.49180784149172], [-1.4218217706456953, 135.1893198292841], [-0.43996657718618554, 135.1893198292841], [4.988108550303228, 143.39491982934246], [4.076218819184476, 143.39491982934246], [7.530510908393309, 149.92221967791343], [8.545061053064357, 148.7719510552757], [14.036173483855327, 157.07284430088168], [13.027438523988549, 158.21651982917464], [17.263563320397708, 163.0193198290215], [18.21528209914962, 163.0193198290215], [21.252673113548397, 167.61093197948972], [26.74077518824439, 163.87757785365], [-38.47727909895231, 65.28769954448454], [-43.911116226080814, 70.2162857802843]]]}, "properties": {"id": 9, "height_median_m": 6.6, "building_count": 1, "area_m2": 866.3873071408582}}, {"type": "Feature", "geometry": {"type": "Polygon", "coordinates": [[[49.51708626107055, 13.6711641055626], [52.62267952095318, 19.53955562917523], [68.00104182930303, 11.402962015527816], [61.71667262405216, 1.9029055974895377], [47.377113226228765, 10.03180160357291], [49.51708626107055, 13.6711641055626]]]}, "properties": {"id": 10, "height_median_m": 5.3, "building_count": 1, "area_m2": 187.47525720923852}}, {"type": "Feature", "geometry": {"type": "Polygon", "coordinates": [[[108.10492588220588, 63.15392492641709], [104.33515139867625, 65.71836394923726], [115.4990069453817, 84.12893510194836], [121.04137386253251, 80.35866659842866], [119.81918015084965, 78.97297749772927], [107.23365791686764, 57.56930701215441], [122.94452979952648, 48.139134640449925], [119.67106649685203, 41.95353250605045], [102.3784733713615, 52.333105017797934], [108.10492588220588, 63.15392492641709]]]}, "properties": {"id": 11, "height_median_m": 8.8, "building_count": 2, "area_m2": 291.1209810071229}}, {"type": "Feature", "geometry": {"type": "Polygon", "coordinates": [[[30.979399614589422, 33.88811982916426], [31.975213871225968, 33.88811982916426], [37.58885394308936, 41.313472906610755], [36.63615032407617, 42.3936216653347], [39.93173229362533, 48.62101967779357], [40.94628243829638, 47.47075105515584], [46.43739486908734, 55.771644300761835], [45.42865990922964, 56.91531982904453], [49.82276920188, 61.89723823943505], [50.76483437319403, 60.82915105544107], [56.255946803985, 69.13004430104709], [55.2913990004166, 70.22362166546759], [58.586980969965765, 76.45101967792648], [59.69156806240356, 75.19866967819945], [67.42367771140853, 89.80941967781622], [68.43822785607956, 88.65915105517848], [73.92934028687054, 96.9600443007845], [72.92060532701285, 98.10371982906719], [77.15673012340365, 102.90651982931979], [78.10844890216946, 102.90651982931979], [83.53652402965889, 111.11211982937814], [81.54866907173282, 111.11211982937814], [86.12085164859671, 117.59188598796604], [87.09347653242642, 116.4891510553041], [89.98253665801839, 120.85653197927412], [95.470134897943, 117.1235205937109], [31.279664945091458, 19.7138202728946], [24.777632024467895, 23.399731950603947], [27.87195494518076, 28.077407841809485], [27.87195494518076, 29.190607841769936], [30.979399614589422, 33.88811982916426]]]}, "properties": {"id": 12, "height_median_m": 5.8, "building_count": 1, "area_m2": 865.718785345516}}, {"type": "Feature", "geometry": {"type": "Polygon", "coordinates": [[[19.54324270000802, 34.301319829122114], [18.591523921064685, 34.301319829122114], [15.554132906839408, 29.709707679052123], [10.066030832146888, 33.44306180488949], [75.27693521493646, 132.02213163104997], [79.74150661646132, 128.22577684505498], [76.77266817863824, 123.73779535763592], [77.73721598202214, 122.6442179932304], [74.44163401270883, 116.41681998040602], [73.33704691990077, 117.66916998033037], [65.60493727125555, 103.05841998052819], [64.59038712640628, 104.20868860316364], [59.09927469574645, 95.90779535751014], [60.108009655436675, 94.76411982921418], [55.99243051782992, 90.09799113106469], [50.47394614641837, 81.75571982932954], [51.47994591068081, 81.75571982932954], [46.9077633340758, 75.27595367036038], [45.935138450065864, 76.37868860303078], [40.444026019406024, 68.07779535737725], [41.425881212862166, 66.96459535741798], [38.22862779103441, 62.131319829255], [37.24677259740665, 62.131319829255], [31.81869747007797, 53.92571982919666], [32.730587200997505, 53.92571982919666], [29.41457679379368, 47.659719829011884], [28.396116792949762, 47.659719829011884], [22.7824767210809, 40.234366751935006], [23.77936749619711, 39.104119829359306], [19.54324270000802, 34.301319829122114]]]}, "properties": {"id": 13, "height_median_m": 5.7, "building_count": 1, "area_m2": 834.5140231568244}}, {"type": "Feature", "geometry": {"type": "Polygon", "coordinates": [[[-3.2698962199592323, 57.52661967785192], [-2.255346075292453, 56.376351055219025], [3.235766355344367, 64.67724430083774], [2.253911161890738, 65.79044430079418], [5.451164583887321, 70.62371982935548], [6.433019777348355, 70.62371982935548], [11.861094904656504, 78.82931982901835], [10.855095140392729, 78.82931982901835], [15.427277717218875, 85.30908598801314], [16.399902601047973, 84.2063510553519], [21.89101503168479, 92.50724430097064], [20.909159838223665, 93.62044430093557], [24.106413260236973, 98.45371982909288], [25.08826845368417, 98.45371982909288], [30.516343581012887, 106.65931982915123], [29.604453850077224, 106.65931982915123], [33.05874593925622, 113.18661967812962], [34.073296083939915, 112.03635105547754], [39.56440851459358, 120.3372443007531], [38.55567355491638, 121.48091982944061], [42.949782847533065, 126.46283823935049], [43.865190754720224, 125.42497431701743], [48.41547555397973, 133.6793516584504], [47.413664863651945, 134.81517664350397], [51.75591987645494, 140.96908598787198], [52.7285447602633, 139.86635105523425], [55.617604885689765, 144.23373197960058], [61.1052031257939, 140.50072059360576], [-3.0852668270480486, 43.091020272804045], [-9.58729974785095, 46.77693195050593], [-6.444326459065399, 51.52815241338773], [-3.2698962199592323, 57.52661967785192]]]}, "properties": {"id": 14, "height_median_m": 3.6, "building_count": 1, "area_m2": 849.4543512749035}}, {"type": "Feature", "geometry": {"type": "Polygon", "coordinates": [[[-14.907188595204849, 56.304019980276614], [-15.921738739892813, 57.454288602933524], [-18.810798865484784, 53.08690767896353], [-24.298397105408867, 56.819919064526395], [39.87648166878841, 154.20595961129916], [45.39685522401961, 151.70242145891623], [42.549139135930574, 146.32131982925816], [43.53099432954053, 146.32131982925816], [40.07670224036155, 139.79401998027978], [39.06215209567786, 140.94428860293183], [33.57103966502419, 132.64339535765632], [34.5797746247014, 131.49971982896878], [30.34364982834663, 126.69691982918363], [29.39697563154086, 126.69691982918363], [24.730294267477944, 119.28958561067356], [25.72178331596583, 118.16546301490541], [21.379528303162832, 112.01155367053738], [20.40690341934382, 113.11428860318718], [14.915790988707004, 104.81339535756848], [15.897646182160637, 103.70019535761203], [12.700392760164052, 98.86691982905074], [11.718537566703024, 98.86691982905074], [6.290462439394886, 90.66131982938788], [7.202352170314577, 90.66131982938788], [3.7480600811355864, 84.1340199804095], [2.733509936458282, 85.28428860305434], [-2.7576024941785398, 76.9833953574356], [-1.748867534488312, 75.83971982913964], [-5.984992330879335, 71.03691982931335], [-6.918114870253006, 71.03691982931335], [-11.726153217337147, 62.314968448298536], [-14.907188595204849, 56.304019980276614]]]}, "properties": {"id": 15, "height_median_m": 7.9, "building_count": 1, "area_m2": 837.7382911596627}}]}