{"type": "FeatureCollection", "crs": {"type": "name", "properties": {"name": "EPSG:32628_local_enu_m_section_centroid", "lng0": -16.725368510337, "lat0": 28.32285009592651}}, "features": [{"type": "Feature", "geometry": {"type": "Polygon", "coordinates": [[[-1955.4139510834284, 5099.468558538852], [-1842.819208359586, 5190.639638538842], [-1805.0204939844577, 5249.86187853921], [-1853.1090739044214, 5249.86187853921], [-1898.9695891957804, 5203.6640785387835], [-1920.7036796246384, 5244.729672795825], [-1928.9246348199995, 5241.388148098204], [-1937.6179783290952, 5236.717353686299], [-1945.8664493019426, 5231.101075780404], [-1953.590610454487, 5224.593402207267], [-1960.7160738921107, 5217.25700542059], [-1967.174217506794, 5209.162538932029], [-1972.902845845043, 5200.387956878687], [-1977.8467890846052, 5191.017763282711], [-1981.9584343491476, 5181.142198230146], [-1985.1981842473647, 5170.856368811175], [-1987.5348382164905, 5160.259333185923], [-1988.94589300147, 5149.453146600755], [-1989.4177593735935, 5138.541878539074], [-1989.4177593735935, 5096.564194629069], [-1955.4139510834284, 5099.468558538852]]]}, "properties": {"name": "", "kind": "forest", "category": "parque", "extrude": false}}, {"type": "Feature", "geometry": {"type": "Polygon", "coordinates": [[[-1949.632323737261, 3095.2632785391097], [-1841.3493031019734, 3133.1120785388634], [-1755.11486132913, 3201.4625585387275], [-1711.017703604242, 3280.388438538785], [-1815.0869958349078, 3285.620478539022], [-1925.4278838307132, 3267.6979585387908], [-1968.545104716961, 3237.1962785390756], [-1989.4177593735935, 3189.5110853679944], [-1989.4177593735935, 3063.481026259971], [-1949.632323737261, 3095.2632785391097]]]}, "properties": {"name": "", "kind": "scrub", "category": "parque", "extrude": false}}, {"type": "Feature", "geometry": {"type": "Polygon", "coordinates": [[[-1073.274809219542, -1250.0016014609905], [-1108.4545417155189, -1294.8635614612301], [-970.4794348786212, -1415.7570814609246], [-995.6638116238089, -1442.8078414610475], [-929.224093985024, -1518.839401460898], [-875.8175362961865, -1497.5772814611887], [-771.9442314333878, -1534.8694814611613], [-770.1803451243227, -1259.2411614609969], [-769.8863640728699, -1135.1193614611477], [-791.5429681999273, -1099.6082814610286], [-813.5915470623713, -1043.3916814609818], [-806.5360018264589, -981.4977614610311], [-1004.1892621173336, -960.5696014612697], [-1036.2331967305668, -1007.8806014612583], [-1079.6443986686154, -1027.0276414611662], [-1073.274809219542, -1250.0016014609905]]]}, "properties": {"name": "", "kind": "farmland", "category": "parque", "extrude": false}}, {"type": "Feature", "geometry": {"type": "Polygon", "coordinates": [[[2074.7722839132657, -1663.1101214608939], [2057.13342082331, -1675.6892814611692], [2037.6326777407046, -1687.2665614612056], [2026.0694230483696, -1703.630601461021], [2014.506168356035, -1711.7569614610693], [1999.5131347295032, -1723.7795214611679], [1995.3974000084672, -1736.6926414609954], [1997.1612863175324, -1765.3018814611382], [2001.5710020900212, -1788.122481461263], [1999.807115780956, -1829.3108814608902], [2002.2569578768603, -1868.1615614612783], [1990.6937031845257, -1887.1972814610717], [1969.1350927414016, -1938.4044814611107], [1972.956846410985, -1961.893001461131], [1980.110385330483, -2001.7455614609669], [1985.3040505737447, -2026.9038814611217], [1983.442170581094, -2052.8414414608915], [1960.609642247877, -2121.3032414612658], [1949.0463875555422, -2170.3953614611078], [1967.763181167723, -2199.3385614611984], [1957.277856997614, -2221.1572814610845], [1953.1621222765782, -2234.070401460912], [1954.5340338502565, -2264.0154814612415], [1950.1243180777676, -2285.5002414611795], [1945.3226275698923, -2315.111361461166], [1935.4252655026892, -2345.390401461048], [1919.7462760896665, -2369.9921214610263], [1905.1452171985213, -2403.3881214609482], [1902.4013940511643, -2426.542681461021], [1914.3566234788852, -2430.995481461248], [1928.271726582843, -2452.0349614611237], [1931.0155497302005, -2476.636681461102], [1932.387461303879, -2499.4572814612266], [1933.0734170907183, -2548.104121461007], [1928.271726582843, -2566.137961460957], [1928.6637013182294, -2595.8604014610573], [1926.6058339577116, -2608.7735214612803], [1918.3743645159877, -2639.38652146111], [1903.3813308894562, -2663.6542814611407], [1890.4461646234429, -2695.937081461105], [1879.9608404533335, -2706.5124814609026], [1885.742467799501, -2713.9709214610552], [1904.459261411682, -2717.755801460991], [1922.1961181852228, -2722.8765214611135], [1931.7015055170395, -2729.333081461027], [1929.3496571050691, -2738.2386814610854], [1920.432231876506, -2749.815961461122], [1919.4522950378655, -2848.5568014609826], [1917.6884087291485, -2878.167921460969], [1911.906781382981, -2898.316841461116], [1898.9716151169673, -2915.0148414612745], [1896.6197667049967, -2930.377001461247], [1897.9916782786754, -2938.837321461243], [2014.114193620648, -3048.4875214612443], [2031.165094607698, -3054.2761614612627], [2077.516107060623, -3053.6082414609714], [2097.6048122461343, -3048.153561460901], [2100.838603812812, -3045.4511724951835], [2100.838603812812, -1669.509944170779], [2074.7722839132657, -1663.1101214608939]]]}, "properties": {"name": "Cueva del Viento", "kind": "nature_reserve", "category": "parque", "extrude": false}}, {"type": "Feature", "geometry": {"type": "Polygon", "coordinates": [[[2100.838603812812, -3326.9976379611726], [2100.838603812812, -3312.197750999502], [2097.6048122461343, -3311.4253614610193], [2094.371020679805, -3326.6762014612723], [2100.838603812812, -3326.9976379611726]]]}, "properties": {"name": "", "kind": "vineyard", "category": "parque", "extrude": false}}, {"type": "Feature", "geometry": {"type": "Polygon", "coordinates": [[[1760.1145651257111, -3397.698361461115], [1765.4062240525584, -3412.50392146091], [1754.528925147063, -3428.867961461121], [1740.5158283591718, -3436.3264014612737], [1743.6516262419154, -3454.4715614609427], [1764.3282935306809, -3445.7886014611136], [1791.3745502685192, -3457.6998414610975], [1808.5234449391542, -3449.573481461049], [1824.3004280361108, -3443.339561460969], [1830.9639985369847, -3430.9830414609223], [1805.485640740344, -3415.5095614612314], [1773.8336808621495, -3394.5814014610746], [1763.6423377438416, -3389.0154014612854], [1760.1145651257111, -3397.698361461115]]]}, "properties": {"name": "", "kind": "forest", "category": "parque", "extrude": false}}, {"type": "Feature", "geometry": {"type": "Polygon", "coordinates": [[[899.0440652856287, -3566.570801461089], [911.5872568162557, -3525.271081460952], [886.7948548068025, -3520.03904146111], [877.3874611585712, -3562.006681461143], [899.0440652856287, -3566.570801461089]]]}, "properties": {"name": "", "kind": "pitch", "category": "parque", "extrude": false}}, {"type": "Feature", "geometry": {"type": "Polygon", "coordinates": [[[1833.707821684342, -3685.2379214612633], [1846.1530195310356, -3666.2022014610743], [1813.0311543955768, -3644.7174414611363], [1800.4879628649496, -3665.756921461012], [1833.707821684342, -3685.2379214612633]]]}, "properties": {"name": "", "kind": "pitch", "category": "parque", "extrude": false}}, {"type": "Feature", "geometry": {"type": "Polygon", "coordinates": [[[1452.2184105226165, -3667.7606814610945], [1448.2986631694478, -3675.1078014611326], [1452.4143978904838, -3691.1378814610002], [1469.2693115096658, -3722.752761461069], [1477.8927556867764, -3733.439481460981], [1488.476073540819, -3747.465801461162], [1510.0346839839428, -3730.656481461284], [1495.4336250927977, -3713.9584814611253], [1491.9058524750158, -3682.7888814611188], [1481.1265472534537, -3663.419201460982], [1475.3449199072863, -3653.845681461028], [1457.3140820819447, -3652.9551214609037], [1452.2184105226165, -3667.7606814610945]]]}, "properties": {"name": "", "kind": "forest", "category": "parque", "extrude": false}}, {"type": "Feature", "geometry": {"type": "Polygon", "coordinates": [[[-562.2377480308579, -1985.7154814610992], [-573.9969900907121, -1994.843721460991], [-555.574177530332, -2018.4435614611257], [-543.8149354701299, -2009.315321461234], [-562.2377480308579, -1985.7154814610992]]]}, "properties": {"name": "", "kind": "pitch", "category": "parque", "extrude": false}}, {"type": "Feature", "geometry": {"type": "Polygon", "coordinates": [[[-1838.899461006069, -2102.2675214610767], [-1840.6633473151342, -2081.8959614610967], [-1791.5685117148516, -2069.873401460998], [-1798.428069583245, -2028.3510414610275], [-1811.3632358492584, -1999.1852014611034], [-1827.336206313734, -1987.607921461067], [-1822.9264905412454, -1982.598521461059], [-1825.6703136886026, -1943.859161461181], [-1831.4519410347702, -1885.1935214609894], [-1842.5252273081328, -1910.0178814611966], [-1869.4734903620376, -1946.8648014611067], [-1906.8090839024662, -1967.5703214610346], [-1923.1740291023282, -2004.5285614610593], [-1907.9850081082773, -2047.275441461102], [-1903.967267071175, -2137.7786014611956], [-1904.8492102258817, -2201.5649614611143], [-1867.6116103693869, -2186.091481461028], [-1825.1803452696306, -2181.4160414609673], [-1795.9782274873405, -2194.1065214609616], [-1833.1178336599016, -2120.9692814609225], [-1838.899461006069, -2102.2675214610767]]]}, "properties": {"name": "", "kind": "scrub", "category": "parque", "extrude": false}}, {"type": "Feature", "geometry": {"type": "Polygon", "coordinates": [[[-1172.4444172583992, -2765.0668014609796], [-1198.3147497904263, -2727.4406414610594], [-1196.4528697974274, -2594.5245614612663], [-1148.3379710354372, -2573.5964014611095], [-1080.526341823322, -2571.592641461027], [-1057.2038450707846, -2494.5592014609374], [-1067.0032134540545, -2449.585921460979], [-1031.9214746420114, -2407.6182814609465], [-1002.9153442275887, -2379.4543214612613], [-1012.0287568240192, -2278.264441461256], [-1005.9531484263988, -2225.164801461249], [-984.0025632478886, -2167.0557614612344], [-960.7780601792849, -2165.608601460933], [-960.8760538632188, -2143.9012014611617], [-1007.1290726322101, -2144.903081461005], [-1007.9130221029832, -2101.3769614609523], [-973.2232580259785, -2095.810961461163], [-1017.5164031187337, -2062.4149614612406], [-1067.7871629248275, -2031.13404146112], [-1085.13204496333, -1994.064481460981], [-1064.9453460938846, -1981.5966414612155], [-1033.097398848171, -1947.4214014612833], [-991.1561021673865, -1913.0235214611223], [-967.0496559447727, -1871.167201461204], [-999.6815526609112, -1853.3560014610873], [-1034.6652977893687, -1889.8689614610496], [-1058.3797692769442, -1856.1390014611798], [-1089.8357417872714, -1798.6978814610604], [-1088.8558049489793, -1729.568161461186], [-1231.3386212419514, -1668.342161461131], [-1288.7629199682394, -1657.6554414612192], [-1378.9171090942516, -1633.2763614610742], [-1452.4123719689487, -1624.5934014612449], [-1569.514824149562, -1616.6896814610297], [-1610.770165043159, -1615.6878014611864], [-1653.0054427750483, -1609.7878414610539], [-1669.3703879752586, -1641.4027214611226], [-1675.1520153214258, -1673.2402414610247], [-1702.4922531107172, -1736.6926414609954], [-1752.0770571303196, -1777.6584014611847], [-1826.0622884239892, -1873.0596414611719], [-1831.4519410347702, -1885.1935214609894], [-1825.6703136886026, -1943.859161461181], [-1822.9264905412454, -1982.598521461059], [-1827.336206313734, -1987.607921461067], [-1811.3632358492584, -1999.1852014611034], [-1798.428069583245, -2028.3510414610275], [-1791.5685117148516, -2069.873401460998], [-1787.4527769938156, -2077.6658014610985], [-1783.3370422727796, -2100.9316814612853], [-1833.1178336599016, -2120.9692814609225], [-1795.9782274873405, -2194.1065214609616], [-1779.417294919611, -2201.231001461166], [-1764.1302802416267, -2238.8571614610864], [-1770.0099012717278, -2290.0643614611254], [-1765.5021918153054, -2317.226441460967], [-1775.3995538825088, -2335.037641461084], [-1793.8223664428888, -2385.465601461113], [-1807.8354632311282, -2442.127481461222], [-1800.5839306273483, -2485.8762414611083], [-1782.9450675377414, -2548.8833614610166], [-1783.4350359567134, -2586.0642414612703], [-1789.3146569868145, -2628.4771614609695], [-1816.1649263567856, -2654.7486814610825], [-1874.765149288885, -2685.6956414612555], [-1912.5907112486334, -2738.3500014612], [-1897.9896523574887, -2828.9644814610124], [-1877.606966120176, -2877.054721461011], [-1830.4720041964779, -2915.0148414612745], [-1831.2559536672509, -2968.1144814612812], [-1884.270536620702, -2978.0219614611833], [-1916.0204901828304, -2977.576681461121], [-1932.973397485946, -3051.7158014610036], [-1875.8430798111108, -3126.9681214612397], [-1817.9288126658507, -3143.777441461117], [-1760.2105328884581, -3176.505521461144], [-1741.8857140116636, -3183.296041461005], [-1735.3201371947232, -3183.184721460891], [-1720.8170719875116, -3174.724401460895], [-1707.685918353979, -3172.38668146126], [-1699.8464236472935, -3167.043321460909], [-1687.0092510652137, -3156.579241461226], [-1659.0810511726684, -3155.688681461101], [-1649.8696448923044, -3165.5961614610032], [-1642.7161059728064, -3193.871441461198], [-1652.2214933042753, -3204.112881461048], [-1669.3703879752586, -3211.460001461086], [-1673.7801037477473, -3214.4656414610117], [-1676.5239268951045, -3219.0297614609576], [-1681.6195984544327, -3222.4806814609456], [-1689.6550805286374, -3223.0372814611223], [-1704.2561394197824, -3225.2636814610382], [-1706.7059815156867, -3216.024121461032], [-1713.6635330676656, -3213.018481461106], [-1720.4250972521252, -3213.797721461116], [-1727.4806424880376, -3216.3580814609795], [-1729.8324909000085, -3186.8582814611077], [-1742.4736761145691, -3188.86204146119], [-1745.0215118940591, -3211.3486814609714], [-1746.883391887058, -3222.035401461279], [-1742.0817013791827, -3225.8202814612146], [-1733.6542445695916, -3228.937241461255], [-1728.2645919588108, -3231.9428814611806], [-1721.6990151418702, -3240.069241461229], [-1719.9351288331532, -3320.553601460911], [-1710.1357604495354, -3373.8758814611465], [-1668.2924574530325, -3406.381321460944], [-1622.5294071030132, -3420.964241460906], [-1608.0263418958018, -3415.6208814609504], [-1609.006278734094, -3411.7246814609002], [-1598.8149356154377, -3409.1643214610367], [-1595.5811440491084, -3409.720921461213], [-1593.0333082692703, -3410.834121461171], [-1587.6436556584893, -3413.6171214612637], [-1578.5302430620588, -3413.060521461087], [-1574.8064830764092, -3422.5227214609263], [-1540.1167189997527, -3408.1624414611933], [-1504.447018084456, -3405.9360414612775], [-1501.4092138856458, -3426.6415614612056], [-1506.7988664964266, -3426.975521461153], [-1507.974790702238, -3432.4302014612235], [-1533.5511421828123, -3429.981161461079], [-1540.7046811026585, -3434.8792414609725], [-1549.4261189637023, -3444.118801460979], [-1549.8180936990889, -3445.8999214612277], [-1547.8582200225046, -3446.456521461009], [-1541.9785989924035, -3444.564081461041], [-1535.902990594783, -3443.339561460969], [-1529.6313948292955, -3442.8942814609068], [-1523.4577927480898, -3443.339561460969], [-1517.3821843504695, -3444.564081461041], [-1511.9925317396885, -3446.3452014608947], [-1506.7988664964266, -3448.7942414610393], [-1501.9971759885514, -3451.799881460965], [-1497.5874602160625, -3455.3621214610675], [-1493.07975075964, -3459.70360146118], [-1489.0620097225378, -3464.490361460959], [-1485.436243420822, -3469.6110814610815], [-1483.8683444796243, -3471.7261614612785], [-1461.3297971978602, -3459.2583214611177], [-1441.339085695934, -3458.8130414610555], [-1429.6778373200136, -3455.5847614609006], [-1435.0674899307946, -3424.0812014609464], [-1429.6778373200136, -3413.8397614610967], [-1445.3568267330363, -3410.2775214609946], [-1472.893051890195, -3411.279401461233], [-1477.6947423980703, -3406.715281460892], [-1463.6816456098309, -3390.907841461253], [-1447.022719358168, -3381.1116814610705], [-1433.1076162538623, -3384.5626014610584], [-1436.6353888719923, -3390.6852014610245], [-1421.2503805100744, -3394.1361214610124], [-1405.8653721485045, -3393.5795214612313], [-1356.8685302321558, -3387.3456014611506], [-1352.2628270917996, -3385.3418414610683], [-1353.9287197169313, -3374.4324814609276], [-1362.160189159003, -3354.7288414612385], [-1381.366951190156, -3340.1459214612764], [-1408.6091952958618, -3323.670561460951], [-1427.9139510109485, -3286.823641461041], [-1442.2210288506408, -3267.3426414611854], [-1441.339085695934, -3237.0636014609076], [-1447.806668828941, -3224.818401460976], [-1490.4339212962166, -3185.0771614612545], [-1513.854411732339, -3165.7074814611174], [-1502.3891507239377, -3153.2396414609566], [-1488.768028671085, -3152.4604014609467], [-1477.3027676626837, -3159.807521460985], [-1459.9578856241815, -3177.5074014609872], [-1421.2503805100744, -3210.235481461014], [-1398.6138395447247, -3225.0410414612047], [-1379.309083829638, -3247.527681460986], [-1370.7836333361133, -3265.7841614611652], [-1360.5922902178052, -3272.3520414611935], [-1359.122384960193, -3269.6803614612154], [-1348.6370607900838, -3252.2031214610465], [-1341.7775029216905, -3239.4013214609377], [-1328.548355604224, -3206.450601461078], [-1316.9851009118893, -3184.96584146114], [-1304.5399030651959, -3169.9376414611156], [-1305.8138209549409, -3164.705601461274], [-1305.8138209549409, -3153.2396414609566], [-1304.5399030651959, -3147.784961461282], [-1297.6803451968024, -3138.322761461047], [-1290.3308189094373, -3127.524721461021], [-1286.6070589237877, -3117.951201461067], [-1281.217406313007, -3105.149401460958], [-1268.576221098446, -3086.6702814609457], [-1257.3069474579122, -3072.310001461213], [-1242.705888566767, -3051.2705214609414], [-1217.031543402259, -3016.7613214610615], [-1207.820137122243, -2995.833161460904], [-1191.3571982380993, -2964.218281461231], [-1174.7962656703698, -2916.350681461066], [-1169.0146383242027, -2862.471801461049], [-1147.5540215650124, -2802.025041461004], [-1150.8858068152754, -2779.983681461285], [-1167.348745699071, -2763.842281460907], [-1172.4444172583992, -2765.0668014609796]]]}, "properties": {"name": "", "kind": "farmland", "category": "parque", "extrude": false}}, {"type": "Feature", "geometry": {"type": "Polygon", "coordinates": [[[-1143.3402931600428, -2944.8486014610944], [-1153.5316362786991, -2959.9881214612333], [-1163.1350172944497, -2980.9162814609945], [-1170.2885562139475, -3000.3972814612457], [-1172.3464235744657, -3014.868881461093], [-1137.9506405492618, -3046.483761461162], [-1119.5278279885335, -3050.6026014610457], [-1084.1521081250378, -3054.2761614612627], [-1084.6420765440098, -3045.8158414612662], [-1085.915994434103, -3036.131001461198], [-1088.16984916214, -3027.893321461035], [-1088.5618238975264, -3021.214121460893], [-1090.8156786255636, -3014.423601461031], [-1095.5193754495053, -3006.965161461274], [-1098.8511606997683, -2999.729361460955], [-1100.9090280602861, -2990.3784814612295], [-1100.419059641314, -2983.2540014610245], [-1099.7331038544748, -2974.5710414611954], [-1102.0849522664457, -2967.3352414612714], [-1108.4545417155189, -2956.314561461016], [-1116.098049054337, -2947.6316014611866], [-1121.9776700844382, -2940.2844814611485], [-1128.2492658499257, -2937.056201460994], [-1134.6188552989988, -2934.7184814609636], [-1143.3402931600428, -2944.8486014610944]]]}, "properties": {"name": "", "kind": "farmland", "category": "parque", "extrude": false}}, {"type": "Feature", "geometry": {"type": "Polygon", "coordinates": [[[-1111.6883332821963, -3331.1290014611036], [-1109.0425038184246, -3317.881921460933], [-1102.8689017372187, -3317.5479614609853], [-1085.7200070662354, -3315.432881461184], [-1065.8272892482432, -3318.2158814612762], [-1059.8496745345565, -3292.500961460945], [-1035.0572725247553, -3297.176401461005], [-1034.0773356864631, -3297.176401461005], [-1027.7077462370419, -3269.6803614612154], [-1025.0619167736181, -3264.337001461259], [-1057.889800857624, -3263.0011614610726], [-1058.183781909077, -3250.6446414610264], [-1067.4931818733749, -3243.0748814611547], [-1066.611238719016, -3228.380641461078], [-1062.2015229465273, -3218.2505214609478], [-1052.6961356147103, -3220.3656014611443], [-1037.4091209367261, -3226.8221614610584], [-1032.7054241127844, -3226.1542414611627], [-1018.8883146924125, -3215.244881461022], [-1018.2023589055731, -3209.678881461233], [-1018.6923273245451, -3194.7620014609274], [-1020.2602262657429, -3185.2998014610876], [-1025.649878876872, -3153.2396414609566], [-1026.5318220312304, -3148.341561461063], [-1024.1799736192597, -3140.437841461244], [-1030.7455504362001, -3135.2058014610066], [-1042.6027861799878, -3126.7454814610105], [-1049.6583314159002, -3121.402121461055], [-1052.4021545632577, -3117.951201461067], [-1055.635946129587, -3112.6078414611106], [-1062.6914913654996, -3100.91924146096], [-1070.8249671236376, -3089.4532814610384], [-1075.0386955286071, -3085.0004814612066], [-1077.9785060434838, -3079.8797614610844], [-1081.8982533966525, -3063.8496814612163], [-1084.1521081250378, -3054.2761614612627], [-1119.5278279885335, -3050.6026014610457], [-1137.9506405492618, -3046.483761461162], [-1172.3464235744657, -3014.868881461093], [-1170.2885562139475, -3000.3972814612457], [-1163.1350172944497, -2980.9162814609945], [-1153.5316362786991, -2959.9881214612333], [-1143.3402931600428, -2944.8486014610944], [-1134.6188552989988, -2934.7184814609636], [-1127.0733416437663, -2919.801601461054], [-1110.1204343406503, -2851.005841461127], [-1083.074177602812, -2803.5835214610242], [-1082.5842091834918, -2771.634681461008], [-1108.7485227669717, -2750.0386014609553], [-1167.348745699071, -2763.842281460907], [-1150.8858068152754, -2779.983681461285], [-1147.5540215650124, -2802.025041461004], [-1169.0146383242027, -2862.471801461049], [-1174.7962656703698, -2916.350681461066], [-1191.3571982380993, -2964.218281461231], [-1207.820137122243, -2995.833161460904], [-1217.031543402259, -3016.7613214610615], [-1242.705888566767, -3051.2705214609414], [-1257.3069474579122, -3072.310001461213], [-1268.576221098446, -3086.6702814609457], [-1281.217406313007, -3105.149401460958], [-1286.6070589237877, -3117.951201461067], [-1290.3308189094373, -3127.524721461021], [-1297.6803451968024, -3138.322761461047], [-1304.5399030651959, -3147.784961461282], [-1305.8138209549409, -3153.2396414609566], [-1305.8138209549409, -3164.705601461274], [-1304.5399030651959, -3169.9376414611156], [-1316.9851009118893, -3184.96584146114], [-1328.548355604224, -3206.450601461078], [-1341.7775029216905, -3239.4013214609377], [-1348.6370607900838, -3252.2031214610465], [-1359.122384960193, -3269.6803614612154], [-1360.5922902178052, -3272.3520414611935], [-1370.7836333361133, -3265.7841614611652], [-1379.309083829638, -3247.527681460986], [-1398.6138395447247, -3225.0410414612047], [-1421.2503805100744, -3210.235481461014], [-1459.9578856241815, -3177.5074014609872], [-1477.3027676626837, -3159.807521460985], [-1488.768028671085, -3152.4604014609467], [-1502.3891507239377, -3153.2396414609566], [-1513.854411732339, -3165.7074814611174], [-1490.4339212962166, -3185.0771614612545], [-1447.806668828941, -3224.818401460976], [-1441.339085695934, -3237.0636014609076], [-1442.2210288506408, -3267.3426414611854], [-1427.9139510109485, -3286.823641461041], [-1408.6091952958618, -3323.670561460951], [-1381.366951190156, -3340.1459214612764], [-1362.160189159003, -3354.7288414612385], [-1353.9287197169313, -3374.4324814609276], [-1352.2628270917996, -3385.3418414610683], [-1344.9133008044344, -3407.1605614609543], [-1331.7821471709017, -3391.241801461201], [-1327.8623998173848, -3399.368161461249], [-1312.0854167204284, -3396.80780146099], [-1293.466616792181, -3445.56596146128], [-1278.2775957981303, -3442.3376814611256], [-1275.3377852829058, -3439.554681461033], [-1273.965873709227, -3450.241401460945], [-1265.8323979510888, -3448.348961460977], [-1266.1263790028897, -3411.947321461129], [-1247.9975474936145, -3354.7288414612385], [-1242.705888566767, -3344.7100414612223], [-1235.1603749115345, -3330.5724014609273], [-1214.1897265713164, -3320.219641460963], [-1200.5686045184634, -3332.2422014610615], [-1212.7198213137042, -3355.2854414610197], [-1223.989094954586, -3419.294441461167], [-1199.0007055772655, -3422.4114014612073], [-1178.2260446045666, -3357.4005214612166], [-1156.6674341614428, -3361.185401461152], [-1144.810198417655, -3397.141761460938], [-1141.2824257995246, -3360.8514414612046], [-1106.3966743550009, -3336.47236146106], [-1111.6883332821963, -3331.1290014611036]]]}, "properties": {"name": "", "kind": "scrub", "category": "parque", "extrude": false}}, {"type": "Feature", "geometry": {"type": "Polygon", "coordinates": [[[-1141.2824257995246, -3360.8514414612046], [-1144.810198417655, -3397.141761460938], [-1147.2600405132114, -3411.8360014610143], [-1116.5880174736571, -3416.7340814609083], [-1114.2361690616863, -3451.799881460965], [-1110.4144153921031, -3451.5772414611315], [-1109.434478553811, -3464.267721461126], [-1115.2161058999784, -3465.603561460917], [-1113.8441943262999, -3470.501641461206], [-1098.3611922807963, -3467.4960014612802], [-1056.5178892839456, -3472.505401460893], [-1053.7740661369364, -3471.2808814612163], [-1048.188426158288, -3471.9488014611115], [-1040.7409061869892, -3477.9600814609635], [-1036.3311904145003, -3481.188361461118], [-1024.7679357221652, -3484.639281461106], [-1021.0441757365159, -3464.824321460907], [-1027.0217904505507, -3459.4809614609508], [-1049.952312467353, -3451.5772414611315], [-1073.568790270995, -3450.3527214610594], [-1078.664461830323, -3447.6810414610813], [-1075.2346828961265, -3423.747241460999], [-1048.972375629061, -3389.6833214611806], [-1053.3820914015498, -3387.902201460932], [-1070.9229608075714, -3384.117321460996], [-1096.7932933392503, -3380.221121460946], [-1109.434478553811, -3378.1060414611447], [-1106.3966743550009, -3336.47236146106], [-1141.2824257995246, -3360.8514414612046]]]}, "properties": {"name": "", "kind": "farmland", "category": "parque", "extrude": false}}, {"type": "Feature", "geometry": {"type": "Polygon", "coordinates": [[[-1415.6647405317744, -3456.697961461254], [-1407.6292584575697, -3457.36588146115], [-1383.7187996021269, -3453.9149614611615], [-1364.708024938493, -3454.694201461172], [-1360.2983091660042, -3453.8036414610474], [-1354.1247070847983, -3448.237641461258], [-1339.91562292904, -3450.3527214610594], [-1334.1339955828723, -3447.6810414610813], [-1340.5035850319455, -3435.9924414609304], [-1348.4410734222163, -3412.50392146091], [-1357.4564923350613, -3414.3963614612735], [-1361.7682144236167, -3412.9492014609723], [-1406.1593531999574, -3415.5095614612314], [-1406.9433026707304, -3416.177481461127], [-1424.5821657606855, -3417.290681461085], [-1429.6778373200136, -3413.8397614610967], [-1435.0674899307946, -3424.0812014609464], [-1429.6778373200136, -3455.5847614609006], [-1415.6647405317744, -3456.697961461254]]]}, "properties": {"name": "", "kind": "farmland", "category": "parque", "extrude": false}}, {"type": "Feature", "geometry": {"type": "Polygon", "coordinates": [[[-1772.1657623158314, -3638.817481461004], [-1718.955191994513, -3618.334601460909], [-1692.2029163081272, -3597.4064414611476], [-1633.7006870599614, -3577.0348814611675], [-1598.6189482479185, -3577.5914814609487], [-1570.2007799364014, -3577.9254414608963], [-1555.0117589423508, -3578.1480814611255], [-1506.7988664964266, -3578.9273214611353], [-1486.6121676266334, -3570.9122814612015], [-1472.2070961033555, -3561.672721461195], [-1468.0913613823197, -3532.952161460938], [-1497.0974917970907, -3532.2842414610423], [-1532.2772242930673, -3514.6956814611544], [-1577.3543188562473, -3457.6998414610975], [-1588.9175735482343, -3452.356481461142], [-1601.3627713952758, -3446.3452014608947], [-1608.4183166311882, -3443.8961614611453], [-1615.5718555510343, -3442.1150414608965], [-1622.9213818383996, -3441.113161461053], [-1631.1528512804716, -3440.7792014611055], [-1639.3843207221953, -3441.4471214610007], [-1643.5000554432313, -3442.0037214611775], [-1647.5177964803336, -3442.8942814609068], [-1652.7114617235954, -3444.6754014611556], [-1657.6111459154044, -3447.0131214611856], [-1662.2168490554122, -3450.0187614611114], [-1678.3858068877553, -3459.70360146118], [-1683.3834847631497, -3462.82056146122], [-1688.8711310578642, -3465.15828146125], [-1692.9868657789004, -3466.1601614610936], [-1697.2005941838697, -3466.7167614612704], [-1701.512316272425, -3466.8280814609893], [-1707.881905721498, -3472.171441460945], [-1712.9775772808264, -3474.843121460923], [-1714.4474825384386, -3475.3997214611], [-1716.1133751635703, -3475.511041461214], [-1717.7792677887016, -3474.9544414610373], [-1719.3471667298993, -3473.729921460965], [-1720.229109884606, -3471.8374814609974], [-1720.229109884606, -3469.833721460915], [-1721.307040406832, -3464.6016814610734], [-1722.0909898772568, -3458.033801461045], [-1720.719078303578, -3443.1169214611355], [-1717.0933120018622, -3424.303841461175], [-1716.407356215023, -3420.0736814611773], [-1716.407356215023, -3415.732201461065], [-1717.387293053315, -3411.390721460952], [-1719.0531856784464, -3407.383201461183], [-1721.1110530389644, -3404.2662414611427], [-1723.7568825023882, -3401.371921460936], [-1726.7946867011985, -3399.034201460906], [-1730.224465635395, -3397.2530814610527], [-1735.3201371947232, -3395.6946014610326], [-1740.6117961219184, -3394.5814014610746], [-1745.0215118940591, -3394.2474414611265], [-1749.431227666548, -3394.47008146096], [-1754.0369308069041, -3393.356881461002], [-1758.2506592115255, -3391.3531214609197], [-1761.974419197175, -3396.251201461209], [-1778.7313391327718, -3406.603961461173], [-1796.9581643256324, -3401.705881461279], [-1811.6572169007113, -3402.707761461123], [-1824.004421063471, -3439.7773214612616], [-1837.6255431163238, -3467.050721461218], [-1838.3114989031633, -3468.3865614610095], [-1839.5854167929083, -3482.746841461138], [-1834.4897452335804, -3502.3391614611082], [-1838.0175178517106, -3522.822041461203], [-1839.2914357414556, -3545.0860414611507], [-1830.8639789318645, -3574.251881461075], [-1823.3184652766317, -3602.7498014611037], [-1809.207374804807, -3638.2608814612227], [-1772.1657623158314, -3638.817481461004]]]}, "properties": {"name": "", "kind": "scrub", "category": "parque", "extrude": false}}, {"type": "Feature", "geometry": {"type": "Polygon", "coordinates": [[[-1287.9789704974664, -3565.791561461079], [-1284.6471852472034, -3569.0198414612337], [-1276.807690540518, -3573.5839614611796], [-1271.908006348709, -3575.253761460918], [-1258.38487797979, -3575.9216814612096], [-1227.0268991533962, -3577.4801614612297], [-1221.441259174748, -3580.1518414612074], [-1210.6619539531862, -3585.829161461111], [-1203.9983834526602, -3567.684001461047], [-1203.4104213497544, -3566.9047614610367], [-1195.864907694522, -3554.882201460938], [-1192.8271034957118, -3555.2161614612814], [-1190.6712424512602, -3555.995401460896], [-1183.9096782668005, -3544.084161460912], [-1192.4351287603251, -3534.2880014611246], [-1196.4528697974274, -3531.9502814610946], [-1196.844844532814, -3521.3748814609016], [-1195.1789519076826, -3511.912681461062], [-1185.4775772083465, -3502.5618014609418], [-1182.6357603770555, -3497.6637214610478], [-1183.7136908992813, -3487.310961461084], [-1194.786977172296, -3475.065761461152], [-1205.370295026339, -3481.744961460899], [-1240.6480212062493, -3482.746841461138], [-1251.2313390599438, -3470.0563614611438], [-1248.879490647973, -3459.4809614609508], [-1253.3872001043953, -3456.030041460963], [-1259.8547832374022, -3453.8036414610474], [-1264.1665053259571, -3452.913081460923], [-1269.0661895177664, -3452.801761461204], [-1271.1240568782841, -3453.581001461214], [-1278.081608430263, -3455.3621214610675], [-1312.8693661908533, -3459.4809614609508], [-1315.221214603172, -3460.7054814610233], [-1316.3971388089838, -3462.152641460929], [-1317.867044066596, -3465.269601460969], [-1317.867044066596, -3469.499761460967], [-1309.7335683084577, -3509.3523214611987], [-1304.5399030651959, -3529.055961461283], [-1301.5020988663857, -3528.276721461273], [-1294.0545788950867, -3529.8352014608977], [-1288.3709452328528, -3533.954041461177], [-1279.649507371809, -3541.412481460934], [-1272.2999810840956, -3539.2974014611327], [-1271.908006348709, -3543.8615214610786], [-1276.7096968565845, -3554.882201460938], [-1290.2328252255036, -3563.119881461101], [-1287.9789704974664, -3565.791561461079]]]}, "properties": {"name": "", "kind": "farmland", "category": "parque", "extrude": false}}, {"type": "Feature", "geometry": {"type": "Polygon", "coordinates": [[[-1504.7409991359089, -3456.697961461254], [-1509.836670695237, -3453.581001461214], [-1514.4423738352448, -3451.688561461246], [-1519.3420580270538, -3450.130081461226], [-1524.3397359024482, -3449.3508414612156], [-1530.9053127193888, -3449.016881461268], [-1537.470889535981, -3449.6848014611637], [-1543.8404789854021, -3451.243281461184], [-1558.3435441926138, -3458.4790814611074], [-1562.0673041782632, -3460.148881461242], [-1566.0850452153654, -3460.816801461138], [-1570.102786252468, -3460.7054814610233], [-1573.8265462381173, -3459.5922814610653], [-1577.3543188562473, -3457.6998414610975], [-1532.2772242930673, -3514.6956814611544], [-1497.0974917970907, -3532.2842414610423], [-1468.0913613823197, -3532.952161460938], [-1472.2070961033555, -3561.672721461195], [-1486.6121676266334, -3570.9122814612015], [-1506.7988664964266, -3578.9273214611353], [-1555.0117589423508, -3578.1480814611255], [-1554.913765258417, -3589.836681461276], [-1557.0696263025204, -3620.338361460991], [-1539.0387884775269, -3625.347761460999], [-1533.8451232342652, -3627.1288814612485], [-1528.553464307418, -3628.4647214610395], [-1523.163811696637, -3629.24396146105], [-1517.0882032986685, -3629.4666014612785], [-1510.9146012174629, -3629.1326414609352], [-1504.936986503428, -3628.130761461092], [-1498.9593717897412, -3626.460961460957], [-1494.8436370687054, -3625.459081461114], [-1490.629908664084, -3625.125121461166], [-1486.3181865751806, -3625.347761460999], [-1481.8104771191063, -3626.349641461238], [-1477.4007613466176, -3628.0194414609773], [-1473.3830203095151, -3630.3571614610073], [-1455.9401445870792, -3640.487281461138], [-1449.7665425055252, -3641.600481461096], [-1443.9849151593576, -3638.706161461285], [-1436.5373951880588, -3634.0307214612244], [-1432.6176478348902, -3631.1364014610176], [-1428.599906797788, -3628.3534014609254], [-1424.484172076752, -3626.1270014610095], [-1420.368437355716, -3624.123241460927], [-1415.5667468478405, -3622.8987214612503], [-1411.0590373917662, -3621.1176014610014], [-1406.747315302863, -3618.7798814609714], [-1402.2396058467887, -3615.662921460931], [-1398.1238711257527, -3611.878041460995], [-1381.7589259255426, -3587.610281460965], [-1386.4626227494841, -3586.7197214612356], [-1393.0281995664245, -3585.829161461111], [-1399.3977890154977, -3584.159361460977], [-1405.669384780637, -3581.8216414609465], [-1411.646999494672, -3578.9273214611353], [-1417.526620524425, -3575.253761460918], [-1422.9162731355539, -3570.9122814612015], [-1427.8159573270148, -3566.0142014609123], [-1444.96485199765, -3536.737041461269], [-1466.4254687571884, -3505.4561214611485], [-1482.594426589531, -3483.526081461148], [-1480.1445844939747, -3519.371121461215], [-1506.0149170256536, -3516.476801461008], [-1522.7718369612505, -3512.469281461239], [-1533.6491358667458, -3495.9939214609135], [-1531.885249557681, -3479.6298814610977], [-1500.2332896794862, -3460.4828414611898], [-1504.7409991359089, -3456.697961461254]]]}, "properties": {"name": "", "kind": "scrub", "category": "parque", "extrude": false}}, {"type": "Feature", "geometry": {"type": "Polygon", "coordinates": [[[-943.9231465601029, -3544.084161460912], [-960.4840791278323, -3540.5219214612052], [-968.7155485699041, -3538.963441461185], [-976.8490243280423, -3540.5219214612052], [-980.3767969458246, -3539.9653214610285], [-983.3166074610492, -3515.8088814611124], [-995.369830572356, -3513.9164414611446], [-1004.8752179041729, -3514.250401461092], [-1008.2070031544359, -3524.2692014611084], [-1039.7609693486968, -3517.256041461018], [-1043.8767040697328, -3522.0428014611925], [-1047.3064830039295, -3533.731401460948], [-1050.8342556217117, -3541.0785214609864], [-1048.7763882611937, -3554.1029614609283], [-1042.7007798635734, -3561.3387614612475], [-1045.5425966948644, -3580.708441460989], [-1044.562659856572, -3585.0499214611013], [-1036.0372093630474, -3586.1631214610593], [-1027.1197841341361, -3586.1631214610593], [-1017.3204157508663, -3588.612161461204], [-1003.0133379111742, -3580.9310814612177], [-997.1337168814212, -3575.4764014611474], [-1003.6992936980135, -3563.899121461111], [-1006.149135793918, -3558.221801461207], [-1006.0511421099843, -3551.0973214610026], [-1000.6614894992034, -3544.752081461203], [-990.4701463805471, -3541.969081461111], [-980.4747906297582, -3541.0785214609864], [-966.4616938415189, -3545.1973614612652], [-951.6646475828546, -3549.0935614609202], [-942.3552476189049, -3553.212401461199], [-940.3953739419726, -3552.4331614611892], [-943.9231465601029, -3544.084161460912]]]}, "properties": {"name": "", "kind": "scrub", "category": "parque", "extrude": false}}, {"type": "Feature", "geometry": {"type": "Polygon", "coordinates": [[[-1330.8022103326095, -3572.8047214611693], [-1344.2273450175949, -3599.0762414612823], [-1343.5413892307556, -3599.7441614611776], [-1340.6995723994648, -3603.5290414611136], [-1333.448039796033, -3617.44404146118], [-1324.0406461481498, -3643.0476414610016], [-1319.9249114271138, -3651.619281461112], [-1315.9071703900115, -3657.40792146113], [-1313.8493030294935, -3659.5230014609315], [-1311.3014672496556, -3661.0814814609516], [-1308.361656734779, -3662.0833614611906], [-1305.3238525359689, -3662.4173214611383], [-1302.188054653225, -3661.972041461076], [-1281.9033620998462, -3658.1871614611405], [-1277.885621062744, -3657.6305614609637], [-1273.965873709227, -3656.5173614610057], [-1272.1039937165763, -3655.738121460996], [-1276.1217347536788, -3646.2759214611565], [-1281.8053684159124, -3642.2684014609918], [-1282.3933305188182, -3638.3722014609416], [-1276.2197284376123, -3636.1458014610257], [-1277.101671591971, -3623.7892814609795], [-1276.611703172999, -3581.5990014611134], [-1279.0615452685552, -3575.1424414611993], [-1283.765242092497, -3572.4707614612216], [-1290.2328252255036, -3566.682121461203], [-1294.9365220494453, -3562.785921461153], [-1299.1502504544148, -3555.7727614610626], [-1302.4820357046779, -3548.8709214610867], [-1304.245922013743, -3542.970961460954], [-1312.967359874787, -3510.020241461094], [-1314.7312461838521, -3510.4655214611566], [-1317.6710566987285, -3510.7994814611043], [-1324.6286082510555, -3513.6938014609154], [-1332.3701092738072, -3517.478681461247], [-1340.111610296559, -3522.933361460922], [-1347.9511050032445, -3530.614441460908], [-1352.654801827186, -3535.73516146103], [-1361.6702207396827, -3553.9916414612094], [-1330.8022103326095, -3572.8047214611693]]]}, "properties": {"name": "", "kind": "farmland", "category": "parque", "extrude": false}}, {"type": "Feature", "geometry": {"type": "Polygon", "coordinates": [[[-1170.0925688464285, -3554.9935214610528], [-1179.891937229698, -3564.5670414610067], [-1185.575570891932, -3589.7253614611614], [-1163.820973081289, -3614.883681460921], [-1150.2978447123696, -3629.5779214609975], [-1138.930577387554, -3632.4722414612042], [-1130.1111458425764, -3630.80244146107], [-1130.5031205779628, -3628.3534014609254], [-1132.267006887028, -3606.4233614609248], [-1132.5609879384808, -3595.5140014611798], [-1134.7168489829326, -3592.3970414611395], [-1140.4984763287518, -3585.383881461049], [-1141.8703879024306, -3581.487681460999], [-1142.6543373732034, -3578.036761461011], [-1143.1443057925235, -3568.0179614609947], [-1170.0925688464285, -3554.9935214610528]]]}, "properties": {"name": "", "kind": "farmland", "category": "parque", "extrude": false}}, {"type": "Feature", "geometry": {"type": "Polygon", "coordinates": [[[-1017.3204157508663, -3588.612161461204], [-1019.3782831113845, -3599.966801461011], [-1021.5341441558361, -3614.2157614610255], [-1019.770257846771, -3626.6836014611863], [-1014.7725799713763, -3653.7343614609135], [-1010.7548389342741, -3655.404161461048], [-1007.9130221029832, -3653.400401460966], [-1003.601300014428, -3648.279681461239], [-989.6861969101222, -3644.8287614612505], [-984.4925316668605, -3636.3684414612544], [-990.3721526969616, -3624.791161461218], [-998.3096410872325, -3618.7798814609714], [-997.8196726682605, -3604.7535614611857], [-989.8821842776416, -3595.8479614611274], [-987.432342181737, -3586.497081461007], [-993.0179821603853, -3582.7122014610713], [-1003.0133379111742, -3580.9310814612177], [-1017.3204157508663, -3588.612161461204]]]}, "properties": {"name": "", "kind": "scrub", "category": "parque", "extrude": false}}, {"type": "Feature", "geometry": {"type": "Polygon", "coordinates": [[[-1019.770257846771, -3729.988561460993], [-1015.7525168096686, -3731.213081461065], [-1004.7772242202393, -3734.107401461272], [-980.4747906297582, -3739.11680146128], [-978.4169232692401, -3739.450761461228], [-976.9470180116278, -3695.0340814610504], [-994.7818684694504, -3682.4549214611707], [-999.6815526609112, -3678.4474014610064], [-1007.5210473675968, -3668.8738814610524], [-1010.7548389342741, -3665.422961461064], [-1020.4562136336102, -3658.298481461255], [-1036.7231651498867, -3652.398521461122], [-1043.1907482828935, -3650.728721460988], [-1049.7563250994858, -3647.723081461062], [-1057.3018387547183, -3641.7118014612106], [-1059.6536871666892, -3642.9363214612827], [-1044.4646661726385, -3714.292441461073], [-1044.856640908025, -3714.9603614609687], [-1019.770257846771, -3729.988561460993]]]}, "properties": {"name": "", "kind": "scrub", "category": "parque", "extrude": false}}, {"type": "Feature", "geometry": {"type": "Polygon", "coordinates": [[[-1791.0785432955315, -3733.7734414609286], [-1778.8293328167053, -3734.997961461001], [-1772.9497117866042, -3736.890401460969], [-1769.5199328524077, -3739.673401461061], [-1759.8185581530718, -3747.1318414612138], [-1756.9767413217808, -3749.803521461192], [-1752.1750508139053, -3751.2506814610974], [-1744.2375624236342, -3750.0261614610254], [-1734.2422066724973, -3749.135601460901], [-1731.5963772090738, -3748.801641460953], [-1740.4158087540513, -3731.101761460951], [-1738.3579413935333, -3684.2360414610243], [-1773.9296486248966, -3681.453041460932], [-1779.1233138681582, -3706.7226814612013], [-1793.9203601268225, -3733.9960814611577], [-1791.0785432955315, -3733.7734414609286]]]}, "properties": {"name": "", "kind": "farmland", "category": "parque", "extrude": false}}, {"type": "Feature", "geometry": {"type": "Polygon", "coordinates": [[[-1979.9123720417767, -3736.77908146125], [-1981.0882962475885, -3718.9678814611334], [-1989.4177593735935, -3721.7276897946176], [-1989.4177593735935, -3743.372000001883], [-1981.0882962475885, -3743.458281460997], [-1979.9123720417767, -3736.77908146125]]]}, "properties": {"name": "", "kind": "scrub", "category": "parque", "extrude": false}}, {"type": "Feature", "geometry": {"type": "Polygon", "coordinates": [[[-1558.539531560133, -3604.0856414608947], [-1576.8643504369275, -3601.9705614610934], [-1621.8434513161737, -3602.081881461208], [-1623.2153628898525, -3594.400801461222], [-1598.8149356154377, -3587.7216014610794], [-1598.6189482479185, -3577.5914814609487], [-1633.7006870599614, -3577.0348814611675], [-1692.2029163081272, -3597.4064414611476], [-1718.955191994513, -3618.334601460909], [-1772.1657623158314, -3638.817481461004], [-1809.207374804807, -3638.2608814612227], [-1830.9619726157982, -3680.4511614610883], [-1863.1039009129647, -3711.954721461043], [-1926.8977890879776, -3732.2149614609084], [-1979.9123720417767, -3736.77908146125], [-1981.0882962475885, -3743.458281460997], [-1968.545104716961, -3744.9054414609027], [-1965.7032878860182, -3751.362001461212], [-1977.070555210486, -3760.935521461166], [-1989.4177593735935, -3760.441636954078], [-1989.4177593735935, -4149.998921461268], [-1988.94589300147, -4160.910189522949], [-1988.6001711375852, -4163.557808174061], [-1988.2418351674341, -4163.5799614609905], [-1976.580586791514, -4160.574321461065], [-1976.4825931075802, -4161.910161461252], [-1987.065910961623, -4165.138441461011], [-1987.5558793805951, -4166.474281461197], [-1926.6038080365247, -4170.036521460905], [-1944.24267112648, -4161.3535614610755], [-1950.3182795241003, -4156.5668014609], [-1948.4563995314495, -4155.342281461224], [-1931.8954669637203, -4165.138441461011], [-1923.0760354187428, -4166.474281461197], [-1906.3191154831459, -4167.364841460927], [-1901.3214376077515, -4166.362961461084], [-1899.361563931167, -4163.913921460939], [-1897.0097155191963, -4165.36108146124], [-1894.7558607908109, -4167.030881460979], [-1892.8939807981603, -4165.806361460906], [-1887.7003155548985, -4167.1422014610935], [-1886.6223850326728, -4168.700681461113], [-1879.664833480694, -4168.700681461113], [-1862.9079135450972, -4170.593121461081], [-1859.5761282948345, -4174.155361461184], [-1854.2844693679872, -4175.713841461204], [-1849.1887978086588, -4178.274201461068], [-1846.8369493966882, -4181.168521461274], [-1841.8392715212935, -4181.391161461108], [-1839.8793978443614, -4159.795081461055], [-1837.5275494323903, -4144.321601460969], [-1837.2335683809372, -4135.304681461192], [-1838.115511535644, -4125.285881461175], [-1838.5074862706826, -4112.7067214609], [-1833.9997768146084, -4085.7672814608914], [-1833.6078020792218, -4066.5089214612644], [-1834.4897452335804, -4035.895921461039], [-1835.6656694397398, -4023.3167614611593], [-1843.2111830949723, -3991.4792414612575], [-1844.4851009847173, -3982.7962814610323], [-1844.1911199332646, -3961.7568014611566], [-1844.28911361685, -3943.6116414610924], [-1845.3670441390757, -3923.1287614609973], [-1847.2289241320748, -3907.2100014612442], [-1848.698829389339, -3901.755321461174], [-1851.5406462206297, -3896.411961461218], [-1858.596191456542, -3885.502601461077], [-1859.5761282948345, -3883.2762014611617], [-1861.3400146038996, -3881.383761461194], [-1860.164090398088, -3875.0385214609987], [-1857.812241985769, -3873.146081461031], [-1854.0884820001195, -3850.548121461135], [-1847.2289241320748, -3828.284121461187], [-1843.995132565397, -3816.3728814612027], [-1856.7343114638913, -3799.229601460982], [-1863.495875648351, -3793.2183214611305], [-1876.52903559795, -3791.8824814609434], [-1870.355433516396, -3774.9618414609513], [-1848.8948167572062, -3781.4184014612606], [-1848.1108672864332, -3777.0769214611482], [-1844.093126249331, -3776.0750414609092], [-1839.4874231093227, -3772.5128014612023], [-1808.6194127019012, -3741.120561460967], [-1801.759854833508, -3736.3338014611877], [-1793.9203601268225, -3733.9960814611577], [-1779.1233138681582, -3706.7226814612013], [-1773.9296486248966, -3681.453041460932], [-1738.3579413935333, -3684.2360414610243], [-1740.4158087540513, -3731.101761460951], [-1731.5963772090738, -3748.801641460953], [-1723.3649077670016, -3747.7997614611095], [-1716.5053498989566, -3745.796001461027], [-1710.9197099203082, -3742.345081461039], [-1704.354133103716, -3737.4470014611456], [-1675.0540216374923, -3706.945321461035], [-1665.8426153571281, -3694.8114414612173], [-1665.0586658867032, -3690.915241461167], [-1662.4128364229314, -3686.7964014612835], [-1658.0031206504427, -3681.119081460984], [-1652.4174806721426, -3677.3342014610485], [-1644.9699607008436, -3668.42860146099], [-1626.0571797211435, -3645.8306414610943], [-1611.7501018814512, -3632.2496014609756], [-1601.4607650788614, -3624.4572014612704], [-1591.4654093280724, -3620.338361460991], [-1583.5279209374532, -3618.1119614610757], [-1574.8064830764092, -3616.887441461003], [-1566.379026266818, -3617.6666814610135], [-1560.8913799721036, -3618.6685614612525], [-1559.3234810309057, -3619.3364814611477], [-1558.539531560133, -3604.0856414608947]]]}, "properties": {"name": "", "kind": "scrub", "category": "parque", "extrude": false}}, {"type": "Feature", "geometry": {"type": "Polygon", "coordinates": [[[-813.1015786430512, -3923.796681460893], [-812.5136165401454, -3907.87792146114], [-844.655544837312, -3906.5420814609533], [-845.2435069402178, -3922.460841461102], [-813.1015786430512, -3923.796681460893]]]}, "properties": {"name": "", "kind": "pitch", "category": "parque", "extrude": false}}, {"type": "Feature", "geometry": {"type": "Polygon", "coordinates": [[[-1716.0153814796363, -3791.8824814609434], [-1723.1689203994827, -3766.056241460893], [-1725.128794076067, -3761.492121460947], [-1728.95054774565, -3757.3732814610635], [-1735.5161245625904, -3753.699721461242], [-1742.0817013791827, -3753.588401461128], [-1747.3733603063781, -3754.256321461023], [-1754.9188739612625, -3754.924241460919], [-1759.426583417685, -3754.5902814609713], [-1763.0523497194008, -3752.586521461284], [-1765.2082107638525, -3749.803521461192], [-1771.6757938968594, -3743.1243214610495], [-1778.437358081319, -3739.005481461166], [-1785.9828717365515, -3737.6696414609787], [-1794.6063159136618, -3737.892281461208], [-1807.0515137603552, -3743.458281460997], [-1831.0599662993836, -3768.9505614611], [-1836.9395873294845, -3775.9637214611903], [-1837.2335683809372, -3781.7523614612082], [-1837.0375810134183, -3788.54288146107], [-1838.0175178517106, -3796.8918814609515], [-1839.2914357414556, -3806.020121461239], [-1839.9773915282947, -3815.037041461016], [-1842.2312462563318, -3823.83132146096], [-1851.736633588149, -3858.229201461121], [-1853.5005198972142, -3871.1423214609486], [-1854.8724314708925, -3881.383761461194], [-1845.4650378230094, -3900.642121461216], [-1841.7412778373598, -3927.692881460943], [-1840.6633473151342, -3960.0870014610223], [-1841.5452904694928, -3985.579281461125], [-1831.0599662993836, -4029.2167214608967], [-1830.6679915643451, -4085.6559614611724], [-1835.3716883882869, -4113.263321461077], [-1833.8037894467407, -4141.761241461105], [-1837.3315620648712, -4175.602521461089], [-1837.3315620648712, -4182.281721461232], [-1832.431877873062, -4182.504361461065], [-1829.0020989392137, -4179.053441461077], [-1823.024484225179, -4177.828921461005], [-1787.158795942363, -4181.83644146117], [-1782.8470738538076, -4184.95340146121], [-1780.691212809356, -4188.404321461198], [-1745.4134866294457, -4192.968441461144], [-1741.5917329602107, -4190.853361460947], [-1736.8880361359209, -4188.960921460979], [-1719.9351288331532, -4191.966561460905], [-1717.191305685796, -4193.859001461268], [-1715.329425692797, -4195.9740814610695], [-1714.1535014869858, -4198.868401461276], [-1703.0802152136228, -4200.64952146113], [-1704.5501204712352, -4167.69880146127], [-1703.3741962650756, -4109.47844146114], [-1698.8664868090013, -4007.9546014611874], [-1694.064796301126, -3939.6041214609277], [-1696.612632080616, -3904.427001461152], [-1702.9822215300374, -3860.0103214609744], [-1703.6681773168766, -3856.7820414612156], [-1712.5856025454398, -3862.6820014609525], [-1714.349488854505, -3867.468761461127], [-1734.6341814078837, -3869.5838414609284], [-1752.1750508139053, -3870.140441461105], [-1757.2707223732334, -3860.4556014610366], [-1762.9543560358154, -3841.0859214609], [-1756.4867729028085, -3840.8632814610664], [-1742.1796950631165, -3840.7519614609523], [-1734.4381940403646, -3836.744441461183], [-1730.714434054715, -3828.8407214609683], [-1710.723722552789, -3821.382281461211], [-1716.0153814796363, -3791.8824814609434]]]}, "properties": {"name": "", "kind": "farmland", "category": "parque", "extrude": false}}, {"type": "Feature", "geometry": {"type": "Polygon", "coordinates": [[[-739.2143410329675, -4235.93796146102], [-730.7868842233763, -4211.113601461208], [-744.3100125922955, -4206.438161461148], [-752.6394757183011, -4230.928561461012], [-739.2143410329675, -4235.93796146102]]]}, "properties": {"name": "", "kind": "pitch", "category": "parque", "extrude": false}}, {"type": "Feature", "geometry": {"type": "Polygon", "coordinates": [[[-720.399553737201, -4246.179401461265], [-719.5176105824943, -4245.622801461088], [-718.4396800606166, -4244.6209214612445], [-717.55773690591, -4242.728481461277], [-717.4597432223245, -4240.61340146108], [-717.9497116412964, -4238.720961461112], [-719.2236295310414, -4237.051161460978], [-720.4975474211345, -4236.160601461249], [-722.9473895166909, -4235.492681460958], [-724.3193010903695, -4235.715321461186], [-725.985193715501, -4236.383241461082], [-727.1611179216605, -4237.162481461092], [-727.9450673924335, -4238.27568146105], [-728.5330294953392, -4239.611521461236], [-728.7290168628583, -4240.61340146108], [-728.6310231792728, -4242.394521460934], [-728.1410547599528, -4243.73036146112], [-727.3571052891797, -4245.0662014609115], [-726.279174767302, -4245.956761461036], [-724.8092695096898, -4246.624681460932], [-723.3393642520774, -4246.958641461275], [-721.7714653108795, -4246.736001461046], [-720.399553737201, -4246.179401461265]]]}, "properties": {"name": "", "kind": "pitch", "category": "parque", "extrude": false}}, {"type": "Feature", "geometry": {"type": "Polygon", "coordinates": [[[-1886.034422929767, -4258.090641461249], [-1871.2753097091354, -4261.318921461404], [-1866.925654585681, -4261.318921461404], [-1855.2644062062789, -4260.5396814609985], [-1858.4002040890227, -4247.62656146117], [-1915.2365407120574, -4241.615281460924], [-1933.0713911695314, -4237.607761461154], [-1932.2874416991067, -4219.46260146109], [-1947.2804753252901, -4218.460721461247], [-1954.3360205612025, -4224.805961461046], [-1957.9499957734586, -4231.562009994339], [-1953.590610454487, -4236.050445129461], [-1945.8664493019426, -4242.558118702598], [-1937.6179783290952, -4248.174396608492], [-1928.9246348199995, -4252.845191020398], [-1919.870140425083, -4256.525519635092], [-1910.5416948750728, -4259.179938875893], [-1901.0291362003816, -4260.782885234473], [-1891.424075540548, -4261.318921461404], [-1885.5057128217493, -4261.318921461404], [-1886.034422929767, -4258.090641461249]]]}, "properties": {"name": "", "kind": "farmland", "category": "parque", "extrude": false}}]}