{"type": "FeatureCollection", "crs": {"type": "name", "properties": {"name": "EPSG:32628_local_enu_m_section_centroid", "lng0": -15.438536066666666, "lat0": 28.111525933333322}}, "features": [{"type": "Feature", "geometry": {"type": "LineString", "coordinates": [[61.884505618188925, 247.79089866568867], [68.24707590279179, 244.78525866536742], [85.3317553683458, 234.32117866528898]]}, "properties": {"osm_id": null, "type": "residential", "width_m": 5, "extrude": false}}, {"type": "Feature", "geometry": {"type": "LineString", "coordinates": [[-120.53981642621359, 246.17005784154983], [-102.10877968644729, 138.02937866557272]]}, "properties": {"osm_id": null, "type": "tertiary", "width_m": 7, "extrude": false}}, {"type": "Feature", "geometry": {"type": "LineString", "coordinates": [[23.866184417948467, 152.0556986653581], [15.323844685171464, 161.4065786654787], [6.486941513381298, 172.76121866528612], [-8.143042626423506, 192.4648586653707], [-51.26804347997491, 247.79089866568867]]}, "properties": {"osm_id": null, "type": "residential", "width_m": 5, "extrude": false}}, {"type": "Feature", "geometry": {"type": "LineString", "coordinates": [[61.36901960061356, 247.79089866568867], [65.00687807312377, 241.44565866549385], [65.39962932525759, 239.55321866552595], [65.5960049513245, 237.5494586654436], [65.39962932525759, 235.9909786654235], [64.61412682116436, 234.43249866540341]]}, "properties": {"osm_id": null, "type": "residential", "width_m": 5, "extrude": false}}, {"type": "Feature", "geometry": {"type": "LineString", "coordinates": [[60.7848021132956, 238.99661866534927], [60.88298992641626, 238.66265866540147], [61.079365552483175, 238.32869866545366], [61.27574117837567, 238.21737866533923], [61.570304617563245, 238.21737866533923], [63.4358730649373, 239.33057866529708], [63.63224869100421, 239.44189866541151], [63.82862431689671, 239.6645386652449], [63.92681213001737, 240.10981866530713], [64.02499994296362, 241.33433866537942], [63.82862431689671, 241.77961866544166], [63.53406087788355, 242.11357866538947], [61.472116804442585, 243.4494186655762], [61.177553365429425, 243.56073866529513], [60.98117773936251, 243.4494186655762], [60.7848021132956, 243.33809866546176], [60.7848021132956, 238.99661866534927]]}, "properties": {"osm_id": null, "type": "pedestrian", "width_m": 4, "extrude": false}}, {"type": "Feature", "geometry": {"type": "LineString", "coordinates": [[55.580848023307276, 220.18353866538916], [53.71527957593323, 243.1154586652329], [54.40259426708022, 245.3418586655441], [55.87541146232044, 247.45693866534538], [56.88534325441871, 247.79089866568867]]}, "properties": {"osm_id": null, "type": "residential", "width_m": 5, "extrude": false}}, {"type": "Feature", "geometry": {"type": "LineString", "coordinates": [[64.61412682116436, 234.43249866540341], [62.65037056066964, 233.54193866527893], [60.88298992641626, 232.65137866554994], [59.7047361701892, 231.09289866552984], [55.580848023307276, 220.18353866538916]]}, "properties": {"osm_id": null, "type": "residential", "width_m": 5, "extrude": false}}, {"type": "Feature", "geometry": {"type": "LineString", "coordinates": [[12.869149359771093, 206.71381866538496], [29.56107757301686, 185.78565866522808], [46.743944851517114, 199.47801866546115], [54.00984301494639, 205.15533866536487]]}, "properties": {"osm_id": null, "type": "service", "width_m": 3.5, "extrude": false}}, {"type": "Feature", "geometry": {"type": "LineString", "coordinates": [[85.3317553683458, 234.32117866528898], [78.85135970900976, 235.87965866530908], [71.78183717147297, 235.9909786654235], [67.95251246377863, 235.3230586655279], [64.61412682116436, 234.43249866540341]]}, "properties": {"osm_id": null, "type": "residential", "width_m": 5, "extrude": false}}, {"type": "Feature", "geometry": {"type": "LineString", "coordinates": [[51.751523315612936, 183.0026586655312], [81.79699409949019, 162.74241866526992]]}, "properties": {"osm_id": null, "type": "service", "width_m": 3.5, "extrude": false}}, {"type": "Feature", "geometry": {"type": "LineString", "coordinates": [[85.3317553683458, 234.32117866528898], [135.40754000843194, 204.26477866524039], [211.2085316596209, 158.73489866550074], [218.18125371768886, 154.26431924166337]]}, "properties": {"osm_id": null, "type": "residential", "width_m": 5, "extrude": false}}, {"type": "Feature", "geometry": {"type": "LineString", "coordinates": [[185.48332464834365, 99.7352986653614], [186.4652027786782, 98.28813866545573], [201.19337473160368, 108.64089866541974], [204.33538474815103, 110.75597866522102], [200.99699910553676, 115.54273866539575], [183.32319276195642, 102.62961866556822], [185.48332464834365, 99.7352986653614]]}, "properties": {"osm_id": null, "type": "pedestrian", "width_m": 4, "extrude": false}}, {"type": "Feature", "geometry": {"type": "LineString", "coordinates": [[48.41313767282425, 156.7311386654184], [51.1623964374122, 170.75745866559927], [51.751523315612936, 183.0026586655312], [54.00984301494639, 205.15533866536487], [55.580848023307276, 220.18353866538916]]}, "properties": {"osm_id": null, "type": "residential", "width_m": 5, "extrude": false}}, {"type": "Feature", "geometry": {"type": "LineString", "coordinates": [[6.486941513381298, 172.76121866528612], [-4.706469170862988, 163.9669386653422], [-19.63101674985537, 183.55925866531237], [-8.143042626423506, 192.4648586653707]]}, "properties": {"osm_id": null, "type": "service", "width_m": 3.5, "extrude": false}}, {"type": "Feature", "geometry": {"type": "LineString", "coordinates": [[-11.972367334292267, 183.78189866554123], [-12.168742960359179, 184.44981866543685], [-12.070555147238514, 185.00641866521804], [-11.677803895279105, 185.45169866528028], [-11.186864830199031, 185.67433866550914], [-10.69592576494454, 185.78565866522808], [-10.008611073797553, 185.45169866528028], [0.4974849192997461, 172.20461866550494], [0.5956727322459943, 171.64801866532827], [0.4974849192997461, 171.20273866526603], [0.2029214801121684, 170.75745866559927], [0.00654585421967209, 170.5348186653704], [-0.48439321103481847, 170.31217866553703], [-1.0735200890611407, 170.42349866525598], [-1.5644591541412145, 170.64613866548484], [-11.972367334292267, 183.78189866554123]]}, "properties": {"osm_id": null, "type": "pedestrian", "width_m": 4, "extrude": false}}, {"type": "Feature", "geometry": {"type": "LineString", "coordinates": [[-73.33975047156893, -47.87502133450815], [-76.97269955337077, -33.40342133466052], [-92.58456182351014, 43.18473866536664], [-103.1888456295537, 94.83721866546773], [-105.74172876807472, 107.52769866546188], [-108.39279971971642, 120.21817866545604], [-112.6148756795446, 139.36521866536395], [-130.14994772394112, 243.79770741009665]]}, "properties": {"osm_id": null, "type": "tertiary", "width_m": 7, "extrude": false}}, {"type": "Feature", "geometry": {"type": "LineString", "coordinates": [[48.41313767282425, 156.7311386654184], [42.816432330702106, 151.3877786654625], [38.8889198098871, 149.8292986654424], [34.86321947612584, 149.4953386654946], [30.150204451217597, 150.60853866545244], [23.866184417948467, 152.0556986653581]]}, "properties": {"osm_id": null, "type": "residential", "width_m": 5, "extrude": false}}, {"type": "Feature", "geometry": {"type": "LineString", "coordinates": [[34.86321947612584, 146.60101866528777], [40.656300444314894, 139.03125866541615], [41.04905169644872, 138.80861866558277], [41.24542732234122, 138.80861866558277], [41.44180294840813, 138.91993866530171], [41.5399907615288, 139.25389866524952], [43.30737139578218, 148.2708186654223], [43.405559208902844, 148.6047786653701], [43.30737139578218, 148.9387386653179], [43.11099576971527, 148.9387386653179], [42.91462014382277, 148.9387386653179], [42.62005670463519, 148.6047786653701], [41.73636638759571, 148.2708186654223], [40.263549192181074, 147.60289866552668], [38.59435637087394, 147.15761866546444], [37.02335136251305, 146.93497866523558], [35.74690979333974, 146.93497866523558], [34.96140728924651, 147.04629866535], [34.76503166317959, 147.04629866535], [34.666843850058925, 146.93497866523558], [34.666843850058925, 146.82365866551663], [34.86321947612584, 146.60101866528777]]}, "properties": {"osm_id": null, "type": "pedestrian", "width_m": 4, "extrude": false}}, {"type": "Feature", "geometry": {"type": "LineString", "coordinates": [[43.89649827398292, 124.89361866551633], [48.41313767282425, 156.7311386654184]]}, "properties": {"osm_id": null, "type": "residential", "width_m": 5, "extrude": false}}, {"type": "Feature", "geometry": {"type": "LineString", "coordinates": [[-112.6148756795446, 139.36521866536395], [-102.10877968644729, 138.02937866557272]]}, "properties": {"osm_id": null, "type": "residential", "width_m": 5, "extrude": false}}, {"type": "Feature", "geometry": {"type": "LineString", "coordinates": [[43.89649827398292, 124.89361866551633], [23.866184417948467, 152.0556986653581]]}, "properties": {"osm_id": null, "type": "residential", "width_m": 5, "extrude": false}}, {"type": "Feature", "geometry": {"type": "LineString", "coordinates": [[-202.65310021857897, 122.96135687676099], [-117.91701758247916, 140.144458665374], [-112.6148756795446, 139.36521866536395]]}, "properties": {"osm_id": null, "type": "residential", "width_m": 5, "extrude": false}}, {"type": "Feature", "geometry": {"type": "LineString", "coordinates": [[-179.82450851873097, -190.86247684784126], [-172.1166903694472, -171.32890133446168], [-168.87649253977918, -163.53650133475668], [-164.55622876700477, -144.72342133440108], [-161.11965531126984, -120.56698133448506], [-161.11965531126984, -96.85582133463129], [-165.341731271098, -73.58994133444426], [-170.05474629600627, -57.003261334399866], [-202.65310021857897, 73.8018184558345]]}, "properties": {"osm_id": null, "type": "residential", "width_m": 5, "extrude": false}}, {"type": "Feature", "geometry": {"type": "LineString", "coordinates": [[-202.65310021857897, -33.06871170523678], [-183.89922793189223, -77.59746133460894], [-165.341731271098, -73.58994133444426]]}, "properties": {"osm_id": null, "type": "footway", "width_m": 2, "extrude": false}}, {"type": "Feature", "geometry": {"type": "LineString", "coordinates": [[53.71527957593323, 122.88985866543399], [51.849711128559186, 132.24073866555457], [51.751523315612936, 132.68601866522133], [51.555147689546025, 132.68601866522133], [51.26058425035844, 132.57469866550238], [51.06420862446595, 132.24073866555457], [50.082330494131384, 128.01057866555652], [50.18051830725205, 127.56529866549428], [50.47508174626521, 126.78605866548423], [53.3225283237994, 122.88985866543399], [53.42071613692007, 122.88985866543399], [53.51890394986632, 122.77853866531956], [53.71527957593323, 122.88985866543399]]}, "properties": {"osm_id": null, "type": "pedestrian", "width_m": 4, "extrude": false}}, {"type": "Feature", "geometry": {"type": "LineString", "coordinates": [[48.41313767282425, 156.7311386654184], [55.286284584294116, 127.45397866537985], [59.41017273100162, 111.20125866528326], [67.65794902476547, 96.72965866543564]]}, "properties": {"osm_id": null, "type": "residential", "width_m": 5, "extrude": false}}, {"type": "Feature", "geometry": {"type": "LineString", "coordinates": [[36.630600110553644, 96.39569866548783], [35.64872198021907, 109.7540986653776], [33.48859009383187, 127.12001866543204], [23.866184417948467, 152.0556986653581]]}, "properties": {"osm_id": null, "type": "residential", "width_m": 5, "extrude": false}}, {"type": "Feature", "geometry": {"type": "LineString", "coordinates": [[36.23784885841982, 118.99365866538375], [34.666843850058925, 128.34453866550433], [34.56865603711268, 128.78981866556657], [34.76503166317959, 128.90113866528552], [35.05959510219275, 129.01245866539995], [35.25597072825967, 128.67849866545214], [37.8088538667807, 125.00493866523527], [37.90704167972695, 124.67097866528746], [37.8088538667807, 123.78041866555847], [36.72878792349989, 119.21629866521712], [36.630600110553644, 119.10497866549818], [36.53241229743298, 118.99365866538375], [36.33603667136606, 118.99365866538375], [36.23784885841982, 118.99365866538375]]}, "properties": {"osm_id": null, "type": "pedestrian", "width_m": 4, "extrude": false}}, {"type": "Feature", "geometry": {"type": "LineString", "coordinates": [[43.89649827398292, 124.89361866551633], [48.511325485944916, 119.43893866544599], [67.65794902476547, 96.72965866543564]]}, "properties": {"osm_id": null, "type": "residential", "width_m": 5, "extrude": false}}, {"type": "Feature", "geometry": {"type": "LineString", "coordinates": [[36.630600110553644, 96.39569866548783], [43.89649827398292, 124.89361866551633]]}, "properties": {"osm_id": null, "type": "residential", "width_m": 5, "extrude": false}}, {"type": "Feature", "geometry": {"type": "LineString", "coordinates": [[53.22434051085316, 105.41261866526511], [47.92219860774418, 113.42765866559446], [47.52944735561035, 113.65029866542784], [47.33307172971785, 113.65029866542784], [47.13669610365094, 113.53897866531341], [47.038508290530274, 113.2050186653656], [44.68200077807615, 104.41073866542169], [44.58381296512991, 103.96545866535945], [44.58381296512991, 103.74281866552607], [44.78018859119682, 103.63149866541164], [44.97656421708931, 103.63149866541164], [45.27112765627689, 103.96545866535945], [46.25300578643704, 104.29941866530726], [47.72582298167726, 104.7446986653695], [49.395015802984396, 105.0786586653173], [51.06420862446595, 105.18997866543174], [52.340650193639256, 105.0786586653173], [53.02796488478624, 104.96733866559836], [53.22434051085316, 104.96733866559836], [53.3225283237994, 105.0786586653173], [53.3225283237994, 105.18997866543174], [53.22434051085316, 105.41261866526511]]}, "properties": {"osm_id": null, "type": "pedestrian", "width_m": 4, "extrude": false}}, {"type": "Feature", "geometry": {"type": "LineString", "coordinates": [[-127.34304763247005, 103.40885866557826], [-105.74172876807472, 107.52769866546188]]}, "properties": {"osm_id": null, "type": "service", "width_m": 3.5, "extrude": false}}, {"type": "Feature", "geometry": {"type": "LineString", "coordinates": [[67.65794902476547, 96.72965866543564], [58.52648241396214, 101.18245866526706], [53.02796488478624, 102.74093866528716], [45.467503282343806, 101.85037866555817], [36.630600110553644, 96.39569866548783]]}, "properties": {"osm_id": null, "type": "residential", "width_m": 5, "extrude": false}}, {"type": "Feature", "geometry": {"type": "LineString", "coordinates": [[-82.37302926942601, 83.03729866559806], [-81.48933895221211, 78.69581866548558], [-81.09658770007829, 78.1392186653089], [-80.40927300910572, 77.91657866547553], [-79.91833394385122, 77.8052586653611], [-79.3292070658249, 78.02789866558996], [-78.83826800074482, 78.58449866537114], [-61.94996416125773, 104.52205866553612], [-83.2567195866399, 118.54837866532151], [-76.2853848622238, 84.26181866527486], [-82.37302926942601, 83.03729866559806]]}, "properties": {"osm_id": null, "type": "pedestrian", "width_m": 4, "extrude": false}}, {"type": "Feature", "geometry": {"type": "LineString", "coordinates": [[7.468819643715863, 111.3125786653977], [21.215113466481185, 95.17117866541554], [31.524833833511572, 83.148618665317]]}, "properties": {"osm_id": null, "type": "service", "width_m": 3.5, "extrude": false}}, {"type": "Feature", "geometry": {"type": "LineString", "coordinates": [[-88.16611023761506, 65.67137866554361], [-81.2929633261452, 66.78457866550147], [-74.81256766698357, 75.13357866538314], [-59.59345664880361, 99.7352986653614], [-57.924263827496475, 102.51829866545378], [-55.175005062908525, 106.97109866528521]]}, "properties": {"osm_id": null, "type": "residential", "width_m": 5, "extrude": false}}, {"type": "Feature", "geometry": {"type": "LineString", "coordinates": [[38.20160511874011, 78.69581866548558], [41.34361513546188, 88.04669866560616], [44.48562515200924, 89.49385866551182], [46.547569225450204, 90.49573866535525], [48.60951329889116, 91.16365866525086], [51.26058425035844, 91.38629866547973], [54.10803082806706, 91.38629866547973], [56.07178708838735, 90.60705866546968], [57.74097990969449, 88.93725866533515], [58.624670226908385, 87.26745866559611], [58.919233665921546, 85.37501866523272], [58.919233665921546, 83.48257866526481], [55.679035836253526, 81.47881866557796], [53.71527957593323, 80.03165866527681], [51.35877206347911, 77.47129866541329], [49.395015802984396, 74.79961866543533], [47.92219860774418, 72.12793866545738], [46.056630160370126, 76.69205866540324], [45.07475203020998, 77.91657866547553], [43.89649827398292, 78.80713866560001], [41.73636638759571, 79.25241866526676], [38.20160511874011, 78.69581866548558]]}, "properties": {"osm_id": null, "type": "pedestrian", "width_m": 4, "extrude": false}}, {"type": "Feature", "geometry": {"type": "LineString", "coordinates": [[15.912971563372203, 60.77329866525446], [22.196991596641332, 65.11477866536694], [29.16832632105745, 77.8052586653611], [31.524833833511572, 83.148618665317], [34.175904784978854, 89.60517866523077], [36.630600110553644, 96.39569866548783]]}, "properties": {"osm_id": null, "type": "residential", "width_m": 5, "extrude": false}}, {"type": "Feature", "geometry": {"type": "LineString", "coordinates": [[-103.1888456295537, 94.83721866546773], [-114.18588068773107, 78.25053866542333], [-109.66924128888974, 52.20165866553941], [-92.58456182351014, 43.18473866536664]]}, "properties": {"osm_id": null, "type": "service", "width_m": 3.5, "extrude": false}}, {"type": "Feature", "geometry": {"type": "LineString", "coordinates": [[-102.10877968644729, 138.02937866557272], [-91.40630806728308, 131.46149866554453], [-55.175005062908525, 106.97109866528521], [-20.51470706706927, 83.92785866532705], [-14.62343828575955, 80.14297866539124], [10.316266221250059, 64.00157866540908], [15.912971563372203, 60.77329866525446], [43.405559208902844, 42.29417866524216], [49.395015802984396, 38.28665866547297], [54.795345519214045, 34.6130986652561], [85.13537974227889, 14.464178665504761], [119.30473867303805, -8.13378133439116], [128.82895653597524, -13.588461334461499]]}, "properties": {"osm_id": null, "type": "residential", "width_m": 5, "extrude": false}}, {"type": "Feature", "geometry": {"type": "LineString", "coordinates": [[-64.60103511289942, 67.22985866556371], [-69.80498920288774, 70.56945866543728], [-76.77632392730386, 59.77141866541103], [-77.07088736631702, 58.65821866545318], [-77.07088736631702, 56.8770986655997], [-70.19774045502157, 21.699978665428574], [-69.60861357682083, 20.920738665418526], [-68.8231110727276, 20.809418665304094], [-68.23398419452685, 20.809418665304094], [-67.54666950337987, 21.143378665251902], [-63.52096916961862, 27.154658665498914], [-68.8231110727276, 30.71689866560135], [-32.19905681639363, 85.59765866546158], [-46.33810189111836, 94.94853866558216], [-64.60103511289942, 67.22985866556371]]}, "properties": {"osm_id": null, "type": "pedestrian", "width_m": 4, "extrude": false}}, {"type": "Feature", "geometry": {"type": "LineString", "coordinates": [[-20.51470706706927, 83.92785866532705], [-24.1476561486967, 78.25053866542333], [-66.6629791863404, 11.903818665245751], [-70.09955264190091, 9.009498665434421], [-76.57994830123695, 5.3359386652175544]]}, "properties": {"osm_id": null, "type": "residential", "width_m": 5, "extrude": false}}, {"type": "Feature", "geometry": {"type": "LineString", "coordinates": [[60.09748742214861, 35.72629866521396], [54.795345519214045, 34.6130986652561]]}, "properties": {"osm_id": null, "type": "footway", "width_m": 2, "extrude": false}}, {"type": "Feature", "geometry": {"type": "LineString", "coordinates": [[-64.99378636485883, -46.093901334654674], [-52.032995046361165, -39.08074133456424], [-47.02541658226535, -31.62230133441156], [11.199956538463958, 53.87145866527845], [12.869149359771093, 56.65445866537084], [15.912971563372203, 60.77329866525446]]}, "properties": {"osm_id": null, "type": "residential", "width_m": 5, "extrude": false}}, {"type": "Feature", "geometry": {"type": "LineString", "coordinates": [[72.66552748868688, 88.82593866522072], [75.31659844032858, 93.27873866544763], [77.37854251376953, 96.72965866543564], [79.14592314802292, 99.06737866546578]]}, "properties": {"osm_id": null, "type": "service", "width_m": 3.5, "extrude": false}}, {"type": "Feature", "geometry": {"type": "LineString", "coordinates": [[192.06190812080035, 63.111018665284604], [183.51956838802334, 71.90529866522851], [114.98447490026366, 103.96545866535945], [102.90737389880546, 79.14109866554782], [99.37261263012428, 71.5713386652807], [97.60523199569647, 67.89777866545933]]}, "properties": {"osm_id": null, "type": "residential", "width_m": 5, "extrude": false}}, {"type": "Feature", "geometry": {"type": "LineString", "coordinates": [[183.51956838802334, 71.90529866522851], [188.03620778686468, 78.80713866560001]]}, "properties": {"osm_id": null, "type": "footway", "width_m": 2, "extrude": false}}, {"type": "Feature", "geometry": {"type": "LineString", "coordinates": [[67.65794902476547, 96.72965866543564], [72.66552748868688, 88.82593866522072], [75.31659844032858, 84.59577866522267], [85.62631880735896, 74.6882986653209], [97.60523199569647, 67.89777866545933], [107.32582548470054, 63.667618665461276], [160.24905670232087, 39.17721866559745], [168.10408174395087, 33.16593866535044]]}, "properties": {"osm_id": null, "type": "residential", "width_m": 5, "extrude": false}}, {"type": "Feature", "geometry": {"type": "LineString", "coordinates": [[210.1284657163401, 56.2091786653086], [209.93209009027316, 52.312978665258356], [207.08464351273898, 46.1903786652924]]}, "properties": {"osm_id": null, "type": "footway", "width_m": 2, "extrude": false}}, {"type": "Feature", "geometry": {"type": "LineString", "coordinates": [[168.10408174395087, 33.16593866535044], [169.67508675231178, 35.169698665432776], [173.01347239492605, 39.288538665316395], [189.80358842129246, 60.328018665587706], [192.06190812080035, 63.111018665284604]]}, "properties": {"osm_id": null, "type": "residential", "width_m": 5, "extrude": false}}, {"type": "Feature", "geometry": {"type": "LineString", "coordinates": [[134.52384969121803, -1.1206213346962102], [77.28035470064887, 36.1715786652762], [69.71989309820643, 37.618738665577354], [60.09748742214861, 35.72629866521396]]}, "properties": {"osm_id": null, "type": "footway", "width_m": 2, "extrude": false}}, {"type": "Feature", "geometry": {"type": "LineString", "coordinates": [[128.82895653597524, -13.588461334461499], [131.5782153005632, -10.36018133470236], [137.76404752088604, -3.2357013344974916], [146.1100116274217, 7.005738665352084], [165.45301079230916, 30.048978665310244], [168.10408174395087, 33.16593866535044]]}, "properties": {"osm_id": null, "type": "residential", "width_m": 5, "extrude": false}}, {"type": "Feature", "geometry": {"type": "LineString", "coordinates": [[141.00424535055407, -5.684741334642069], [137.76404752088604, -3.2357013344974916], [134.52384969121803, -1.1206213346962102]]}, "properties": {"osm_id": null, "type": "footway", "width_m": 2, "extrude": false}}, {"type": "Feature", "geometry": {"type": "LineString", "coordinates": [[-29.940737116885757, -51.88254133467282], [-32.00268119032672, -50.43538133476716], [-33.966437450647014, -53.44102133469292], [-26.700539287217737, -58.227781334472155], [37.90704167972695, 39.6224986652642], [27.008194434495824, 46.74697866546907], [16.01115937631845, 30.160298665424676], [22.786118474667653, 25.70749866559325], [18.269479075826325, 18.916978665336188], [9.530763716982408, 24.705618665354336], [4.424997439940338, 16.801898665534907], [-3.5282154146359272, 22.033938665376382], [-15.899879855107274, 3.332178665530705], [-0.3862053979141537, -6.909261334714358], [-9.321296382824983, -20.490301334437504], [-12.46330639937234, -18.486541334750655], [-15.4089407900272, -22.939341334582082], [-12.168742960359179, -25.05442133477885], [-29.940737116885757, -51.88254133467282]]}, "properties": {"osm_id": null, "type": "pedestrian", "width_m": 4, "extrude": false}}, {"type": "Feature", "geometry": {"type": "LineString", "coordinates": [[49.395015802984396, 38.28665866547297], [45.07475203020998, 31.60745866533034], [-15.4089407900272, -60.5655013345023], [-19.434641123788456, -66.68810133446826], [-22.38027551444332, -71.25222133441412]]}, "properties": {"osm_id": null, "type": "residential", "width_m": 5, "extrude": false}}, {"type": "Feature", "geometry": {"type": "LineString", "coordinates": [[14.145590928944403, -96.74450133451685], [20.920550027293608, -86.16910133471947], [81.10967940851762, 8.341578665538805], [83.46618692097175, 12.015138665360183], [85.13537974227889, 14.464178665504761]]}, "properties": {"osm_id": null, "type": "residential", "width_m": 5, "extrude": false}}, {"type": "Feature", "geometry": {"type": "LineString", "coordinates": [[-64.99378636485883, -46.093901334654674], [-73.33975047156893, -47.87502133450815]]}, "properties": {"osm_id": null, "type": "residential", "width_m": 5, "extrude": false}}, {"type": "Feature", "geometry": {"type": "LineString", "coordinates": [[-68.33217200764753, -71.80882133459079], [-79.72195831795872, -73.7012613345587], [-89.14798836777521, -65.46358133439597], [-85.80960272516094, -53.10706133474511], [-72.84881140648885, -50.324061334652725]]}, "properties": {"osm_id": null, "type": "service", "width_m": 3.5, "extrude": false}}, {"type": "Feature", "geometry": {"type": "LineString", "coordinates": [[-75.99082142321063, -69.58242133467508], [-79.03464362681174, -54.66554133476521], [-77.5618264313971, -55.333461334660825], [-75.69625798402305, -56.78062133456649], [-74.02706516271591, -59.118341334596636], [-73.14337484550201, -62.56926133458464], [-73.14337484550201, -64.0164213344903], [-73.830689536649, -66.35414133452045], [-74.51800422779598, -67.91262133454055], [-75.99082142321063, -69.58242133467508]]}, "properties": {"osm_id": null, "type": "pedestrian", "width_m": 4, "extrude": false}}, {"type": "Feature", "geometry": {"type": "LineString", "coordinates": [[-49.087360655706306, -75.5937013345266], [-50.56017785094653, -68.35790133460279], [-50.56017785094653, -67.68998133470717], [-50.26561441193337, -67.1333813345305], [-49.87286315997396, -66.79942133458269], [-48.98917284276006, -66.57678133474931], [-47.90910689947925, -66.57678133474931], [-31.02080306016657, -77.1521813345467], [-39.759518418836066, -90.17662133448866], [-42.99971624850409, -74.36918133445431], [-49.087360655706306, -75.5937013345266]]}, "properties": {"osm_id": null, "type": "pedestrian", "width_m": 4, "extrude": false}}, {"type": "Feature", "geometry": {"type": "LineString", "coordinates": [[-26.700539287217737, -226.877581334613], [-15.310752976906535, -215.18898133446228], [42.32549326562203, -128.47070133469998], [46.15481797349079, -121.90282133467178], [48.02038642086484, -119.1198213345794], [50.67145737233212, -115.11230133441472], [55.384472397240366, -107.87650133449091], [115.86816521747754, -13.588461334461499], [119.30473867303805, -8.13378133439116]]}, "properties": {"osm_id": null, "type": "residential", "width_m": 5, "extrude": false}}, {"type": "Feature", "geometry": {"type": "LineString", "coordinates": [[-34.61981067554729, -230.8851013347777], [-45.454411574078875, -182.3495813347168], [-68.33217200764753, -71.80882133459079], [-72.84881140648885, -50.324061334652725], [-73.33975047156893, -47.87502133450815]]}, "properties": {"osm_id": null, "type": "tertiary", "width_m": 7, "extrude": false}}, {"type": "Feature", "geometry": {"type": "LineString", "coordinates": [[177.03917272868728, -40.639221334584334], [181.45762431458238, -35.07322133439956], [141.00424535055407, -5.684741334642069]]}, "properties": {"osm_id": null, "type": "footway", "width_m": 2, "extrude": false}}, {"type": "Feature", "geometry": {"type": "LineString", "coordinates": [[192.06190812080035, 63.111018665284604], [207.08464351273898, 46.1903786652924], [219.55449576615658, 31.956236003347414]]}, "properties": {"osm_id": null, "type": "residential", "width_m": 5, "extrude": false}}, {"type": "Feature", "geometry": {"type": "LineString", "coordinates": [[168.10408174395087, 33.16593866535044], [175.36997990738016, 24.81693866546877], [209.93209009027316, -18.486541334750655], [219.55449576615658, -30.449218851854454]]}, "properties": {"osm_id": null, "type": "residential", "width_m": 5, "extrude": false}}, {"type": "Feature", "geometry": {"type": "LineString", "coordinates": [[174.28991396409933, -44.09014133457234], [177.03917272868728, -40.639221334584334]]}, "properties": {"osm_id": null, "type": "footway", "width_m": 2, "extrude": false}}, {"type": "Feature", "geometry": {"type": "LineString", "coordinates": [[128.82895653597524, -13.588461334461499], [154.94691479921187, -30.39778133473476], [174.28991396409933, -44.09014133457234], [183.02862932294326, -50.10142133442386], [190.09815186030562, -54.77686133448415], [219.55449576615658, -74.43816837677318]]}, "properties": {"osm_id": null, "type": "residential", "width_m": 5, "extrude": false}}, {"type": "Feature", "geometry": {"type": "LineString", "coordinates": [[24.687981560452933, -230.8851013347777], [76.29847657048872, -152.51582133450157], [80.7169281563838, -145.39134133469219], [82.97524785589167, -141.94042133470418], [90.53570945833411, -130.6971013346157], [152.68859509987843, -33.84870133472276], [154.94691479921187, -30.39778133473476]]}, "properties": {"osm_id": null, "type": "residential", "width_m": 5, "extrude": false}}, {"type": "Feature", "geometry": {"type": "LineString", "coordinates": [[190.09815186030562, -54.77686133448415], [186.36701496555753, -60.342861334668925], [123.03587556778618, -154.8535413345317], [116.94823116058396, -165.20630133449572], [111.44971363158247, -174.77982133444968], [74.95437189686824, -230.8851013347777]]}, "properties": {"osm_id": null, "type": "residential", "width_m": 5, "extrude": false}}, {"type": "Feature", "geometry": {"type": "LineString", "coordinates": [[-189.1183258022359, -175.71224172602783], [-178.89164946779644, -150.51206133441923], [-173.88407100387502, -135.26122133456155], [-172.90219287354046, -125.57638133449316], [-173.00038068666112, -110.6595013345833], [-178.59708602878328, -94.0728213345389], [-183.89922793189223, -77.59746133460894]]}, "properties": {"osm_id": null, "type": "footway", "width_m": 2, "extrude": false}}, {"type": "Feature", "geometry": {"type": "LineString", "coordinates": [[-102.10877968644729, 138.02937866557272], [-99.26133310873868, 122.22193866553837], [-88.16611023761506, 65.67137866554361], [-76.57994830123695, 5.3359386652175544], [-68.52854763371444, -30.954381334515944], [-64.99378636485883, -46.093901334654674], [-36.912071841301874, -180.23450133452002], [-26.700539287217737, -226.877581334613], [-25.522285530990676, -230.8851013347777]]}, "properties": {"osm_id": null, "type": "tertiary", "width_m": 7, "extrude": false}}, {"type": "Feature", "geometry": {"type": "LineString", "coordinates": [[-172.1166903694472, -171.32890133446168], [-163.8689140758578, -174.44586133450187]]}, "properties": {"osm_id": null, "type": "service", "width_m": 3.5, "extrude": false}}, {"type": "Feature", "geometry": {"type": "LineString", "coordinates": [[-45.454411574078875, -182.3495813347168], [-96.21751090513757, -193.92686133475308]]}, "properties": {"osm_id": null, "type": "footway", "width_m": 2, "extrude": false}}, {"type": "Feature", "geometry": {"type": "LineString", "coordinates": [[-7.259352309384022, -181.4590213345923], [-20.02376800181478, -184.01938133445583], [-18.84551424558772, -189.47406133452617], [-15.507128602973449, -205.72678133462276], [-2.1535860323419533, -184.79862133446588], [-7.259352309384022, -181.4590213345923]]}, "properties": {"osm_id": null, "type": "pedestrian", "width_m": 4, "extrude": false}}, {"type": "Feature", "geometry": {"type": "LineString", "coordinates": [[-177.65130349124843, -193.5809292246438], [-140.10746332507523, -208.28714133448628]]}, "properties": {"osm_id": null, "type": "footway", "width_m": 2, "extrude": false}}, {"type": "Feature", "geometry": {"type": "LineString", "coordinates": [[-140.10746332507523, -208.28714133448628], [-135.5908239260595, -202.83246133441594], [-96.21751090513757, -193.92686133475308]]}, "properties": {"osm_id": null, "type": "residential", "width_m": 5, "extrude": false}}, {"type": "Feature", "geometry": {"type": "LineString", "coordinates": [[-96.21751090513757, -193.92686133475308], [-91.60268369335, -195.26270133454432], [-89.14798836777521, -198.71362133453232], [-81.32433186159894, -230.8851013347777]]}, "properties": {"osm_id": null, "type": "residential", "width_m": 5, "extrude": false}}, {"type": "Feature", "geometry": {"type": "LineString", "coordinates": [[-94.38681677615915, -230.8851013347777], [-100.83233811709957, -200.8287013347291], [-99.26133310873868, -196.37590133450217], [-96.21751090513757, -193.92686133475308]]}, "properties": {"osm_id": null, "type": "residential", "width_m": 5, "extrude": false}}, {"type": "Feature", "geometry": {"type": "LineString", "coordinates": [[181.22267260327533, -207.6629841194496], [153.08134635183782, -188.80614133463055], [135.99666688645826, -177.89678133448987], [116.94823116058396, -165.20630133449572], [82.97524785589167, -141.94042133470418], [48.02038642086484, -119.1198213345794], [39.183483249074676, -113.77646133462349], [14.145590928944403, -96.74450133451685], [-22.38027551444332, -71.25222133441412], [-46.33810189111836, -54.77686133448415], [-64.99378636485883, -46.093901334654674]]}, "properties": {"osm_id": null, "type": "residential", "width_m": 5, "extrude": false}}, {"type": "Feature", "geometry": {"type": "LineString", "coordinates": [[125.74509702852028, -230.64123526508808], [146.89551413168937, -198.82494133464675], [151.01940227839688, -192.14574133450412], [153.08134635183782, -188.80614133463055], [159.26717857216073, -179.12130133456216], [219.55449576615658, -86.6281871116152]]}, "properties": {"osm_id": null, "type": "residential", "width_m": 5, "extrude": false}}, {"type": "Feature", "geometry": {"type": "LineString", "coordinates": [[-144.9089480190152, -220.87305182204176], [-140.10746332507523, -208.28714133448628], [-135.6534203934722, -225.00221035684746]]}, "properties": {"osm_id": null, "type": "residential", "width_m": 5, "extrude": false}}]}