{"type": "FeatureCollection", "crs": {"type": "name", "properties": {"name": "EPSG:32628_local_enu_m_section_centroid", "lng0": -16.25847759445553, "lat0": 28.4650072206003}}, "features": [{"type": "Feature", "geometry": {"type": "Point", "coordinates": [1.0367982470608317, 180.25163722545258]}, "properties": {"osm_id": null, "category": "salud", "name": "Farmacia Monje", "extrude": false}}, {"type": "Feature", "geometry": {"type": "Point", "coordinates": [243.63754793308328, -121.09160277464795]}, "properties": {"osm_id": null, "category": "restauracion", "name": "La Cafeta", "extrude": false}}, {"type": "Feature", "geometry": {"type": "Point", "coordinates": [43.70478003939463, -122.98404277461586]}, "properties": {"osm_id": null, "category": "restauracion", "name": "Como en casa", "extrude": false}}, {"type": "Feature", "geometry": {"type": "Point", "coordinates": [-77.35093894463824, -133.4481227746943]}, "properties": {"osm_id": null, "category": "salud", "name": "Farmacia Duggi", "extrude": false}}, {"type": "Feature", "geometry": {"type": "Point", "coordinates": [120.13527035996229, -136.78772277456787]}, "properties": {"osm_id": null, "category": "restauracion", "name": "Manammè", "extrude": false}}, {"type": "Feature", "geometry": {"type": "Point", "coordinates": [-10.31523360612722, -149.70084277479089]}, "properties": {"osm_id": null, "category": "salud", "name": "Eva fertility clínics", "extrude": false}}, {"type": "Feature", "geometry": {"type": "Point", "coordinates": [-79.30818581611734, -157.38192277477694]}, "properties": {"osm_id": null, "category": "restauracion", "name": "Pizza Al vuelo", "extrude": false}}, {"type": "Feature", "geometry": {"type": "Point", "coordinates": [184.92014179670696, -162.72528277473285]}, "properties": {"osm_id": null, "category": "restauracion", "name": "La Grotta", "extrude": false}}, {"type": "Feature", "geometry": {"type": "Point", "coordinates": [231.6983420186253, -164.61772277470075]}, "properties": {"osm_id": null, "category": "salud", "name": "Farmacia Corominas", "extrude": false}}, {"type": "Feature", "geometry": {"type": "Point", "coordinates": [273.0941133444108, -177.6421627746427]}, "properties": {"osm_id": null, "category": "restauracion", "name": "Las Murallas", "extrude": false}}, {"type": "Feature", "geometry": {"type": "Point", "coordinates": [35.19075614959051, -194.34016277480154]}, "properties": {"osm_id": null, "category": "restauracion", "name": "LEMONGRAS", "extrude": false}}, {"type": "Feature", "geometry": {"type": "Point", "coordinates": [280.1402020810402, -200.90804277482974]}, "properties": {"osm_id": null, "category": "restauracion", "name": "Bar Hawai C.B.", "extrude": false}}, {"type": "Feature", "geometry": {"type": "Point", "coordinates": [90.48298026096533, -214.82304277489618]}, "properties": {"osm_id": null, "category": "restauracion", "name": "Estrella Polar", "extrude": false}}, {"type": "Feature", "geometry": {"type": "Point", "coordinates": [146.46024077761862, -232.0776427748362]}, "properties": {"osm_id": null, "category": "restauracion", "name": "Sputnik", "extrude": false}}, {"type": "Feature", "geometry": {"type": "Point", "coordinates": [-169.83085360924844, -30.031842774773168]}, "properties": {"osm_id": null, "category": "publico", "name": "", "extrude": false}}, {"type": "Feature", "geometry": {"type": "Point", "coordinates": [-301.6514303848518, -197.56844277456068]}, "properties": {"osm_id": null, "category": "restauracion", "name": "Come Rico.", "extrude": false}}]}