{"type": "FeatureCollection", "crs": {"type": "name", "properties": {"name": "EPSG:32628_local_enu_m_section_centroid", "lng0": -13.560642940815269, "lat0": 28.96603197770536}}, "features": [{"type": "Feature", "geometry": {"type": "Point", "coordinates": [341.16767512389816, 224.97523816069062]}, "properties": {"osm_id": null, "category": "restauracion", "name": "Galicia Nuestra Casa", "extrude": false}}, {"type": "Feature", "geometry": {"type": "Point", "coordinates": [224.19670717667046, 147.2738781607056]}, "properties": {"osm_id": null, "category": "salud", "name": "Quirón prevención", "extrude": false}}, {"type": "Feature", "geometry": {"type": "Point", "coordinates": [77.81255661494365, 145.82671816079994]}, "properties": {"osm_id": null, "category": "restauracion", "name": "Lander", "extrude": false}}, {"type": "Feature", "geometry": {"type": "Point", "coordinates": [135.080607533366, 86.8271181606606]}, "properties": {"osm_id": null, "category": "salud", "name": "Farmacia Los robles", "extrude": false}}, {"type": "Feature", "geometry": {"type": "Point", "coordinates": [253.9994683689001, 46.52927816076243]}, "properties": {"osm_id": null, "category": "finanzas", "name": "Caixabank", "extrude": false}}, {"type": "Feature", "geometry": {"type": "Point", "coordinates": [223.61233931024776, -186.2408418392448]}, "properties": {"osm_id": null, "category": "salud", "name": "Farmacia titerroy", "extrude": false}}, {"type": "Feature", "geometry": {"type": "Point", "coordinates": [394.44254562118863, -239.67444183919937]}, "properties": {"osm_id": null, "category": "restauracion", "name": "Fontanales", "extrude": false}}]}