{"type": "FeatureCollection", "crs": {"type": "name", "properties": {"name": "EPSG:32628_local_enu_m_section_centroid", "lng0": -16.25718633796093, "lat0": 28.46678559875494}}, "features": [{"type": "Feature", "geometry": {"type": "Polygon", "coordinates": [[[145.4540683635439, -104.01754660020913], [145.94337184711597, -103.46094660003246], [145.6497897571118, -100.23266660027332], [144.9647648803195, -99.67606660009665], [141.53964049635803, -100.01002660004445], [141.14819770956993, -100.56662660022113], [141.44177979957408, -104.01754660020913], [141.93108328314617, -104.35150660015694], [145.4540683635439, -104.01754660020913]]]}, "properties": {"name": "La Fuente Escultórica", "kind": "water", "category": "agua", "extrude": false}}]}