{"type": "FeatureCollection", "crs": {"type": "name", "properties": {"name": "EPSG:32628_local_enu_m_section_centroid", "lng0": -16.654458113087305, "lat0": 28.00727743390688}}, "features": [{"type": "Feature", "geometry": {"type": "Polygon", "coordinates": [[[-154.88303090613036, 111.25698251392592], [-154.68646473181587, 111.4796225137593], [-154.58818164448402, 111.8135825137071], [-154.68646473181587, 112.03622251354048], [-154.68646473181587, 112.25886251376934], [-154.88303090613036, 112.48150251360272], [-155.07959708079406, 112.70414251383158], [-155.3744463424404, 112.70414251383158], [-155.66929560408673, 112.70414251383158], [-155.8658617787504, 112.59282251371715], [-159.69890218050196, 109.80982251362477], [-159.7971852678338, 109.58718251379139], [-159.89546835516566, 109.25322251384358], [-159.7971852678338, 109.03058251361472], [-159.69890218050196, 108.69662251366691], [-159.50233600618748, 108.47398251383353], [-159.20748674454114, 108.3626625137191], [-158.91263748289478, 108.3626625137191], [-158.61778822124845, 108.47398251383353], [-154.88303090613036, 111.25698251392592]]]}, "properties": {"name": "", "kind": "garden", "category": "parque", "extrude": false}}, {"type": "Feature", "geometry": {"type": "Polygon", "coordinates": [[[-146.2341192300072, 99.67970251388962], [-146.13583614267534, 99.902342513723], [-146.03755305569268, 100.23630251367081], [-146.03755305569268, 100.45894251389967], [-146.13583614267534, 100.68158251373305], [-146.33240231733902, 100.90422251356642], [-146.52896849165353, 101.12686251379529], [-146.82381775329986, 101.12686251379529], [-147.02038392796354, 101.12686251379529], [-147.31523318960987, 101.12686251379529], [-151.0499905043788, 98.23254251358847], [-151.2465566786933, 98.0099025137551], [-151.2465566786933, 97.67594251380729], [-151.2465566786933, 97.45330251357842], [-151.14827359136146, 97.23066251374505], [-150.85342432971512, 97.00802251391167], [-150.6568581554006, 96.89670251379724], [-150.36200889375428, 96.7853825136828], [-150.06715963210794, 96.89670251379724], [-146.2341192300072, 99.67970251388962]]]}, "properties": {"name": "", "kind": "garden", "category": "parque", "extrude": false}}, {"type": "Feature", "geometry": {"type": "Polygon", "coordinates": [[[-169.13407855493068, 100.34762251378524], [-169.52721090355968, 100.90422251356642], [-169.8220601655552, 101.01554251368086], [-185.44907103525534, 89.43826251364456], [-185.44907103525534, 89.10430251369675], [-185.0559386862772, 88.54770251391557], [-184.76108942463085, 88.54770251391557], [-169.13407855493068, 100.12498251355638], [-169.13407855493068, 100.34762251378524]]]}, "properties": {"name": "", "kind": "park", "category": "parque", "extrude": false}}, {"type": "Feature", "geometry": {"type": "Polygon", "coordinates": [[[-186.92331734348704, 80.53266251358622], [-186.72675116917256, 81.08926251376289], [-186.72675116917256, 81.64586251354407], [-187.0216004308189, 82.20246251372075], [-187.31644969246523, 82.75906251389742], [-187.80786512877523, 83.09302251384523], [-188.3975636520679, 83.20434251356417], [-188.9872621753606, 83.20434251356417], [-189.57696069865327, 82.9817025137308], [-213.06661854686942, 64.72522251355187], [-213.36146780851578, 64.16862251377069], [-213.55803398317946, 63.61202251359401], [-213.55803398317946, 63.05542251381283], [-213.36146780851578, 62.498822513636156], [-212.9683354595376, 62.053542513573916], [-212.47692002357675, 61.71958251362611], [-211.88722150028408, 61.49694251379273], [-211.29752297664223, 61.608262513907164], [-210.80610754068138, 61.71958251362611], [-204.22114069608259, 66.72898251363421], [-205.99023626630978, 69.06670251366435], [-201.27264807927003, 72.85158251360016], [-199.20870324739647, 70.51386251357002], [-198.42243854944013, 71.18178251386112], [-200.19153411966732, 73.63082251361021], [-195.37566284529572, 77.30438251382708], [-193.60656727506853, 74.96666251379693], [-187.21816660513338, 79.97606251380503], [-186.92331734348704, 80.53266251358622]]]}, "properties": {"name": "", "kind": "garden", "category": "parque", "extrude": false}}, {"type": "Feature", "geometry": {"type": "Polygon", "coordinates": [[[-207.56276566187333, 57.044142513565816], [-207.759331836537, 56.598862513899064], [-207.85761492386882, 55.93094251360796], [-207.759331836537, 55.15170251359791], [-207.46448257489064, 54.483782513702295], [-206.8747840512488, 53.92718251392111], [-206.2850855279561, 53.81586251380668], [-205.59710391733162, 53.81586251380668], [-204.81083921972444, 54.038502513640054], [-180.63319976088374, 71.84970251375674], [-180.3383504992374, 72.74026251388122], [-180.3383504992374, 73.63082251361021], [-180.53491667355192, 74.29874251390132], [-180.9280490225301, 74.8553425136825], [-181.8125968074691, 75.18930251363031], [-182.50057841809362, 75.18930251363031], [-183.0902769413863, 75.07798251391137], [-183.5816923776963, 74.8553425136825], [-189.8718099602996, 70.06858251390327], [-188.10271439042157, 67.73086251387312], [-193.2134349264395, 64.05730251365625], [-194.98253049631757, 66.17238251385302], [-195.5722290199594, 65.72710251379078], [-193.99969962404668, 63.61202251359401], [-198.91385398575014, 59.8271425136582], [-200.5846664686455, 62.053542513573916], [-207.56276566187333, 57.044142513565816]]]}, "properties": {"name": "", "kind": "garden", "category": "parque", "extrude": false}}, {"type": "Feature", "geometry": {"type": "Polygon", "coordinates": [[[14.851860741366043, 112.59282251371715], [0.4042469182512347, 116.26638251353853], [-17.28670878332247, 113.70602251367501], [-56.305094413906964, 125.50594251354468], [-85.00375588512374, 132.96438251369736], [-104.36552406959281, 134.74550251355083], [-141.0251156066574, 137.97378251370546], [-164.80962271651993, 136.97190251386203], [-186.23533573286252, 123.3908625137434], [-205.49882082999977, 114.9305425137473], [-214.63914794278213, 110.70038251374925], [-229.47989411452596, 101.34950251362866], [-250.61075786922223, 88.10242251385333], [-279.30941934078817, 64.22496967418084], [-279.30941934078817, 42.75646251344298], [-278.13002229385364, 43.68574251367605], [-198.22587237512562, 107.13814251364681], [-196.45677680489842, 108.47398251383353], [-164.90790580385175, 133.52098251387403], [-152.5242368126105, 119.60598251380759], [-148.49463023619523, 115.04186251386173], [-145.840986881029, 111.92490251382154], [-137.38864137922033, 100.68158251373305], [-132.57277010484873, 104.80042251361667], [-130.5088252729752, 106.4702225137512], [-128.64144661576532, 107.47210251359462], [-126.08608634758177, 108.91926251389577], [-122.35132903281286, 110.70038251374925], [-118.02687319475126, 112.70414251383158], [-110.75392473952795, 113.81734251378944], [-106.52775198879819, 116.4890225137674], [-100.53248366784123, 114.03998251362282], [-90.8024580317662, 112.70414251383158], [-75.96171186002238, 110.47774251391587], [-60.924399513614894, 108.58530251355248], [-62.00551347321758, 101.4608225137431], [-10.505175764409163, 91.4420225137269], [-10.505175764409163, 92.66654251379919], [13.082765171138837, 102.90798251364876], [14.753577654034206, 102.90798251364876], [14.851860741366043, 112.59282251371715]]]}, "properties": {"name": "", "kind": "beach", "category": "parque", "extrude": false}}, {"type": "Feature", "geometry": {"type": "Polygon", "coordinates": [[[-215.62197881505298, 57.823382513575865], [-215.4254126403893, 58.37998251375254], [-215.52369572772116, 59.047902513648154], [-215.72026190203565, 59.604502513824826], [-216.11339425101383, 60.04978251388707], [-216.50652659999201, 60.383742513834875], [-217.09622512328468, 60.49506251355382], [-217.7842067339092, 60.49506251355382], [-218.2756221702192, 60.27242251372044], [-241.76528001843536, 42.01594251354152], [-242.06012928008172, 41.570662513874765], [-242.25669545439624, 41.01406251369809], [-242.25669545439624, 40.34614251380248], [-242.06012928008172, 39.789542513625804], [-241.66699693110357, 39.344262513563564], [-241.17558149479356, 39.010302513615756], [-240.58588297150087, 38.89898251389681], [-239.9961844482082, 38.89898251389681], [-239.40648592491553, 39.12162251373019], [-232.91980216764853, 44.13102251373829], [-234.6888977378757, 46.357422513654], [-229.97130955048678, 50.14230251358981], [-227.9073647189624, 47.804582513559666], [-227.12110002100607, 48.47250251385077], [-228.8901955912333, 50.92154251359986], [-224.07432431686166, 54.59510251381673], [-222.30522874663447, 52.36870251390101], [-215.91682807669932, 57.37810251390911], [-215.62197881505298, 57.823382513575865]]]}, "properties": {"name": "", "kind": "garden", "category": "parque", "extrude": false}}, {"type": "Feature", "geometry": {"type": "Polygon", "coordinates": [[[-236.65455948241745, 35.11410251356551], [-236.94940874406376, 34.66882251389876], [-236.94940874406376, 34.11222251372209], [-236.85112565673194, 33.22166251359761], [-236.5562763950856, 32.55374251370199], [-235.9665778717929, 32.10846251363975], [-235.37687934850024, 31.885822513806374], [-234.6888977378757, 31.885822513806374], [-233.9026330399194, 32.10846251363975], [-209.7249935810787, 50.03098251387087], [-209.43014431943237, 50.810222513880916], [-209.43014431943237, 51.70078251360991], [-209.62671049374686, 52.36870251390101], [-210.01984284272504, 53.03662251379663], [-210.90439062801323, 53.37058251374444], [-211.59237223863775, 53.37058251374444], [-212.18207076193042, 53.14794251391106], [-212.67348619789126, 52.9253025136822], [-218.86532069351188, 48.13854251390296], [-217.19450821061653, 45.91214251359176], [-222.30522874663447, 42.12726251365595], [-224.07432431686166, 44.35366251357166], [-224.66402284015436, 43.79706251379048], [-223.0914934445908, 41.68198251359371], [-228.00564780594507, 37.8971025136579], [-229.77474337617227, 40.12350251357361], [-236.65455948241745, 35.11410251356551]]]}, "properties": {"name": "", "kind": "garden", "category": "parque", "extrude": false}}, {"type": "Feature", "geometry": {"type": "Polygon", "coordinates": [[[-272.822735583172, -2.6233774860736503], [-137.48692446655218, 99.23442251382738], [-152.5242368126105, 118.27014251362087], [-155.47272942977222, 115.82110251387178], [-157.63495734862843, 114.15130251373725], [-165.10447197816626, 108.25134251360467], [-171.00145721214054, 103.46458251382543], [-172.18085425907506, 102.57402251370095], [-184.171390900989, 93.000502513747], [-187.41473277979705, 90.44014251388347], [-198.32415546245747, 81.7571825136585], [-202.64861130051904, 78.3062625136705], [-203.8280083471044, 77.41570251354602], [-215.52369572772116, 68.06482251382093], [-218.57047143186554, 65.72710251379078], [-221.02754861271728, 63.723342513708445], [-229.97130955048678, 56.598862513899064], [-233.5095006909412, 53.704542513692246], [-234.5906146505439, 52.9253025136822], [-245.50003733320432, 44.24234251385272], [-247.46569907774597, 42.68386251383262], [-250.3159086075759, 40.45746251391691], [-255.328346056262, 36.449942513752234], [-267.2205996111932, 26.876422513798275], [-268.0068643088004, 26.319822513621602], [-273.9038495427747, 21.64438251356131], [-279.30941934078817, 17.28592149683749], [-279.30941934078817, -7.730521876705865], [-272.822735583172, -2.6233774860736503]]]}, "properties": {"name": "", "kind": "park", "category": "parque", "extrude": false}}, {"type": "Feature", "geometry": {"type": "Polygon", "coordinates": [[[57.89985294836578, 25.985862513673794], [58.587834558990295, 32.77638251353537], [59.275816169614814, 39.67822251390686], [48.071544225308074, 41.01406251369809], [50.92175375513797, 25.317942513778178], [57.89985294836578, 25.985862513673794]]]}, "properties": {"name": "", "kind": "park", "category": "parque", "extrude": false}}, {"type": "Feature", "geometry": {"type": "Polygon", "coordinates": [[[-250.21762552024404, 30.549982513619653], [-250.0210593455804, 31.106582513796326], [-250.0210593455804, 31.774502513691942], [-250.21762552024404, 32.331102513868615], [-250.61075786922223, 32.77638251353537], [-251.1021733051831, 33.11034251387866], [-251.69187182847577, 33.22166251359761], [-252.2815703521176, 33.22166251359761], [-252.87126887541027, 32.99902251376423], [-276.26264363629457, 14.408582513637498], [-276.6557759852728, 13.851982513856314], [-276.7540590726046, 13.295382513679641], [-276.7540590726046, 12.738782513898457], [-276.55749289794096, 12.182182513721784], [-276.16436054896275, 11.736902513659544], [-275.6729451130019, 11.402942513711736], [-275.08324658970923, 11.18030251387836], [-274.4935480660674, 11.291622513597304], [-273.9038495427747, 11.402942513711736], [-267.41716578550773, 16.523662513834267], [-269.2845444430668, 18.75006251374998], [-264.4686731686952, 22.646262513800224], [-262.5030114241535, 20.531182513603454], [-261.71674672619713, 20.976462513665695], [-263.58412538340696, 23.31418251369584], [-258.6699710220527, 27.210382513746083], [-256.99915853915735, 24.872662513715937], [-250.5124747818904, 29.99338251383847], [-250.21762552024404, 30.549982513619653]]]}, "properties": {"name": "", "kind": "garden", "category": "parque", "extrude": false}}, {"type": "Feature", "geometry": {"type": "Polygon", "coordinates": [[[-271.64333853658667, 8.508622513900406], [-271.938187798233, 7.618062513775925], [-271.938187798233, 6.727502513651444], [-271.446772361923, 6.059582513755828], [-270.8570738386303, 5.5029825135791555], [-270.1690922280058, 5.3916625138602114], [-269.0879782684031, 5.614302513693588], [-245.59832042018698, 22.8689025136336], [-244.91033880956243, 23.64814251364365], [-244.51720646093344, 24.427382513653697], [-244.6154895479161, 25.540582513611554], [-245.1069049842261, 26.319822513621602], [-245.99145276916514, 26.876422513798275], [-246.8760005544533, 26.765102513683843], [-247.6622652520605, 26.431142513736035], [-254.0506659223448, 21.867022513790175], [-252.18328726478578, 19.52930251376003], [-257.1957247134719, 15.521782513595355], [-258.96482028369905, 17.8595025136255], [-259.7510849816554, 17.302902513844316], [-257.9819894114282, 14.853862513699738], [-262.89614377313166, 10.957662513649495], [-264.66523934300966, 13.295382513679641], [-271.64333853658667, 8.508622513900406]]]}, "properties": {"name": "", "kind": "garden", "category": "parque", "extrude": false}}, {"type": "Feature", "geometry": {"type": "Polygon", "coordinates": [[[-274.8866804150456, 4.389782513621299], [-274.6901142407311, 4.278462513902355], [-274.4935480660674, 4.278462513902355], [-274.2969818917529, 4.389782513621299], [-274.1004157174384, 4.501102513735731], [-273.9038495427747, 4.612422513850163], [-273.9038495427747, 4.835062513683539], [-273.8055664554429, 5.057702513912403], [-273.9038495427747, 5.280342513745779], [-274.00213263010653, 5.3916625138602114], [-277.63860685754366, 9.733142513577207], [-277.83517303220725, 9.844462513691639], [-278.0317392065218, 9.95578251380607], [-278.32658846816815, 9.844462513691639], [-278.5231546428318, 9.733142513577207], [-278.6214377298145, 9.621822513858262], [-278.71972081714637, 9.399182513629398], [-278.71972081714637, 9.176542513796022], [-278.6214377298145, 8.953902513567158], [-275.08324658970923, 4.612422513850163], [-274.8866804150456, 4.389782513621299]]]}, "properties": {"name": "", "kind": "garden", "category": "parque", "extrude": false}}, {"type": "Feature", "geometry": {"type": "Polygon", "coordinates": [[[-278.6214377298145, 1.8294225137577769], [-278.4248715555, 1.7181025136433448], [-278.22830538083633, 1.7181025136433448], [-278.0317392065218, 1.7181025136433448], [-277.83517303220725, 1.8294225137577769], [-277.63860685754366, 2.052062513591153], [-277.5403237702118, 2.163382513705585], [-277.5403237702118, 2.386022513538961], [-277.63860685754366, 2.6086625137678254], [-277.7368899448755, 2.8313025136012016], [-279.30941934078817, 4.708699270727266], [-279.30941934078817, 2.543725847265108], [-278.81800390447813, 1.940742513872209], [-278.6214377298145, 1.8294225137577769]]]}, "properties": {"name": "", "kind": "garden", "category": "parque", "extrude": false}}, {"type": "Feature", "geometry": {"type": "Polygon", "coordinates": [[[-146.62725157898538, -42.69857748613845], [-103.57925937198563, -54.60981748612255], [-127.56033265616263, -33.459017486132296], [-147.61008245125623, -39.247657486150445], [-146.62725157898538, -42.69857748613845]]]}, "properties": {"name": "", "kind": "playground", "category": "parque", "extrude": false}}, {"type": "Feature", "geometry": {"type": "Polygon", "coordinates": [[[-113.89898353100418, -87.67185748609691], [-107.80543212271537, -61.9569374861608], [-121.27021507321017, -58.72865748640166], [-127.36376648184813, -84.5548974864522], [-113.89898353100418, -87.67185748609691]]]}, "properties": {"name": "", "kind": "pitch", "category": "parque", "extrude": false}}, {"type": "Feature", "geometry": {"type": "Polygon", "coordinates": [[[-151.63968902767147, -133.75833748640872], [-142.49936191523827, -92.90389748633388], [-164.02335801891275, -88.11713748615915], [-173.16368513134591, -128.971577486234], [-151.63968902767147, -133.75833748640872]]]}, "properties": {"name": "", "kind": "pitch", "category": "parque", "extrude": false}}, {"type": "Feature", "geometry": {"type": "Polygon", "coordinates": [[[288.275409417453, -101.14157748610111], [270.4861706285474, -96.46613748643631], [272.05870002446017, -110.4924574862217], [273.53294633269184, -122.96029748638247], [275.2037588155872, -138.21113748624015], [280.6093286132515, -137.87717748629234], [285.8183322366013, -135.98473748632443], [287.68571089416025, -126.96781748615166], [284.93378445166223, -122.51501748632023], [286.11318149824757, -116.39241748635428], [288.96339102807747, -113.16413748619965], [287.48914471949666, -109.37925748626384], [288.66854176643113, -105.14909748626579], [291.027335859951, -102.70005748612121], [291.027335859951, -101.03025748638217], [288.275409417453, -101.14157748610111]]]}, "properties": {"name": "Playa de LA BALLENA", "kind": "beach", "category": "parque", "extrude": false}}, {"type": "Feature", "geometry": {"type": "Polygon", "coordinates": [[[275.79345733922906, -255.31977748639434], [279.4299315666661, -253.42733748642644], [284.4423690153522, -247.41605748617943], [283.26297196876686, -243.63117748624362], [271.66556767548195, -244.41041748625366], [261.7389758650924, -248.97453748619952], [257.31623693969897, -247.86133748624167], [257.5128031140135, -252.31413748646858], [255.25229210782544, -256.2103374861233], [255.25229210782544, -259.77257748622577], [258.4956339866335, -263.1121774860993], [272.45183237308913, -261.9989774861415], [275.79345733922906, -255.31977748639434]]]}, "properties": {"name": "", "kind": "playground", "category": "parque", "extrude": false}}, {"type": "Feature", "geometry": {"type": "Polygon", "coordinates": [[[183.89877077823795, -260.21785748628804], [186.74898030806784, -274.13285748635445], [209.9437888942885, -270.570617486252], [203.4571051373707, -240.51421748620342], [190.48373762283674, -242.51797748628576], [183.89877077823795, -237.28593748644428], [175.05329292745108, -247.19341748634605], [183.89877077823795, -260.21785748628804]]]}, "properties": {"name": "", "kind": "playground", "category": "parque", "extrude": false}}, {"type": "Feature", "geometry": {"type": "Polygon", "coordinates": [[[286.99772928353576, -233.2784174862796], [232.94203130654378, -240.1802574862556], [226.357064461945, -251.4235774863441], [228.0874894762574, -308.1272457515581], [233.99203202155272, -305.73432704541347], [242.7110494623965, -301.06353263350826], [250.9838805310528, -295.4472547276139], [258.7308533424297, -288.93958115447674], [265.8773603131636, -281.6031843677995], [272.3545766745075, -273.50871787923836], [278.1001232919909, -264.73413582589626], [283.05866741108423, -255.36394222992058], [287.1824555410019, -245.4883771773558], [290.43177334800845, -235.20254775838438], [291.08868959734673, -232.23211798016266], [286.99772928353576, -233.2784174862796]]]}, "properties": {"name": "Plaza Jhon Huygen", "kind": "park", "category": "parque", "extrude": false}}]}