{"type": "FeatureCollection", "crs": {"type": "name", "properties": {"name": "wgs84_and_EPSG:32628_local_enu_m_section_centroid", "lng0": -13.863203175317427, "lat0": 28.51582021264932}}, "features": [{"type": "Feature", "geometry": {"type": "Polygon", "coordinates": [[[-13.8601, 28.5215], [-13.857, 28.52], [-13.8551, 28.5194], [-13.8519, 28.5186], [-13.8494, 28.5186], [-13.8482, 28.5185], [-13.849, 28.5173], [-13.8492, 28.5159], [-13.8492, 28.5153], [-13.8493, 28.5145], [-13.8493, 28.5135], [-13.8494, 28.5126], [-13.8494, 28.5115], [-13.8495, 28.5109], [-13.8496, 28.5102], [-13.85, 28.5095], [-13.8507, 28.5099], [-13.8515, 28.5102], [-13.8526, 28.5098], [-13.8546, 28.5103], [-13.8592, 28.5106], [-13.8601, 28.508], [-13.8607, 28.506], [-13.8608, 28.5052], [-13.8617, 28.5057], [-13.8621, 28.5058], [-13.8622, 28.506], [-13.8623, 28.5064], [-13.8628, 28.5069], [-13.8634, 28.5076], [-13.8636, 28.5079], [-13.864, 28.5082], [-13.8644, 28.5084], [-13.8646, 28.5083], [-13.8648, 28.5083], [-13.8648, 28.5085], [-13.8647, 28.5087], [-13.8648, 28.5088], [-13.8652, 28.5091], [-13.8656, 28.5094], [-13.8658, 28.5097], [-13.8658, 28.5099], [-13.866, 28.5101], [-13.8661, 28.5102], [-13.8664, 28.5102], [-13.8666, 28.5103], [-13.8667, 28.5105], [-13.8668, 28.5108], [-13.8669, 28.511], [-13.8671, 28.5112], [-13.8676, 28.5115], [-13.8676, 28.5117], [-13.8677, 28.512], [-13.8679, 28.5122], [-13.8683, 28.5124], [-13.8686, 28.5126], [-13.8688, 28.5128], [-13.869, 28.5129], [-13.8691, 28.5131], [-13.8692, 28.5133], [-13.8695, 28.5134], [-13.87, 28.5136], [-13.8705, 28.5138], [-13.8708, 28.5139], [-13.8712, 28.5142], [-13.8713, 28.5145], [-13.8715, 28.5147], [-13.8717, 28.5148], [-13.874, 28.5133], [-13.8752, 28.5147], [-13.876, 28.5156], [-13.8766, 28.5163], [-13.8773, 28.5171], [-13.8777, 28.5175], [-13.8785, 28.5184], [-13.8792, 28.5192], [-13.8797, 28.5198], [-13.8801, 28.5207], [-13.8804, 28.5223], [-13.8807, 28.5228], [-13.8811, 28.5231], [-13.8813, 28.5232], [-13.8778, 28.5219], [-13.8757, 28.5209], [-13.8708, 28.5224], [-13.8671, 28.522], [-13.864, 28.5216], [-13.8606, 28.5215], [-13.8601, 28.5215]]]}, "properties": {"cusec": "3501701018", "mun": "017", "nmun": "Puerto del Rosario", "area_m2": 3145718.0607014997, "perimeter_m": 9247.46661134286, "coords_system": "wgs84"}}, {"type": "Feature", "geometry": {"type": "Polygon", "coordinates": [[[303.5378718767183, -632.2739278776455], [606.7651492829559, -465.29392787763925], [792.614125757668, -398.5019278777949], [1105.6229282415038, -309.445927877607], [1350.1610551821525, -309.445927877607], [1467.5393561135038, -298.3139278776329], [1389.287155492545, -164.72992787754876], [1369.7241053373486, -8.881927877516489], [1369.7241053373486, 57.91007212232785], [1359.9425802597507, 146.9660721221203], [1359.9425802597507, 258.2860721222563], [1350.1610551821525, 358.4740721224183], [1350.1610551821525, 480.92607212213295], [1340.3795301043806, 547.7180721223727], [1330.5980050267824, 625.6420721221912], [1291.4719047163899, 703.5660721224051], [1223.001229173029, 659.0380721225088], [1144.74902855207, 625.6420721221912], [1037.152252698143, 670.1700721224829], [841.5217511458326, 614.5100721222171], [391.57159757527535, 581.1140721222949], [303.5378718767183, 870.5460721224114], [244.84872141095568, 1093.186072122288], [235.06719633335754, 1182.242072122476], [147.03347063462675, 1126.58207212221], [107.90737032423415, 1115.4500721222362], [98.125845246636, 1093.186072122288], [88.34432016903786, 1048.6580721223918], [39.436694780873374, 992.998072122126], [-19.252455684889252, 915.0740721223076], [-38.81550584008554, 881.6780721223854], [-77.94160615065188, 848.2820721224632], [-117.06770646104447, 826.0180721221196], [-136.63075661624075, 837.1500721224892], [-156.1938067716108, 837.1500721224892], [-156.1938067716108, 814.8860721221456], [-146.4122816938389, 792.6220721221976], [-156.1938067716108, 781.4900721222234], [-195.3199070820034, 748.0940721223012], [-234.4460073925697, 714.6980721223791], [-254.00905754776602, 681.3020721224569], [-254.00905754776602, 659.0380721225088], [-273.5721077029623, 636.7740721221652], [-283.3536327805604, 625.6420721221912], [-312.69820801352864, 625.6420721221912], [-332.2612581687249, 614.5100721222171], [-342.0427832463231, 592.246072122269], [-351.82430832392123, 558.8500721223468], [-361.60583340151936, 536.5860721223987], [-381.16888355688945, 514.3220721224507], [-430.0765089448801, 480.92607212213295], [-430.0765089448801, 458.66207212218484], [-439.85803402247825, 425.2660721222627], [-459.4210841778483, 403.00207212231453], [-498.5471844882409, 380.7380721223665], [-527.891759721209, 358.4740721224183], [-547.4548098764054, 336.21007212247025], [-567.0178600316017, 325.07807212249617], [-576.7993851091999, 302.81407212215254], [-586.580910186798, 280.5500721222045], [-615.9254854197661, 269.4180721222304], [-664.8331108077568, 247.1540721222823], [-713.7407361959214, 224.89007212233417], [-743.0853114287158, 213.75807212236012], [-782.2114117392822, 180.36207212243795], [-791.9929368168803, 146.9660721221203], [-811.5559869720767, 124.70207212217218], [-831.1190371274466, 113.57007212219813], [-1056.094113912725, 280.5500721222045], [-1173.4724148440766, 124.70207212217218], [-1251.7246154650356, 24.51407212240568], [-1310.4137659307983, -53.4099278778082], [-1378.884441474159, -142.46592787760065], [-1418.0105417847253, -186.99392787749687], [-1496.2627424056843, -287.18192787765884], [-1564.733417949045, -376.2379278778468], [-1613.6410433370359, -443.02992787769114], [-1652.767143647602, -543.2179278778531], [-1682.1117188803967, -721.3299278778335], [-1711.456294113191, -776.9899278777038], [-1750.5823944237575, -810.3859278776259], [-1770.1454445789536, -821.5179278776], [-1427.7920668623235, -676.8019278775419], [-1222.380040232241, -565.4819278778012], [-743.0853114287158, -732.4619278778075], [-381.16888355688945, -687.9339278775159], [-77.94160615065188, -643.4059278776197], [254.63024648855384, -632.2739278776455], [303.5378718767183, -632.2739278776455]]]}, "properties": {"cusec": "3501701018", "mun": "017", "nmun": "Puerto del Rosario", "area_m2": 3145718.0607014997, "perimeter_m": 9247.46661134286, "coords_system": "local_m_enu"}}]}