{"type": "FeatureCollection", "crs": {"type": "name", "properties": {"name": "EPSG:32628_local_enu_m_section_centroid", "lng0": -17.932771596553977, "lat0": 28.644708943657943}}, "features": [{"type": "Feature", "geometry": {"type": "LineString", "coordinates": [[-331.87405761195015, 157.73702169008033], [-325.4629704185404, 164.85864800209626], [-307.3893115229864, 191.46412800215685], [-295.27507529022324, 218.8488480022275], [-287.0686571969267, 243.33924800209132], [-286.26681590479075, 248.7629223705254]]}, "properties": {"osm_id": null, "type": "primary", "width_m": 12, "extrude": false}}, {"type": "Feature", "geometry": {"type": "LineString", "coordinates": [[15.234081122931162, 265.9372080023827], [21.551280379150796, 259.81460800202126], [30.930043914148488, 250.24108800206733], [35.42403477481283, 249.90712800211952], [38.354898379412845, 248.9052480022761], [66.2957980779185, 233.76572800213737], [77.04229796179894, 228.5336880022959], [82.41554790373917, 227.53180800205698], [88.76575238054606, 226.52992800221355], [102.24772496219201, 225.97332800203688], [110.16105669506324, 226.52992800221355], [129.0162792186494, 228.8676480022437], [168.8760242427367, 232.6525280021795], [205.12103748743547, 247.6807280022038], [217.72261283767395, 256.18381298050326]]}, "properties": {"osm_id": null, "type": "residential", "width_m": 5, "extrude": false}}, {"type": "Feature", "geometry": {"type": "LineString", "coordinates": [[-124.70743368292645, 265.9372080023827], [-121.76794989103053, 259.03536800201124], [-120.49790899573857, 256.3636880020333], [-116.98087267028798, 251.24296800230624], [-113.85461815850638, 248.237328001985], [-110.7283636467248, 246.3448880020171]]}, "properties": {"osm_id": null, "type": "primary", "width_m": 12, "extrude": false}}, {"type": "Feature", "geometry": {"type": "LineString", "coordinates": [[-99.12075835974022, 265.9372080023827], [-88.74688661135703, 243.45056800220576], [-88.45380025093174, 235.4355280022719]]}, "properties": {"osm_id": null, "type": "pedestrian", "width_m": 4, "extrude": false}}, {"type": "Feature", "geometry": {"type": "LineString", "coordinates": [[-135.64070428669257, 253.13540800227415], [-137.59461335677298, 248.237328001985]]}, "properties": {"osm_id": null, "type": "footway", "width_m": 2, "extrude": false}}, {"type": "Feature", "geometry": {"type": "LineString", "coordinates": [[-9.761668124813369, 265.9372080023827], [-4.435710249274436, 230.64876800209717], [-3.263364807226183, 222.6337280021633], [-2.677192086375598, 214.73000800234388], [-2.579496632784806, 211.50172800218925], [-2.9702784468008905, 207.93948800208682], [-4.240319342439936, 201.26028800233968]]}, "properties": {"osm_id": null, "type": "residential", "width_m": 5, "extrude": false}}, {"type": "Feature", "geometry": {"type": "LineString", "coordinates": [[-258.16281748078717, 262.430988582866], [-251.50751212632224, 251.1316480021918], [-238.41632135869233, 239.99964800221775], [-229.52603509095445, 230.53744800198274], [-226.49747603276361, 228.08840800223365]]}, "properties": {"osm_id": null, "type": "service", "width_m": 3.5, "extrude": false}}, {"type": "Feature", "geometry": {"type": "LineString", "coordinates": [[-295.9732568061751, 240.93678711086213], [-295.37277074346696, 240.7788880022278]]}, "properties": {"osm_id": null, "type": "track", "width_m": 3, "extrude": false}}, {"type": "Feature", "geometry": {"type": "LineString", "coordinates": [[173.6631014638263, 154.61720800224668], [168.8760242427367, 232.6525280021795]]}, "properties": {"osm_id": null, "type": "residential", "width_m": 5, "extrude": false}}, {"type": "Feature", "geometry": {"type": "LineString", "coordinates": [[132.6310109976908, 152.50212800204991], [129.0162792186494, 228.8676480022437]]}, "properties": {"osm_id": null, "type": "service", "width_m": 3.5, "extrude": false}}, {"type": "Feature", "geometry": {"type": "LineString", "coordinates": [[-137.59461335677298, 248.237328001985], [-138.0830906240328, 247.0128080023082], [-121.37716807736153, 240.33360800216556], [-111.11914546074088, 235.21288800204303], [-107.89519549571558, 233.76572800213737]]}, "properties": {"osm_id": null, "type": "footway", "width_m": 2, "extrude": false}}, {"type": "Feature", "geometry": {"type": "LineString", "coordinates": [[-295.37277074346696, 240.7788880022278], [-280.52306181293824, 236.77136800206313]]}, "properties": {"osm_id": null, "type": "track", "width_m": 3, "extrude": false}}, {"type": "Feature", "geometry": {"type": "LineString", "coordinates": [[-92.2639229371547, 231.20536800227384], [-88.45380025093174, 235.4355280022719]]}, "properties": {"osm_id": null, "type": "residential", "width_m": 5, "extrude": false}}, {"type": "Feature", "geometry": {"type": "LineString", "coordinates": [[-107.89519549571558, 233.76572800213737], [-102.03346828616849, 230.87140800232604]]}, "properties": {"osm_id": null, "type": "footway", "width_m": 2, "extrude": false}}, {"type": "Feature", "geometry": {"type": "LineString", "coordinates": [[-317.45194323242555, 209.27532800227354], [-318.03463080014035, 211.72824999245805]]}, "properties": {"osm_id": null, "type": "track", "width_m": 3, "extrude": false}}, {"type": "Feature", "geometry": {"type": "LineString", "coordinates": [[-102.03346828616849, 230.87140800232604], [-98.8095183207961, 224.7488080019646]]}, "properties": {"osm_id": null, "type": "footway", "width_m": 2, "extrude": false}}, {"type": "Feature", "geometry": {"type": "LineString", "coordinates": [[-107.89519549571558, 233.76572800213737], [-103.59659554188573, 228.08840800223365], [-95.97635016978688, 213.72812800210497]]}, "properties": {"osm_id": null, "type": "footway", "width_m": 2, "extrude": false}}, {"type": "Feature", "geometry": {"type": "LineString", "coordinates": [[-97.34408651866964, 87.49124800205905], [-96.95330470465355, 95.61760800210735], [-95.3901774489363, 100.29304800216764], [-92.85009565800529, 102.96472800214559], [-77.02343219260992, 110.42316800229827], [-68.62162319247889, 114.8759680021297], [-64.02993687822375, 118.3268880021177], [-59.5359460179065, 122.66836800223018], [-54.84656425040765, 131.7966080021219], [-53.28343699434331, 138.0305280022023], [-53.088046087508815, 145.82292800230277], [-53.77191426195019, 152.05684800198767], [-55.23734606442373, 156.5096480022146], [-64.22532778540534, 177.5491280020904], [-79.85660034396622, 209.94324800216916], [-86.10910936718231, 223.74692800212117], [-88.94227751853862, 227.53180800205698], [-92.2639229371547, 231.20536800227384], [-96.66021834422826, 234.09968800208517], [-107.699804588534, 240.11096800233219], [-111.80301363518225, 242.22604800213347], [-127.92276346100293, 249.5731680021717], [-135.64070428669257, 253.13540800227415], [-143.6517314731546, 256.1410480021999], [-146.5825950777546, 257.8108480023344], [-148.82959050791322, 260.37120800219793], [-151.4826925292715, 265.9372080023827]]}, "properties": {"osm_id": null, "type": "primary", "width_m": 12, "extrude": false}}, {"type": "Feature", "geometry": {"type": "LineString", "coordinates": [[-324.5018868106796, 197.38630407334838], [-317.45194323242555, 209.27532800227354], [-315.49803416269214, 212.6149280021471], [-311.6149806157499, 222.4996319178817]]}, "properties": {"osm_id": null, "type": "service", "width_m": 3.5, "extrude": false}}, {"type": "Feature", "geometry": {"type": "LineString", "coordinates": [[-84.05750484385818, 208.05080800220125], [-79.85660034396622, 209.94324800216916], [-77.6096049134605, 211.16776800224144], [-75.26491402971108, 212.39228800231373], [-71.943268611095, 214.06208800205277]]}, "properties": {"osm_id": null, "type": "footway", "width_m": 2, "extrude": false}}, {"type": "Feature", "geometry": {"type": "LineString", "coordinates": [[-88.45380025093174, 235.4355280022719], [-85.52293664633173, 237.6619280021876], [-83.08055030899152, 238.77512800214546], [-76.53495492500303, 239.66568800226995], [-71.2594004366536, 239.66568800226995], [-67.44927775043064, 238.66380800203103], [-63.54145961096396, 236.88268800217756], [-55.530432424849025, 231.76196800205503], [-53.478827901524895, 229.5355680021393], [-52.111091552642144, 227.42048800233803], [-49.57100976171114, 227.08652800199474], [-47.4217097851433, 226.19596800226574], [-4.240319342439936, 201.26028800233968], [24.67753489093239, 188.68112800206447], [32.98164843747262, 164.41336800203402]]}, "properties": {"osm_id": null, "type": "residential", "width_m": 5, "extrude": false}}, {"type": "Feature", "geometry": {"type": "LineString", "coordinates": [[30.930043914148488, 250.24108800206733], [31.80930299577145, 247.12412800202713], [33.3724302514887, 244.00716800198694], [47.73366191441053, 223.07900800222555], [69.12896622892771, 196.47352800216495], [80.26624792682425, 176.10196800218475], [89.64501146182194, 147.71536800227068]]}, "properties": {"osm_id": null, "type": "residential", "width_m": 5, "extrude": false}}, {"type": "Feature", "geometry": {"type": "LineString", "coordinates": [[-12.837519249405458, 159.0700080020781], [-42.24385075003757, 202.48480800201648], [-50.059487029318014, 219.85072800207092], [-51.52491883179156, 223.96956800235003], [-52.111091552642144, 227.42048800233803]]}, "properties": {"osm_id": null, "type": "residential", "width_m": 5, "extrude": false}}, {"type": "Feature", "geometry": {"type": "LineString", "coordinates": [[-42.24385075003757, 202.48480800201648], [-37.94525079655482, 201.26028800233968], [-8.148137481906613, 183.56040800233743]]}, "properties": {"osm_id": null, "type": "residential", "width_m": 5, "extrude": false}}, {"type": "Feature", "geometry": {"type": "LineString", "coordinates": [[-226.49747603276361, 228.08840800223365], [-215.84867160247398, 218.29224800205083], [-213.69937162555905, 215.0639680022917], [-212.91780799787398, 210.94512800201258], [-218.2910579398142, 173.31896800209236], [-222.88274425372225, 141.03616800212805], [-224.83665332345558, 135.80412800228657]]}, "properties": {"osm_id": null, "type": "residential", "width_m": 5, "extrude": false}}, {"type": "Feature", "geometry": {"type": "LineString", "coordinates": [[-68.5239277388881, 175.21140800206027], [-67.93775501803752, 175.54536800200808], [-64.22532778540534, 177.5491280020904], [-62.076027808490416, 178.55100800232933], [-59.926727831922584, 179.55288800217275], [-55.72582333168353, 181.66796800197403]]}, "properties": {"osm_id": null, "type": "footway", "width_m": 2, "extrude": false}}, {"type": "Feature", "geometry": {"type": "LineString", "coordinates": [[-218.2910579398142, 173.31896800209236], [-235.29006684691072, 181.11136800219285]]}, "properties": {"osm_id": null, "type": "service", "width_m": 3.5, "extrude": false}}, {"type": "Feature", "geometry": {"type": "LineString", "coordinates": [[-70.18475044819616, 174.54348800216465], [-73.21330950638695, 173.20764800197793]]}, "properties": {"osm_id": null, "type": "footway", "width_m": 2, "extrude": false}}, {"type": "Feature", "geometry": {"type": "LineString", "coordinates": [[32.98164843747262, 164.41336800203402], [40.69958926316227, 171.5378480022389], [44.70510285621973, 173.09632800225899], [51.153002786617414, 172.98500800214455], [56.72164363573922, 172.76236800231118]]}, "properties": {"osm_id": null, "type": "residential", "width_m": 5, "extrude": false}}, {"type": "Feature", "geometry": {"type": "LineString", "coordinates": [[228.66564177886758, 185.11888800235752], [225.83247362751126, 170.98124800206222], [222.5108282088952, 155.95304800203792]]}, "properties": {"osm_id": null, "type": "track", "width_m": 3, "extrude": false}}, {"type": "Feature", "geometry": {"type": "LineString", "coordinates": [[-110.7283636467248, 246.3448880020171], [-93.82705019287197, 238.77512800214546], [-88.45380025093174, 235.4355280022719], [-84.44828665787426, 231.0940480021594], [-81.71281396010876, 226.75256800204693], [-75.26491402971108, 212.39228800231373], [-59.926727831922584, 179.55288800217275], [-49.66870521530193, 156.39832800210016], [-48.20327341282838, 150.38704800224863], [-47.6171006919778, 143.15124800232482], [-48.39866432000997, 135.47016800233877], [-49.57100976171114, 130.46076800233067], [-52.69726427349273, 124.22684800225028], [-55.72582333168353, 119.55140800218999], [-60.708291459607665, 114.43068800206746], [-66.37462776232026, 110.42316800229827], [-75.26491402971108, 105.63640800212355], [-89.62614569297999, 97.62136800218968], [-91.77544566954784, 96.17420800228402], [-94.60861382090413, 91.94404800228597], [-97.34408651866964, 87.49124800205905]]}, "properties": {"osm_id": null, "type": "primary", "width_m": 12, "extrude": false}}, {"type": "Feature", "geometry": {"type": "LineString", "coordinates": [[-101.5449910185616, 101.96284800230217], [-94.51091836731334, 106.08168800218579], [-84.64367756470877, 111.09108800219389], [-79.85660034396622, 113.6514480020574], [-72.72483223912715, 117.43632800199322], [-67.64466865761223, 120.77592800226228], [-64.12763233181455, 123.89288800230247], [-61.392159634049044, 128.12304800230052], [-59.5359460179065, 131.68528800200747], [-57.972818761842156, 135.91544800200552], [-57.48434149458237, 139.9229680021702], [-56.89816877373178, 144.59840800223049], [-57.38664604099157, 148.82856800222854], [-59.926727831922584, 158.0681280022347], [-64.02993687822375, 166.8624080021786], [-67.93775501803752, 175.54536800200808], [-84.05750484385818, 208.05080800220125], [-92.6547047511708, 225.86200800231794], [-97.73486833268572, 228.75632800212927], [-102.03346828616849, 230.87140800232604]]}, "properties": {"osm_id": null, "type": "footway", "width_m": 2, "extrude": false}}, {"type": "Feature", "geometry": {"type": "LineString", "coordinates": [[-99.39569104199377, 224.52616800213121], [-93.82705019287197, 214.50736800211502], [-95.97635016978688, 213.72812800210497], [-98.1256501467018, 212.94888800209492], [-79.56351398319384, 174.43216800205022], [-72.43174587870186, 160.07188800231702], [-68.13314592487203, 149.83044800207196], [-67.25388684359613, 144.37576800200162], [-67.84005956444673, 140.03428800228463], [-69.59857772734557, 135.47016800233877], [-73.11561405314325, 129.45888800209175], [-78.09808218106738, 125.78532800227038], [-93.04548656518688, 118.77216800217994], [-92.3616183907455, 117.21368800215984], [-91.77544566954784, 116.10048800220198], [-98.71182286755239, 109.08732800211155], [-97.44178197226043, 107.75148800232031], [-96.46482743704668, 106.7496080020814], [-81.61511850651797, 113.76276800217184], [-80.14968670439151, 114.43068800206746], [-78.00038672747658, 115.43256800230637], [-69.20779591332948, 120.2193280020856], [-64.22532778540534, 124.67212800231252], [-60.80598691319846, 130.2381280021018], [-58.656686936283535, 136.13808800223438], [-58.46129602944904, 137.36260800230667], [-57.972818761842156, 140.03428800228463], [-57.77742785500766, 142.70596800226258], [-57.582036948173155, 145.04368800229273], [-57.77742785500766, 146.93612800226063], [-58.168209669023746, 150.2757280021342], [-60.024423285166286, 156.8436080021624], [-60.708291459607665, 158.7360480021303], [-61.294464180805335, 158.51340800229693], [-65.39767322710651, 156.73228800204797], [-65.88615049471339, 157.51152800205801], [-66.27693230872947, 158.51340800229693], [-66.86310502958005, 159.51528800214035], [-67.15619139000535, 160.2945280021504], [-62.662200529688086, 162.5209280020661], [-67.93775501803752, 173.7642480021546], [-68.5239277388881, 175.21140800206027], [-69.50088227375477, 177.10384800202817], [-83.86211393702368, 206.0470480021189], [-84.74137301829956, 207.71684800225344], [-85.71832755316623, 209.60928800222135], [-93.63165928603746, 225.63936800208907], [-98.8095183207961, 224.7488080019646], [-99.39569104199377, 224.52616800213121]]}, "properties": {"osm_id": null, "type": "pedestrian", "width_m": 4, "extrude": false}}, {"type": "Feature", "geometry": {"type": "LineString", "coordinates": [[-95.97635016978688, 213.72812800210497], [-75.75339129731796, 172.2057680021345], [-74.5810458552697, 169.75672800198993], [-69.30549136692026, 158.4020880021825], [-66.27693230872947, 151.72288800203987], [-65.202282320272, 142.70596800226258], [-66.57001866915476, 136.36072800206776], [-70.18475044819616, 129.79284800203956], [-77.70730036705129, 123.55892800235466], [-92.3616183907455, 117.21368800215984]]}, "properties": {"osm_id": null, "type": "footway", "width_m": 2, "extrude": false}}, {"type": "Feature", "geometry": {"type": "LineString", "coordinates": [[-85.71832755316623, 227.86576800200478], [-79.46581852995013, 215.7318880021873], [-77.6096049134605, 211.16776800224144], [-71.84557315750419, 199.25652800225734], [-62.076027808490416, 178.55100800232933], [-60.41520509918237, 174.9887680022269], [-53.38113244793411, 160.07188800231702], [-50.15718248290881, 148.7172480021141], [-50.4502688433341, 139.9229680021702], [-51.13413701777547, 135.80412800228657], [-52.79495972708352, 129.79284800203956], [-55.628127878092734, 124.78344800203146], [-58.94977329705591, 119.99668800225223], [-63.05298234335709, 115.98916800208755], [-66.47232321556397, 113.20616800199517], [-72.72483223912715, 109.64392800228822], [-79.95429579720992, 106.19300800230022], [-91.48235930912254, 100.62700800211545]]}, "properties": {"osm_id": null, "type": "footway", "width_m": 2, "extrude": false}}, {"type": "Feature", "geometry": {"type": "LineString", "coordinates": [[-18.30846464493647, 126.23060800233262], [-18.01537828451118, 130.2381280021018], [-13.91216923786292, 153.17004800234102], [-12.837519249405458, 159.0700080020781], [-8.148137481906613, 183.56040800233743], [-4.240319342439936, 201.26028800233968]]}, "properties": {"osm_id": null, "type": "residential", "width_m": 5, "extrude": false}}, {"type": "Feature", "geometry": {"type": "LineString", "coordinates": [[-64.02993687822375, 160.73980800221264], [-63.15067779694788, 161.18508800227488], [-62.271418715672006, 159.29264800230698], [-63.05298234335709, 158.95868800196368]]}, "properties": {"osm_id": null, "type": "footway", "width_m": 2, "extrude": false}}, {"type": "Feature", "geometry": {"type": "LineString", "coordinates": [[-66.86310502958005, 159.51528800214035], [-69.30549136692026, 158.4020880021825]]}, "properties": {"osm_id": null, "type": "footway", "width_m": 2, "extrude": false}}, {"type": "Feature", "geometry": {"type": "LineString", "coordinates": [[32.98164843747262, 164.41336800203402], [30.050784832872612, 161.63036800233712], [28.683048483989857, 160.51716800198378], [24.091362170081805, 157.95680800212025], [21.746671285985297, 156.62096800232902], [10.511694134845062, 151.72288800203987], [7.678525983488762, 151.27760800197763], [-13.91216923786292, 153.17004800234102]]}, "properties": {"osm_id": null, "type": "residential", "width_m": 5, "extrude": false}}, {"type": "Feature", "geometry": {"type": "LineString", "coordinates": [[-280.52306181293824, 236.77136800206313], [-277.68989366192903, 236.1034480021675], [-277.00602548748765, 230.092168002316], [-281.98849361541176, 213.8394480022194], [-287.85022082495885, 198.03200800218505], [-299.7690661505405, 176.43592800213256], [-313.54412509295884, 157.62284800217245], [-332.0085658025289, 135.604787536855]]}, "properties": {"osm_id": null, "type": "track", "width_m": 3, "extrude": false}}, {"type": "Feature", "geometry": {"type": "LineString", "coordinates": [[275.65715490779394, 130.87487840218685], [273.8009412913043, 131.12868800222628], [269.01386407021465, 132.79848800196532], [250.8425097210699, 144.59840800223049], [231.6942008370584, 153.3926880021744], [222.5108282088952, 155.95304800203792], [206.00029656905843, 154.9511680021945], [173.6631014638263, 154.61720800224668], [132.6310109976908, 152.50212800204991], [117.29282479955522, 150.2757280021342], [89.64501146182194, 147.71536800227068]]}, "properties": {"osm_id": null, "type": "residential", "width_m": 5, "extrude": false}}, {"type": "Feature", "geometry": {"type": "LineString", "coordinates": [[152.07240624212756, 114.31936800234851], [129.7001473930908, 119.99668800225223], [101.07537952049084, 115.54388800202531]]}, "properties": {"osm_id": null, "type": "service", "width_m": 3.5, "extrude": false}}, {"type": "Feature", "geometry": {"type": "LineString", "coordinates": [[-67.44927775043064, 156.73228800204797], [-65.88615049471339, 157.51152800205801], [-65.4953686806973, 157.62284800217245]]}, "properties": {"osm_id": null, "type": "footway", "width_m": 2, "extrude": false}}, {"type": "Feature", "geometry": {"type": "LineString", "coordinates": [[-59.340555110724914, 140.36824800223243], [-62.5645050760973, 140.92484800201362]]}, "properties": {"osm_id": null, "type": "pedestrian", "width_m": 4, "extrude": false}}, {"type": "Feature", "geometry": {"type": "LineString", "coordinates": [[-278.7645436503865, 146.93612800226063], [-308.2685706042623, 131.4626480021741], [-312.5671705577451, 128.0117280021861], [-319.8943295697657, 117.32500800227427]]}, "properties": {"osm_id": null, "type": "footway", "width_m": 2, "extrude": false}}, {"type": "Feature", "geometry": {"type": "LineString", "coordinates": [[-18.30846464493647, 126.23060800233262], [-37.16368716852265, 131.24000800234072], [-44.49084618019621, 133.91168800231867], [-48.39866432000997, 135.47016800233877]]}, "properties": {"osm_id": null, "type": "residential", "width_m": 5, "extrude": false}}, {"type": "Feature", "geometry": {"type": "LineString", "coordinates": [[-240.17483952159114, 125.56268800204151], [-224.83665332345558, 135.80412800228657]]}, "properties": {"osm_id": null, "type": "residential", "width_m": 5, "extrude": false}}, {"type": "Feature", "geometry": {"type": "LineString", "coordinates": [[-224.83665332345558, 135.80412800228657], [-226.8882578467797, 115.09860800196307]]}, "properties": {"osm_id": null, "type": "residential", "width_m": 5, "extrude": false}}, {"type": "Feature", "geometry": {"type": "LineString", "coordinates": [[7.678525983488762, 151.27760800197763], [7.678525983488762, 144.82104800206386], [6.0177032741807155, 125.00608800226033], [6.213094181015216, 111.31372800202726], [7.873916890670346, 98.62324800203311], [12.074821390562315, 84.8195680020811]]}, "properties": {"osm_id": null, "type": "residential", "width_m": 5, "extrude": false}}, {"type": "Feature", "geometry": {"type": "LineString", "coordinates": [[-226.8882578467797, 115.09860800196307], [-230.79607598659345, 119.8853680021378], [-234.99698048648548, 122.66836800223018], [-240.17483952159114, 125.56268800204151], [-253.07063938238656, 130.2381280021018], [-258.6392802311613, 131.57396800228852], [-261.57014383576126, 131.57396800228852], [-264.1102256266923, 130.46076800233067], [-299.1828934296899, 104.18924800221788]]}, "properties": {"osm_id": null, "type": "residential", "width_m": 5, "extrude": false}}, {"type": "Feature", "geometry": {"type": "LineString", "coordinates": [[-332.0085658025289, 128.66688519970722], [-319.8943295697657, 117.32500800227427], [-304.84922973205545, 102.29680800224997]]}, "properties": {"osm_id": null, "type": "service", "width_m": 3.5, "extrude": false}}, {"type": "Feature", "geometry": {"type": "LineString", "coordinates": [[89.64501146182194, 147.71536800227068], [75.7722570661599, 138.47580800226453], [49.003702810049575, 118.21556800200327], [29.26922120484044, 100.84964800234431], [15.298771355934699, 87.82520800200686], [12.074821390562315, 84.8195680020811]]}, "properties": {"osm_id": null, "type": "residential", "width_m": 5, "extrude": false}}, {"type": "Feature", "geometry": {"type": "LineString", "coordinates": [[-92.3616183907455, 117.21368800215984], [-95.29248199534551, 115.65520800213974], [-101.64268647215239, 108.41940800221593], [-104.1827682630834, 103.41000800220783], [-103.20581372786965, 102.96472800214559], [-101.5449910185616, 101.96284800230217]]}, "properties": {"osm_id": null, "type": "footway", "width_m": 2, "extrude": false}}, {"type": "Feature", "geometry": {"type": "LineString", "coordinates": [[-103.20581372786965, 102.96472800214559], [-99.98186376284436, 106.30432800201916], [-97.44178197226043, 107.75148800232031], [-96.07404562337767, 108.19676800198707]]}, "properties": {"osm_id": null, "type": "footway", "width_m": 2, "extrude": false}}, {"type": "Feature", "geometry": {"type": "LineString", "coordinates": [[-220.44035791638203, 103.07604800226002], [-219.65879428869695, 106.30432800201916]]}, "properties": {"osm_id": null, "type": "footway", "width_m": 2, "extrude": false}}, {"type": "Feature", "geometry": {"type": "LineString", "coordinates": [[-221.22192154441422, 95.72892800222178], [-219.65879428869695, 96.95344800229407], [-217.41179885819125, 98.51192800231416], [-199.72892177665332, 104.8571680021135]]}, "properties": {"osm_id": null, "type": "service", "width_m": 3.5, "extrude": false}}, {"type": "Feature", "geometry": {"type": "LineString", "coordinates": [[-94.51091836731334, 106.08168800218579], [-92.85009565800529, 102.96472800214559], [-91.48235930912254, 100.62700800211545], [-89.62614569297999, 97.62136800218968], [-87.76993207649036, 94.50440800214949]]}, "properties": {"osm_id": null, "type": "footway", "width_m": 2, "extrude": false}}, {"type": "Feature", "geometry": {"type": "LineString", "coordinates": [[-217.41179885819125, 98.51192800231416], [-218.2910579398142, 99.8477680021054]]}, "properties": {"osm_id": null, "type": "footway", "width_m": 2, "extrude": false}}, {"type": "Feature", "geometry": {"type": "LineString", "coordinates": [[-27.003360005492787, 69.90268800217123], [-28.761878168391625, 75.13472800201271], [-29.934223610092793, 77.80640800199066], [-18.30846464493647, 126.23060800233262]]}, "properties": {"osm_id": null, "type": "residential", "width_m": 5, "extrude": false}}, {"type": "Feature", "geometry": {"type": "LineString", "coordinates": [[-150.88119503123735, 79.03092800206295], [-190.05707188088326, 91.94404800228597], [-191.32711277617523, 92.83460800201496], [-199.72892177665332, 104.8571680021135], [-201.48743993920507, 106.97224800231027], [-205.49295353260962, 108.3080880021015], [-213.60167617231536, 105.74772800223798], [-215.6532806952924, 105.30244800217574], [-217.60718976537282, 105.63640800212355], [-219.65879428869695, 106.30432800201916], [-222.49196243970616, 108.97600800199712], [-225.6182169514878, 112.87220800204736], [-226.8882578467797, 115.09860800196307]]}, "properties": {"osm_id": null, "type": "service", "width_m": 3.5, "extrude": false}}, {"type": "Feature", "geometry": {"type": "LineString", "coordinates": [[-245.5480894635314, 95.06100800232616], [-248.18586670770614, 98.40060800219973]]}, "properties": {"osm_id": null, "type": "footway", "width_m": 2, "extrude": false}}, {"type": "Feature", "geometry": {"type": "LineString", "coordinates": [[-272.1212528128072, 92.16668800211934], [-262.1563165569589, 103.2986880020934], [-259.32314840560264, 100.73832800222988], [-260.4954938476509, 99.51380800215759], [-256.9784575218532, 96.3968480021174], [-254.0475939172532, 99.62512800227202], [-249.94438487060495, 96.06288800216959], [-247.8927803472808, 94.17044800220168], [-254.14528937049693, 86.48936800221563], [-265.7710483360004, 96.61948800234626], [-270.7535164639245, 90.94216800204705], [-272.1212528128072, 92.16668800211934]]}, "properties": {"osm_id": null, "type": "pedestrian", "width_m": 4, "extrude": false}}, {"type": "Feature", "geometry": {"type": "LineString", "coordinates": [[-299.1828934296899, 104.18924800221788], [-279.15532546405547, 85.26484800214334]]}, "properties": {"osm_id": null, "type": "residential", "width_m": 5, "extrude": false}}, {"type": "Feature", "geometry": {"type": "LineString", "coordinates": [[-217.41179885819125, 98.51192800231416], [-215.5555852420487, 94.39308800203506], [-213.21089435829927, 89.04972800207915], [-211.55007164899123, 85.26484800214334]]}, "properties": {"osm_id": null, "type": "footway", "width_m": 2, "extrude": false}}, {"type": "Feature", "geometry": {"type": "LineString", "coordinates": [[-232.35920324231074, 87.15728800211124], [-221.22192154441422, 95.72892800222178]]}, "properties": {"osm_id": null, "type": "service", "width_m": 3.5, "extrude": false}}, {"type": "Feature", "geometry": {"type": "LineString", "coordinates": [[-299.1828934296899, 104.18924800221788], [-304.84922973205545, 102.29680800224997], [-323.997538616414, 86.26672800198676], [-331.32469762808756, 82.48184800205095], [-332.0085658025289, 82.2970797547319]]}, "properties": {"osm_id": null, "type": "service", "width_m": 3.5, "extrude": false}}, {"type": "Feature", "geometry": {"type": "LineString", "coordinates": [[-245.5480894635314, 95.06100800232616], [-236.1693259285337, 84.15164800218548], [-232.35920324231074, 87.15728800211124]]}, "properties": {"osm_id": null, "type": "service", "width_m": 3.5, "extrude": false}}, {"type": "Feature", "geometry": {"type": "LineString", "coordinates": [[44.509711949385235, 74.13284800216928], [47.83135736800133, 74.35548800200266], [49.980657344916246, 76.13660800225162], [70.69209348464497, 100.62700800211545]]}, "properties": {"osm_id": null, "type": "footway", "width_m": 2, "extrude": false}}, {"type": "Feature", "geometry": {"type": "LineString", "coordinates": [[61.70411176366336, 71.57248800230576], [64.14649810100357, 81.14600800225972], [76.06534342693227, 94.39308800203506], [70.69209348464497, 100.62700800211545]]}, "properties": {"osm_id": null, "type": "pedestrian", "width_m": 4, "extrude": false}}, {"type": "Feature", "geometry": {"type": "LineString", "coordinates": [[-87.76993207649036, 94.50440800214949], [-89.7238411462237, 92.38932800234821], [-92.16622748356392, 75.35736800224157], [-90.21231841383057, 75.02340800229376]]}, "properties": {"osm_id": null, "type": "footway", "width_m": 2, "extrude": false}}, {"type": "Feature", "geometry": {"type": "LineString", "coordinates": [[115.82739299742875, 82.48184800205095], [115.72969754383796, 83.59504800200881]]}, "properties": {"osm_id": null, "type": "footway", "width_m": 2, "extrude": false}}, {"type": "Feature", "geometry": {"type": "LineString", "coordinates": [[116.21817481144484, 79.14224800217738], [116.02278390426325, 80.70072800219748]]}, "properties": {"osm_id": null, "type": "footway", "width_m": 2, "extrude": false}}, {"type": "Feature", "geometry": {"type": "LineString", "coordinates": [[258.2673641863342, 99.8477680021054], [261.3936186981158, 97.62136800218968], [262.27287777939165, 97.06476800201301], [266.18069591920545, 94.72704800198287]]}, "properties": {"osm_id": null, "type": "service", "width_m": 3.5, "extrude": false}}, {"type": "Feature", "geometry": {"type": "LineString", "coordinates": [[270.96777313994795, 94.39308800203506], [267.1576504540721, 96.28552800200296], [263.2498323142583, 98.40060800219973]]}, "properties": {"osm_id": null, "type": "footway", "width_m": 2, "extrude": false}}, {"type": "Feature", "geometry": {"type": "LineString", "coordinates": [[275.65715490779394, 97.420992002221], [270.96777313994795, 94.39308800203506]]}, "properties": {"osm_id": null, "type": "footway", "width_m": 2, "extrude": false}}, {"type": "Feature", "geometry": {"type": "LineString", "coordinates": [[255.62958694215948, 92.72328800229602], [257.9742778259089, 91.05348800216149]]}, "properties": {"osm_id": null, "type": "footway", "width_m": 2, "extrude": false}}, {"type": "Feature", "geometry": {"type": "LineString", "coordinates": [[115.33891572982188, 87.37992800234011], [114.94813391580578, 90.83084800232811], [132.9240973581161, 94.39308800203506], [136.63652459074825, 93.83648800225387], [137.71117457920573, 93.39120800219163], [142.30286089311377, 90.71952800221368], [150.0208017191505, 87.15728800211124], [151.48623352127697, 86.26672800198676]]}, "properties": {"osm_id": null, "type": "footway", "width_m": 2, "extrude": false}}, {"type": "Feature", "geometry": {"type": "LineString", "coordinates": [[252.9918096979848, 81.3686480020931], [251.7217688023457, 82.14788800210314], [254.16415513968596, 85.71012800220558], [257.9742778259089, 91.05348800216149], [262.27287777939165, 97.06476800201301], [263.2498323142583, 98.40060800219973]]}, "properties": {"osm_id": null, "type": "footway", "width_m": 2, "extrude": false}}, {"type": "Feature", "geometry": {"type": "LineString", "coordinates": [[254.16415513968596, 85.71012800220558], [251.03790062790435, 88.49312800229796]]}, "properties": {"osm_id": null, "type": "footway", "width_m": 2, "extrude": false}}, {"type": "Feature", "geometry": {"type": "LineString", "coordinates": [[154.2217062190425, 84.8195680020811], [156.4687016492011, 83.48372800228987], [153.04936077734132, 77.69508800227172]]}, "properties": {"osm_id": null, "type": "footway", "width_m": 2, "extrude": false}}, {"type": "Feature", "geometry": {"type": "LineString", "coordinates": [[260.02588234923303, 76.359248002085], [256.50884602343535, 78.69696800211514], [252.9918096979848, 81.3686480020931]]}, "properties": {"osm_id": null, "type": "footway", "width_m": 2, "extrude": false}}, {"type": "Feature", "geometry": {"type": "LineString", "coordinates": [[150.0208017191505, 87.15728800211124], [150.41158353281952, 84.48560800213329], [151.48623352127697, 79.92148800218743], [153.04936077734132, 77.69508800227172], [154.02631531220797, 77.24980800220948], [155.29635620749994, 78.02904800221953], [156.7617880099735, 78.69696800211514], [159.0087834401321, 77.80640800199066], [160.18112888183327, 76.6932080020328], [159.6926516145735, 73.01964800221143], [159.3995652541482, 69.56872800222342], [158.81339253329762, 67.67628800225552]]}, "properties": {"osm_id": null, "type": "footway", "width_m": 2, "extrude": false}}, {"type": "Feature", "geometry": {"type": "LineString", "coordinates": [[160.18112888183327, 76.6932080020328], [163.89355611446547, 74.57812800223152], [166.33594245180566, 73.46492800227367], [168.0944606147045, 72.908328002097], [170.04836968443786, 73.79888800222147], [172.19766966135276, 73.79888800222147], [173.17462419621944, 72.57436800214919]]}, "properties": {"osm_id": null, "type": "footway", "width_m": 2, "extrude": false}}, {"type": "Feature", "geometry": {"type": "LineString", "coordinates": [[172.19766966135276, 73.79888800222147], [175.22622871954357, 73.35360800215923], [182.26030137079184, 70.23664800211904], [189.4897649292217, 67.23100800219328], [192.713714894247, 66.89704800224547], [206.29338292948373, 67.23100800219328]]}, "properties": {"osm_id": null, "type": "footway", "width_m": 2, "extrude": false}}, {"type": "Feature", "geometry": {"type": "LineString", "coordinates": [[159.49726070739192, 66.89704800224547], [160.0834334285896, 66.56308800229766], [166.82441971941256, 72.01776800197251], [168.0944606147045, 72.908328002097]]}, "properties": {"osm_id": null, "type": "footway", "width_m": 2, "extrude": false}}, {"type": "Feature", "geometry": {"type": "LineString", "coordinates": [[243.0268734417894, 66.22912800234985], [247.32547339527216, 63.55744800197641]]}, "properties": {"osm_id": null, "type": "footway", "width_m": 2, "extrude": false}}, {"type": "Feature", "geometry": {"type": "LineString", "coordinates": [[172.58845147536886, 61.3310480020607], [178.45017868456887, 66.78572800213104]]}, "properties": {"osm_id": null, "type": "footway", "width_m": 2, "extrude": false}}, {"type": "Feature", "geometry": {"type": "LineString", "coordinates": [[247.03238703484692, 63.11216800230966], [251.52637789551122, 60.55180800205065], [252.79641879080316, 59.7725680020406]]}, "properties": {"osm_id": null, "type": "service", "width_m": 3.5, "extrude": false}}, {"type": "Feature", "geometry": {"type": "LineString", "coordinates": [[44.509711949385235, 74.13284800216928], [39.82033018188639, 75.69132800218938], [12.074821390562315, 84.8195680020811]]}, "properties": {"osm_id": null, "type": "residential", "width_m": 5, "extrude": false}}, {"type": "Feature", "geometry": {"type": "LineString", "coordinates": [[-104.86663643752478, 78.36300800216733], [-98.71182286755239, 77.13848800209504]]}, "properties": {"osm_id": null, "type": "service", "width_m": 3.5, "extrude": false}}, {"type": "Feature", "geometry": {"type": "LineString", "coordinates": [[-121.96334079821212, 74.91208800217933], [-138.0830906240328, 80.58940800208305], [-147.95033142663735, 79.36488800201076], [-150.88119503123735, 79.03092800206295]]}, "properties": {"osm_id": null, "type": "pedestrian", "width_m": 4, "extrude": false}}, {"type": "Feature", "geometry": {"type": "LineString", "coordinates": [[117.1951293463115, 72.35172800231581], [116.31587026468854, 78.58564800200071]]}, "properties": {"osm_id": null, "type": "footway", "width_m": 2, "extrude": false}}, {"type": "Feature", "geometry": {"type": "LineString", "coordinates": [[-93.33857292561217, 63.55744800197641], [-92.85009565800529, 60.99708800211289], [-90.50540477425587, 59.32728800197836], [-51.72030973862606, 55.76504800227141], [-50.15718248290881, 69.23476800227562], [-77.80499582064209, 72.24040800220138], [-76.14417311133404, 88.04784800223572], [-48.39866432000997, 84.93088800219553], [-50.059487029318014, 70.68192800218128], [-46.54245070352034, 70.57060800206685], [-43.80697800575483, 70.79324800229571], [-41.3645916687617, 90.60820800209925], [-57.48434149458237, 90.94216800204705], [-72.92022314596166, 91.94404800228597], [-75.94878220415245, 91.94404800228597], [-81.51742305327426, 91.83272800217154], [-88.45380025093174, 92.16668800211934], [-90.50540477425587, 82.48184800205095], [-88.74688661135703, 82.37052800233201], [-87.37915026247428, 82.37052800233201], [-89.91923205340528, 67.67628800225552], [-91.38466385553174, 68.2328880020367], [-92.85009565800529, 68.56684800198451], [-93.33857292561217, 63.55744800197641]]}, "properties": {"osm_id": null, "type": "pedestrian", "width_m": 4, "extrude": false}}, {"type": "Feature", "geometry": {"type": "LineString", "coordinates": [[115.04582936939659, 69.90268800217123], [115.24122027657816, 73.35360800215923]]}, "properties": {"osm_id": null, "type": "footway", "width_m": 2, "extrude": false}}, {"type": "Feature", "geometry": {"type": "LineString", "coordinates": [[-97.34408651866964, 87.49124800205905], [-98.71182286755239, 77.13848800209504], [-99.10260468156848, 75.13472800201271], [-99.59108194882826, 70.4592880023479], [-99.39569104199377, 60.21784800210284], [-99.98186376284436, 54.65184800231356]]}, "properties": {"osm_id": null, "type": "primary", "width_m": 12, "extrude": false}}, {"type": "Feature", "geometry": {"type": "LineString", "coordinates": [[108.01175671814832, 70.4592880023479], [112.21266121838737, 70.12532800200461], [115.04582936939659, 69.90268800217123]]}, "properties": {"osm_id": null, "type": "footway", "width_m": 2, "extrude": false}}, {"type": "Feature", "geometry": {"type": "LineString", "coordinates": [[115.04582936939659, 69.90268800217123], [116.41356571827933, 69.68004800233786]]}, "properties": {"osm_id": null, "type": "footway", "width_m": 2, "extrude": false}}, {"type": "Feature", "geometry": {"type": "LineString", "coordinates": [[-279.15532546405547, 85.26484800214334], [-263.91483471985777, 72.35172800231581], [-244.86422128909004, 59.995208002269464], [-238.31862590510156, 57.880128002072695], [-231.77303052146016, 56.87824800222927], [-199.9243126834878, 50.86696800198226]]}, "properties": {"osm_id": null, "type": "residential", "width_m": 5, "extrude": false}}, {"type": "Feature", "geometry": {"type": "LineString", "coordinates": [[12.074821390562315, 84.8195680020811], [-27.003360005492787, 69.90268800217123], [-42.536937110462866, 58.99332800203055], [-47.4217097851433, 49.976408002253265]]}, "properties": {"osm_id": null, "type": "residential", "width_m": 5, "extrude": false}}, {"type": "Feature", "geometry": {"type": "LineString", "coordinates": [[-46.54245070352034, 70.57060800206685], [-42.536937110462866, 58.99332800203055]]}, "properties": {"osm_id": null, "type": "pedestrian", "width_m": 4, "extrude": false}}, {"type": "Feature", "geometry": {"type": "LineString", "coordinates": [[-130.65823615876843, 43.85380800228731], [-134.6637497518259, 43.5198480023395], [-136.81304972874082, 43.74248800217288], [-150.09963140355228, 50.08772800197221], [-152.3466268337109, 52.20280800216898], [-153.0304950081523, 54.095248002136884], [-152.2489313801201, 55.98768800210479], [-147.75494051980286, 61.55368800228956], [-143.3586451127293, 67.78760800197446], [-142.9678632987132, 69.56872800222342], [-143.456340565973, 70.79324800229571], [-150.88119503123735, 79.03092800206295]]}, "properties": {"osm_id": null, "type": "service", "width_m": 3.5, "extrude": false}}, {"type": "Feature", "geometry": {"type": "LineString", "coordinates": [[-130.65823615876843, 43.85380800228731], [-122.5495135190627, 60.77444800227951], [-121.86564534462133, 64.11404800215308], [-121.27947262377074, 67.56496800214109], [-121.96334079821212, 74.91208800217933]]}, "properties": {"osm_id": null, "type": "footway", "width_m": 2, "extrude": false}}, {"type": "Feature", "geometry": {"type": "LineString", "coordinates": [[80.16855247323345, 77.13848800209504], [82.31785245014838, 69.7913680020568], [83.09941607818054, 54.65184800231356], [80.07085701998975, 34.16896800221892], [77.33538432222423, 33.27840800209444]]}, "properties": {"osm_id": null, "type": "pedestrian", "width_m": 4, "extrude": false}}, {"type": "Feature", "geometry": {"type": "LineString", "coordinates": [[62.29028448451395, 42.51796800210059], [60.6294617752059, 47.97264800217093], [60.23867996118982, 55.76504800227141], [58.77324815906335, 61.55368800228956], [55.256211833265674, 65.4498880023398]]}, "properties": {"osm_id": null, "type": "pedestrian", "width_m": 4, "extrude": false}}, {"type": "Feature", "geometry": {"type": "LineString", "coordinates": [[-47.4217097851433, 49.976408002253265], [-95.7809592626053, 54.42920800208469], [-99.98186376284436, 54.65184800231356]]}, "properties": {"osm_id": null, "type": "residential", "width_m": 5, "extrude": false}}, {"type": "Feature", "geometry": {"type": "LineString", "coordinates": [[-186.24694919500737, 51.200928002325554], [-193.28102184625564, 52.64808800223122]]}, "properties": {"osm_id": null, "type": "service", "width_m": 3.5, "extrude": false}}, {"type": "Feature", "geometry": {"type": "LineString", "coordinates": [[-193.28102184625564, 52.64808800223122], [-199.9243126834878, 50.86696800198226]]}, "properties": {"osm_id": null, "type": "residential", "width_m": 5, "extrude": false}}, {"type": "Feature", "geometry": {"type": "LineString", "coordinates": [[-150.09963140355228, 50.08772800197221], [-151.85814956610403, 48.751888002180976], [-156.54753133360288, 47.30472800227531], [-159.86917675256606, 46.41416800215083], [-186.24694919500737, 51.200928002325554]]}, "properties": {"osm_id": null, "type": "pedestrian", "width_m": 4, "extrude": false}}, {"type": "Feature", "geometry": {"type": "LineString", "coordinates": [[38.354898379412845, 28.269008002086338], [39.2341574610358, 31.71992800207434], [45.68205739143349, 45.412288002307406], [53.10691185669784, 64.33668800198646], [55.256211833265674, 65.4498880023398]]}, "properties": {"osm_id": null, "type": "pedestrian", "width_m": 4, "extrude": false}}, {"type": "Feature", "geometry": {"type": "LineString", "coordinates": [[-101.93577283257768, 46.08020800220302], [-105.45280915837536, 47.08208800204645], [-107.699804588534, 47.19340800216088], [-125.6757680308443, 44.63304800229736], [-130.65823615876843, 43.85380800228731]]}, "properties": {"osm_id": null, "type": "service", "width_m": 3.5, "extrude": false}}, {"type": "Feature", "geometry": {"type": "LineString", "coordinates": [[45.68205739143349, 45.412288002307406], [52.813825495925464, 43.74248800217288], [62.29028448451395, 42.51796800210059]]}, "properties": {"osm_id": null, "type": "pedestrian", "width_m": 4, "extrude": false}}, {"type": "Feature", "geometry": {"type": "LineString", "coordinates": [[89.64501146182194, 147.71536800227068], [101.07537952049084, 115.54388800202531], [111.23570668317362, 86.60068800233006], [112.31035667163107, 76.02528800213719], [112.21266121838737, 70.12532800200461], [106.15554310165868, 29.60484800227306], [100.97768406690004, -0.562871997889971], [100.19612043886788, -2.6779519976912525], [99.2191659040012, -5.12699199783583], [91.50122507831156, -21.82499199799466], [88.47266602012077, -27.057031997836134], [84.174066066638, -32.623031998020906], [82.12246154331388, -34.07019199792657], [61.21563449640357, -42.08523199786043], [53.98617093797372, -45.536151997848435], [50.37143915893233, -47.98519199799301], [30.734653007313987, -66.46431199800531], [27.413007588697898, -67.68883199768212], [23.60288490247493, -68.35675199797322]]}, "properties": {"osm_id": null, "type": "residential", "width_m": 5, "extrude": false}}, {"type": "Feature", "geometry": {"type": "LineString", "coordinates": [[-36.47981899408127, 39.17836800222702], [-16.15916466802155, 36.61800800196801], [0.6444533322404936, 37.28592800225911], [14.126425913886445, 37.28592800225911]]}, "properties": {"osm_id": null, "type": "service", "width_m": 3.5, "extrude": false}}, {"type": "Feature", "geometry": {"type": "LineString", "coordinates": [[-100.76342739087652, 36.61800800196801], [-78.29347308790187, 29.27088800232525], [-67.25388684359613, 24.706768001983903], [-65.78845504112259, 25.708648002222816], [-61.978332355246714, 27.04448800201405], [-67.54697320402143, 32.72180800231325], [-72.33405042511107, 35.727448002239015], [-77.02343219260992, 38.73308800216478], [-75.26491402971108, 43.85380800228731], [-76.73034583218463, 42.29532800226721], [-89.13766842537312, 45.07832800196411], [-87.86762753008115, 48.751888002180976], [-96.56252289063747, 50.755648002263314], [-100.76342739087652, 36.61800800196801]]}, "properties": {"osm_id": null, "type": "pedestrian", "width_m": 4, "extrude": false}}, {"type": "Feature", "geometry": {"type": "LineString", "coordinates": [[18.62041677455079, 42.18400800215278], [38.354898379412845, 28.269008002086338]]}, "properties": {"osm_id": null, "type": "pedestrian", "width_m": 4, "extrude": false}}, {"type": "Feature", "geometry": {"type": "LineString", "coordinates": [[103.71315676466556, -4.793031997888022], [103.90854767150006, -3.6798319979301652], [105.86245674123339, 9.455928002126228], [110.35644760189774, 37.73120800232135], [113.67809302051383, 59.88388800215503], [114.7527430089713, 67.11968800207885], [115.04582936939659, 69.90268800217123]]}, "properties": {"osm_id": null, "type": "footway", "width_m": 2, "extrude": false}}, {"type": "Feature", "geometry": {"type": "LineString", "coordinates": [[175.71470598680335, 71.01588800212909], [177.08244233568612, 69.23476800227562], [178.45017868456887, 66.78572800213104], [179.52482867302632, 64.89328800216313], [181.47873774275968, 62.33292800229961], [185.19116497539184, 58.88200800231161], [186.8519876846999, 56.43296800216703], [188.31741948717345, 54.985808002261365], [184.89807861496655, 52.425448002002355], [183.5303422660838, 50.755648002263314], [195.644578498847, 43.29720800211064], [206.8795556503343, 41.182128002309355], [210.5919828829665, 40.402888002299306], [221.24078731360322, 38.06516800226916]]}, "properties": {"osm_id": null, "type": "footway", "width_m": 2, "extrude": false}}, {"type": "Feature", "geometry": {"type": "LineString", "coordinates": [[223.78086910418716, 37.17460800214468], [224.26934637179403, 38.28780800210254], [225.4416918134952, 38.39912800221697], [239.21675075556644, 60.32916800221727], [243.0268734417894, 66.22912800234985]]}, "properties": {"osm_id": null, "type": "footway", "width_m": 2, "extrude": false}}, {"type": "Feature", "geometry": {"type": "LineString", "coordinates": [[180.8925650219091, 48.640568002066544], [183.5303422660838, 50.755648002263314]]}, "properties": {"osm_id": null, "type": "footway", "width_m": 2, "extrude": false}}, {"type": "Feature", "geometry": {"type": "LineString", "coordinates": [[193.69066942911365, 41.40476800214273], [195.644578498847, 43.29720800211064]]}, "properties": {"osm_id": null, "type": "footway", "width_m": 2, "extrude": false}}, {"type": "Feature", "geometry": {"type": "LineString", "coordinates": [[204.14408295256882, 37.95384800215473], [206.8795556503343, 41.182128002309355]]}, "properties": {"osm_id": null, "type": "footway", "width_m": 2, "extrude": false}}, {"type": "Feature", "geometry": {"type": "LineString", "coordinates": [[227.00481906955955, -0.562871997889971], [225.7347781739205, 3.8899280023369442], [225.3439963599044, 9.678568002355092], [225.9301690811021, 14.13136800218652], [227.88407815083542, 19.25208800230905], [229.54490086014346, 23.37092800219267], [233.55041445320091, 30.161448002054243], [251.52637789551122, 60.55180800205065], [260.02588234923303, 76.359248002085]]}, "properties": {"osm_id": null, "type": "footway", "width_m": 2, "extrude": false}}, {"type": "Feature", "geometry": {"type": "LineString", "coordinates": [[223.29239183692735, 37.28592800225911], [223.78086910418716, 37.17460800214468], [224.7578236390538, 35.17084800206234], [225.24630090666068, 34.61424800228116]]}, "properties": {"osm_id": null, "type": "footway", "width_m": 2, "extrude": false}}, {"type": "Feature", "geometry": {"type": "LineString", "coordinates": [[3.477621483596793, 23.036968002244862], [-2.0910193655250136, 25.48600800199395], [-34.81899628477322, 30.718048002230915]]}, "properties": {"osm_id": null, "type": "footway", "width_m": 2, "extrude": false}}, {"type": "Feature", "geometry": {"type": "LineString", "coordinates": [[-53.576523354768604, -21.491031997651362], [-52.50187336665823, -20.489151997807937], [-43.51389164532954, -14.255231997727549], [-28.957269075226126, -6.685471997855927], [-22.020891877568648, -3.568511997815733], [-17.13611920288822, -2.010031997795636], [-11.567478354113497, 3.8899280023369442], [-5.99883750499169, 10.235168002136277], [3.477621483596793, 23.036968002244862], [14.126425913886445, 37.28592800225911], [18.62041677455079, 42.18400800215278], [27.119921228272606, 52.09148800205455], [44.509711949385235, 74.13284800216928]]}, "properties": {"osm_id": null, "type": "service", "width_m": 3.5, "extrude": false}}, {"type": "Feature", "geometry": {"type": "LineString", "coordinates": [[-110.92375455390638, 24.26148800231715], [-108.57906367015696, 23.259608002078238]]}, "properties": {"osm_id": null, "type": "footway", "width_m": 2, "extrude": false}}, {"type": "Feature", "geometry": {"type": "LineString", "coordinates": [[-65.78845504112259, 25.708648002222816], [-61.48985508763983, 21.2558480019959]]}, "properties": {"osm_id": null, "type": "footway", "width_m": 2, "extrude": false}}, {"type": "Feature", "geometry": {"type": "LineString", "coordinates": [[67.37044806602887, 1.4408880021923665], [69.3243571361093, 5.225768002128177], [73.62295708959206, 13.68608800212428], [74.59991162445873, 15.689848002206617], [76.16303888017598, 19.474728002142427], [77.33538432222423, 33.27840800209444], [63.364934472971406, 36.61800800196801], [62.29028448451395, 42.51796800210059]]}, "properties": {"osm_id": null, "type": "pedestrian", "width_m": 4, "extrude": false}}, {"type": "Feature", "geometry": {"type": "LineString", "coordinates": [[-47.4217097851433, 49.976408002253265], [-40.38763713389503, 47.97264800217093], [-37.652164436129524, 45.18964800207854], [-36.47981899408127, 39.17836800222702], [-34.81899628477322, 30.718048002230915], [-34.52590992434793, 25.931288002056192], [-28.957269075226126, -6.685471997855927]]}, "properties": {"osm_id": null, "type": "residential", "width_m": 5, "extrude": false}}, {"type": "Feature", "geometry": {"type": "LineString", "coordinates": [[-5.99883750499169, 10.235168002136277], [-10.199742005230743, 12.684208002280855], [-30.325005424108877, 24.818088002098335], [-34.52590992434793, 25.931288002056192]]}, "properties": {"osm_id": null, "type": "footway", "width_m": 2, "extrude": false}}, {"type": "Feature", "geometry": {"type": "LineString", "coordinates": [[38.354898379412845, 28.269008002086338], [50.37143915893233, 19.14076800219462], [59.35942087991394, 12.01628800198975], [69.3243571361093, 5.225768002128177]]}, "properties": {"osm_id": null, "type": "pedestrian", "width_m": 4, "extrude": false}}, {"type": "Feature", "geometry": {"type": "LineString", "coordinates": [[53.497693670366836, -6.128871997679255], [49.296789170474874, -2.5666319979723085], [45.4866664842519, 0.6616480021823179], [41.481152891194434, 5.337088002242609], [32.00469390260595, 16.803048002164473], [31.613912088589867, 17.91624800212233], [38.354898379412845, 28.269008002086338]]}, "properties": {"osm_id": null, "type": "pedestrian", "width_m": 4, "extrude": false}}, {"type": "Feature", "geometry": {"type": "LineString", "coordinates": [[59.35942087991394, 12.01628800198975], [49.296789170474874, -2.5666319979723085]]}, "properties": {"osm_id": null, "type": "pedestrian", "width_m": 4, "extrude": false}}, {"type": "Feature", "geometry": {"type": "LineString", "coordinates": [[14.224121367477238, 12.01628800198975], [4.649966925297963, 1.6635280020257426], [-0.5278921098077597, -4.904351998002454]]}, "properties": {"osm_id": null, "type": "pedestrian", "width_m": 4, "extrude": false}}, {"type": "Feature", "geometry": {"type": "LineString", "coordinates": [[-99.98186376284436, 54.65184800231356], [-101.93577283257768, 46.08020800220302], [-104.1827682630834, 37.73120800232135], [-107.4067182281087, 26.153928002285056], [-108.57906367015696, 23.259608002078238], [-111.50992727475696, 16.023808002154425], [-116.4923954026811, 8.454048002282804], [-120.10712718172249, 3.8899280023369442], [-123.62416350752017, 0.884288002015694], [-147.75494051980286, -19.37595199785008], [-158.599135856927, -28.392871998022855], [-162.99543126400056, -31.9551119977298], [-172.66728115977062, -38.411671997643566], [-184.39073557851773, -43.64371199788053], [-193.28102184625564, -46.426711997972916], [-211.15928983497514, -50.87951199780434], [-219.75648974194067, -52.77195199777225]]}, "properties": {"osm_id": null, "type": "primary", "width_m": 12, "extrude": false}}, {"type": "Feature", "geometry": {"type": "LineString", "coordinates": [[96.58138865982649, -4.125111997992406], [97.16756138067707, -1.898711997681204], [98.04682046195296, 4.669168002346993]]}, "properties": {"osm_id": null, "type": "footway", "width_m": 2, "extrude": false}}, {"type": "Feature", "geometry": {"type": "LineString", "coordinates": [[-199.9243126834878, 50.86696800198226], [-213.89476253274066, -33.73623199797876], [-213.79706707914985, -41.417311997964816], [-213.308589811543, -46.426711997972916], [-211.15928983497514, -50.87951199780434]]}, "properties": {"osm_id": null, "type": "residential", "width_m": 5, "extrude": false}}, {"type": "Feature", "geometry": {"type": "LineString", "coordinates": [[-11.567478354113497, 3.8899280023369442], [-8.929701109938781, 1.4408880021923665], [-1.602542097918137, -4.23643199771135], [-0.5278921098077597, -4.904351998002454]]}, "properties": {"osm_id": null, "type": "pedestrian", "width_m": 4, "extrude": false}}, {"type": "Feature", "geometry": {"type": "LineString", "coordinates": [[-13.325996517012335, -3.345871997982357], [-7.464269307465235, -11.249591997801787], [-4.728796609699729, -8.02131199764716], [-1.602542097918137, -4.23643199771135], [2.4029714951393317, 0.6616480021823179], [-4.435710249274436, 6.338968002086034], [-8.929701109938781, 1.4408880021923665], [-13.325996517012335, -3.345871997982357]]}, "properties": {"osm_id": null, "type": "pedestrian", "width_m": 4, "extrude": false}}, {"type": "Feature", "geometry": {"type": "LineString", "coordinates": [[103.90854767150006, -3.6798319979301652], [100.19612043886788, -2.6779519976912525], [97.16756138067707, -1.898711997681204]]}, "properties": {"osm_id": null, "type": "footway", "width_m": 2, "extrude": false}}, {"type": "Feature", "geometry": {"type": "LineString", "coordinates": [[-206.3722126138855, -39.85883199794472], [-190.44785369489932, -35.962631997894476], [-181.36217652032693, -32.28907199767761], [-169.9318084620051, -26.945711997721702], [-129.38819526347646, 7.340848002324947], [-125.57807257725351, 11.237048001979701], [-119.4232590072811, 20.0313280023191], [-116.98087267028798, 24.26148800231715], [-110.92375455390638, 24.26148800231715]]}, "properties": {"osm_id": null, "type": "footway", "width_m": 2, "extrude": false}}, {"type": "Feature", "geometry": {"type": "LineString", "coordinates": [[54.181561844808215, -33.06831199768766], [17.350375878911745, -0.11759199782773067], [21.844366739576092, 5.78236800230485], [14.224121367477238, 12.01628800198975]]}, "properties": {"osm_id": null, "type": "pedestrian", "width_m": 4, "extrude": false}}, {"type": "Feature", "geometry": {"type": "LineString", "coordinates": [[-150.09963140355228, -16.81559199798656], [-147.75494051980286, -19.37595199785008]]}, "properties": {"osm_id": null, "type": "service", "width_m": 3.5, "extrude": false}}, {"type": "Feature", "geometry": {"type": "LineString", "coordinates": [[225.24630090666068, 34.61424800228116], [228.95872813929287, 32.61048800219882], [233.55041445320091, 30.161448002054243]]}, "properties": {"osm_id": null, "type": "footway", "width_m": 2, "extrude": false}}, {"type": "Feature", "geometry": {"type": "LineString", "coordinates": [[225.24630090666068, 34.61424800228116], [224.36704182503775, 33.167088001980005], [219.3845736971136, 23.593568002026046], [217.33296917378948, 18.36152800218457], [216.6491009993481, 16.023808002154425], [215.86753737166302, 10.457808001969653], [215.76984191807222, 5.225768002128177], [214.98827829004006, 3.333328002160272], [214.79288738320554, 0.9956080021301261]]}, "properties": {"osm_id": null, "type": "footway", "width_m": 2, "extrude": false}}, {"type": "Feature", "geometry": {"type": "LineString", "coordinates": [[220.06844187155497, 2.8880480020980315], [225.7347781739205, 3.8899280023369442]]}, "properties": {"osm_id": null, "type": "footway", "width_m": 2, "extrude": false}}, {"type": "Feature", "geometry": {"type": "LineString", "coordinates": [[205.21873294102627, -7.576031997980408], [214.79288738320554, 0.9956080021301261], [216.258319185332, 1.6635280020257426], [220.06844187155497, 2.8880480020980315]]}, "properties": {"osm_id": null, "type": "service", "width_m": 3.5, "extrude": false}}, {"type": "Feature", "geometry": {"type": "LineString", "coordinates": [[214.79288738320554, 0.9956080021301261], [216.0629282784975, -2.7892719978056846], [220.94770095283087, -11.806191997978459], [226.51634180195268, -19.487271997964513], [238.04440531386527, -32.623031998020906], [248.20473247689515, -42.75315199775605], [257.6811914654836, -50.4342319977421], [270.1862095122629, -58.894551997738205]]}, "properties": {"osm_id": null, "type": "footway", "width_m": 2, "extrude": false}}, {"type": "Feature", "geometry": {"type": "LineString", "coordinates": [[88.76575238054606, -20.15519199786013], [88.17957965969548, -19.82123199791232], [88.47266602012077, -19.26463199773565]]}, "properties": {"osm_id": null, "type": "footway", "width_m": 2, "extrude": false}}, {"type": "Feature", "geometry": {"type": "LineString", "coordinates": [[91.50122507831156, -21.82499199799466], [88.76575238054606, -20.15519199786013]]}, "properties": {"osm_id": null, "type": "footway", "width_m": 2, "extrude": false}}, {"type": "Feature", "geometry": {"type": "LineString", "coordinates": [[-0.5278921098077597, -4.904351998002454], [43.63045286810936, -42.97579199798491]]}, "properties": {"osm_id": null, "type": "pedestrian", "width_m": 4, "extrude": false}}, {"type": "Feature", "geometry": {"type": "LineString", "coordinates": [[90.32887963626331, -28.61551199785623], [88.47266602012077, -27.057031997836134]]}, "properties": {"osm_id": null, "type": "footway", "width_m": 2, "extrude": false}}, {"type": "Feature", "geometry": {"type": "LineString", "coordinates": [[90.32887963626331, -28.61551199785623], [92.47817961317823, -30.953231997886377], [92.77126597360352, -30.507951997824136]]}, "properties": {"osm_id": null, "type": "footway", "width_m": 2, "extrude": false}}, {"type": "Feature", "geometry": {"type": "LineString", "coordinates": [[93.84591596206099, -29.617391997699656], [94.13900232248628, -29.283431997751848], [97.85142955511846, -32.511711997906474], [97.55834319469317, -32.956991997968714]]}, "properties": {"osm_id": null, "type": "footway", "width_m": 2, "extrude": false}}, {"type": "Feature", "geometry": {"type": "LineString", "coordinates": [[98.53529772955983, -31.843791998010857], [97.85142955511846, -32.511711997906474]]}, "properties": {"osm_id": null, "type": "footway", "width_m": 2, "extrude": false}}, {"type": "Feature", "geometry": {"type": "LineString", "coordinates": [[59.75020269393002, -38.856951997705806], [54.181561844808215, -33.06831199768766]]}, "properties": {"osm_id": null, "type": "footway", "width_m": 2, "extrude": false}}, {"type": "Feature", "geometry": {"type": "LineString", "coordinates": [[-43.51389164532954, -14.255231997727549], [-38.629118970996196, -19.26463199773565], [-32.4743054010238, -24.71931199780599], [-24.658669121743365, -31.287191997834185], [-12.739823795814665, -39.97015199766366], [-3.458755714407767, -47.31727199770191], [-0.3325012026261755, -49.87763199796092], [11.586344123302522, -59.67379199774825], [15.005684995162323, -56.22287199776025], [16.080334983619785, -57.44739199783254]]}, "properties": {"osm_id": null, "type": "footway", "width_m": 2, "extrude": false}}, {"type": "Feature", "geometry": {"type": "LineString", "coordinates": [[-103.30350918146044, -45.981431997910676], [-121.86564534462133, -44.200311997661714], [-146.0941178101477, -41.751271997912625], [-158.599135856927, -28.392871998022855]]}, "properties": {"osm_id": null, "type": "footway", "width_m": 2, "extrude": false}}, {"type": "Feature", "geometry": {"type": "LineString", "coordinates": [[97.06986592708628, -33.402271998030955], [96.77677956666099, -33.73623199797876], [98.24221136913454, -34.960751997655564], [99.12147045041041, -34.181511997645515], [101.85694314817593, -36.9645119977379], [100.97768406690004, -37.85507199786238], [108.8910157994242, -46.09275199802511]]}, "properties": {"osm_id": null, "type": "footway", "width_m": 2, "extrude": false}}, {"type": "Feature", "geometry": {"type": "LineString", "coordinates": [[-219.56109883510615, -42.641831998037105], [-213.79706707914985, -41.417311997964816], [-206.3722126138855, -39.85883199794472]]}, "properties": {"osm_id": null, "type": "footway", "width_m": 2, "extrude": false}}, {"type": "Feature", "geometry": {"type": "LineString", "coordinates": [[62.583370845286325, -45.31351199801506], [61.21563449640357, -42.08523199786043], [59.75020269393002, -38.856951997705806]]}, "properties": {"osm_id": null, "type": "footway", "width_m": 2, "extrude": false}}, {"type": "Feature", "geometry": {"type": "LineString", "coordinates": [[-61.48985508763983, 21.2558480019959], [-61.19676872721454, -1.2307919977855875], [-71.6501822506697, -10.58167199790617], [-78.39116854149268, -10.915631997853978], [-87.76993207649036, -14.032591997894173], [-99.68877740241906, -14.366551997841981], [-103.01042282103515, -16.926911997705503], [-105.94128642563516, -25.721191997649413], [-101.7403819257432, -39.41355199788248], [-103.30350918146044, -45.981431997910676], [-99.68877740241906, -62.79075199778845], [-102.32655464659378, -77.3736719977505], [-99.49338649523747, -81.60383199774856], [-93.24087747202138, -87.61511199799557], [-91.87314112313862, -99.30371199775081], [-89.7238411462237, -101.86407199800982], [-79.75890489037542, -110.5470319978393]]}, "properties": {"osm_id": null, "type": "footway", "width_m": 2, "extrude": false}}, {"type": "Feature", "geometry": {"type": "LineString", "coordinates": [[-54.455782436391566, -40.415431997725904], [-42.43924165687208, -42.53051199792267], [-40.58302804072953, -43.64371199788053], [-42.24385075003757, -51.65875199781439], [-31.69274177299163, -58.449271997675964]]}, "properties": {"osm_id": null, "type": "footway", "width_m": 2, "extrude": false}}, {"type": "Feature", "geometry": {"type": "LineString", "coordinates": [[-57.288950587400784, -49.98895199767986], [-57.288950587400784, -49.209711997669814], [-55.82351878527432, -49.09839199795087], [-54.35808698280078, -49.09839199795087]]}, "properties": {"osm_id": null, "type": "footway", "width_m": 2, "extrude": false}}, {"type": "Feature", "geometry": {"type": "LineString", "coordinates": [[-54.94425970365136, -31.287191997834185], [-44.68623708737779, -33.95887199781214], [-32.08352358700772, -40.415431997725904], [-21.337023703127272, -50.87951199780434], [-10.395132912065243, -59.89643199797712], [1.6214078671071628, -69.13599199798327]]}, "properties": {"osm_id": null, "type": "footway", "width_m": 2, "extrude": false}}, {"type": "Feature", "geometry": {"type": "LineString", "coordinates": [[-58.36360057585824, -54.21911199767791], [-57.191255134157075, -52.99459199800111]]}, "properties": {"osm_id": null, "type": "footway", "width_m": 2, "extrude": false}}, {"type": "Feature", "geometry": {"type": "LineString", "coordinates": [[-219.56109883510615, -56.22287199776025], [-219.75648974194067, -52.77195199777225]]}, "properties": {"osm_id": null, "type": "service", "width_m": 3.5, "extrude": false}}, {"type": "Feature", "geometry": {"type": "LineString", "coordinates": [[-219.56109883510615, -42.641831998037105], [-221.8080942652648, -43.866351997713906], [-245.15730764951527, -49.87763199796092], [-271.4373846383658, -59.89643199797712], [-275.14981187099806, -64.46055199792298], [-277.68989366192903, -69.46995199793108]]}, "properties": {"osm_id": null, "type": "footway", "width_m": 2, "extrude": false}}, {"type": "Feature", "geometry": {"type": "LineString", "coordinates": [[84.4671524270633, -35.962631997894476], [62.583370845286325, -45.31351199801506], [55.94008000770705, -48.20783199782639], [44.60740740297602, -58.894551997738205], [28.487657576808274, -74.81331199788698], [27.315312135107106, -75.4812319977826], [25.459098518617473, -76.26047199779265], [23.016712181624342, -76.48311199802151], [21.551280379150796, -76.26047199779265], [19.988153123433545, -75.4812319977826], [15.787248623194492, -71.80767199796122], [14.71259863473703, -70.24919199794113], [14.126425913886445, -68.69071199792103], [14.126425913886445, -66.68695199783869], [14.224121367477238, -65.23979199793303], [14.907989541918614, -63.569991997798496], [16.178030437210577, -62.12283199789283], [19.108894041810583, -60.119071997810494], [20.37893493744963, -59.785111997862685], [22.039757646757675, -59.785111997862685], [23.798275809309427, -60.230391997924926], [26.142966693058852, -61.12095199765392], [29.562307565265737, -61.12095199765392], [41.96963015880131, -48.65311199788863], [48.90600735645879, -43.08711199770386], [59.75020269393002, -38.856951997705806]]}, "properties": {"osm_id": null, "type": "footway", "width_m": 2, "extrude": false}}, {"type": "Feature", "geometry": {"type": "LineString", "coordinates": [[-247.40430307967392, -56.11155199764582], [-246.23195763797276, -59.22851199768601]]}, "properties": {"osm_id": null, "type": "service", "width_m": 3.5, "extrude": false}}, {"type": "Feature", "geometry": {"type": "LineString", "coordinates": [[-219.26801247468086, -61.23227199776835], [-219.56109883510615, -56.22287199776025]]}, "properties": {"osm_id": null, "type": "service", "width_m": 3.5, "extrude": false}}, {"type": "Feature", "geometry": {"type": "LineString", "coordinates": [[-53.576523354768604, -21.491031997651362], [-55.82351878527432, -18.4853919977256], [-61.782941448065124, -17.70615199771555], [-64.22532778540534, -17.928791997944415], [-62.4668096225065, -51.65875199781439], [-58.36360057585824, -54.21911199767791], [-58.07051421543295, -56.22287199776025], [-58.168209669023746, -60.564351997872734], [-58.85207784346512, -67.24355199801536], [-61.00137782003296, -79.71139199778065], [-63.736850517798466, -94.73959199780495], [-65.78845504112259, -107.20743199796573], [-64.02993687822375, -107.65271199802797], [-63.93224142498005, -106.98479199773686]]}, "properties": {"osm_id": null, "type": "footway", "width_m": 2, "extrude": false}}, {"type": "Feature", "geometry": {"type": "LineString", "coordinates": [[44.60740740297602, -58.894551997738205], [45.38897103066111, -59.56247199802931], [35.91251204241971, -69.46995199793108], [36.4986847632703, -70.1378719978267], [46.952098286725445, -61.009631997934974], [49.687570984490954, -63.458671997684064]]}, "properties": {"osm_id": null, "type": "footway", "width_m": 2, "extrude": false}}, {"type": "Feature", "geometry": {"type": "LineString", "coordinates": [[15.689553169603698, -61.009631997934974], [15.4941622627692, -61.34359199788278], [16.178030437210577, -62.12283199789283], [23.60288490247493, -68.35675199797322]]}, "properties": {"osm_id": null, "type": "footway", "width_m": 2, "extrude": false}}, {"type": "Feature", "geometry": {"type": "LineString", "coordinates": [[-53.576523354768604, -21.491031997651362], [-54.26039152920998, -22.492911997890275], [-54.94425970365136, -24.607991997691556], [-54.94425970365136, -31.287191997834185], [-54.455782436391566, -40.415431997725904], [-54.35808698280078, -49.09839199795087], [-54.06500062237548, -65.57375199788083], [-54.55347788998236, -78.5981919978228], [-55.43273697125824, -102.0867119978432], [-55.530432424849025, -107.54139199791354], [-54.455782436391566, -109.32251199776701]]}, "properties": {"osm_id": null, "type": "service", "width_m": 3.5, "extrude": false}}, {"type": "Feature", "geometry": {"type": "LineString", "coordinates": [[36.4986847632703, -70.1378719978267], [33.86090751909558, -72.80955199780465]]}, "properties": {"osm_id": null, "type": "footway", "width_m": 2, "extrude": false}}, {"type": "Feature", "geometry": {"type": "LineString", "coordinates": [[-274.9544209641635, -75.70387199801146], [-276.32215731304626, -72.25295199802346], [-277.68989366192903, -69.46995199793108]]}, "properties": {"osm_id": null, "type": "footway", "width_m": 2, "extrude": false}}, {"type": "Feature", "geometry": {"type": "LineString", "coordinates": [[-62.076027808490416, -101.41879199794758], [-56.214300599290404, -63.458671997684064], [-55.82351878527432, -49.09839199795087]]}, "properties": {"osm_id": null, "type": "footway", "width_m": 2, "extrude": false}}, {"type": "Feature", "geometry": {"type": "LineString", "coordinates": [[-54.55347788998236, -78.5981919978228], [-39.60607350586286, -78.70951199793723], [-40.28994168030424, -88.17171199777675], [-34.13512811033185, -88.39435199800562], [-26.710273645067495, -91.62263199776476]]}, "properties": {"osm_id": null, "type": "footway", "width_m": 2, "extrude": false}}, {"type": "Feature", "geometry": {"type": "LineString", "coordinates": [[34.93555750720596, -73.81143199764807], [32.98164843747262, -75.70387199801146], [34.25168933276458, -77.48499199786494], [38.15950747257834, -82.0491119978108], [40.99267562358756, -84.38683199784094], [54.3769527519898, -100.41691199770867], [53.790780031139214, -101.75275199789539], [54.083866391564506, -102.19803199795763]]}, "properties": {"osm_id": null, "type": "footway", "width_m": 2, "extrude": false}}, {"type": "Feature", "geometry": {"type": "LineString", "coordinates": [[-254.14528937049693, -88.50567199772456], [-220.04957610236596, -94.73959199780495], [-210.37772620694298, -97.0773119978351]]}, "properties": {"osm_id": null, "type": "service", "width_m": 3.5, "extrude": false}}, {"type": "Feature", "geometry": {"type": "LineString", "coordinates": [[-34.13512811033185, -88.39435199800562], [-34.330519017166345, -97.18863199794953]]}, "properties": {"osm_id": null, "type": "footway", "width_m": 2, "extrude": false}}, {"type": "Feature", "geometry": {"type": "LineString", "coordinates": [[-275.63828913860493, -104.31311199775891], [-273.0005118944302, -101.30747199783315], [-268.7019119406003, -96.52071199765842], [-264.59870289395207, -92.73583199772261], [-259.51853931278424, -89.84151199791128], [-258.2484984171452, -89.50755199796347], [-254.14528937049693, -88.50567199772456]]}, "properties": {"osm_id": null, "type": "service", "width_m": 3.5, "extrude": false}}, {"type": "Feature", "geometry": {"type": "LineString", "coordinates": [[-63.15067779694788, -101.86407199800982], [-62.95528689011338, -101.41879199794758], [-62.076027808490416, -101.41879199794758], [-55.43273697125824, -102.0867119978432]]}, "properties": {"osm_id": null, "type": "footway", "width_m": 2, "extrude": false}}, {"type": "Feature", "geometry": {"type": "LineString", "coordinates": [[54.47464820558059, -102.86595199785324], [54.67003911241509, -103.31123199791548], [55.06082092643118, -103.19991199780105]]}, "properties": {"osm_id": null, "type": "footway", "width_m": 2, "extrude": false}}, {"type": "Feature", "geometry": {"type": "LineString", "coordinates": [[270.1862095122629, -58.894551997738205], [275.65715490779394, -62.65640027356696]]}, "properties": {"osm_id": null, "type": "footway", "width_m": 2, "extrude": false}}, {"type": "Feature", "geometry": {"type": "LineString", "coordinates": [[203.26482387129295, -83.27363199788309], [203.85099659214353, -79.04347199788504], [206.39107838307453, -75.14727199783479]]}, "properties": {"osm_id": null, "type": "service", "width_m": 3.5, "extrude": false}}, {"type": "Feature", "geometry": {"type": "LineString", "coordinates": [[188.21972403358265, -71.36239199789898], [189.9782421964815, -77.81895199781275], [192.4206285338217, -80.26799199795732], [203.26482387129295, -83.27363199788309], [226.90712361596871, -89.84151199791128], [234.2342826276423, -92.84715199783705], [244.59000069750664, -100.30559199798972]]}, "properties": {"osm_id": null, "type": "service", "width_m": 3.5, "extrude": false}}, {"type": "Feature", "geometry": {"type": "LineString", "coordinates": [[-210.37772620694298, -97.0773119978351], [-173.351149334212, -108.9885519978192], [-164.1677767060488, -109.21119199765258], [-160.16226311299135, -109.32251199776701], [-148.7318950546695, -110.76967199767267], [-137.7900042636075, -113.55267199776506]]}, "properties": {"osm_id": null, "type": "service", "width_m": 3.5, "extrude": false}}, {"type": "Feature", "geometry": {"type": "LineString", "coordinates": [[57.11242544975531, -102.420671997791], [57.503207263771394, -102.30935199767657], [64.73267082185416, -111.99419199774496]]}, "properties": {"osm_id": null, "type": "footway", "width_m": 2, "extrude": false}}, {"type": "Feature", "geometry": {"type": "LineString", "coordinates": [[-79.75890489037542, -110.5470319978393], [-76.33956401816855, -113.33003199793168]]}, "properties": {"osm_id": null, "type": "footway", "width_m": 2, "extrude": false}}, {"type": "Feature", "geometry": {"type": "LineString", "coordinates": [[-291.171866243575, -122.56959199793783], [-275.63828913860493, -104.31311199775891]]}, "properties": {"osm_id": null, "type": "service", "width_m": 3.5, "extrude": false}}, {"type": "Feature", "geometry": {"type": "LineString", "coordinates": [[-219.75648974194067, -52.77195199777225], [-246.23195763797276, -59.22851199768601], [-257.17384842868773, -63.79263199802736], [-276.32215731304626, -72.25295199802346], [-305.6307933600876, -85.16607199785099], [-332.0085658025289, -95.44397889466481]]}, "properties": {"osm_id": null, "type": "primary", "width_m": 12, "extrude": false}}, {"type": "Feature", "geometry": {"type": "LineString", "coordinates": [[-332.0085658025289, -99.1483817653733], [-320.2851113837818, -94.85091199791938], [-300.15984796455655, -86.83587199798552], [-274.9544209641635, -75.70387199801146], [-253.07063938238656, -65.79639199771421], [-241.8356622308992, -61.78887199794502], [-219.56109883510615, -56.22287199776025]]}, "properties": {"osm_id": null, "type": "footway", "width_m": 2, "extrude": false}}, {"type": "Feature", "geometry": {"type": "LineString", "coordinates": [[-292.1488207784417, -124.0167519978435], [-305.8261842669221, -115.11115199778516], [-314.0326023602186, -112.32815199769277], [-316.47498869755884, -110.99231199790154]]}, "properties": {"osm_id": null, "type": "footway", "width_m": 2, "extrude": false}}, {"type": "Feature", "geometry": {"type": "LineString", "coordinates": [[24.482143983750806, -133.81291199802632], [34.544775693536955, -120.45451199774106], [46.46362101911857, -108.43195199764253], [49.39448462406566, -105.64895199794563], [54.67003911241509, -103.31123199791548]]}, "properties": {"osm_id": null, "type": "footway", "width_m": 2, "extrude": false}}, {"type": "Feature", "geometry": {"type": "LineString", "coordinates": [[-137.7900042636075, -113.55267199776506], [-127.92276346100293, -116.22435199774301], [-123.62416350752017, -117.33755199770087], [-119.13017264685581, -120.12055199779326], [-117.56704539113856, -121.34507199786555], [-116.29700449584661, -122.4582719978234], [-113.7569227049156, -125.35259199803022], [-111.80301363518225, -129.0261519978516], [-111.31453636757539, -129.80539199786165]]}, "properties": {"osm_id": null, "type": "service", "width_m": 3.5, "extrude": false}}, {"type": "Feature", "geometry": {"type": "LineString", "coordinates": [[269.5291597185443, -161.002485604332], [259.2443187212009, -166.5409919976574], [243.8084370698216, -176.89375199801688], [216.3560146389228, -193.4804319976658], [209.02885562724924, -196.82003199793485], [201.7993920688194, -197.71059199766384], [192.5183239874125, -195.0389119976859], [186.26581496384932, -190.92007199780227], [181.57643319635045, -184.90879199795074], [180.5994786614838, -178.67487199787035], [181.38104228951596, -171.66171199777992], [184.11651498728148, -166.318351997824], [209.02885562724924, -135.70535199799423], [231.88959174389285, -109.09987199793363], [244.59000069750664, -100.30559199798972], [259.2443187212009, -90.73207199803576], [267.2553459073158, -80.4906319977907], [275.65715490779394, -63.19302199767165]]}, "properties": {"osm_id": null, "type": "service", "width_m": 3.5, "extrude": false}}, {"type": "Feature", "geometry": {"type": "LineString", "coordinates": [[149.72771535837813, -152.514671997872], [115.82739299742875, -115.22247199789959]]}, "properties": {"osm_id": null, "type": "service", "width_m": 3.5, "extrude": false}}, {"type": "Feature", "geometry": {"type": "LineString", "coordinates": [[255.53189148856868, -155.52031199779776], [259.2443187212009, -166.5409919976574]]}, "properties": {"osm_id": null, "type": "service", "width_m": 3.5, "extrude": false}}, {"type": "Feature", "geometry": {"type": "LineString", "coordinates": [[180.5994786614838, -178.67487199787035], [172.58845147536886, -177.78431199774587], [149.72771535837813, -152.514671997872]]}, "properties": {"osm_id": null, "type": "service", "width_m": 3.5, "extrude": false}}, {"type": "Feature", "geometry": {"type": "LineString", "coordinates": [[-244.9619167426808, -127.02239199776926], [-237.63475773066017, -121.67903199781335], [-229.62373054454523, -120.23187199790769], [-217.60718976537282, -120.23187199790769], [-198.84966269503036, -122.34695199770897], [-181.06909015990163, -126.13183199764478], [-165.43781760134078, -127.4676719978315], [-149.12267686833852, -125.46391199774916], [-145.41024963570635, -125.68655199797803], [-142.47938603110634, -126.02051199792584], [-131.9282770540604, -128.46955199767493], [-128.2158498214282, -129.3601119977994], [-114.53848633294777, -132.69971199767298], [-112.19379544919835, -132.4770719978396], [-109.84910456544893, -132.36575199772517]]}, "properties": {"osm_id": null, "type": "track", "width_m": 3, "extrude": false}}, {"type": "Feature", "geometry": {"type": "LineString", "coordinates": [[-328.8387800013776, -150.1670315707196], [-325.4629704185404, -149.3977119978318], [-320.08972047660023, -147.5052719978639], [-315.00955689508527, -144.16567199799033], [-302.504538848306, -133.14499199773522], [-292.1488207784417, -124.0167519978435], [-291.171866243575, -122.56959199793783]]}, "properties": {"osm_id": null, "type": "service", "width_m": 3.5, "extrude": false}}, {"type": "Feature", "geometry": {"type": "LineString", "coordinates": [[-111.31453636757539, -129.80539199786165], [-109.84910456544893, -132.36575199772517], [-104.96433189076849, -137.93175199790994], [-97.14869561148805, -142.8298319978036], [-92.06853202997313, -144.72227199777151], [-89.91923205340528, -144.83359199788595], [-78.19577763465817, -143.7203919979281]]}, "properties": {"osm_id": null, "type": "service", "width_m": 3.5, "extrude": false}}, {"type": "Feature", "geometry": {"type": "LineString", "coordinates": [[-76.33956401816855, -113.33003199793168], [-81.12664123925818, -167.32023199766743]]}, "properties": {"osm_id": null, "type": "footway", "width_m": 2, "extrude": false}}, {"type": "Feature", "geometry": {"type": "LineString", "coordinates": [[-81.12664123925818, -167.32023199766743], [-84.35059120428348, -168.54475199773972], [-91.97083657672941, -166.42967199793844], [-101.3496001117271, -165.9843919978762], [-111.41223182116617, -164.98251199803278]]}, "properties": {"osm_id": null, "type": "footway", "width_m": 2, "extrude": false}}, {"type": "Feature", "geometry": {"type": "LineString", "coordinates": [[-125.48037712400979, -165.6504319979284], [-125.382681670419, -166.318351997824], [-124.99189985640291, -167.32023199766743], [-119.3255635540374, -166.87495199800068], [-112.29149090278914, -166.98627199771963], [-111.50992727475696, -168.21079199779192], [-111.11914546074088, -169.769271997812], [-106.72285005366733, -169.21267199803083], [-103.20581372786965, -176.11451199800683], [-102.61964100701907, -178.11827199769368], [-99.20030013481218, -183.4616319976496], [-103.88968190231103, -187.9144319978765], [-105.35511370478457, -190.6974319979689]]}, "properties": {"osm_id": null, "type": "footway", "width_m": 2, "extrude": false}}, {"type": "Feature", "geometry": {"type": "LineString", "coordinates": [[-78.19577763465817, -143.7203919979281], [-74.5810458552697, -144.94491199800038], [-70.86861862263753, -147.5052719978639], [-68.3285368320536, -150.9561919978519], [-65.78845504112259, -155.85427199774557], [-63.834545971389254, -164.53723199797054], [-60.51290055277317, -183.90691199771183], [-57.48434149458237, -190.36347199802108], [-53.1857415410996, -196.59739199770598], [-45.76088707583525, -205.16903199781652], [-36.57751444767206, -213.2953919978648], [-32.181219040598506, -216.63499199773838], [-31.008873598550256, -217.41423199774843], [-27.58953272634337, -219.5293119979452]]}, "properties": {"osm_id": null, "type": "service", "width_m": 3.5, "extrude": false}}, {"type": "Feature", "geometry": {"type": "LineString", "coordinates": [[259.2443187212009, -166.5409919976574], [259.43970962803536, -169.9919119976454], [259.27040628121387, -184.267569087162]]}, "properties": {"osm_id": null, "type": "service", "width_m": 3.5, "extrude": false}}, {"type": "Feature", "geometry": {"type": "LineString", "coordinates": [[-33.842041749906556, -218.75007199793515], [-34.72130083118243, -219.75195199777858]]}, "properties": {"osm_id": null, "type": "footway", "width_m": 2, "extrude": false}}, {"type": "Feature", "geometry": {"type": "LineString", "coordinates": [[-35.600559912805394, -219.1953519979974], [-35.89364627323069, -218.8613919976541], [-36.87060080809735, -219.97459199800744]]}, "properties": {"osm_id": null, "type": "footway", "width_m": 2, "extrude": false}}, {"type": "Feature", "geometry": {"type": "LineString", "coordinates": [[-91.38466385553174, -192.03327199776012], [-93.92474564646275, -197.9332319978927], [-95.19478654175471, -201.3841519978807], [-96.17174107662139, -206.95015199767], [-95.97635016978688, -210.28975199793905], [-95.5855683557708, -214.8538719978849], [-92.7524002044145, -220.97647199785087], [-79.46581852995013, -231.9971519977105], [-78.60387256686077, -233.88959199807388]]}, "properties": {"osm_id": null, "type": "footway", "width_m": 2, "extrude": false}}, {"type": "Feature", "geometry": {"type": "LineString", "coordinates": [[-28.078009993950246, -227.9896319979413], [-27.003360005492787, -228.21227199777468], [-28.859573621982417, -223.20287199776658], [-31.106569052141047, -221.0877919979653], [-33.842041749906556, -218.75007199793515], [-33.25586902905597, -218.3047919978729], [-32.181219040598506, -216.63499199773838]]}, "properties": {"osm_id": null, "type": "footway", "width_m": 2, "extrude": false}}, {"type": "Feature", "geometry": {"type": "LineString", "coordinates": [[-27.58953272634337, -219.5293119979452], [-21.532414609961773, -221.9783519976943], [-16.74533738921922, -223.98211199777663], [-1.700237551508929, -231.4405519979293]]}, "properties": {"osm_id": null, "type": "service", "width_m": 3.5, "extrude": false}}, {"type": "Feature", "geometry": {"type": "LineString", "coordinates": [[-1.700237551508929, -231.4405519979293], [8.41938317301647, -233.88959199807388]]}, "properties": {"osm_id": null, "type": "service", "width_m": 3.5, "extrude": false}}, {"type": "Feature", "geometry": {"type": "LineString", "coordinates": [[-32.72448497472037, -233.88959199807388], [-30.911178145306547, -229.32547199773254], [-30.422700877699672, -227.54435199787906]]}, "properties": {"osm_id": null, "type": "footway", "width_m": 2, "extrude": false}}, {"type": "Feature", "geometry": {"type": "LineString", "coordinates": [[-111.41223182116617, -164.98251199803278], [-117.86013175156386, -164.20327199802273], [-122.15873170504662, -164.4259119978561], [-125.48037712400979, -165.6504319979284], [-127.92276346100293, -166.5409919976574], [-136.71535427515002, -169.54663199797864], [-145.31255418246263, -172.32963199767553], [-150.97889048482816, -178.89751199770373], [-169.34563574115452, -200.93887199781847], [-176.96588111325337, -213.74067199792705], [-191.2294173229315, -220.53119199778862], [-209.88924893968317, -230.54999199780482], [-217.41853647658985, -233.88959199807388]]}, "properties": {"osm_id": null, "type": "footway", "width_m": 2, "extrude": false}}, {"type": "Feature", "geometry": {"type": "LineString", "coordinates": [[275.65715490779394, -55.90282699777731], [270.7723822331135, -52.77195199777225], [262.3705732329825, -47.42859199781634], [260.7097505236745, -46.20407199774405], [256.11806420941923, -42.41919199780824], [246.9346915816032, -34.29283199775995], [228.56794632527678, -14.923151998018653], [224.95321454623544, -9.913751998010554], [221.8269600344538, -2.5666319979723085], [220.06844187155497, 2.8880480020980315], [219.77535551112967, 8.565368002001748], [220.36152823198026, 13.908728002353143], [222.02235094128832, 19.363408002027995], [224.07395546461245, 23.70488800214048], [228.95872813929287, 32.61048800219882], [245.0784779651135, 59.88388800215503], [247.03238703484692, 63.11216800230966], [247.32547339527216, 63.55744800197641], [256.50884602343535, 78.69696800211514], [266.18069591920545, 94.72704800198287], [267.1576504540721, 96.28552800200296], [275.65715490779394, 110.03962850645465]]}, "properties": {"osm_id": null, "type": "primary", "width_m": 12, "extrude": false}}]}