{"type": "FeatureCollection", "crs": {"type": "name", "properties": {"name": "wgs84_and_EPSG:32628_local_enu_m_section_centroid", "lng0": -16.615547279260703, "lat0": 28.034940545534464}}, "features": [{"type": "Feature", "geometry": {"type": "Polygon", "coordinates": [[[-16.62893, 28.01496], [-16.62862, 28.04403], [-16.62908, 28.04471], [-16.62894, 28.04496], [-16.62857, 28.04599], [-16.62848, 28.04639], [-16.62954, 28.04944], [-16.62872, 28.04937], [-16.62701, 28.0495], [-16.62451, 28.0499], [-16.6237, 28.05002], [-16.62079, 28.05046], [-16.6147, 28.05128], [-16.61166, 28.05154], [-16.60893, 28.0518], [-16.60647, 28.05197], [-16.60658, 28.05169], [-16.60659, 28.05156], [-16.60657, 28.05147], [-16.60657, 28.05137], [-16.60657, 28.05129], [-16.60657, 28.05124], [-16.6066, 28.0511], [-16.6066, 28.05101], [-16.60657, 28.05092], [-16.60652, 28.05083], [-16.60639, 28.05071], [-16.60622, 28.05058], [-16.60611, 28.05044], [-16.60592, 28.05025], [-16.60573, 28.05006], [-16.60557, 28.04988], [-16.60535, 28.04967], [-16.60518, 28.04952], [-16.60514, 28.04944], [-16.60514, 28.04934], [-16.6053, 28.04907], [-16.6054, 28.04895], [-16.60543, 28.0488], [-16.60543, 28.04859], [-16.60542, 28.04839], [-16.60541, 28.04825], [-16.60548, 28.04804], [-16.60564, 28.04785], [-16.60588, 28.04763], [-16.60598, 28.04751], [-16.60598, 28.04742], [-16.60597, 28.0474], [-16.606, 28.04732], [-16.6062, 28.04705], [-16.60624, 28.04676], [-16.60627, 28.04669], [-16.60631, 28.04661], [-16.6064, 28.04644], [-16.60645, 28.04629], [-16.60664, 28.04598], [-16.60675, 28.04574], [-16.60678, 28.04561], [-16.60669, 28.04553], [-16.60649, 28.04548], [-16.60623, 28.04545], [-16.60599, 28.04538], [-16.60576, 28.04529], [-16.60565, 28.0452], [-16.60561, 28.04507], [-16.60567, 28.04489], [-16.60579, 28.04465], [-16.60587, 28.04439], [-16.60587, 28.04417], [-16.60586, 28.04411], [-16.60584, 28.0441], [-16.60582, 28.04403], [-16.60576, 28.04401], [-16.60574, 28.04395], [-16.60554, 28.04377], [-16.60544, 28.04368], [-16.60526, 28.04356], [-16.60499, 28.04334], [-16.60473, 28.04316], [-16.60469, 28.04314], [-16.60441, 28.04298], [-16.60411, 28.04281], [-16.60402, 28.04273], [-16.60388, 28.04265], [-16.6037, 28.04252], [-16.60333, 28.04202], [-16.60303, 28.04167], [-16.60285, 28.04143], [-16.60272, 28.04119], [-16.60258, 28.04093], [-16.60245, 28.04069], [-16.60237, 28.04059], [-16.60224, 28.04049], [-16.60201, 28.04036], [-16.60175, 28.04024], [-16.60153, 28.04015], [-16.60136, 28.04006], [-16.6012, 28.03994], [-16.60103, 28.03982], [-16.60084, 28.03966], [-16.60066, 28.03939], [-16.60051, 28.03918], [-16.60035, 28.03899], [-16.60028, 28.03878], [-16.6002, 28.0385], [-16.60015, 28.03831], [-16.59999, 28.03798], [-16.59986, 28.03779], [-16.59967, 28.03752], [-16.59943, 28.03715], [-16.59933, 28.0369], [-16.59935, 28.03657], [-16.59928, 28.03635], [-16.59928, 28.03616], [-16.59925, 28.03604], [-16.59912, 28.03572], [-16.59919, 28.03553], [-16.59919, 28.03537], [-16.59913, 28.03521], [-16.59912, 28.03518], [-16.59906, 28.03499], [-16.599, 28.03476], [-16.59895, 28.03459], [-16.59889, 28.03448], [-16.59887, 28.03441], [-16.59891, 28.03431], [-16.59891, 28.03421], [-16.59886, 28.03413], [-16.59873, 28.03412], [-16.59857, 28.03407], [-16.5984, 28.03399], [-16.59822, 28.03385], [-16.59819, 28.03381], [-16.59807, 28.03369], [-16.59804, 28.03365], [-16.59799, 28.03358], [-16.59794, 28.03348], [-16.5979, 28.03339], [-16.59789, 28.03329], [-16.59788, 28.03316], [-16.59788, 28.03297], [-16.59787, 28.03283], [-16.59786, 28.03273], [-16.59786, 28.03254], [-16.59784, 28.03241], [-16.5978, 28.03232], [-16.59775, 28.03222], [-16.59768, 28.03209], [-16.59765, 28.03203], [-16.59757, 28.03192], [-16.59751, 28.03182], [-16.59747, 28.03175], [-16.59744, 28.03162], [-16.59742, 28.0315], [-16.59743, 28.0314], [-16.59743, 28.03131], [-16.59742, 28.03117], [-16.59737, 28.03097], [-16.59731, 28.03079], [-16.59728, 28.03065], [-16.59727, 28.03053], [-16.59725, 28.03044], [-16.59724, 28.03031], [-16.59724, 28.03018], [-16.59726, 28.03007], [-16.59731, 28.02995], [-16.5974, 28.02982], [-16.59745, 28.02973], [-16.59753, 28.02964], [-16.5976, 28.02956], [-16.59766, 28.02947], [-16.59766, 28.02939], [-16.59758, 28.02932], [-16.59746, 28.02925], [-16.59732, 28.02915], [-16.59727, 28.02912], [-16.5972, 28.02906], [-16.59717, 28.029], [-16.59714, 28.02894], [-16.59713, 28.02882], [-16.59708, 28.02867], [-16.59703, 28.02862], [-16.59701, 28.02861], [-16.59696, 28.02859], [-16.59694, 28.02853], [-16.59693, 28.02829], [-16.59696, 28.02818], [-16.59703, 28.02817], [-16.5971, 28.02821], [-16.59704, 28.02794], [-16.59754, 28.02793], [-16.59766, 28.02793], [-16.59791, 28.02791], [-16.5981, 28.0279], [-16.59833, 28.0279], [-16.59848, 28.02789], [-16.5987, 28.02787], [-16.59886, 28.02784], [-16.59898, 28.0278], [-16.5991, 28.02777], [-16.59915, 28.02775], [-16.59916, 28.02771], [-16.59915, 28.02765], [-16.59919, 28.02762], [-16.59926, 28.02761], [-16.59937, 28.02758], [-16.59946, 28.02754], [-16.59953, 28.02751], [-16.59957, 28.02745], [-16.59956, 28.0274], [-16.59952, 28.02735], [-16.59951, 28.02732], [-16.59951, 28.02725], [-16.59954, 28.02717], [-16.59958, 28.0271], [-16.59965, 28.02708], [-16.5997, 28.02709], [-16.59976, 28.02707], [-16.59991, 28.027], [-16.60002, 28.02694], [-16.60008, 28.02688], [-16.60008, 28.02686], [-16.60008, 28.02682], [-16.60009, 28.02676], [-16.60016, 28.02669], [-16.60024, 28.02662], [-16.60026, 28.02658], [-16.6003, 28.02653], [-16.60035, 28.02646], [-16.60035, 28.02644], [-16.6004, 28.02636], [-16.60049, 28.02629], [-16.60056, 28.02622], [-16.60066, 28.0262], [-16.60082, 28.02624], [-16.60093, 28.02629], [-16.60101, 28.02632], [-16.6011, 28.02633], [-16.60121, 28.02632], [-16.60127, 28.0263], [-16.60128, 28.0263], [-16.60128, 28.02623], [-16.6013, 28.02615], [-16.60138, 28.0261], [-16.60145, 28.02605], [-16.6014, 28.02596], [-16.60148, 28.02594], [-16.60157, 28.02599], [-16.60162, 28.02609], [-16.60168, 28.02612], [-16.60181, 28.02606], [-16.60185, 28.02604], [-16.60182, 28.02598], [-16.60182, 28.02592], [-16.6018, 28.0259], [-16.60177, 28.02585], [-16.60182, 28.02583], [-16.6019, 28.02589], [-16.60192, 28.02592], [-16.60196, 28.02595], [-16.60204, 28.02596], [-16.60206, 28.02601], [-16.60211, 28.02606], [-16.60217, 28.02609], [-16.60227, 28.02605], [-16.60229, 28.02599], [-16.60225, 28.02593], [-16.6023, 28.02582], [-16.60234, 28.02576], [-16.60241, 28.02578], [-16.60246, 28.02578], [-16.6025, 28.02577], [-16.60258, 28.02572], [-16.60265, 28.02565], [-16.60273, 28.02559], [-16.60281, 28.0255], [-16.60288, 28.02544], [-16.60292, 28.02538], [-16.6029, 28.02529], [-16.6029, 28.02516], [-16.60298, 28.02515], [-16.60309, 28.02516], [-16.60315, 28.02515], [-16.6032, 28.02516], [-16.6033, 28.02522], [-16.60335, 28.02523], [-16.60341, 28.02521], [-16.60345, 28.02522], [-16.60348, 28.02525], [-16.60354, 28.02524], [-16.60359, 28.02525], [-16.60368, 28.02529], [-16.60377, 28.0253], [-16.60388, 28.0253], [-16.60397, 28.02528], [-16.60408, 28.02524], [-16.60417, 28.0252], [-16.60426, 28.02514], [-16.60433, 28.02507], [-16.60437, 28.02503], [-16.60441, 28.02501], [-16.60447, 28.02496], [-16.60453, 28.02491], [-16.60455, 28.02484], [-16.60454, 28.0248], [-16.60453, 28.02478], [-16.60446, 28.02471], [-16.6044, 28.02465], [-16.60434, 28.02458], [-16.6043, 28.0245], [-16.60426, 28.02439], [-16.60428, 28.02433], [-16.60424, 28.02429], [-16.6042, 28.02426], [-16.60416, 28.02425], [-16.60414, 28.02418], [-16.60411, 28.02411], [-16.60417, 28.02408], [-16.60423, 28.0241], [-16.60423, 28.02417], [-16.60427, 28.02421], [-16.60431, 28.02422], [-16.60435, 28.02422], [-16.60443, 28.02425], [-16.60457, 28.02428], [-16.60461, 28.02428], [-16.60475, 28.02426], [-16.6049, 28.02421], [-16.60508, 28.02413], [-16.6052, 28.02407], [-16.60529, 28.02401], [-16.60536, 28.02394], [-16.60546, 28.02378], [-16.60548, 28.02373], [-16.60548, 28.0237], [-16.60545, 28.02365], [-16.60548, 28.02362], [-16.60554, 28.02362], [-16.60559, 28.0236], [-16.60565, 28.02358], [-16.60569, 28.02362], [-16.60573, 28.02368], [-16.60575, 28.02372], [-16.60579, 28.02374], [-16.60582, 28.02372], [-16.60584, 28.02367], [-16.60581, 28.02364], [-16.60575, 28.02361], [-16.60574, 28.02357], [-16.60576, 28.02353], [-16.60583, 28.02353], [-16.60588, 28.0235], [-16.6059, 28.02353], [-16.60588, 28.02359], [-16.60588, 28.02363], [-16.60594, 28.02363], [-16.60601, 28.02364], [-16.60603, 28.0236], [-16.60602, 28.02353], [-16.60605, 28.02351], [-16.6061, 28.02354], [-16.60614, 28.02358], [-16.60621, 28.0236], [-16.60626, 28.02359], [-16.60626, 28.02354], [-16.60623, 28.02349], [-16.60627, 28.02349], [-16.60635, 28.02352], [-16.60639, 28.02353], [-16.60648, 28.0235], [-16.60651, 28.02346], [-16.60648, 28.02343], [-16.60643, 28.0234], [-16.60646, 28.02337], [-16.60649, 28.02339], [-16.60656, 28.02338], [-16.60661, 28.02335], [-16.60663, 28.02328], [-16.60666, 28.02324], [-16.60668, 28.02323], [-16.60676, 28.02322], [-16.60681, 28.02318], [-16.60678, 28.02312], [-16.60673, 28.02309], [-16.60668, 28.02303], [-16.60664, 28.02296], [-16.60662, 28.0229], [-16.60668, 28.02291], [-16.60674, 28.02295], [-16.60679, 28.02296], [-16.60683, 28.02302], [-16.60685, 28.02306], [-16.60689, 28.02303], [-16.60695, 28.02303], [-16.60698, 28.02305], [-16.607, 28.02309], [-16.60702, 28.02315], [-16.60701, 28.02321], [-16.60702, 28.02328], [-16.60706, 28.02329], [-16.60712, 28.02326], [-16.60714, 28.02321], [-16.60719, 28.02317], [-16.60724, 28.02315], [-16.60726, 28.02311], [-16.60726, 28.02305], [-16.60723, 28.02301], [-16.60713, 28.02298], [-16.60713, 28.02295], [-16.60719, 28.02283], [-16.60723, 28.02274], [-16.60728, 28.02268], [-16.60733, 28.02264], [-16.60734, 28.02262], [-16.6074, 28.02261], [-16.60744, 28.02257], [-16.6075, 28.02255], [-16.6075, 28.02259], [-16.60746, 28.0227], [-16.60748, 28.02276], [-16.60749, 28.0228], [-16.60748, 28.02282], [-16.60751, 28.02283], [-16.60767, 28.02283], [-16.60794, 28.02284], [-16.60813, 28.02284], [-16.60872, 28.02277], [-16.60919, 28.02275], [-16.60946, 28.02273], [-16.60953, 28.0227], [-16.60957, 28.02265], [-16.60964, 28.02267], [-16.60971, 28.02271], [-16.60977, 28.0227], [-16.60986, 28.0227], [-16.60998, 28.02268], [-16.61008, 28.02265], [-16.6102, 28.0226], [-16.61031, 28.02253], [-16.61049, 28.0224], [-16.61054, 28.02233], [-16.6106, 28.02224], [-16.61062, 28.02219], [-16.6106, 28.02214], [-16.61054, 28.02203], [-16.61032, 28.02167], [-16.61026, 28.02159], [-16.6102, 28.02151], [-16.61014, 28.02144], [-16.61012, 28.02138], [-16.6101, 28.0213], [-16.6101, 28.02123], [-16.6101, 28.02113], [-16.61014, 28.02102], [-16.61017, 28.0209], [-16.61025, 28.02076], [-16.61029, 28.0207], [-16.61033, 28.02066], [-16.6104, 28.02064], [-16.61046, 28.02064], [-16.61047, 28.02059], [-16.61051, 28.02056], [-16.61059, 28.02054], [-16.61069, 28.02049], [-16.61078, 28.02043], [-16.61086, 28.02038], [-16.61093, 28.02037], [-16.61099, 28.02033], [-16.61109, 28.02027], [-16.61118, 28.02023], [-16.61126, 28.02021], [-16.61135, 28.02018], [-16.61147, 28.02006], [-16.61164, 28.01994], [-16.61173, 28.01989], [-16.61178, 28.01986], [-16.61182, 28.01982], [-16.6119, 28.01979], [-16.61197, 28.01979], [-16.61207, 28.0198], [-16.61216, 28.01983], [-16.61224, 28.01987], [-16.6123, 28.01992], [-16.6123, 28.01999], [-16.61226, 28.02003], [-16.61226, 28.02008], [-16.61222, 28.02009], [-16.61216, 28.0201], [-16.61209, 28.02007], [-16.61204, 28.02003], [-16.61197, 28.01999], [-16.61194, 28.01999], [-16.61185, 28.01999], [-16.61178, 28.02002], [-16.6117, 28.02008], [-16.61162, 28.02013], [-16.61137, 28.02028], [-16.61134, 28.02032], [-16.61129, 28.02037], [-16.61122, 28.02039], [-16.61116, 28.02044], [-16.61107, 28.02049], [-16.61091, 28.02054], [-16.61084, 28.02058], [-16.61067, 28.02068], [-16.61066, 28.02069], [-16.61059, 28.02074], [-16.61048, 28.02084], [-16.61043, 28.0209], [-16.61039, 28.02099], [-16.61039, 28.02107], [-16.61041, 28.02116], [-16.61041, 28.02127], [-16.61045, 28.02137], [-16.61045, 28.02149], [-16.61047, 28.02155], [-16.6105, 28.02162], [-16.61055, 28.02166], [-16.6106, 28.02167], [-16.61064, 28.02165], [-16.61096, 28.02211], [-16.61108, 28.02208], [-16.61122, 28.02204], [-16.61134, 28.02198], [-16.6114, 28.02192], [-16.61142, 28.02183], [-16.61143, 28.02175], [-16.61148, 28.02166], [-16.61156, 28.02161], [-16.61165, 28.0216], [-16.61178, 28.02163], [-16.61185, 28.02163], [-16.61194, 28.02164], [-16.61199, 28.0216], [-16.61204, 28.02154], [-16.61209, 28.02152], [-16.61215, 28.02154], [-16.6122, 28.02155], [-16.61244, 28.02155], [-16.61246, 28.02153], [-16.61248, 28.02149], [-16.61251, 28.02145], [-16.61253, 28.02142], [-16.61255, 28.02141], [-16.61258, 28.02141], [-16.61263, 28.02139], [-16.61269, 28.02135], [-16.61274, 28.0213], [-16.61274, 28.02122], [-16.6127, 28.02115], [-16.61267, 28.02109], [-16.61269, 28.02103], [-16.61277, 28.02099], [-16.61285, 28.02099], [-16.61291, 28.02103], [-16.61294, 28.0211], [-16.61296, 28.02119], [-16.61298, 28.02128], [-16.61299, 28.0213], [-16.61304, 28.02127], [-16.61312, 28.02117], [-16.61319, 28.02111], [-16.61324, 28.02105], [-16.61325, 28.02099], [-16.61323, 28.02093], [-16.61327, 28.02089], [-16.61332, 28.02085], [-16.61333, 28.02078], [-16.61331, 28.02071], [-16.61324, 28.02066], [-16.61321, 28.02061], [-16.61326, 28.02058], [-16.61335, 28.02058], [-16.6134, 28.02058], [-16.61345, 28.02057], [-16.61353, 28.02057], [-16.61362, 28.02054], [-16.61371, 28.02051], [-16.61378, 28.0205], [-16.61385, 28.02046], [-16.61392, 28.0205], [-16.61398, 28.02057], [-16.61402, 28.02065], [-16.61404, 28.02073], [-16.61413, 28.02074], [-16.61437, 28.02079], [-16.6144, 28.02075], [-16.61447, 28.02073], [-16.61446, 28.02082], [-16.61442, 28.02088], [-16.61443, 28.02092], [-16.6145, 28.02094], [-16.61461, 28.02095], [-16.61467, 28.02091], [-16.61471, 28.02088], [-16.61476, 28.02083], [-16.61476, 28.0208], [-16.61479, 28.02071], [-16.61475, 28.02063], [-16.61473, 28.02058], [-16.61474, 28.02055], [-16.61479, 28.0206], [-16.61483, 28.02064], [-16.61486, 28.02074], [-16.61486, 28.02081], [-16.61493, 28.02085], [-16.61502, 28.02084], [-16.61509, 28.02081], [-16.61515, 28.02075], [-16.61521, 28.02074], [-16.61537, 28.02073], [-16.61544, 28.02074], [-16.61547, 28.0208], [-16.6155, 28.02079], [-16.61551, 28.02075], [-16.61548, 28.0206], [-16.61547, 28.02051], [-16.61546, 28.02044], [-16.61548, 28.02039], [-16.61555, 28.02037], [-16.61558, 28.02041], [-16.61562, 28.02044], [-16.61562, 28.02047], [-16.61562, 28.02061], [-16.61567, 28.02063], [-16.61572, 28.02057], [-16.61575, 28.02055], [-16.61577, 28.02051], [-16.61583, 28.02053], [-16.61585, 28.02058], [-16.61582, 28.02065], [-16.61581, 28.0207], [-16.61581, 28.02072], [-16.61584, 28.02074], [-16.61588, 28.02072], [-16.61592, 28.02068], [-16.61597, 28.02064], [-16.61599, 28.02062], [-16.616, 28.02055], [-16.61603, 28.02049], [-16.61605, 28.02045], [-16.61611, 28.02046], [-16.61616, 28.0205], [-16.61617, 28.02054], [-16.61621, 28.02058], [-16.61627, 28.02058], [-16.61633, 28.02057], [-16.61642, 28.02058], [-16.61642, 28.02063], [-16.61641, 28.02068], [-16.61642, 28.02071], [-16.61651, 28.02068], [-16.61667, 28.02061], [-16.61671, 28.02056], [-16.61673, 28.02049], [-16.61673, 28.02044], [-16.61672, 28.02041], [-16.61667, 28.02041], [-16.61663, 28.02038], [-16.61671, 28.02022], [-16.61676, 28.02004], [-16.61676, 28.01986], [-16.61681, 28.0198], [-16.61684, 28.01977], [-16.61687, 28.01972], [-16.61692, 28.01967], [-16.61697, 28.01972], [-16.61703, 28.01977], [-16.61706, 28.0198], [-16.61708, 28.01984], [-16.61709, 28.01984], [-16.61712, 28.01981], [-16.61718, 28.01981], [-16.61722, 28.01987], [-16.61726, 28.01982], [-16.6173, 28.01976], [-16.61736, 28.01975], [-16.61741, 28.01977], [-16.61742, 28.01983], [-16.61745, 28.01983], [-16.6175, 28.01987], [-16.61758, 28.01992], [-16.61762, 28.01993], [-16.61766, 28.01993], [-16.6177, 28.0199], [-16.61769, 28.01986], [-16.61768, 28.01979], [-16.6177, 28.01974], [-16.61782, 28.01964], [-16.61788, 28.01952], [-16.6179, 28.01947], [-16.6179, 28.01944], [-16.61792, 28.0194], [-16.61798, 28.01934], [-16.61804, 28.01932], [-16.61808, 28.01925], [-16.61814, 28.01927], [-16.61814, 28.01933], [-16.61816, 28.01939], [-16.61823, 28.0194], [-16.61829, 28.01944], [-16.6183, 28.01946], [-16.61832, 28.01946], [-16.61836, 28.01942], [-16.61844, 28.01937], [-16.61844, 28.01933], [-16.6184, 28.01926], [-16.61835, 28.01922], [-16.61834, 28.01917], [-16.61839, 28.01913], [-16.61841, 28.01908], [-16.61844, 28.01906], [-16.61848, 28.01902], [-16.61855, 28.01897], [-16.61858, 28.01891], [-16.61866, 28.01883], [-16.61874, 28.01877], [-16.61886, 28.01872], [-16.61893, 28.01872], [-16.61896, 28.01876], [-16.61898, 28.01871], [-16.61904, 28.0187], [-16.61919, 28.01859], [-16.61927, 28.01852], [-16.61931, 28.01845], [-16.61933, 28.01838], [-16.61936, 28.01833], [-16.61941, 28.01838], [-16.61948, 28.01838], [-16.61953, 28.0184], [-16.61949, 28.01843], [-16.61947, 28.01848], [-16.61945, 28.01855], [-16.61942, 28.0186], [-16.61938, 28.01859], [-16.61936, 28.01857], [-16.61932, 28.01858], [-16.61929, 28.01861], [-16.61928, 28.01865], [-16.61929, 28.01869], [-16.61929, 28.0187], [-16.61934, 28.01873], [-16.6194, 28.01876], [-16.6195, 28.01879], [-16.61959, 28.0188], [-16.6197, 28.0188], [-16.61992, 28.01882], [-16.62022, 28.01881], [-16.62031, 28.01882], [-16.62049, 28.01881], [-16.62057, 28.01879], [-16.62068, 28.01874], [-16.62068, 28.0187], [-16.62066, 28.01867], [-16.62068, 28.01864], [-16.62062, 28.01861], [-16.62058, 28.01857], [-16.6206, 28.01853], [-16.62067, 28.01851], [-16.62074, 28.01856], [-16.62076, 28.01867], [-16.62075, 28.01876], [-16.62079, 28.01878], [-16.62085, 28.01877], [-16.62085, 28.01875], [-16.62085, 28.01868], [-16.62084, 28.0186], [-16.62084, 28.01856], [-16.62087, 28.01848], [-16.62091, 28.01846], [-16.62092, 28.01848], [-16.62095, 28.01862], [-16.62102, 28.01872], [-16.62109, 28.01869], [-16.62111, 28.01861], [-16.62115, 28.01856], [-16.62119, 28.01837], [-16.62124, 28.01832], [-16.62127, 28.01835], [-16.62126, 28.01842], [-16.62121, 28.01854], [-16.6212, 28.0186], [-16.62117, 28.01873], [-16.62117, 28.01876], [-16.62122, 28.0188], [-16.62135, 28.01884], [-16.62144, 28.01885], [-16.62164, 28.01885], [-16.62179, 28.01883], [-16.62194, 28.0188], [-16.6221, 28.01875], [-16.62217, 28.01873], [-16.62227, 28.01868], [-16.62235, 28.01862], [-16.62242, 28.01855], [-16.62249, 28.01849], [-16.62255, 28.01843], [-16.62277, 28.01835], [-16.6229, 28.0183], [-16.62305, 28.01826], [-16.62319, 28.01829], [-16.62323, 28.01831], [-16.62329, 28.01838], [-16.62337, 28.01845], [-16.62347, 28.01852], [-16.62353, 28.01855], [-16.62364, 28.0186], [-16.62383, 28.01871], [-16.62394, 28.01877], [-16.62408, 28.0188], [-16.62414, 28.01881], [-16.6244, 28.01882], [-16.6245, 28.01882], [-16.62472, 28.0188], [-16.62483, 28.01878], [-16.62493, 28.01876], [-16.62506, 28.01873], [-16.62527, 28.01866], [-16.62538, 28.01863], [-16.62549, 28.01858], [-16.62574, 28.01845], [-16.62585, 28.01839], [-16.62592, 28.01832], [-16.62596, 28.01826], [-16.626, 28.0182], [-16.62602, 28.01813], [-16.62602, 28.01808], [-16.62598, 28.01806], [-16.62596, 28.01806], [-16.62593, 28.01803], [-16.62593, 28.01795], [-16.62592, 28.01792], [-16.62591, 28.01783], [-16.62595, 28.01776], [-16.62601, 28.01769], [-16.62602, 28.01767], [-16.62599, 28.01761], [-16.6259, 28.01759], [-16.62589, 28.01753], [-16.62596, 28.01751], [-16.62601, 28.01744], [-16.62603, 28.01737], [-16.62604, 28.01732], [-16.62603, 28.0173], [-16.62602, 28.01729], [-16.62602, 28.01725], [-16.62606, 28.01722], [-16.62606, 28.01718], [-16.62604, 28.01707], [-16.62597, 28.01704], [-16.62598, 28.01699], [-16.62601, 28.01699], [-16.62603, 28.01695], [-16.62605, 28.01692], [-16.62607, 28.01695], [-16.6261, 28.017], [-16.62615, 28.01702], [-16.62618, 28.01696], [-16.62617, 28.01689], [-16.62624, 28.0169], [-16.62635, 28.01684], [-16.62636, 28.01683], [-16.62639, 28.01677], [-16.62638, 28.01671], [-16.62633, 28.0167], [-16.6263, 28.01666], [-16.62628, 28.01661], [-16.62627, 28.01655], [-16.62633, 28.0165], [-16.62628, 28.01649], [-16.62625, 28.01644], [-16.62628, 28.01641], [-16.62634, 28.01642], [-16.62635, 28.0164], [-16.62637, 28.01635], [-16.6264, 28.01634], [-16.6264, 28.0163], [-16.62639, 28.01628], [-16.6264, 28.01622], [-16.62648, 28.01616], [-16.62649, 28.01613], [-16.62648, 28.01611], [-16.62641, 28.0161], [-16.62648, 28.01595], [-16.6265, 28.01595], [-16.62657, 28.01595], [-16.62658, 28.01591], [-16.62661, 28.01587], [-16.62666, 28.01581], [-16.62669, 28.01578], [-16.62674, 28.01573], [-16.62677, 28.01569], [-16.62683, 28.01572], [-16.62685, 28.01565], [-16.62688, 28.01562], [-16.62691, 28.0156], [-16.62698, 28.01555], [-16.62701, 28.0155], [-16.62708, 28.01547], [-16.62712, 28.01546], [-16.6272, 28.01548], [-16.62724, 28.01548], [-16.62729, 28.01546], [-16.62734, 28.01541], [-16.62739, 28.0154], [-16.62744, 28.01537], [-16.6275, 28.01537], [-16.62758, 28.01535], [-16.62768, 28.01531], [-16.62774, 28.01526], [-16.62779, 28.01528], [-16.62784, 28.0153], [-16.62785, 28.0153], [-16.62787, 28.01528], [-16.62793, 28.01531], [-16.62798, 28.01529], [-16.62804, 28.01525], [-16.62806, 28.0152], [-16.62811, 28.01517], [-16.62816, 28.01517], [-16.62817, 28.01516], [-16.62822, 28.01515], [-16.62821, 28.0151], [-16.62822, 28.01505], [-16.62828, 28.01501], [-16.62835, 28.01501], [-16.62841, 28.01498], [-16.62842, 28.01496], [-16.62848, 28.01494], [-16.62853, 28.015], [-16.62857, 28.01497], [-16.62859, 28.01493], [-16.62868, 28.01488], [-16.62875, 28.01486], [-16.62884, 28.01489], [-16.62888, 28.01495], [-16.62892, 28.01496], [-16.62893, 28.01496]]]}, "properties": {"cusec": "3803501004", "mun": "035", "nmun": "San Miguel de Abona", "area_m2": 8997608.050510863, "perimeter_m": 15665.952840958555, "coords_system": "wgs84"}}, {"type": "Feature", "geometry": {"type": "Polygon", "coordinates": [[[-1314.957195883402, 2224.2343288967477], [-1284.497266347143, -1011.8380711033434], [-1329.6958714653053, -1087.5356711032462], [-1315.9397742555057, -1115.365671103379], [-1279.584374486276, -1230.0252711033886], [-1270.7411691369944, -1274.5532711032847], [-1374.8944765838166, -1614.0792711034824], [-1294.3230500685281, -1606.2868711033818], [-1126.3021484321787, -1620.7584711032293], [-880.6575553972006, -1665.286471103521], [-801.0687072536666, -1678.6448711034109], [-515.1384009606953, -1727.625671103534], [83.25182767309217, -1818.9080711032423], [381.95565280375956, -1847.851271103333], [650.1995483981678, -1876.7944711034236], [891.9138279447315, -1895.7188711034983], [881.1054658512427, -1864.5492711034917], [880.1228874791391, -1850.0776711032486], [882.0880442233463, -1840.0588711032324], [882.0880442233463, -1828.9268711032585], [882.0880442233463, -1820.0212711035956], [882.0880442233463, -1814.4552711034107], [879.1403091070355, -1798.8704711036053], [879.1403091070355, -1788.851671103589], [882.0880442233463, -1778.8328711035729], [887.0009360842134, -1768.8140711035567], [899.7744549219094, -1755.4556711032715], [916.4782872483689, -1740.9840711034237], [927.2866493418576, -1725.3992711032229], [945.9556384125244, -1704.2484711032325], [964.6246274831911, -1683.0976711032422], [980.345881437547, -1663.0600711036054], [1001.9626056245246, -1639.682871103304], [1018.666437950984, -1622.9848711035406], [1022.5967514397475, -1614.0792711034824], [1022.5967514397475, -1602.9472711035082], [1006.8754974853915, -1572.8908711034596], [997.0497137640066, -1559.5324711035698], [994.1019786476957, -1542.834471103411], [994.1019786476957, -1519.457271103505], [995.0845570197991, -1497.193271103557], [996.0671353919029, -1481.608471103356], [989.1890867868285, -1458.23127110345], [973.4678328324727, -1437.0804711034598], [949.885951901288, -1412.5900711035958], [940.0601681799027, -1399.2316711033106], [940.0601681799027, -1389.2128711032944], [941.0427465520064, -1386.9864711033788], [938.0950114353466, -1378.0808711033203], [918.443443992576, -1348.0244711032717], [914.5131305041617, -1315.7416711033075], [911.5653953878509, -1307.9492711036025], [907.6350818990874, -1299.043671103544], [898.7918765498058, -1280.1192711034696], [893.8789846892878, -1263.4212711033108], [875.209995618621, -1228.9120711034307], [864.4016335247832, -1202.1952711032557], [861.4538984084725, -1187.7236711034082], [870.2971037577539, -1178.8180711033497], [889.9486712005242, -1173.2520711035604], [915.4957088762652, -1169.9124711032914], [939.077589807799, -1162.1200711035865], [961.6768923668803, -1152.1012711035703], [972.4852544603691, -1142.082471103554], [976.4155679491325, -1127.610871103311], [970.5200977161619, -1107.5732711032786], [958.7291572505695, -1080.856471103499], [950.8685302733915, -1051.9132711034083], [950.8685302733915, -1027.4228711035444], [951.8511086454951, -1020.7436711034018], [953.8162653897023, -1019.6304711034439], [955.7814221339096, -1011.8380711033434], [961.6768923668803, -1009.6116711034277], [963.6420491110875, -1002.932471103285], [983.2936165538578, -982.8948711032526], [993.119400275243, -972.8760711032364], [1010.8058109738062, -959.5176711033467], [1037.3354270216507, -935.0272711034829], [1062.8824646973917, -914.9896711034505], [1066.8127781858063, -912.7632711035347], [1094.3249726057545, -894.9520711034181], [1123.8023237702591, -876.0276711033436], [1132.6455291195407, -867.1220711032852], [1146.4016263293402, -858.2164711032269], [1164.0880370279033, -843.7448711033792], [1200.443436797133, -788.0848711035089], [1229.9207879612886, -749.1228711034021], [1247.6071986598515, -722.406071103227], [1260.3807174975477, -695.6892711034475], [1274.1368147076962, -666.7460711033567], [1286.9103335453924, -640.0292711035772], [1294.7709605225702, -628.8972711036031], [1307.5444793606152, -617.7652711032335], [1330.1437819196965, -603.2936711033859], [1355.6908195954375, -589.9352711034962], [1377.307543782415, -579.91647110348], [1394.0113761088744, -569.8976711034638], [1409.7326300632303, -556.539271103574], [1426.4364623893407, -543.1808711032887], [1445.1054514600075, -525.3696711035675], [1462.7918621585707, -495.31327110351896], [1477.5305377408229, -471.936071103613], [1493.2517916951788, -450.7852711032273], [1500.1298402999041, -427.4080711033213], [1507.990467277082, -396.23847110331485], [1512.903359137949, -375.08767110332457], [1528.624613092305, -338.35207110352883], [1541.398131930001, -317.2012711035386], [1560.0671210006678, -287.14487110349], [1583.6490019318524, -245.95647110346732], [1593.4747856535867, -218.12647110333444], [1591.5096289090304, -181.3908711035387], [1598.3876775141046, -156.9004711032794], [1598.3876775141046, -135.74967110328913], [1601.3354126304155, -122.39127110339936], [1614.1089314684605, -86.76887110356148], [1607.2308828633861, -65.61807110357122], [1607.2308828633861, -47.80687110345454], [1613.126353096357, -29.995671103337855], [1614.1089314684605, -26.656071103464285], [1620.0044017010823, -5.50527110347403], [1625.899871934053, 20.09832889674314], [1630.81276379492, 39.022728896422194], [1636.7082340275417, 51.267928896749595], [1638.673390771749, 59.06032889645459], [1634.7430772833345, 70.19232889642865], [1634.7430772833345, 81.3243288964027], [1639.6559691442017, 90.22992889646105], [1652.4294879818976, 91.3431288964189], [1668.1507419362536, 96.90912889660368], [1684.854574262364, 105.81472889666202], [1702.540984960927, 121.3995288964675], [1705.488720077587, 125.85232889669442], [1717.2796605431793, 139.2107288965842], [1720.2273956594902, 143.6635288964156], [1725.140287520357, 151.4559288965161], [1730.0531793808755, 162.58792889649015], [1733.9834928696387, 172.60672889650635], [1734.9660712417424, 183.7387288964804], [1735.948649613846, 198.21032889672352], [1735.948649613846, 219.36112889671378], [1736.9312279859496, 234.94592889651926], [1737.9138063580533, 246.07792889649332], [1737.9138063580533, 267.2287288964836], [1739.8789631022605, 281.70032889672666], [1743.809276591024, 291.71912889674286], [1748.722168451542, 302.85112889671694], [1755.6002170566164, 317.32272889656457], [1758.5479521729271, 324.0019288967072], [1766.408579150105, 336.2471288966391], [1772.3040493830758, 347.37912889661317], [1776.2343628714902, 355.17152889671365], [1779.1820979881502, 369.6431288965613], [1781.1472547323574, 383.0015288964511], [1780.164676360254, 394.1335288964251], [1780.164676360254, 404.1523288964413], [1781.1472547323574, 419.7371288966423], [1786.0601465928753, 442.0011288965904], [1791.9556168258462, 462.0387288966228], [1794.9033519421569, 477.6235288964283], [1795.8859303142606, 490.9819288967135], [1797.851087058817, 501.0007288967297], [1798.8336654309205, 515.4723288965773], [1798.8336654309205, 529.943928896425], [1796.8685086867133, 542.1891288967524], [1791.9556168258462, 555.5475288966421], [1783.1124114765646, 570.0191288964897], [1778.1995196160465, 580.037928896506], [1770.3388926388686, 590.0567288965221], [1763.4608440337943, 598.9623288965805], [1757.5653738008236, 608.9811288965967], [1757.5653738008236, 617.8867288966551], [1765.4260007780017, 625.6791288967555], [1777.2169412435937, 633.4715288964605], [1790.9730384537427, 644.6035288964346], [1795.8859303142606, 647.9431288967037], [1802.763978919335, 654.6223288964508], [1805.7117140359949, 661.3015288965935], [1808.6594491523056, 667.9807288967361], [1809.6420275244093, 681.3391288966259], [1814.5549193852767, 698.0371288963892], [1819.4678112457946, 703.6031288965739], [1821.4329679900015, 704.7163288965318], [1826.3458598508687, 706.9427288964475], [1828.3110165950761, 713.6219288965901], [1829.2935949671794, 740.3387288967651], [1826.3458598508687, 752.5839288966971], [1819.4678112457946, 753.6971288966549], [1812.58976264072, 749.244328896428], [1818.4852328736908, 779.3007288964766], [1769.356314266765, 780.4139288964345], [1757.5653738008236, 780.4139288964345], [1733.0009144975352, 782.6403288967457], [1714.3319254268686, 783.7535288967035], [1691.7326228674383, 783.7535288967035], [1676.9939472855351, 784.8667288966614], [1655.3772230982086, 787.0931288965771], [1639.6559691442017, 790.4327288964507], [1627.8650286782602, 794.8855288966776], [1616.0740882126677, 798.2251288965512], [1611.1611963518008, 800.4515288964669], [1610.178617979697, 804.9043288966938], [1611.1611963518008, 811.583528896441], [1607.2308828633861, 814.92312889671], [1600.352834258312, 816.0363288966678], [1589.544472164823, 819.3759288965414], [1580.7012668155414, 823.8287288967683], [1573.8232182104673, 827.1683288966419], [1569.892904722053, 833.847528896389], [1570.8754830941564, 839.4135288965738], [1574.80579658292, 844.9795288967586], [1575.7883749550235, 848.3191288966322], [1575.7883749550235, 856.1115288967326], [1572.8406398383636, 865.0171288963954], [1568.9103263499494, 872.809528896496], [1562.0322777448748, 875.0359288964116], [1557.119385884357, 873.9227288964538], [1551.2239156513863, 876.149128896765], [1536.4852400691339, 883.94152889647], [1525.676877975645, 890.6207288966127], [1519.7814077430235, 897.2999288967553], [1519.7814077430235, 899.526328896671], [1519.7814077430235, 903.9791288965024], [1518.7988293705707, 910.6583288966451], [1511.9207807658454, 918.4507288967455], [1504.0601537886675, 926.2431288964506], [1502.0949970444603, 930.6959288966775], [1498.164683555697, 936.2619288964668], [1493.2517916951788, 944.0543288965672], [1493.2517916951788, 946.280728896483], [1488.3388998343116, 955.1863288965412], [1479.49569448503, 962.9787288966418], [1472.6176458799557, 970.7711288967423], [1462.7918621585707, 972.997528896658], [1447.0706082045638, 968.544728896431], [1436.262246110726, 962.9787288966418], [1428.4016191338972, 959.6391288967682], [1419.5584137846156, 958.5259288964148], [1408.7500516911266, 959.6391288967682], [1402.854581458156, 961.8655288966839], [1401.8720030860525, 961.8655288966839], [1401.8720030860525, 969.657928896389], [1399.9068463418453, 978.5635288964472], [1392.0462193646672, 984.129528896632], [1385.1681707595928, 989.6955288964214], [1390.081062620111, 999.7143288964376], [1382.2204356432821, 1001.9407288967487], [1373.3772302940006, 996.374728896564], [1368.4643384331334, 985.2427288965898], [1362.5688682001628, 981.9031288967163], [1349.7953493624666, 988.5823288964634], [1345.8650358740524, 990.8087288967747], [1348.812770990363, 997.4879288965218], [1348.812770990363, 1004.1671288966644], [1350.7779277345703, 1006.3935288965802], [1353.7256628512303, 1011.9595288967649], [1348.812770990363, 1014.1859288966806], [1340.952144013185, 1007.506728896538], [1338.986987268978, 1004.1671288966644], [1335.0566737805634, 1000.8275288963954], [1327.1960468033856, 999.7143288964376], [1325.2308900588293, 994.1483288966482], [1320.3179981983112, 988.5823288964634], [1314.4225279653406, 985.2427288965898], [1304.5967442439555, 989.6955288964214], [1302.631587499748, 996.374728896564], [1306.5619009881627, 1003.0539288967066], [1301.6490091276446, 1015.2991288966384], [1297.7186956388812, 1021.9783288967811], [1290.8406470341556, 1019.75192889647], [1285.9277551732887, 1019.75192889647], [1281.997441684874, 1020.8651288964278], [1274.1368147076962, 1026.4311288966126], [1267.2587661026218, 1034.223528896713], [1259.398139125444, 1040.90272889646], [1251.5375121482662, 1050.9215288964763], [1244.6594635435408, 1057.6007288966189], [1240.7291500547772, 1064.2799288967617], [1242.6943067989846, 1074.298728896778], [1242.6943067989846, 1088.7703288966254], [1234.8336798221558, 1089.8835288965834], [1224.0253177283178, 1088.7703288966254], [1218.1298474956961, 1089.8835288965834], [1213.216955634829, 1088.7703288966254], [1203.391171913444, 1082.0911288964828], [1198.4782800529258, 1080.9779288965249], [1192.5828098199552, 1083.2043288964408], [1188.6524963315405, 1082.0911288964828], [1185.7047612148808, 1078.7515288966092], [1179.809290982259, 1079.8647288965672], [1174.896399121392, 1078.7515288966092], [1166.0531937721105, 1074.298728896778], [1157.209988422829, 1073.1855288964246], [1146.4016263293402, 1073.1855288964246], [1137.5584209800586, 1075.4119288967356], [1126.7500588865698, 1079.8647288965672], [1117.9068535372883, 1084.3175288963985], [1109.0636481880067, 1090.996728896541], [1102.1855995829324, 1098.7891288966416], [1098.255286094518, 1103.2419288964732], [1094.3249726057545, 1105.4683288963888], [1088.429502373133, 1111.0343288965735], [1082.534032140162, 1116.6003288967584], [1080.5688753959548, 1124.3927288964633], [1081.5514537680585, 1128.8455288966902], [1082.534032140162, 1131.0719288966059], [1089.4120807452364, 1138.8643288967064], [1095.307550978207, 1145.5435288964536], [1101.2030212108289, 1153.3359288965542], [1105.1333346995923, 1162.2415288966124], [1109.0636481880067, 1174.4867288965443], [1107.0984914437995, 1181.1659288966869], [1111.028804932214, 1185.6187288965184], [1114.9591184209776, 1188.958328896392], [1118.889431909392, 1190.0715288967453], [1120.854588653599, 1197.8639288964503], [1123.8023237702591, 1205.6563288965508], [1117.9068535372883, 1208.9959288964244], [1112.0113833043174, 1206.7695288965087], [1112.0113833043174, 1198.9771288964082], [1108.0810698159032, 1194.5243288965767], [1104.1507563271396, 1193.411128896619], [1100.2204428387251, 1193.411128896619], [1092.3598158615473, 1190.0715288967453], [1078.6037186517476, 1186.7319288964763], [1074.6734051629842, 1186.7319288964763], [1060.9173079531845, 1188.958328896392], [1046.1786323709323, 1194.5243288965767], [1028.4922216723692, 1203.4299288966351], [1016.7012812067768, 1210.1091288967777], [1007.8580758574952, 1216.788328896525], [1000.9800272524209, 1224.5807288966253], [991.1542435310358, 1242.391928896742], [989.1890867868285, 1247.9579288965313], [989.1890867868285, 1251.2975288964049], [992.1368219031393, 1256.8635288965897], [989.1890867868285, 1260.203128896463], [983.2936165538578, 1260.203128896463], [978.3807246933397, 1262.4295288967744], [972.4852544603691, 1264.65592889669], [968.5549409719545, 1260.203128896463], [964.6246274831911, 1253.5239288967161], [962.6594707389838, 1249.0711288964892], [958.7291572505695, 1246.8447288965735], [955.7814221339096, 1249.0711288964892], [953.8162653897023, 1254.6371288966739], [956.7640005060131, 1257.9767288965475], [962.6594707389838, 1261.316328896421], [963.6420491110875, 1265.769128896648], [961.6768923668803, 1270.2219288964793], [954.798843761806, 1270.2219288964793], [949.885951901288, 1273.5615288967485], [947.9207951570805, 1270.2219288964793], [949.885951901288, 1263.5427288967323], [949.885951901288, 1259.0899288965054], [943.9904816683172, 1259.0899288965054], [937.1124330632429, 1257.9767288965475], [935.1472763190357, 1262.4295288967744], [936.1298546911391, 1270.2219288964793], [933.1821195748283, 1272.4483288963952], [928.2692277139613, 1269.1087288965216], [924.3389142255468, 1264.65592889669], [917.4608656204725, 1262.4295288967744], [912.5479737599544, 1263.5427288967323], [912.5479737599544, 1269.1087288965216], [915.4957088762652, 1274.6747288967063], [911.5653953878509, 1274.6747288967063], [903.704768410673, 1271.3351288964373], [899.7744549219094, 1270.2219288964793], [890.9312495726278, 1273.5615288967485], [887.983514456317, 1278.0143288965799], [890.9312495726278, 1281.3539288964535], [895.844141433495, 1284.6935288967225], [892.8964063171841, 1288.033128896596], [889.9486712005242, 1285.8067288966804], [883.0706225954499, 1286.9199288966383], [878.1577307349319, 1290.2595288965117], [876.1925739907247, 1298.0519288966123], [873.2448388740647, 1302.5047288964438], [871.2796821298575, 1303.6179288964015], [863.4190551526796, 1304.7311288967549], [858.5061632921615, 1309.1839288965864], [861.4538984084725, 1315.863128896729], [866.3667902693394, 1319.2027288966026], [871.2796821298575, 1325.8819288967452], [875.209995618621, 1333.67432889645], [877.1751523628283, 1340.3535288965927], [871.2796821298575, 1339.240328896635], [865.3842118972359, 1334.787528896408], [860.4713200363688, 1333.67432889645], [856.5410065479543, 1326.9951288967031], [854.575849803398, 1322.5423288964762], [850.6455363149836, 1325.8819288967452], [844.750066082013, 1325.8819288967452], [841.802330965702, 1323.655528896434], [839.8371742214948, 1319.2027288966026], [837.8720174772876, 1312.52352889646], [838.8545958493912, 1305.8443288967128], [837.8720174772876, 1298.0519288966123], [833.9417039885241, 1296.9387288966545], [828.0462337559024, 1300.278328896528], [826.0810770113462, 1305.8443288967128], [821.1681851508281, 1310.297128896544], [816.255293289961, 1312.52352889646], [814.2901365457539, 1316.976328896687], [814.2901365457539, 1323.655528896434], [817.2378716620647, 1328.1083288966609], [827.0636553834498, 1331.4479288965344], [827.0636553834498, 1334.787528896408], [821.1681851508281, 1348.1459288966932], [817.2378716620647, 1358.1647288967094], [812.3249798015465, 1364.8439288964566], [807.4120879406794, 1369.2967288966836], [806.4295095685759, 1371.5231288965992], [800.5340393359543, 1372.6363288965572], [796.6037258471907, 1377.0891288963885], [790.70825561422, 1379.3155288966998], [790.70825561422, 1374.8627288964728], [794.6385691029834, 1362.617528896541], [792.6734123587763, 1355.9383288963982], [791.6908339866727, 1351.4855288965668], [792.6734123587763, 1349.2591288966512], [789.7256772421164, 1348.1459288966932], [774.0044232881096, 1348.1459288966932], [747.4748072402649, 1347.0327288967355], [728.8058181695982, 1347.0327288967355], [670.8336942130418, 1354.8251288964404], [624.6525107224268, 1357.0515288967517], [598.1228946749312, 1359.2779288966674], [591.2448460698569, 1362.617528896541], [587.3145325810933, 1368.1835288967256], [580.4364839763682, 1365.9571288964144], [573.5584353712937, 1361.504328896583], [567.6629651383231, 1362.617528896541], [558.8197597890415, 1362.617528896541], [547.028819323449, 1364.8439288964566], [537.203035602064, 1368.1835288967256], [525.4120951364716, 1373.749528896515], [514.6037330429828, 1381.5419288966154], [496.91732234441963, 1396.013528896463], [492.00443048355265, 1403.8059288965635], [486.10896025058184, 1413.8247288965797], [484.1438035063747, 1419.3907288967646], [486.10896025058184, 1424.9567288965538], [492.00443048355265, 1437.2019288964857], [513.62115467053, 1477.2771288965505], [519.5166249035009, 1486.1827288966088], [525.4120951364716, 1495.0883288966672], [531.3075653690931, 1502.8807288967678], [533.2727221136496, 1509.5599288965147], [535.2378788578567, 1518.4655288965732], [535.2378788578567, 1526.2579288966735], [535.2378788578567, 1537.3899288966477], [531.3075653690931, 1549.6351288965795], [528.3598302527824, 1562.9935288964693], [520.4992032756045, 1578.5783288966704], [516.5688897871901, 1585.2575288964176], [512.6385762984265, 1589.7103288966443], [505.7605276937012, 1591.9367288965602], [499.8650574607305, 1591.9367288965602], [498.88247908862695, 1597.5027288967449], [494.9521655998634, 1600.8423288966185], [487.0915386230345, 1603.0687288965341], [477.2657549013003, 1608.634728896719], [468.42254955236785, 1615.3139288964662], [460.5619225751899, 1620.8799288966509], [453.6838739701156, 1621.9931288966088], [447.78840373714485, 1626.4459288964401], [437.9626200157596, 1633.1251288965827], [429.1194146664781, 1637.5779288964143], [421.25878768930016, 1639.8043288967253], [412.4155823400186, 1643.143928896599], [400.6246418744263, 1656.5023288964887], [383.92080954796677, 1669.860728896774], [375.0776041986852, 1675.4267288965634], [370.1647123381672, 1678.7663288964368], [366.23439884940365, 1683.2191288966637], [358.37377187257476, 1686.5587288965373], [351.49572326750047, 1686.5587288965373], [341.66993954611524, 1685.4455288965796], [332.82673419683374, 1682.105928896706], [324.9661072196558, 1677.653128896479], [319.07063698668503, 1672.0871288966898], [319.07063698668503, 1664.2947288965893], [323.0009504754486, 1659.8419288967577], [323.0009504754486, 1654.275928896573], [326.931263963863, 1653.1627288966151], [332.82673419683374, 1652.0495288966574], [339.7047828019081, 1655.389128896531], [344.6176746624261, 1659.8419288967577], [351.49572326750047, 1664.2947288965893], [354.4434583838113, 1664.2947288965893], [363.2866637330928, 1664.2947288965893], [370.1647123381672, 1660.9551288967157], [378.0253393153451, 1654.275928896573], [385.88596629252305, 1648.7099288963882], [410.4504255958114, 1632.011928896625], [413.39816071247134, 1627.559128896398], [418.31105257298935, 1621.9931288966088], [425.18910117806365, 1619.766728896693], [431.0845714106854, 1614.2007288965083], [439.9277767599669, 1608.634728896719], [455.64903071432275, 1603.0687288965341], [462.52707931939716, 1598.6159288967028], [479.23091164585657, 1587.4839288967287], [480.2134900179602, 1586.3707288967707], [487.0915386230345, 1580.804728896586], [497.89990071652335, 1569.672728896612], [502.81279257704136, 1562.9935288964693], [506.7431060658049, 1552.9747288964531], [506.7431060658049, 1544.069128896395], [504.7779493212485, 1534.050328896774], [504.7779493212485, 1521.8051288964468], [500.8476358328342, 1510.6731288964727], [500.8476358328342, 1497.314728896583], [498.88247908862695, 1490.6355288964403], [495.9347439723161, 1482.8431288967354], [491.02185211144894, 1478.3903288965084], [486.10896025058184, 1477.2771288965505], [482.17864676216743, 1479.5035288964662], [450.73613885380473, 1428.2963288964274], [438.9451983878633, 1431.6359288966964], [425.18910117806365, 1436.0887288965278], [413.39816071247134, 1442.7679288966706], [407.5026904795006, 1449.4471288964176], [405.5375337352934, 1459.4659288964338], [404.5549553631898, 1468.3715288964922], [399.6420635023226, 1478.3903288965084], [391.7814365251447, 1483.956328896693], [382.93823117586317, 1485.069528896651], [370.1647123381672, 1481.7299288967774], [363.2866637330928, 1481.7299288967774], [354.4434583838113, 1480.616728896424], [349.53056652329326, 1485.069528896651], [344.6176746624261, 1491.7487288963982], [339.7047828019081, 1493.9751288967093], [333.80931256893734, 1491.7487288963982], [328.89642070807025, 1490.6355288964403], [305.3145397768855, 1490.6355288964403], [303.34938303267825, 1492.8619288967516], [301.38422628812197, 1497.314728896583], [298.43649117181116, 1501.7675288964144], [296.47133442760395, 1505.1071288966834], [294.50617768339674, 1506.2203288966411], [291.5584425667368, 1506.2203288966411], [286.6455507062188, 1508.446728896557], [280.75008047324803, 1512.8995288963883], [275.83718861272996, 1518.4655288965732], [275.83718861272996, 1527.3711288966315], [279.76750210114443, 1535.163528896732], [282.71523721745524, 1541.8427288964792], [280.75008047324803, 1548.5219288966218], [272.88945349607013, 1552.9747288964531], [265.0288265188922, 1552.9747288964531], [259.1333562862705, 1548.5219288966218], [256.1856211699597, 1540.7295288965213], [254.22046442540338, 1530.710728896505], [252.25530768119617, 1520.691928896489], [251.2727293090926, 1518.4655288965732], [246.35983744822548, 1521.8051288964468], [238.49921047139662, 1532.9371288964207], [231.6211618663222, 1539.6163288965633], [226.7082700054551, 1546.295528896706], [225.72569163335152, 1552.9747288964531], [227.69084837755872, 1559.6539288965957], [223.7605348891443, 1564.1067288964273], [218.8476430282772, 1568.5595288966542], [217.8650646561736, 1576.3519288967545], [219.83022140072987, 1584.1443288964597], [226.7082700054551, 1589.7103288966443], [229.65600512211506, 1595.2763288964338], [224.7431132612479, 1598.6159288967028], [215.89990791196635, 1598.6159288967028], [210.98701605144834, 1598.6159288967028], [206.07412419058122, 1599.7291288966605], [198.21349721340326, 1599.7291288966605], [189.3702918641217, 1603.0687288965341], [180.52708651484016, 1606.4083288964077], [173.6490379101149, 1607.521528896761], [166.77098930504056, 1611.9743288965926], [159.89294069996623, 1607.521528896761], [153.9974704669955, 1599.7291288966605], [150.06715697858107, 1590.8235288966023], [148.10200023437386, 1581.917928896544], [139.2587948850923, 1580.804728896586], [115.67691395355847, 1575.2387288964014], [112.72917883724764, 1579.6915288966281], [105.85113023217332, 1581.917928896544], [106.83370860427692, 1571.8991288965278], [110.76402209304044, 1565.2199288967806], [109.78144372093682, 1560.7671288965537], [102.9033951158625, 1558.540728896638], [92.09503302237373, 1557.42752889668], [86.19956278940299, 1561.8803288965116], [82.26924930098856, 1565.2199288967806], [77.35635744012144, 1570.7859288965699], [77.35635744012144, 1574.1255288964435], [74.40862232381062, 1584.1443288964597], [78.33893581222505, 1593.049928896518], [80.30409255643227, 1598.6159288967028], [79.32151418432866, 1601.9555288965764], [74.40862232381062, 1596.3895288963915], [70.4783088350471, 1591.9367288965602], [67.53057371873628, 1580.804728896586], [67.53057371873628, 1573.0123288964855], [60.65252511366195, 1568.5595288966542], [51.8093197643804, 1569.672728896612], [44.93127115965515, 1573.0123288964855], [39.035800926684416, 1579.6915288966281], [33.140330693713686, 1580.804728896586], [17.41907673970688, 1581.917928896544], [10.541028134632546, 1580.804728896586], [7.593293018321723, 1574.1255288964435], [4.645557901661817, 1575.2387288964014], [3.6629795295582097, 1579.6915288966281], [6.610714645869033, 1596.3895288963915], [7.593293018321723, 1606.4083288964077], [8.57587139042533, 1614.2007288965083], [6.610714645869033, 1619.766728896693], [-0.26733395885622113, 1621.9931288966088], [-3.2150690755161264, 1617.5403288967773], [-7.145382563930557, 1614.2007288965083], [-7.145382563930557, 1610.8611288966347], [-7.145382563930557, 1595.2763288964338], [-12.058274424797677, 1593.049928896518], [-16.971166285315718, 1599.7291288966605], [-19.918901401626538, 1601.9555288965764], [-21.884058146182838, 1606.4083288964077], [-27.779528378804482, 1604.181928896492], [-29.7446851230117, 1598.6159288967028], [-26.796950006700875, 1590.8235288966023], [-25.81437163459727, 1585.2575288964176], [-25.81437163459727, 1583.0311288965017], [-28.762106750908092, 1580.804728896586], [-32.692420239671605, 1583.0311288965017], [-36.62273372808603, 1587.4839288967287], [-41.53562558895315, 1591.9367288965602], [-43.50078233316037, 1594.1631288964759], [-44.483360705263976, 1601.9555288965764], [-47.4310958215748, 1608.634728896719], [-49.396252566131096, 1613.0875288965503], [-55.291722798752744, 1611.9743288965926], [-60.204614659619864, 1607.521528896761], [-61.187193031723474, 1603.0687288965341], [-65.11750652013791, 1598.6159288967028], [-71.01297675310863, 1598.6159288967028], [-76.90844698607935, 1599.7291288966605], [-85.75165233536092, 1598.6159288967028], [-85.75165233536092, 1593.049928896518], [-84.76907396290822, 1587.4839288967287], [-85.75165233536092, 1584.1443288964597], [-94.59485768464246, 1587.4839288967287], [-110.31611163864928, 1595.2763288964338], [-114.24642512741278, 1600.8423288966185], [-116.21158187162, 1608.634728896719], [-116.21158187162, 1614.2007288965083], [-115.2290034995164, 1617.5403288967773], [-110.31611163864928, 1617.5403288967773], [-106.38579815023483, 1620.8799288966509], [-114.24642512741278, 1638.6911288967676], [-119.15931698793082, 1658.7287288964044], [-119.15931698793082, 1678.7663288964368], [-124.07220884879794, 1685.4455288965796], [-127.01994396510877, 1688.785128896453], [-129.9676790814196, 1694.3511288966379], [-134.8805709422867, 1699.9171288964271], [-139.79346280280475, 1694.3511288966379], [-145.68893303577548, 1688.785128896453], [-148.6366681520863, 1685.4455288965796], [-150.6018248966426, 1680.992728896748], [-151.5844032687462, 1680.992728896748], [-154.53213838505704, 1684.3323288966217], [-160.42760861802776, 1684.3323288966217], [-164.35792210644217, 1677.653128896479], [-168.2882355952057, 1683.2191288966637], [-172.21854908362013, 1689.898328896411], [-178.11401931659086, 1691.0115288967643], [-183.0269111771089, 1688.785128896453], [-184.0094895492125, 1682.105928896706], [-186.95722466587242, 1682.105928896706], [-191.87011652639043, 1677.653128896479], [-199.7307435035684, 1672.0871288966898], [-203.66105699198283, 1670.9739288967319], [-207.59137048074632, 1670.9739288967319], [-211.52168396916076, 1674.3135288966055], [-210.53910559705716, 1678.7663288964368], [-209.55652722495356, 1686.5587288965373], [-211.52168396916076, 1692.1247288967222], [-223.31262443475313, 1703.2567288966961], [-229.20809466772386, 1716.615128896586], [-231.1732514119311, 1722.1811288967708], [-231.1732514119311, 1725.5207288966444], [-233.13840815648734, 1729.9735288964757], [-239.03387838910905, 1736.6527288966183], [-244.92934862207974, 1738.879128896534], [-248.85966211049418, 1746.6715288966345], [-254.75513234346488, 1744.4451288967189], [-254.75513234346488, 1737.7659288965763], [-256.72028908767214, 1731.0867288964337], [-263.59833769274644, 1729.9735288964757], [-269.4938079253681, 1725.5207288966444], [-270.47638629782085, 1723.2943288967285], [-272.441543042028, 1723.2943288967285], [-276.3718565304424, 1727.74712889656], [-284.2324835076204, 1733.3131288967447], [-284.2324835076204, 1737.7659288965763], [-280.30217001920596, 1745.5583288966768], [-275.38927815833887, 1750.0111288965081], [-274.40669978623527, 1755.577128896693], [-279.31959164710236, 1760.0299288965243], [-281.28474839130956, 1765.5959288967092], [-284.2324835076204, 1767.8223288966249], [-288.1627969963839, 1772.2751288964562], [-295.04084560110914, 1777.841128896641], [-297.9885807177691, 1784.520328896388], [-305.8492076945979, 1793.4259288964465], [-313.7098346717759, 1800.1051288965891], [-325.5007751377173, 1805.671128896774], [-332.3788237424426, 1805.671128896774], [-335.3265588591025, 1801.218328896547], [-337.2917156033097, 1806.7843288967317], [-343.18718583593136, 1807.8975288966897], [-357.9258614181837, 1820.1427288966215], [-365.7864883953616, 1827.935128896722], [-369.716801883776, 1835.727528896427], [-371.6819586283323, 1843.5199288965275], [-374.62969374464313, 1849.0859288967122], [-379.5425856051612, 1843.5199288965275], [-386.42063421023545, 1843.5199288965275], [-391.3335260711026, 1841.2935288966119], [-387.4032125823391, 1837.9539288967383], [-385.4380558381319, 1832.3879288965534], [-383.4728990939247, 1824.5955288964528], [-380.5251639776139, 1819.0295288966636], [-376.59485048885034, 1820.1427288966215], [-374.62969374464313, 1822.3691288965372], [-370.69938025587965, 1821.2559288965795], [-367.7516451395688, 1817.9163288967059], [-366.7690667674652, 1813.463528896479], [-367.7516451395688, 1809.0107288966474], [-367.7516451395688, 1807.8975288966897], [-372.6645370004359, 1804.5579288964204], [-378.56000723305755, 1801.218328896547], [-388.3857909544427, 1797.8787288966735], [-397.2289963037243, 1796.7655288967155], [-408.0373583975621, 1796.7655288967155], [-429.65408258453965, 1794.5391288964042], [-459.13143374869514, 1795.6523288967578], [-467.9746390979767, 1794.5391288964042], [-485.6610497965398, 1795.6523288967578], [-493.5216767737177, 1797.8787288966735], [-504.3300388672065, 1803.4447288964627], [-504.3300388672065, 1807.8975288966897], [-502.36488212299923, 1811.2371288965633], [-504.3300388672065, 1814.5767288964366], [-498.4345686342358, 1817.9163288967059], [-494.50425514582133, 1822.3691288965372], [-496.46941189002854, 1826.8219288967641], [-503.3474604951029, 1829.0483288966798], [-510.2255091001772, 1823.4823288964951], [-512.1906658443845, 1811.2371288965633], [-511.2080874722808, 1801.218328896547], [-515.1384009606953, 1798.9919288966312], [-521.033871193666, 1800.1051288965891], [-521.033871193666, 1802.3315288965048], [-521.033871193666, 1810.1239288966053], [-520.0512928215624, 1819.0295288966636], [-520.0512928215624, 1823.4823288964951], [-522.9990279378732, 1832.3879288965534], [-526.9293414262876, 1834.614328896469], [-527.9119197987403, 1832.3879288965534], [-530.8596549150511, 1816.803128896748], [-537.7377035201255, 1805.671128896774], [-544.6157521248507, 1809.0107288966474], [-546.5809088694069, 1817.9163288967059], [-550.5112223578216, 1823.4823288964951], [-554.4415358462359, 1844.6331288964852], [-559.354427707103, 1850.1991288966701], [-562.3021628234138, 1846.8595288964011], [-561.3195844513102, 1839.067128896696], [-556.4066925907922, 1825.7087288964108], [-555.4241142186885, 1819.0295288966636], [-552.4763791020287, 1804.5579288964204], [-552.4763791020287, 1801.218328896547], [-557.3892709628958, 1796.7655288967155], [-570.1627898005918, 1792.3127288964886], [-579.0059951498733, 1791.1995288965309], [-598.6575625926436, 1791.1995288965309], [-613.396238174896, 1793.4259288964465], [-628.134913756799, 1796.7655288967155], [-643.8561677111551, 1802.3315288965048], [-650.7342163162293, 1804.5579288964204], [-660.5600000376145, 1810.1239288966053], [-668.4206270147924, 1816.803128896748], [-675.2986756198668, 1824.5955288964528], [-682.1767242245921, 1831.2747288965957], [-688.0721944575628, 1837.9539288967383], [-709.6889186445403, 1846.8595288964011], [-722.4624374825853, 1852.4255288965858], [-737.2011130644886, 1856.8783288964173], [-750.9572102746372, 1853.5387288965437], [-754.8875237630517, 1851.312328896628], [-760.7829939960224, 1843.5199288965275], [-768.6436209732003, 1835.727528896427], [-778.4694046945855, 1827.935128896722], [-784.3648749272072, 1824.5955288964528], [-795.173237021045, 1819.0295288966636], [-813.8422260917117, 1806.7843288967317], [-824.6505881852005, 1800.1051288965891], [-838.4066853950001, 1796.7655288967155], [-844.3021556279708, 1795.6523288967578], [-869.8491933037118, 1794.5391288964042], [-879.674977025097, 1794.5391288964042], [-901.2917012120745, 1796.7655288967155], [-912.1000633055633, 1798.9919288966312], [-921.9258470269484, 1801.218328896547], [-934.6993658649935, 1804.5579288964204], [-955.3335116798675, 1812.350328896521], [-966.1418737733562, 1815.6899288963946], [-976.9502358668449, 1821.2559288965795], [-1001.5146951704825, 1835.727528896427], [-1012.3230572639711, 1842.4067288965696], [-1019.2011058690455, 1850.1991288966701], [-1023.13141935746, 1856.8783288964173], [-1027.0617328462233, 1863.55752889656], [-1029.0268895904308, 1871.3499288966605], [-1029.0268895904308, 1876.9159288964497], [-1025.0965761016673, 1879.1423288967608], [-1023.13141935746, 1879.1423288967608], [-1020.1836842411492, 1882.4819288966344], [-1020.1836842411492, 1891.3875288966929], [-1019.2011058690455, 1894.7271288965662], [-1018.2185274969419, 1904.7459288965824], [-1022.1488409853564, 1912.538328896683], [-1028.044311218327, 1920.330728896388], [-1029.0268895904308, 1922.5571288966992], [-1026.0791544741198, 1929.2363288964464], [-1017.2359491248384, 1931.4627288967577], [-1016.2533707523856, 1938.1419288965046], [-1023.13141935746, 1940.3683288964205], [-1028.044311218327, 1948.1607288965208], [-1030.0094679625342, 1955.9531288966214], [-1030.992046334638, 1961.5191288964106], [-1030.0094679625342, 1963.745528896722], [-1029.0268895904308, 1964.8587288966796], [-1029.0268895904308, 1969.3115288965112], [-1032.9572030788452, 1972.6511288967802], [-1032.9572030788452, 1977.1039288966117], [-1030.992046334638, 1989.3491288965436], [-1024.1139977295636, 1992.6887288964172], [-1025.0965761016673, 1998.2547288966018], [-1028.044311218327, 1998.2547288966018], [-1030.0094679625342, 2002.7075288964334], [-1031.9746247067417, 2006.0471288967024], [-1033.9397814509487, 2002.7075288964334], [-1036.8875165676086, 1997.141528896644], [-1041.8004084281267, 1994.9151288967282], [-1044.7481435447864, 2001.5943288964754], [-1043.7655651723337, 2009.386728896576], [-1050.6436137774083, 2008.273528896618], [-1061.4519758708968, 2014.9527288967606], [-1062.4345542430005, 2016.0659288967186], [-1065.3822893596605, 2022.7451288964658], [-1064.399710987557, 2029.4243288966084], [-1059.4868191266899, 2030.5375288965663], [-1056.539084010379, 2034.9903288963976], [-1054.5739272661717, 2040.5563288965825], [-1053.591348894068, 2047.235528896725], [-1059.4868191266899, 2052.8015288965144], [-1054.5739272661717, 2053.9147288964723], [-1051.6261921495118, 2059.4807288966567], [-1054.5739272661717, 2062.8203288965306], [-1060.4693974987933, 2061.7071288965726], [-1061.4519758708968, 2063.9335288964885], [-1063.4171326154533, 2069.499528896673], [-1066.3648677317642, 2070.612728896631], [-1066.3648677317642, 2075.0655288964626], [-1065.3822893596605, 2077.2919288967737], [-1066.3648677317642, 2083.971128896521], [-1074.225494708942, 2090.6503288966633], [-1075.2080730810458, 2093.989928896537], [-1074.225494708942, 2096.2163288964525], [-1067.3474461038677, 2097.3295288964105], [-1074.225494708942, 2114.0275288965695], [-1076.1906514531493, 2114.0275288965695], [-1083.0687000582236, 2114.0275288965695], [-1084.0512784303273, 2118.480328896401], [-1086.999013546638, 2122.9331288966277], [-1091.9119054075052, 2129.61232889677], [-1094.8596405238159, 2132.951928896644], [-1099.7725323846832, 2138.517928896433], [-1102.720267500994, 2142.97072889666], [-1108.6157377339648, 2139.631128896391], [-1110.5808944781718, 2147.4235288964915], [-1113.5286295944827, 2150.7631288967605], [-1116.4763647107936, 2152.9895288966763], [-1123.3544133158678, 2158.5555288964656], [-1126.3021484321787, 2164.1215288966505], [-1133.180197037253, 2167.461128896524], [-1137.1105105260165, 2168.574328896482], [-1144.9711375028453, 2166.347928896566], [-1148.901450991609, 2166.347928896566], [-1153.8143428521269, 2168.574328896482], [-1158.727234712994, 2174.1403288966667], [-1163.640126573512, 2175.2535288966246], [-1168.5530184343793, 2178.593128896498], [-1174.44848866735, 2178.593128896498], [-1182.3091156441787, 2180.819528896414], [-1192.134899365913, 2185.272328896641], [-1198.0303695985347, 2190.83832889643], [-1202.9432614594018, 2188.611928896514], [-1207.8561533199197, 2186.3855288965983], [-1208.8387316920234, 2186.3855288965983], [-1210.8038884365799, 2188.611928896514], [-1216.6993586692013, 2185.272328896641], [-1221.6122505300684, 2187.4987288965563], [-1227.5077207626903, 2191.9515288963876], [-1229.4728775072465, 2197.5175288965725], [-1234.3857693677644, 2200.8571288964463], [-1239.2986612286315, 2200.8571288964463], [-1240.2812396007353, 2201.9703288964038], [-1245.1941314612534, 2203.0835288967573], [-1244.2115530891497, 2208.6495288965466], [-1245.1941314612534, 2214.2155288967315], [-1251.089601694224, 2218.668328896563], [-1257.9676502992984, 2218.668328896563], [-1263.86312053192, 2222.007928896436], [-1264.8456989040235, 2224.2343288967477], [-1270.7411691369944, 2226.460728896663], [-1275.6540609978615, 2219.7815288965207], [-1279.584374486276, 2223.121128896394], [-1281.549531230483, 2227.573928896621], [-1290.3927365797645, 2233.1399288964103], [-1297.270785184839, 2235.366328896722], [-1306.1139905341206, 2232.0267288964524], [-1310.044304022535, 2225.3475288967056], [-1313.9746175112984, 2224.2343288967477], [-1314.957195883402, 2224.2343288967477]]]}, "properties": {"cusec": "3803501004", "mun": "035", "nmun": "San Miguel de Abona", "area_m2": 8997608.050510863, "perimeter_m": 15665.952840958555, "coords_system": "local_m_enu"}}]}