{"type": "FeatureCollection", "crs": {"type": "name", "properties": {"name": "EPSG:32628_local_enu_m_section_centroid", "lng0": -16.363274832036666, "lat0": 28.37823095747539}}, "features": [{"type": "Feature", "geometry": {"type": "Polygon", "coordinates": [[[-107.26447950110831, 179.27496053397903], [-103.10825387188335, 181.11203292555754], [-92.09205945789722, 162.96256907535707], [-96.51044441080204, 160.25848706878648], [-98.05928322508787, 162.84038616072633], [-98.15951112959965, 162.84038616072633], [-99.2428177611518, 164.687289983129], [-107.26447950110831, 179.27496053397903]]]}, "properties": {"id": 0, "height_median_m": 3.0, "building_count": 1, "area_m2": 106.54760533908683}}, {"type": "Feature", "geometry": {"type": "Polygon", "coordinates": [[[-132.290142436, 216.368168538], [-129.938544433, 217.387452542], [-134.259002461, 228.282767276], [-126.268542506, 231.552226307], [-126.085197568, 231.102549178], [-120.398386536, 233.44279629], [-118.245810428, 228.438419881], [-111.817080811, 231.203152213], [-114.914110681, 238.652529152], [-118.206883376, 236.711966616], [-120.608489018, 242.527259044], [-121.132856116, 243.570236932], [-117.876293254, 245.763634228], [-116.36137773, 242.064890302], [-108.014498075, 245.748051999], [-109.391196036, 248.98928499], [-103.936163288, 251.140341515], [-102.666964939, 248.033309009], [-99.050369334, 249.588658105], [-95.629613952, 241.724341874], [-89.260394585, 244.405510089], [-92.446670247, 251.648451318], [-86.26836217, 254.323562717], [-87.645762225, 257.678272341], [-84.946467612, 258.700930889], [-83.478026912, 255.49130297], [-74.860946826, 259.275362792], [-73.453442432, 256.075868245], [-65.846876299, 259.38691194], [-63.870616803, 254.782231987], [-63.481529102, 254.892789721], [-63.105833713, 254.038770824], [-56.43104643, 256.856598025], [-56.484108158, 256.99731931], [-52.832192461, 258.604045656], [-47.289282994, 246.844076653], [-44.294284636, 248.145632008], [-43.825454418, 247.003778385], [-36.819094744, 250.298944369], [-44.166730262, 265.887863226], [-43.185838835, 266.33380951], [-44.065408277, 268.222140688], [-37.751292981, 271.191736728], [-36.870206425, 269.300148487], [-33.664917399, 270.818098864], [-30.344395674, 272.450121597], [-30.349999805, 272.46286073], [-30.03694147, 272.60123407], [-29.715609497, 272.75916741], [-29.709752409, 272.745853262], [-26.51275977, 274.158939903], [-25.318117263, 274.76241182], [-14.532351021, 251.848520914], [-18.381526895, 250.147166041], [-21.411886779, 248.702799278], [-26.213918099, 246.363693712], [-26.2139181, 246.363693711], [-26.213918107, 246.363693708], [-29.642891767, 244.804766777], [-36.226244548, 241.648072392], [-38.254798139, 245.971113616], [-44.841555807, 243.248784606], [-44.740926871, 242.905664827], [-46.174300492, 242.362614884], [-45.199212517, 240.035248726], [-51.096785558, 237.586043345], [-49.919863087, 234.241864595], [-51.795352431, 233.442495253], [-55.658311354, 231.978969214], [-55.579203878, 231.786299981], [-56.202768919, 231.550055253], [-59.65383099, 230.079146753], [-61.070321147, 233.445427486], [-61.286740891, 233.356601641], [-61.286740891, 234.103904361], [-77.378963266, 227.298261235], [-79.750119553, 232.796099592], [-82.7422507, 231.662496583], [-85.863036492, 230.265179425], [-83.495766291, 224.561103317], [-91.859260618, 221.094276445], [-91.819268235, 220.999138678], [-101.085922761, 217.169199318], [-103.698580086, 223.426370714], [-109.45851303, 220.892184061], [-106.809816324, 214.202257703], [-115.751282926, 210.622205167], [-124.794583396, 206.926574589], [-127.439871321, 213.607891244], [-130.777686742, 212.268935369], [-132.290142436, 216.368168538]]]}, "properties": {"id": 1, "height_median_m": 3.0, "building_count": 38, "area_m2": 2769.6001192068566}}, {"type": "Feature", "geometry": {"type": "Polygon", "coordinates": [[[-19.966616735, 277.465714493], [-19.731109913, 277.58468042], [-20.773167087, 279.307423303], [-15.069272496, 282.673573816], [-13.919739496, 280.654373997], [-8.60888912, 283.784270356], [-6.864287461, 280.809940301], [-3.958493865, 275.855921611], [-3.904247621, 275.889032857], [-3.562033702, 275.277817954], [-3.599635173, 275.254866474], [-3.04466531, 274.353766496], [-2.576007809, 273.516715655], [-2.541455312, 273.536708583], [-2.174234333, 272.940454914], [-2.232002079, 272.90702907], [-0.607152914, 270.268774915], [-0.61378971, 270.264934701], [-0.417904533, 269.930974701], [-0.41865184, 269.930542291], [5.358552638, 260.025476749], [-0.526233527, 256.557337092], [-1.882525461, 258.759537092], [-5.325908277, 256.730213994], [-6.999659735, 255.779034252], [-13.338793197, 266.586472775], [-13.37279505, 266.566406598], [-13.541605666, 266.876346375], [-13.723752362, 267.17209646], [-13.668701095, 267.204584937], [-17.817483352, 274.277745562], [-17.874082655, 274.243106399], [-18.043955107, 274.552025354], [-19.966616735, 277.465714493]]]}, "properties": {"id": 2, "height_median_m": 12.0, "building_count": 18, "area_m2": 353.08004283310123}}, {"type": "Feature", "geometry": {"type": "Polygon", "coordinates": [[[14.554120948, 260.110535834], [14.554729341, 260.113354987], [13.182217823, 260.447635328], [13.91956489, 263.79986347], [14.240757944, 265.260115288], [14.456093813, 266.239104684], [10.92385083, 267.131258376], [11.672898709, 270.25289702], [13.129959638, 269.92168253], [13.423787404, 271.36884253], [15.394717077, 270.92081702], [16.507880718, 275.559899163], [18.654812847, 278.203415757], [19.085926682, 280.163404473], [21.206620287, 282.715536455], [24.238544113, 286.364281255], [28.116944792, 285.504158526], [28.119498377, 285.516348458], [28.259549776, 285.480171138], [30.891933837, 288.64809296], [31.545720057, 289.446630018], [31.852138722, 289.82089098], [35.409976269, 294.166447744], [35.40997627, 294.166447744], [35.46489089, 294.151382033], [38.462176545, 293.329082967], [42.22393717, 292.47397142], [40.815139676, 286.278786635], [38.803920223, 277.434452222], [33.84154104, 255.612397495], [33.485039604, 255.693436276], [30.060405449, 256.471913299], [29.730973817, 256.546798657], [29.731512171, 256.549166387], [18.357916838, 259.217976483], [14.874459822, 260.035368431], [14.554120948, 260.110535834]]]}, "properties": {"id": 3, "height_median_m": 12.0, "building_count": 13, "area_m2": 673.5658089176297}}, {"type": "Feature", "geometry": {"type": "Polygon", "coordinates": [[[44.350831359, 281.487365411], [51.898621509, 287.002243421], [47.908605524, 292.482022012], [45.919702057, 295.177300655], [53.118925085, 300.533134047], [50.645992552, 303.941850565], [51.211603744, 304.477571191], [50.781145049, 304.966823748], [51.298776326, 305.319822671], [47.877820525, 309.985667898], [59.998693826, 318.858599137], [69.698447323, 305.745143386], [69.207746683, 305.298965306], [72.15210598, 301.283150554], [71.760335626, 300.949190554], [74.703290946, 296.935290687], [74.017692825, 296.378690687], [76.964998044, 292.358857989], [73.244745071, 289.605493749], [78.929599489, 282.003945768], [77.068060646, 280.667653772], [80.959461148, 275.440584963], [82.812162487, 276.770533022], [85.001587226, 274.005571252], [83.13503052, 272.554019384], [87.023915998, 267.430784435], [88.781234738, 268.762344927], [90.094601835, 267.103731252], [88.227942047, 265.652099221], [90.679145134, 262.420340694], [85.425728905, 258.439707395], [84.540128582, 259.558106668], [82.082699764, 257.770538798], [80.518678143, 259.881489009], [75.614607054, 256.202721755], [75.22384284, 256.7578923], [74.642592706, 256.317465816], [68.723763485, 264.338415177], [68.688839075, 264.306659551], [66.122320919, 267.759510838], [58.676104546, 262.219927727], [55.275830481, 266.827836667], [55.235249907, 266.80148053], [52.285970317, 270.798220655], [52.294129109, 270.804290356], [47.36132355, 277.489021765], [47.323783595, 277.458545108], [44.350831359, 281.487365411]]]}, "properties": {"id": 4, "height_median_m": 3.0, "building_count": 22, "area_m2": 1432.3271740858847}}, {"type": "Feature", "geometry": {"type": "Polygon", "coordinates": [[[-163.25037313660363, 278.05250994852213], [-162.9553486139323, 278.16428335321314], [-165.20512694039704, 284.0566448317702], [-162.14133064833476, 285.30031000917086], [-156.50351512441745, 287.43626071562323], [-156.52045835665476, 287.48063648712076], [-155.05767977265484, 288.0625363530049], [-154.95867577662594, 287.95000997371113], [-148.9142995598606, 290.3115527371726], [-148.9522022091922, 290.40848173109987], [-146.5292450679538, 291.32644667595395], [-144.37450811799232, 285.5378066759535], [-135.01075771775456, 289.08537030177], [-130.64676227285125, 290.8420540844316], [-131.80891096959644, 293.85531126883535], [-127.30113492918434, 295.63738677561145], [-128.18758551068012, 297.98828016090965], [-126.92533485322195, 298.42971221327906], [-127.70527491325788, 300.31345577627087], [-126.52590162639363, 300.76027479590033], [-127.01870165855459, 301.9925140157886], [-123.84204069119949, 303.113027269285], [-119.73218977169832, 304.78131000947207], [-119.42903505360644, 304.8961636314099], [-118.45045205914568, 305.2298362261061], [-110.66205940468933, 308.22595331796373], [-110.70004913601407, 308.2403461609386], [-103.49932646363678, 310.96842206421087], [-103.87818312625782, 311.95831287262035], [-103.68202875159432, 312.0697858555788], [-103.70000972545465, 312.1169109219318], [-103.39729474347277, 312.23159794511054], [-103.06631371735797, 312.4196918499595], [-103.04541224086044, 312.3649126442017], [-98.33765580497051, 314.1484998586431], [-98.36174649984078, 314.05266599644006], [-81.69993533063551, 320.49143351735165], [-81.69908901052003, 320.4893173063712], [-74.93460539518908, 323.05211906768716], [-66.46045317316772, 300.57841459178377], [-71.08932748835737, 298.82471276831535], [-70.15158850457247, 297.75889344358615], [-70.35151178023258, 297.6714974285937], [-69.58376826278888, 295.92628710572876], [-69.63666294265695, 295.90316431416676], [-67.95536675532965, 291.4443166716443], [-66.07177573569403, 286.55092280507057], [-66.1534903397357, 286.51996429543334], [-64.52932422175282, 282.43238939333486], [-63.27482807396942, 279.29554025755465], [-63.272072160220226, 279.29650405080383], [-63.15600409567147, 278.976124164204], [-63.02322597744199, 278.6419585283042], [-63.08494845001084, 278.6203730551001], [-61.8570494358655, 275.55002965796047], [-63.13921087479803, 274.98953563899215], [-63.129333270657874, 274.96259148956256], [-63.454396245033834, 274.85175305598864], [-63.781788637419815, 274.7086342004248], [-63.799976316414494, 274.75824658958885], [-71.78044883105345, 271.73475356617627], [-79.97674438014613, 268.5224155918632], [-79.97533118104315, 268.5187089308087], [-80.30145404188372, 268.39515356589317], [-80.62850489662193, 268.2669739664736], [-80.62992828504862, 268.27070735296917], [-81.80523934874999, 267.82542735330713], [-84.31466159502868, 274.4073574499232], [-84.3538492654661, 274.39251075406736], [-85.39899648290344, 277.18756446585024], [-88.8496622053549, 274.4421839379514], [-89.87633414976891, 273.85873437585366], [-90.20948509943204, 273.7325163395266], [-91.0224932546525, 273.5015032806865], [-95.71875557341211, 272.61188701300495], [-92.21367237600431, 263.8474781138052], [-103.10277856743072, 259.6395068091494], [-103.09319310262885, 259.6137036008052], [-103.41207130105003, 259.4910343334869], [-107.26606618001355, 257.898165339946], [-109.7886809742264, 257.0380160949985], [-110.10475014628693, 256.91642743214686], [-110.11828823582972, 256.95027922562394], [-112.2601380030753, 256.13881501505256], [-112.75309384768401, 257.3714438429446], [-112.76366113374762, 257.3677482704785], [-113.7771650288345, 260.165298692628], [-122.43754176092669, 256.88421620184454], [-121.00047432491374, 253.61751987784177], [-125.62339922495225, 251.71701266942188], [-125.62009471004049, 251.70805638912339], [-125.93999717206565, 251.58685769315244], [-128.8329202198703, 250.39756277172458], [-128.37241049998536, 249.03670177080258], [-131.21274557043202, 247.92350177081894], [-131.21152032621703, 247.9198810284155], [-132.07798609528484, 247.59161059038755], [-130.90094758116612, 244.5815529556394], [-133.68420588196187, 243.56926257301177], [-137.26399384131392, 242.21301907810772], [-136.79541656092343, 240.93483298354656], [-137.97447177228338, 240.37645984247254], [-137.9661359825032, 240.35277402481006], [-138.27161816184542, 240.23573821951544], [-138.6105441963185, 240.07523072789238], [-138.62005202233843, 240.102246840272], [-143.74206661254874, 238.13990945094596], [-147.74530113274434, 236.5695297409573], [-147.2610120006515, 235.3585719012965], [-149.7786501884094, 234.30433217902092], [-150.75944125251698, 237.01158616071328], [-150.5716938358151, 237.01158616071328], [-152.67221018291767, 242.54604523596447], [-149.93169746343293, 243.54723850109306], [-163.25037313660363, 278.05250994852213]]]}, "properties": {"id": 5, "height_median_m": 9.0, "building_count": 140, "area_m2": 4244.499326979616}}, {"type": "Feature", "geometry": {"type": "Polygon", "coordinates": [[[-83.95147136001816, 75.8202261607251], [-83.64487983391645, 75.8202261607251], [-84.18926242924906, 77.57331337449371], [-82.99597406627448, 78.025404279399], [-74.43966734746739, 81.03551191673394], [-73.16929690328308, 77.59240632185617], [-72.26448892000111, 77.9352031448691], [-71.38303583442246, 74.92966616060062], [-71.16873171781553, 74.92966616060062], [-69.80477767604366, 71.05404458401526], [-70.78801846739395, 70.60703019959045], [-68.74551148980237, 64.5509923243526], [-67.67346227775249, 64.88330347240762], [-65.81682689216382, 59.66327947166815], [-65.78809430535178, 59.673373454897046], [-65.69508388292361, 59.32099286273627], [-65.58224804695409, 59.00374922056706], [-65.60887845039767, 58.994393750852595], [-65.32211696043427, 57.90796514420632], [-66.28117353782646, 57.471945718252215], [-64.23161748471162, 51.496289625610565], [-63.15749842236376, 51.71825812888025], [-60.66612993069145, 44.70069049954128], [-60.87446783282753, 44.661224904492514], [-58.43772262593693, 37.6449907018369], [-54.83566982421812, 37.75272850058532], [-52.056645741794064, 35.33113907755194], [-51.47147765475297, 35.99623188753114], [-47.83232307686277, 32.89407765667555], [-47.860938770782276, 32.853422474233064], [-43.02153688473364, 28.767420120727074], [-43.052700435723224, 28.726940120659215], [-39.63720645886962, 25.843171267707593], [-32.75399971206293, 20.037167675805645], [-32.70738586991776, 20.107808418602232], [-28.05625933594642, 16.21256853088207], [-27.983005470979677, 16.307721886837346], [-23.906541894061313, 12.832788777433297], [-24.020943061113634, 12.702762216965812], [-16.956484479022848, 6.714770823027164], [-19.797453701865887, 3.3744252010232163], [-18.116419449788047, 1.9414474573383609], [-18.930300415926524, 1.4789253283078776], [-25.091075694204495, -2.697849360681988], [-27.061386665379505, -3.125375826403021], [-28.369513095184203, -4.726540586240275], [-29.64992069968225, -3.6870469652609565], [-41.61659130043036, -6.283626116081455], [-41.511154855590455, -6.76297571158256], [-49.80120548309987, -7.754801045071618], [-49.84238964410083, -8.332115340794235], [-51.46467499015678, -7.99686735628037], [-51.65991065833643, -8.884474470009343], [-53.134907489367514, -8.549182847662632], [-53.13506789715296, -8.549146384271328], [-53.83579299684924, -8.389859767138741], [-53.57736234579431, -7.508675172834147], [-57.26633549890061, -6.111065623979873], [-59.06391786592281, -5.089513754368077], [-60.754864281754834, -3.958982577342587], [-62.25401456209273, -2.709448180121496], [-63.64821481493294, -1.2380097545362498], [-64.93848250178868, 0.3412956578437327], [-66.03831590244299, 1.9322725600152773], [-66.93979919476487, 3.7538044321679576], [-67.7495709643161, 5.988997968901895], [-67.16877306239421, 6.209039877495517], [-68.80192023942934, 10.437072169482617], [-68.89947882732243, 10.658839271134049], [-71.69304028558942, 17.775482729965457], [-72.38352891381204, 17.439140526888302], [-73.57111861784587, 20.363697896035674], [-74.16489472920824, 20.13873904439172], [-77.45406282682016, 28.700918846279837], [-72.63057109754091, 30.445288475960698], [-61.79089181704629, 22.2737217184393], [-57.67058951181254, 11.138420627605466], [-57.38046941453056, 10.369013475216445], [-57.097205363064255, 9.725106577296254], [-56.42953438900852, 8.53260555248776], [-55.579955306062, 7.352405562728717], [-54.54092628288926, 6.386178666597355], [-53.39352175377941, 5.516764084250103], [-52.16309254175662, 4.763732936363065], [-50.744848919750474, 4.226415166375856], [-49.40789376870823, 3.9007947125861904], [-48.76363014566586, 3.796186160643805], [-46.56555011988545, 3.796186160643805], [-45.13994345659436, 4.012229097425794], [-42.103723209152506, 4.791469097422836], [-33.543674594260466, 6.088697914529844], [-65.84684598749378, 33.23511909969133], [-65.84684598749378, 33.235119099691325], [-67.5126392078449, 34.63499169475518], [-67.22595643612107, 34.73313600573214], [-71.12585909697984, 37.85608149837093], [-72.92263564031384, 42.96155113103066], [-75.46311727991537, 50.41525617792366], [-79.06382403089601, 49.12288572041274], [-79.36469278511669, 49.4648483965951], [-81.74664037340358, 56.4096204602168], [-79.0143494328559, 57.53888545990791], [-79.0143494328559, 57.583003481701226], [-78.02441871427071, 57.889859743419784], [-79.4622941982966, 62.04362062191456], [-79.56107206202974, 62.15588998281001], [-82.61443852345026, 71.17895108363179], [-82.41855334598708, 71.29027108374825], [-83.95147136001816, 75.8202261607251]]]}, "properties": {"id": 6, "height_median_m": 12.0, "building_count": 8, "area_m2": 1842.7720792863222}}, {"type": "Feature", "geometry": {"type": "Polygon", "coordinates": [[[-82.8456692726842, 115.94683233317154], [-81.5713735583542, 115.72401011892887], [-80.2985398095776, 120.95432465703325], [-78.77532272891993, 120.69647675476327], [-72.56367218510144, 119.64801186380535], [-71.38920230004186, 125.09878790983008], [-68.64531574274352, 124.43050402210825], [-68.45466422413034, 125.29727004578795], [-55.85077692769842, 123.15410306087261], [-55.850776927698455, 123.15410306087277], [-55.33088339172107, 123.06570028197032], [-55.624742432923284, 121.61838624431698], [-53.68043078098997, 121.28690515509363], [-54.46122717451115, 116.4059804571539], [-48.657304054511, 115.37983530747844], [-50.58772252119945, 107.45675725193901], [-51.418806956801994, 107.61910993850186], [-52.24731625800414, 104.0093726684969], [-63.286125413912174, 106.01260113997532], [-64.56292563136797, 95.3705340307503], [-64.5489231473779, 95.36894253052708], [-64.60569685531806, 95.01403797960813], [-64.64631294972551, 94.675504827366], [-64.65960988535551, 94.67701613607653], [-65.44617704757398, 89.76001713067404], [-67.39652942079451, 90.09252808810557], [-67.59108521287139, 88.6551893150953], [-80.84420841236953, 90.53810064026888], [-80.47851174924905, 92.33922920771832], [-79.79485330563907, 97.1124466279817], [-79.24983944458121, 101.55186803862614], [-79.27261513965787, 101.55490161231316], [-79.20625720305743, 101.90686806700887], [-79.16453852622722, 102.24668839154947], [-79.142736713625, 102.24378453264124], [-77.94792607229958, 108.58113145757889], [-83.04197159910815, 109.4643230768886], [-82.93627866459052, 112.10715934046972], [-83.5454830749042, 113.03037549427852], [-82.8456692726842, 115.94683233317154]]]}, "properties": {"id": 7, "height_median_m": 3.0, "building_count": 13, "area_m2": 763.6585238988959}}, {"type": "Feature", "geometry": {"type": "Polygon", "coordinates": [[[-56.794939695454, 127.58072510921104], [-57.71784269072255, 131.90767263018228], [-57.121038814564926, 132.13377858424644], [-52.30034535365488, 133.2519671724722], [-43.42520273709681, 135.38811123993028], [-44.483072653716036, 130.84586897488623], [-56.794939695454, 127.58072510921104]]]}, "properties": {"id": 8, "height_median_m": 3.0, "building_count": 1, "area_m2": 59.15294739892592}}, {"type": "Feature", "geometry": {"type": "Polygon", "coordinates": [[[-73.43707165826316, 178.307574191514], [-70.70464003592366, 177.64208019627063], [-70.70173968119038, 177.65573711408246], [-69.90933688095754, 177.43057898604482], [-61.0982492876415, 214.37311559429762], [-50.03792953424533, 211.7640432728561], [-50.703335825643826, 208.86493050984816], [-52.09542518863985, 202.74698691000827], [-52.09142862651038, 202.74604057054586], [-52.17285857956172, 202.40668324057663], [-52.37559961500366, 201.51567850109822], [-53.3487566020036, 197.50615710420018], [-53.43007151223242, 197.16727921236907], [-53.430955369940655, 197.16748849960197], [-54.9158380199408, 191.04959710428636], [-56.09071697320799, 186.15331791406933], [-57.47734403933056, 180.16444787108173], [-57.47379052237949, 180.16377472587052], [-57.55993040603767, 179.80775570083995], [-57.80736579447593, 178.73907730735047], [-57.895184026710005, 178.35978860521553], [-58.63789972343421, 175.35247239775003], [-58.71961243429932, 175.014751026193], [-58.72121303489016, 175.01513002981008], [-60.20490184329564, 169.00755348331649], [-61.379461910769166, 164.1126032403655], [-62.77116734938831, 157.9963469098657], [-62.767170787293026, 157.99540057041125], [-62.84860074032466, 157.65604324045105], [-63.05134178266332, 156.76503847087403], [-64.0244987624184, 152.75551710447033], [-64.10581367261702, 152.4166392126922], [-64.10669753035421, 152.41684849993177], [-65.5915801807021, 146.2989571041671], [-65.91649432123702, 144.94488540090322], [-66.76784904311599, 141.39688550025727], [-66.84521991198359, 141.07444430389052], [-66.8460790247243, 141.07461412197367], [-67.63343302219755, 137.83062292519878], [-70.22634526504115, 138.47128882073778], [-78.69434040872504, 140.55854972573755], [-70.75312144706673, 173.54195434782625], [-74.38637482757738, 174.39633333389637], [-73.43707165826316, 178.307574191514]]]}, "properties": {"id": 9, "height_median_m": 9.0, "building_count": 10, "area_m2": 880.9561262397499}}, {"type": "Feature", "geometry": {"type": "Polygon", "coordinates": [[[-15.386644636387318, -84.48523430679279], [-13.724934534620278, -82.81875771758814], [-17.153233066607147, -79.14486772841288], [-14.209672199935035, -76.20073549508652], [-12.864662547146418, -77.63952771849313], [-9.203635811127016, -74.20212603970477], [-6.363517384536005, -77.31884829703996], [-3.7844209144772334, -74.89289491959366], [-2.8440195964352415, -73.97674181247854], [3.414930549890836, -80.72884587673472], [1.1618222089268289, -82.84432848683737], [1.1703304097917149, -82.85353828377276], [-0.2110776834660739, -84.06129723017376], [2.6349990240049075, -87.07301302526999], [-3.2644672445389546, -92.55911866392587], [-6.889020802618818, -88.72361937032412], [-7.1891914122556715, -89.00792701704079], [-9.418939272190471, -86.47363080122919], [-9.798458105226073, -86.90498591533077], [-9.827817143468703, -86.87465044317179], [-11.696936569000682, -88.55181752014224], [-15.386644636387318, -84.48523430679279]]]}, "properties": {"id": 10, "height_median_m": 6.0, "building_count": 5, "area_m2": 217.65343053111886}}, {"type": "Feature", "geometry": {"type": "Polygon", "coordinates": [[[-50.910776114, 57.02219321], [-54.439193937, 60.181858175], [-54.232951118, 64.049661645], [-51.874008136, 75.332781336], [-51.479848045, 76.67676975], [-49.424197801, 84.576091915], [-48.640176141, 87.58357683], [-47.554458033, 91.509972478], [-46.548272142, 93.682840977], [-44.568006685, 96.383727123], [-42.201723661, 99.562203401], [-41.941762946, 99.365225238], [-39.685123056, 101.140898427], [-37.086829486, 102.66840504], [-37.095803429, 102.690079278], [-36.466503858, 103.000021793], [-34.172586577, 104.129821532], [-33.544547215, 104.439143369], [-33.539910992, 104.429357232], [-33.055875973, 104.649415856], [-30.908876808, 100.323526361], [-28.139984832, 101.754016773], [-27.004200837, 102.279944764], [-26.693023023, 102.434679672], [-26.664600322, 102.376531044], [-15.050270357, 108.060150301], [-15.0896399, 108.134728303], [-14.766543836, 108.288726255], [-14.458237733, 108.450456647], [-10.846777838, 110.182138899], [-10.527767689, 110.34328641], [-10.524646115, 110.336599922], [-3.869621438, 113.527660728], [-3.901534379, 113.600204219], [-3.269349358, 113.901523886], [-0.877890433, 115.04136995], [2.508486405, 116.655425817], [5.618387148, 118.202639604], [5.924769318, 118.357408109], [5.926978735, 118.352744473], [8.858933241, 119.780921561], [11.986197504, 121.320201923], [12.290990002, 121.470318261], [12.292262088, 121.467667567], [15.207891513, 122.873546877], [22.053252511, 126.207973696], [23.143871604, 126.827763917], [25.994507457, 121.307784861], [25.994507457, 120.964107673], [25.990993187, 120.962310254], [25.994507457, 120.898402033], [25.994507457, 120.898402029], [26.062908805, 119.654499748], [26.090091975, 119.160164369], [26.188308758, 117.374058048], [26.338668835, 116.690470487], [23.08465579, 115.058797021], [23.091139985, 115.046513964], [22.596051252, 114.821429949], [24.057740895, 111.941785439], [22.096102702, 110.938480288], [24.250212654, 106.598263597], [23.169797667, 106.04008968], [23.176524008, 106.026189584], [22.85999033, 105.880034167], [20.0865059, 104.447171159], [20.516304885, 103.470165675], [17.446099977, 101.934765247], [17.23952383, 102.384781689], [10.474723033, 99.501494516], [10.842010722, 98.805738868], [8.382431116, 97.575710354], [9.458227158, 95.352559814], [5.795248396, 93.472367116], [4.074389476, 97.139681644], [2.331754237, 100.818034803], [-1.038852422, 99.200510626], [-4.964161525, 97.27123739], [-3.32551863, 93.546326101], [-3.15683143, 93.232590668], [-3.18226542, 93.220687427], [-2.694137096, 92.111089534], [-5.551666071, 90.733225519], [-8.676205736, 89.182773125], [-11.826245039, 87.607447751], [-12.498442436, 87.289110689], [-12.813245673, 87.133146417], [-12.815936299, 87.138752976], [-16.02708716, 85.61802657], [-16.341814846, 85.468978854], [-18.690234356, 84.356821962], [-18.787909631, 84.556651078], [-28.50279121, 79.872259125], [-29.831715453, 74.477850859], [-31.156169233, 74.854189174], [-32.079346214, 70.919432739], [-39.529367041, 72.924911279], [-40.681711118, 68.391209442], [-37.828158518, 63.062926213], [-50.910776114, 57.02219321]]]}, "properties": {"id": 11, "height_median_m": 6.0, "building_count": 44, "area_m2": 1872.0544698572885}}, {"type": "Feature", "geometry": {"type": "Polygon", "coordinates": [[[-36.03471154, 59.714120426], [-34.55179709, 61.453947164], [-34.140169513, 61.936888486], [-14.222273395, 45.015281368], [-14.316686688, 44.897241844], [-9.68097762, 40.8928978], [7.622626597, 26.199159644], [4.782057902, 22.747955797], [4.786606872, 22.744084577], [1.297621199, 18.650638346], [-13.661206063, 31.232093858], [-18.722428313, 35.575822355], [-18.702028889, 35.600503868], [-40.663215702, 54.164268981], [-37.626264066, 57.838713896], [-37.63027559, 57.842127744], [-36.03471154, 59.714120426]]]}, "properties": {"id": 12, "height_median_m": 3.0, "building_count": 4, "area_m2": 550.3343462874836}}, {"type": "Feature", "geometry": {"type": "Polygon", "coordinates": [[[2.421696572, 17.705209667], [12.876199732, 20.225723689], [16.265848864, 21.042946471], [16.600270894, 21.123573489], [16.600644478, 21.121981201], [39.22453165, 26.465140264], [41.737430774, 15.873689803], [33.940433706, 14.101301049], [34.133888522, 13.551606825], [31.143347028, 12.812693292], [31.044720259, 13.373181437], [16.181364109, 9.866992466], [16.184727789, 9.854089486], [16.156407398, 9.848491484], [16.251018796, 9.31082238], [13.455006325, 8.588571554], [13.257896573, 9.260667052], [5.503846134, 7.36417044], [3.174384475, 17.072144708], [2.421696572, 17.705209667]]]}, "properties": {"id": 13, "height_median_m": 12.0, "building_count": 6, "area_m2": 407.03952288880424}}, {"type": "Feature", "geometry": {"type": "Polygon", "coordinates": [[[38.597626987, 30.990806122], [40.107786472, 34.280617694], [33.182920441, 37.285791541], [31.702767732, 34.061348322], [31.097603422, 34.290621722], [29.180802746, 35.093265813], [26.006584099, 37.799090914], [23.093794177, 40.226887011], [22.896402862, 40.339062937], [10.043832688, 51.267206286], [7.570711507, 53.274999493], [7.530224163, 53.227177618], [7.281743011, 53.509597373], [5.654132026, 54.830966623], [5.654132025, 54.830966624], [5.654132022, 54.830966626], [3.871174858, 56.389798137], [3.588784619, 56.620488344], [3.656691837, 56.694583325], [-2.590408285, 61.842340971], [-7.330307877, 65.793024006], [-8.473510191, 66.745877521], [-8.474944546, 66.747181733], [-10.035745333, 68.077667883], [-10.301549641, 68.297383505], [-10.298248544, 68.301435638], [-13.191047484, 70.767367842], [-13.288370341, 70.877983465], [-16.305378848, 73.422142738], [-17.108065995, 74.106383892], [-5.942889562, 79.443368444], [-3.00236858, 77.071520251], [-2.988920806, 77.087569005], [-2.982493944, 77.081725269], [-1.520757453, 78.743111887], [-1.135086763, 78.414351474], [0.912983875, 80.853004074], [4.003760588, 78.420976985], [1.941474676, 75.853780936], [7.186855581, 71.508727776], [9.238103909, 73.951164074], [12.535818051, 71.356304959], [12.663940322, 71.521784221], [15.956091678, 68.715428777], [12.782972571, 65.108911694], [12.686968984, 64.999795533], [10.224441221, 62.104412589], [12.742806461, 59.932986664], [15.510133687, 57.755470977], [17.673241456, 60.266334781], [18.459530627, 59.596071887], [21.791073489, 63.382650909], [24.76358245, 60.814985773], [22.606580052, 58.25193386], [27.762088023, 53.70563897], [29.914476537, 56.263208447], [32.892817306, 53.690505773], [30.739541523, 51.131881999], [31.917599469, 50.127660452], [31.88692659, 50.091968086], [32.082811767, 49.869328086], [28.143623947, 45.285508954], [35.643445276, 41.875837546], [36.244087269, 43.354977995], [37.033151303, 42.906559133], [38.387784338, 46.0958435], [41.845057201, 44.622287842], [49.585024519, 41.28160759], [51.727582857, 40.328704032], [59.67559444, 43.803159604], [58.356016068, 45.602933939], [61.859779033, 48.125070998], [68.164167518, 39.695108147], [68.284604355, 39.734218606], [69.269233473, 36.501222864], [70.504241251, 32.641074422], [70.216722065, 32.314284653], [66.185935836, 30.828448547], [66.17072286, 30.86797044], [59.71380634, 28.48780956], [58.442717639, 32.043992576], [51.781072292, 29.451005955], [50.10759409, 25.805412221], [46.068800786, 27.617423553], [45.393862163, 27.922171675], [38.597626987, 30.990806122]]]}, "properties": {"id": 14, "height_median_m": 3.0, "building_count": 22, "area_m2": 1228.5966234745224}}, {"type": "Feature", "geometry": {"type": "Polygon", "coordinates": [[[-31.285631610416317, 124.62853274600945], [-31.283717414007135, 124.6372353276883], [-32.654030943040375, 124.97098033986023], [-28.754354041126057, 142.9275231591546], [-28.527885774382266, 143.44232367161803], [-25.084071629996163, 142.80411340491844], [-23.74014966229726, 148.91403538827004], [-26.184231628359996, 149.58073258283846], [-26.183537158897753, 149.5841153958119], [-27.36773040416545, 149.92059923298982], [-27.253143357280884, 150.40899108971922], [-26.504173258885515, 153.60124455060654], [-26.42210948338402, 153.95101601934658], [-26.418802126677605, 153.9499908131417], [-25.038360591619277, 159.59834781364216], [-24.17144498779184, 163.29330752281092], [-20.373926949238527, 162.2142577592092], [-20.262167304360506, 162.7223547525644], [-17.9115451769328, 162.16575475238773], [-17.81285574448947, 162.61443015713792], [-12.625049912625396, 161.33260880770698], [-12.631932347302437, 161.30246930404266], [-5.185893780709718, 159.39145804012054], [-4.595937127518091, 162.40886742275146], [-4.577627052424109, 162.40354369332877], [-2.9727018987341816, 168.84881218632952], [-10.240991382535588, 171.05175167514722], [-10.633767067315748, 169.4334695958511], [-11.420157006761363, 169.65691919362598], [-11.613339621591397, 168.88843010867149], [-18.92877283128748, 170.7225343502214], [-18.821821890649872, 171.33032810317195], [-22.283047188943204, 172.17332253876484], [-21.414221837219475, 175.62954866300436], [-20.00645966105349, 181.62969965781159], [-20.03167536474799, 181.6358410372537], [-19.94519866102493, 181.97438878640702], [-19.867218925314628, 182.316249427293], [-19.858422946432505, 182.31410713356468], [-18.979383419427432, 185.7554600121089], [-15.794983933965838, 185.0768341029341], [-15.499188677886316, 185.7492265387204], [-8.144336478689304, 184.05311458851105], [-8.243244691993333, 183.37860950674377], [-7.333306314514827, 183.14878248547288], [-9.383046579496012, 174.55800479088896], [0.9130426438294806, 172.12921050557708], [-0.4008052388743427, 167.6493142203466], [9.91081033614455, 165.23089750381962], [8.248635233015317, 158.67425533369223], [8.74150338083776, 158.5309518984743], [6.8829785765398, 152.06958498718225], [5.687243507818615, 152.41724986207961], [4.1464329180727155, 146.8450557991948], [4.060832905231776, 146.8676161755901], [2.0972068715693606, 138.9322335980384], [-9.598529152312087, 142.25553082564215], [2.491782308658627, 132.09865381260244], [2.104491856821288, 131.43837149220175], [1.327544781485238, 130.933762474975], [0.3285234070267443, 130.47957370589688], [-1.0434546867813033, 129.81127285953417], [-4.766741688709937, 128.14081395430276], [-8.975745434855357, 126.13825651770446], [-10.629240804170665, 125.36441198066315], [-11.297376282641633, 124.98471586256808], [-17.775692204935183, 135.08275234753805], [-19.030456317622384, 128.15576195280389], [-21.769140505908698, 128.71160931199609], [-22.357852946446783, 125.25448277347188], [-25.906991843505846, 126.03885129232926], [-26.494302804588617, 123.59124728354556], [-30.601476981935914, 124.48041858416421], [-30.603428065913665, 124.47154829917297], [-30.946818845994294, 124.55518241476007], [-31.285631610416317, 124.62853274600945]]]}, "properties": {"id": 15, "height_median_m": 3.0, "building_count": 16, "area_m2": 1263.3916165680841}}, {"type": "Feature", "geometry": {"type": "Polygon", "coordinates": [[[-7.70239515863241, 219.91576038645252], [-4.403475438548771, 235.72886938948832], [-3.120402128407598, 235.50451233299304], [-2.8241817003143583, 236.73900369425482], [0.39844807989079173, 236.073041851752], [1.4578019332184287, 241.10813856183722], [4.503000160012077, 241.3553617209008], [5.594373290233983, 241.17815636847592], [4.316960709636501, 235.2589248651645], [10.869365531590988, 233.8217150642611], [12.535806317670628, 241.01910616048247], [13.609256141535955, 241.01910616048247], [17.36259874278689, 240.76816557561068], [16.846549320018003, 238.56866447415817], [24.35474056418334, 236.77934203417036], [30.985109174891797, 235.1872352129313], [31.09069153580092, 235.54724494619424], [34.63506270925905, 234.39625171068946], [34.70339474802961, 234.66031310678613], [35.04208515973329, 234.55032734258964], [35.37821834636136, 234.47391860793246], [35.36380250391803, 234.4182102235496], [40.292819625983874, 233.18844955466685], [39.87284652529252, 232.711114758606], [36.79651662438061, 219.70410500287622], [37.490947488075584, 219.54160635298712], [35.74421979350342, 215.43864656833802], [33.3500521458228, 215.98288119842985], [32.46813052061335, 212.19611912497604], [31.668352567719072, 212.38258373937992], [28.737062887706774, 200.832837485314], [25.459475465415245, 201.7020634467757], [19.538538261284376, 203.17417301737078], [18.65822552401546, 199.39431912486558], [14.148328747160638, 200.44578117177213], [14.24215063181005, 200.8083451796767], [-0.14735405111779643, 203.87488590156963], [-0.44504628576285793, 202.60606479861642], [-0.449531906611449, 202.60733937007674], [-1.524149197748552, 198.27694583519752], [-11.379333399951637, 200.73875831436672], [-12.288820394311271, 196.60392407609743], [-19.151131691136065, 198.33716733920093], [-18.192174890276338, 202.01569850741413], [-13.857188183970464, 200.98260162212236], [-11.816247728134833, 209.24653537141273], [-10.157219361728663, 216.49894094668892], [-14.055142384535372, 217.48345600697655], [-13.10094517257927, 221.2792952128201], [-7.70239515863241, 219.91576038645252]]]}, "properties": {"id": 16, "height_median_m": 3.0, "building_count": 27, "area_m2": 1521.9755060314405}}, {"type": "Feature", "geometry": {"type": "Polygon", "coordinates": [[[-44.803265103453384, 219.3909461607211], [-43.916245154014675, 224.305788908027], [-43.57794619068732, 224.49804153849504], [-43.364716332908245, 224.6192183837386], [-34.109356680661826, 228.56402925779088], [-34.934295768814685, 224.6431032372634], [-26.63182505210077, 222.78951344089063], [-28.153689387611287, 215.870605530062], [-29.616742454257924, 216.2031821336799], [-29.620631820103682, 216.1838922784744], [-30.798683379413205, 216.51863097942933], [-31.284393452669327, 214.20001929312232], [-31.28578295377279, 214.20033515012568], [-32.95080696046253, 206.40793514991879], [-34.27523461755543, 206.7089998633513], [-44.11463501586423, 208.89954456389276], [-41.84041895171883, 219.3909461607211], [-44.803265103453384, 219.3909461607211]]]}, "properties": {"id": 17, "height_median_m": 6.0, "building_count": 6, "area_m2": 246.34305963973006}}, {"type": "Feature", "geometry": {"type": "Polygon", "coordinates": [[[5.742432708491707, 298.1791927384327], [-2.3271236151403323, 294.07605022601876], [-28.202668773744172, 346.02198261650204], [-17.00022248210184, 351.68088199427814], [4.4707254345877905, 308.63574816869226], [1.2404370718178177, 307.07814433287393], [5.742432708491707, 298.1791927384327]]]}, "properties": {"id": 18, "height_median_m": 15.0, "building_count": 1, "area_m2": 693.7063580392658}}, {"type": "Feature", "geometry": {"type": "Polygon", "coordinates": [[[6.1398450108293625, 298.3812657207976], [30.39071149720403, 318.7540302394632], [38.476945076892406, 308.97419830950724], [15.414470628457924, 289.7137500571502], [7.5573295733754, 299.1020167678211], [6.1398450108293625, 298.3812657207976]]]}, "properties": {"id": 19, "height_median_m": 15.0, "building_count": 1, "area_m2": 380.73268523677694}}, {"type": "Feature", "geometry": {"type": "Polygon", "coordinates": [[[-4.870399155576457, -156.64181790544245], [-4.869865799509445, -156.64162847121455], [-5.4518058350562315, -154.98806882816768], [-5.449137968003928, -154.9869661897772], [-6.713376993476682, -151.2920441729837], [-7.416381000424285, -149.29448603334387], [2.6473139265341286, -145.72003704028825], [3.1349696437925956, -147.12700927543492], [10.31218592262141, -144.51044923500132], [10.310849790349351, -144.5066526678837], [10.639255250479337, -144.3912112880763], [10.96988622724969, -144.27067488951482], [10.97123690944634, -144.2745127996689], [20.134417928931594, -141.0534632473996], [22.13159846399526, -140.2522995295074], [22.982558114726505, -142.67181281911928], [36.3395644151427, -137.92763704019166], [37.72776534418276, -141.93284008578408], [38.882884273179634, -145.16456916582686], [38.88607171932618, -145.16343704052395], [39.00101899627595, -145.49508008587947], [40.84653649643679, -150.65836883760716], [47.33121296060538, -147.97823033029547], [46.05003129803946, -144.6178360576376], [47.03583730605952, -144.28170059398752], [46.15833028145637, -141.84370794035883], [47.3310648678837, -141.3994040679679], [46.00407939342515, -137.80285383937422], [46.74207627355063, -137.80285383937422], [50.811187048383196, -136.41538771945378], [50.75917371754767, -136.2708782000285], [52.33791929730188, -135.71013529331825], [52.318746566336024, -135.65020887915813], [54.8934515622349, -134.59671602056588], [53.79918287151579, -131.4873947249426], [58.37093920844781, -129.79863424995696], [59.89389321266356, -134.01786260281122], [64.01178388634251, -132.59341448492694], [64.33840344280392, -132.45842152807526], [64.34560502730669, -132.4779400992188], [66.58965453444704, -131.70168537314825], [67.21864375257356, -133.27446364603827], [67.80873725178424, -137.29860937783243], [68.19138418076422, -138.60334075430956], [67.52510512538801, -138.81970711329572], [68.7983587775289, -142.38194711352455], [68.12452530153176, -142.6007666822969], [68.99432929014712, -144.79766775304722], [68.20780738090372, -145.1328983973584], [69.58405183881835, -148.70825319482432], [68.9941469009321, -148.9317454082472], [69.87927361316274, -151.27912785236558], [65.42443253281205, -152.82013282195837], [65.47348558221977, -152.94836454151718], [65.14158898794881, -153.06317319393318], [64.36030988551397, -153.38607846437554], [58.811596610772945, -155.39271752643347], [58.865953344718875, -155.53481383948085], [58.67069467615147, -155.53481383948085], [62.252665313246666, -165.30572090447072], [62.02690920186998, -165.3925947173072], [58.085818849376, -155.61939964305915], [51.820230854485295, -157.87739450119543], [51.84998943349789, -157.96268761439964], [51.52380438766506, -158.07390864643358], [51.19268934900653, -158.20368110353192], [51.187429086703986, -158.18860430339757], [44.29259737266249, -160.5395713656002], [45.367830203032796, -163.64180658013652], [46.6408208427151, -167.31460774203293], [47.03203133061445, -168.42621690392684], [48.18571530662521, -171.65393134946163], [48.188932745828765, -171.65273582753326], [48.30556491620898, -171.98924008581352], [48.42133736772641, -172.31314197049596], [48.418229382431264, -172.31429682202176], [49.57881856830924, -175.66280008564806], [50.73222261084549, -178.88973134937527], [50.735440050020344, -178.88853582745756], [50.852072220405375, -179.22504008575171], [50.967844671890006, -179.54894197043092], [50.96473668662294, -179.55009682194628], [52.12591394868849, -182.90029678846912], [53.39857952494168, -186.57216008578135], [54.55369845394344, -189.8038891658375], [54.55688590008991, -189.8027570405346], [54.67183317703968, -190.13440008589012], [54.78930261734051, -190.463049713826], [54.786133121488646, -190.46417546349718], [55.94508682913566, -193.80796008571227], [57.1002057581343, -197.03968916575965], [57.10339320425266, -197.03855704046674], [57.21834048122672, -197.3702000858017], [57.33580992153187, -197.6988497137497], [57.332640425707645, -197.69997546341105], [58.491594133670546, -201.0437600856235], [59.64671306267416, -204.27548916568495], [59.64990050882066, -204.27435704038206], [59.764847785770776, -204.60600008573857], [59.88231722607124, -204.93464971367342], [59.87914773021943, -204.93577546334458], [61.03810143786647, -208.27956008555995], [62.19322036686093, -211.5112891655954], [62.19640781299039, -211.51015704029842], [63.46648874106866, -215.1745631745138], [63.46648874106868, -215.1745631745138], [63.6995129134516, -215.84687876309005], [63.699512913434624, -215.846878763096], [64.85786239450113, -219.18892008569924], [66.01355138453336, -222.42224405158385], [66.01672880782462, -222.42113284876845], [66.13111604659701, -222.7511600858022], [67.3218249315532, -226.08246081404818], [70.12790268747882, -225.09266450058348], [73.94740951219576, -235.8899860979011], [75.5150241099611, -235.33319672154457], [82.40510956148448, -254.91110259515645], [78.00115026977241, -256.57959279692994], [78.00364252451601, -256.5864383856382], [77.67466489885909, -256.70328550304015], [77.3464992839789, -256.82761478873925], [77.34399420294545, -256.8207339694812], [67.95158866242582, -260.15675267497375], [67.46451213172298, -258.9388249848973], [67.44777287786668, -258.94516684212175], [66.41801920938116, -255.9355623093569], [61.11947295343828, -257.81751356726284], [60.790159925305886, -257.9357110373984], [60.78976942368454, -257.934618513145], [51.71860454680919, -261.1565381352601], [47.186945854830014, -262.833481488281], [46.794589489577845, -261.83010287394785], [33.65904925942552, -266.6209599561929], [33.5277043492955, -266.247748580086], [32.44587286712547, -263.1737671184577], [32.44587286731399, -263.1737671183914], [32.24998964329538, -262.6171726678516], [32.2528591329559, -262.6161639822907], [30.99387402362482, -258.9365972978631], [29.771419986911194, -255.36379797521096], [29.73745847017183, -255.37586051389007], [29.623843495242692, -255.04380426199094], [27.6056742179422, -249.47310015216846], [27.468710244230788, -249.03203206307256], [27.165823110511102, -248.25745441062202], [24.833173142995484, -241.43994637054078], [24.818144080373123, -241.44421681936709], [24.248109461868708, -239.82448594953786], [23.529275878995424, -237.82371797866034], [23.520313351100935, -237.8013073096911], [23.53430071359023, -237.7962265645675], [22.94821427575302, -236.1308850836539], [22.950991874331724, -236.12983275875587], [21.8621744975818, -232.94760596733374], [21.68997371380763, -232.44432418718276], [21.102823924838415, -230.77596123500902], [19.963355585608824, -227.53820692152672], [19.94303894851853, -227.54539096520782], [19.829584632352255, -227.21380426185775], [19.241929096841556, -225.5917128230226], [18.23567709810383, -222.6507953306297], [17.968155341045264, -221.86892417318987], [17.845094897662758, -221.51925278046454], [17.845094897855795, -221.5192527804097], [16.60908444173467, -218.00717785209605], [15.882247364723957, -215.97807539150207], [15.893577342008543, -215.97409266779704], [15.308643443210022, -214.31202608048193], [15.308643443911292, -214.3120260802162], [14.06257713696462, -210.77137784992314], [13.337405526523499, -208.74692485357585], [13.34865492956464, -208.74279607533717], [12.762185058258638, -207.0763650833557], [12.764962656819296, -207.07531275846543], [11.503944486606256, -203.38980415930249], [10.883830871505264, -201.6277757961666], [9.778114743994147, -198.48592705940888], [9.7578283323674, -198.4932634460605], [9.643555414894283, -198.15928426166266], [9.055899879379833, -196.53719282281716], [7.78212612357933, -192.8144041729721], [6.999060517156771, -190.58935415907902], [6.422968173447335, -188.95241050120404], [5.6962785118049135, -186.92478297390144], [5.707925875824482, -186.9206460332555], [5.122663145440134, -185.2576450835737], [5.125440743959191, -185.25659275869793], [3.8644225891070887, -181.57108420370207], [3.387221376689569, -180.21513579243302], [2.759145463922069, -178.4640975658361], [2.7696611319967195, -178.46036273053747], [1.5042649302296132, -174.86478936491318], [0.9381832097875977, -173.2562905002802], [0.211502812286338, -171.2286888220201], [0.22315006383822913, -171.2245520364384], [-0.36212181787331715, -169.56152508362155], [-0.35934421935387484, -169.56047275874596], [-1.5312561128716369, -166.13539018349337], [-2.616501548640599, -162.96360290794394], [-2.6791205806509715, -162.98732684235296], [-2.7944162264638686, -162.65035858589908], [-2.9158011036148967, -162.32844227073568], [-2.9058515235346007, -162.32467275885335], [-4.112437695955899, -158.79824957161551], [-4.870399155576457, -156.64181790544245]]]}, "properties": {"id": 20, "height_median_m": 12.0, "building_count": 221, "area_m2": 6266.766725014604}}, {"type": "Feature", "geometry": {"type": "Polygon", "coordinates": [[[74.73912527693159, -220.70068478789688], [68.3330977289989, -211.59944756328835], [81.55670271181897, -201.88510299029957], [71.68814004245519, -188.4076264285142], [73.06022758150154, -187.29370283178014], [73.0499173314728, -187.27951976606192], [73.32482749937877, -187.07888848223638], [73.60445543726387, -186.85187369677104], [73.61535126057986, -186.86686229333407], [82.62937341929162, -180.2883684823926], [83.6236985557067, -179.48112973037985], [91.18118468816228, -192.30844407484324], [103.91827055747392, -217.25303361743826], [108.12375774843909, -225.42510421352088], [111.5373273076822, -222.8385646998381], [112.07292637927473, -224.66482504738056], [115.28398218085694, -236.52613987155416], [103.79479377914546, -242.06607993763635], [107.21985877824991, -247.04030885660254], [107.43061212340464, -247.3140676279745], [107.35025664227364, -247.3742122822275], [111.63740707529625, -253.22146128207532], [103.03646337608687, -259.5398994734132], [101.65941654287651, -257.5834873598285], [99.33359706602108, -254.53330693711862], [99.33359706602107, -254.53330693711862], [98.85825850470626, -253.90992735486415], [96.66434451926763, -250.79296735484115], [95.39109086988313, -249.12316735865767], [94.21577980344375, -247.4533673545521], [92.39365712977518, -245.06375674104297], [91.76402620607983, -244.10958531725979], [90.23931070851434, -242.11000735951845], [88.04539671974173, -238.99304735457423], [86.22327405325397, -236.60343675113572], [86.22327405325346, -236.60343675113495], [86.22327405325339, -236.60343675113486], [85.59364312271475, -235.64926531726348], [85.34218127391051, -235.3194873547373], [83.14826728846018, -232.20252735469762], [82.74374303379547, -231.67201672205053], [82.1401685063106, -230.88046293823334], [81.6203629127729, -230.1987673634902], [80.48728172783265, -228.58896463063846], [80.4981149769333, -228.58086403859772], [79.20672040937723, -226.77436720373606], [79.20904060800561, -226.77292878493728], [77.07582678534446, -223.74220734403858], [74.75000732029575, -220.69202693681268], [74.73912527693159, -220.70068478789688]]]}, "properties": {"id": 21, "height_median_m": 9.0, "building_count": 36, "area_m2": 1550.0545260527394}}, {"type": "Feature", "geometry": {"type": "Polygon", "coordinates": [[[-0.13633249361170233, -48.867661917601176], [-2.2231976339592463, -42.875498617298106], [0.8158651027363516, -41.761256446903715], [0.32362776684050004, -40.30663656659841], [3.2644111130789653, -39.30390218891109], [2.6872472332266693, -37.554581244626036], [10.11567681737212, -34.14774224132801], [10.628982476984557, -33.96542501966951], [10.950108803506176, -33.82638230991855], [10.958751955140732, -33.84829665001427], [12.53068055242375, -33.289975016236525], [13.695184182922157, -36.3782733810078], [13.70284534524484, -36.37479035854739], [13.903853395806287, -36.94594680145801], [15.267583784276107, -36.39237736196899], [17.510955447003845, -42.341865932186835], [20.879184774426033, -41.065773839200226], [21.379458550218775, -41.065773839200226], [21.939058360876125, -42.51956197720923], [29.27865080300519, -39.7388736781018], [30.54374724738056, -43.16768506585854], [31.03472110560541, -42.94447181107224], [32.95760586762753, -48.21543292922715], [33.284315966864995, -48.09165508209161], [35.23179751907911, -52.90922220675539], [34.75460800862528, -53.01769541965486], [35.22350425058782, -54.08357555142013], [29.111390808145817, -56.33111226050428], [29.244426581235714, -56.63352497991385], [29.234950550589414, -56.63734670169352], [29.82147963619424, -58.08173271600892], [27.676104017483247, -58.96842364616916], [27.86145840545141, -59.38976538883174], [26.96785049245831, -59.841170120686186], [26.98305926680273, -59.88006373951931], [26.664539140702598, -59.99438740694442], [23.06200758757446, -61.81420095838233], [22.723743415680136, -64.69769383943944], [21.130889691514188, -64.69769383943944], [19.92439101818164, -62.56458019176927], [15.370659077612467, -54.51349156236444], [12.47025924636893, -55.53908447854007], [11.9471100716058, -55.8363860245085], [11.299493818410022, -54.14342408361443], [4.972992228655142, -56.44441666926345], [3.796145627836546, -53.43484981678053], [2.5182322938452235, -53.88175939237616], [0.5567159891991419, -48.64260249940348], [-0.13633249361170233, -48.867661917601176]]]}, "properties": {"id": 22, "height_median_m": 12.0, "building_count": 11, "area_m2": 608.5322612153767}}, {"type": "Feature", "geometry": {"type": "Polygon", "coordinates": [[[28.21656159923517, -68.15679161821663], [29.388779523259945, -67.71268348966359], [31.4788671651889, -66.80997045505207], [36.76853516366407, -64.47191090137278], [38.43036060750975, -63.76360918952027], [39.442328459961, -63.332289182424816], [39.49641038053578, -63.45815357558863], [42.38173872982718, -62.09172913854681], [44.71253336656403, -67.83154197859683], [44.83564942421212, -67.77712406902701], [44.96552106597957, -68.10186619600711], [45.40141296373025, -68.9936363250112], [46.92935902405375, -72.90107490840562], [47.51427007162579, -74.34147634327995], [48.7899456500722, -77.24130178994439], [49.27723245885778, -78.57052377527977], [50.2129066298677, -80.48477425976128], [53.320468668305594, -88.0533584458988], [53.359216227322094, -88.036231832171], [53.48968280271895, -88.36987589434415], [55.1547068079942, -92.15475589111631], [55.94007717780591, -94.16319490852239], [58.07743834098239, -99.42665864525046], [58.158403070221226, -99.39087183239897], [58.28676409611157, -99.7191313423347], [58.43734737159545, -100.03290739406069], [58.413571064994535, -100.04341663978565], [58.8048820946541, -101.04412200138215], [56.06248961296217, -102.2686420014727], [56.06973983795972, -102.28718310683588], [55.426171651428625, -102.56349291237085], [55.38583523765815, -102.4603400173994], [50.56110388596595, -104.74522063676375], [47.90981645628508, -105.7496911153193], [44.65659262987719, -107.12721452690585], [43.440576381221746, -104.11171299087931], [38.589289013093705, -92.73383104655213], [37.26518974457389, -89.62837799531351], [37.128541734478624, -89.3078929758101], [37.13168743258393, -89.30670119220954], [35.60567242276321, -85.63375975273661], [29.632180103382858, -71.49849930429848], [28.21656159923517, -68.15679161821663]]]}, "properties": {"id": 23, "height_median_m": 12.0, "building_count": 56, "area_m2": 651.6906180327668}}, {"type": "Feature", "geometry": {"type": "Polygon", "coordinates": [[[43.765299246784274, -110.31377724863069], [45.43214931738941, -114.54857654667947], [51.57107772290081, -112.22277351045499], [58.60080344711579, -109.45295008026908], [58.599316536887024, -109.44872508354004], [58.91677186997503, -109.32845351025074], [59.2525169962758, -109.19616460540837], [59.25409697334451, -109.2006540478899], [60.11103072369746, -108.87599492385787], [60.59517721871008, -109.97654144932773], [61.38972494865485, -109.63789004710351], [63.124145255707276, -113.9747824742836], [62.362112533560826, -114.26348726184376], [63.48283088344546, -117.32058514299815], [63.61230486328127, -117.63592388895546], [63.60027876300644, -117.6409597168498], [64.0940241613115, -118.98779945686431], [62.363741697581794, -119.6433367012589], [62.36512330234933, -119.64621560323094], [62.0059060730051, -119.77890680856703], [61.70675775895184, -119.89224255898378], [61.70560274612327, -119.88983581518265], [58.09278172324658, -121.22437530000693], [53.786798369204206, -122.99458627696337], [53.88513775792564, -123.32989926791923], [49.16317297762163, -125.24665306208726], [48.866168892838424, -124.57151275506298], [46.50059420925096, -125.46773770134635], [42.94535727392161, -116.23156358893706], [40.42620267272924, -117.23756379292298], [38.6154646187418, -112.3496801138894], [43.765299246784274, -110.31377724863069]]]}, "properties": {"id": 24, "height_median_m": 9.0, "building_count": 7, "area_m2": 235.82846471349384}}, {"type": "Feature", "geometry": {"type": "Polygon", "coordinates": [[[35.79429821561597, 71.23242150338123], [36.44538039352709, 71.60242636568844], [38.69248644641106, 67.83219859468133], [39.10475713951057, 66.77789278231334], [39.31949437348822, 65.80162498125941], [39.20766426359469, 64.91189461703001], [38.885113381969006, 64.1786821381152], [38.4119727970857, 63.37203595831559], [37.446378537251654, 63.09766616062657], [36.77417658300161, 63.09766616062657], [35.61217268461908, 63.337796212460596], [33.81248630383479, 64.3003821554126], [30.419132331047624, 70.33716354396431], [22.610251917708975, 76.2541303425558], [18.93595191762441, 85.99848354667888], [26.88575453198739, 89.85368147607497], [35.79429821561597, 71.23242150338123]]]}, "properties": {"id": 25, "height_median_m": 3.0, "building_count": 2, "area_m2": 212.69423719070494}}, {"type": "Feature", "geometry": {"type": "Polygon", "coordinates": [[[26.333034082669453, 160.1225375307068], [23.536908521020973, 161.57913560846748], [26.877437379176545, 169.93207880676096], [30.71630996209303, 162.488969558973], [26.333034082669453, 160.1225375307068]]]}, "properties": {"id": 26, "height_median_m": 3.0, "building_count": 1, "area_m2": 34.96565908581486}}, {"type": "Feature", "geometry": {"type": "Polygon", "coordinates": [[[50.32550089643752, 326.4418052209993], [44.21245037401038, 318.6552571767032], [-0.7057384917599662, 354.7194015187793], [5.5137349708192, 362.3874208809382], [50.32550089643752, 326.4418052209993]]]}, "properties": {"id": 27, "height_median_m": 15.0, "building_count": 1, "area_m2": 568.6999317702683}}, {"type": "Feature", "geometry": {"type": "Polygon", "coordinates": [[[38.8150180484768, -26.34109084921856], [30.456437496067903, -14.26055057925024], [31.826620552646173, -13.914477594218189], [39.32744052317637, -11.996282042743056], [39.03142329815912, -10.762637525311375], [41.81884415621179, -10.129009817223938], [51.83966706568851, -7.44280483632208], [51.835279001571415, -7.429089474222107], [52.20075855079553, -7.346009817128751], [52.51656729110232, -7.261353395307127], [52.52646310405422, -7.2922838134339365], [55.94896176225638, -6.40820246260383], [59.64509715963476, -5.453436748632224], [59.95203268389692, -5.374150823345702], [59.952291758614514, -5.374886973930476], [63.898936665665296, -4.365605757671174], [64.9785959054629, -8.604760175000552], [64.98422977056238, -8.60347950257469], [65.0634982525337, -8.938119207517534], [65.15141964729841, -9.283332174031333], [65.14558544724913, -9.284658385965438], [65.8269545514161, -12.161125177118082], [63.48364089660323, -12.826968503464387], [63.494268202753084, -12.867734549299463], [62.80798608825113, -12.979165608968787], [68.99136097724966, -36.87411496416429], [68.99457349347294, -36.87332120433294], [69.07850242014919, -37.21086316433048], [69.16673647233685, -37.55183362888682], [69.16348367648371, -37.55263734115108], [70.35105680958269, -42.32877089678374], [71.33537293191921, -45.888455968497496], [71.3418403203432, -45.88677580127935], [71.4281050167098, -46.223812680032694], [71.5219570073646, -46.563219423967276], [71.51541151365228, -46.564919882211164], [73.08249293193028, -52.68751988214917], [69.65450232984324, -53.57807988227968], [69.67982450768908, -53.67701383957982], [69.27368051457819, -53.67701383957982], [68.9769876576221, -53.754091877824344], [68.95667164205463, -53.67471703775733], [61.271513081616675, -54.79456702400884], [60.94521287180919, -54.8282822665171], [60.94866213405856, -54.84161154837889], [60.86851746419283, -54.85328990305973], [60.90341785782794, -54.90153383925662], [60.53743535158529, -54.90153383925662], [60.25187850858709, -54.94314401869414], [60.24098497685824, -54.9010472036692], [58.97329523313077, -55.03203230833775], [54.818487999746004, -49.15796636323138], [50.26610204788573, -31.363869521416714], [46.693939822935945, -32.29188396509129], [44.40032253285766, -32.912571870562886], [40.97587132912284, -27.966263376106046], [39.675769901002276, -26.123687078658392], [38.8150180484768, -26.34109084921856]]]}, "properties": {"id": 28, "height_median_m": 12.0, "building_count": 30, "area_m2": 1065.6828765993653}}, {"type": "Feature", "geometry": {"type": "Polygon", "coordinates": [[[67.21393539043439, 77.6679505524073], [67.21393539043439, 78.05462863607266], [67.21393539043439, 78.45437915051329], [68.4995650254043, 78.60050178481578], [84.55898988361018, 80.82646382918215], [92.97802120759935, 81.93913104889056], [96.73332452492737, 82.54887654382173], [93.43166280146242, 106.35858181280413], [93.40379066607595, 106.35471851657694], [93.40379066607281, 106.35471851660733], [89.74852350043874, 105.84806986389907], [76.91843343767589, 103.95568724676713], [65.06638407518574, 102.28574689186371], [52.430309253859654, 100.50441813678451], [44.537943541867875, 99.45593704003522], [44.200608227360235, 102.13980699079555], [43.90702184675346, 104.14192086299572], [42.096997849217715, 117.51401141531456], [71.13534617238602, 121.53895388758454], [74.56883864948968, 122.0148628320436], [74.91791391377205, 122.06324739722592], [74.91794223088121, 122.06302693148822], [91.51006685953418, 124.352190429298], [95.23137507904376, 124.90871413610385], [108.21458259850891, 126.73897878072155], [110.36962535208525, 111.26330275826264], [110.38200455538409, 111.26496784785304], [110.39648949471311, 111.12502934439482], [112.25239999294462, 110.4589034790959], [112.59134354402256, 107.76223825425927], [111.06932630032337, 105.8401262871791], [113.14685045021184, 104.26593885301614], [113.37137959516116, 101.96917232250082], [111.69932663282216, 99.85758454453699], [113.92310407195126, 98.38320351879081], [114.25715847762264, 95.8519970932825], [112.6386121141056, 93.8079812658027], [114.8114919840821, 92.36734570754183], [115.0356471571236, 89.94701901666802], [110.81868271860417, 84.55496690836776], [118.10711395939863, 85.54903681565175], [118.44895022681104, 83.08837401724223], [120.6523903325138, 67.37898570668183], [107.37385500363106, 65.54963132813019], [103.75140350368832, 65.1045263349102], [96.89561284741224, 64.1026741798587], [91.50859419864442, 63.43473232354843], [87.25179709120856, 62.81708869942831], [87.25224380885572, 62.81377635110101], [86.9072201197977, 62.7670920084799], [86.55901635236256, 62.716569084454406], [86.55856493285218, 62.719916296434064], [78.67925761794707, 61.65378578432254], [69.61507432045165, 60.38047922221372], [67.51161973226368, 75.8634528278409], [67.21393539043439, 77.6679505524073]]]}, "properties": {"id": 29, "height_median_m": 27.0, "building_count": 12, "area_m2": 2596.1654471032543}}, {"type": "Feature", "geometry": {"type": "Polygon", "coordinates": [[[47.900487485, 193.808894498], [47.368892661, 194.883031894], [47.368892642, 194.883031931], [46.879179714, 195.872543012], [44.958073672, 199.633013166], [50.834465963, 202.638569784], [48.48346749, 207.234595112], [53.163679405, 224.32475897], [58.279483342, 226.908999855], [55.146742668, 233.140091144], [61.139248056, 236.235994335], [61.139248062, 236.235994337], [61.139248069, 236.235994341], [66.132323995, 238.64359185], [68.97374267, 240.157425417], [68.965256733, 240.17671538], [69.269979008, 240.315252391], [70.310592175, 240.869663874], [73.696770269, 242.519096686], [73.896085969, 242.617616909], [73.904626742, 242.598201555], [74.962832823, 243.144901703], [74.962832835, 243.144901709], [74.982037004, 243.154823143], [74.985537873, 243.146865078], [81.734728843, 246.434446751], [81.290091406, 247.276726571], [86.512408797, 249.92880473], [87.012201932, 249.019913551], [90.818647431, 251.047888174], [91.307264308, 250.159321408], [93.377559209, 251.279828312], [96.028757419, 245.922832702], [97.401495797, 246.591503889], [98.683796266, 243.968107445], [97.409572014, 243.29967829], [100.055559848, 237.841825993], [98.112780218, 236.848166298], [98.60591709, 235.951379765], [94.486735771, 233.94489557], [95.024955453, 232.925342247], [91.842586364, 229.682487346], [88.865800289, 230.866666166], [84.271357728, 228.777877814], [81.442731318, 227.264949756], [78.881396137, 224.838972148], [75.984515844, 221.664014755], [73.739756286, 222.556990152], [73.379545667, 223.281755977], [69.718679058, 221.498520323], [66.415583335, 219.838127693], [61.771420842, 203.274615927], [61.596218772, 203.186112858], [65.067509271, 196.610422895], [65.074737677, 196.614131367], [65.230901373, 196.300908087], [65.394320612, 195.991341875], [65.387091005, 195.987632787], [67.038918577, 192.674501363], [66.989245651, 192.643136106], [70.438504436, 186.027506532], [70.465431774, 186.041377948], [70.615396371, 185.730562112], [70.795283246, 185.423877239], [70.769721254, 185.410709171], [73.983848533, 178.749125876], [74.083379806, 178.799403953], [76.163560134, 174.727553745], [69.899421846, 171.50143031], [70.490801558, 170.38117557], [67.781854821, 169.061627243], [67.29502983, 170.168262442], [61.755670158, 167.335085504], [61.045894798, 166.93172577], [58.854432189, 171.446267791], [54.652509587, 179.587620786], [54.636595566, 179.620404604], [52.669261577, 183.673228471], [53.041582427, 183.779021971], [50.504219151, 188.745785209], [47.904818618, 193.810535397], [47.900487485, 193.808894498]]]}, "properties": {"id": 30, "height_median_m": 15.0, "building_count": 35, "area_m2": 1614.8475613264777}}, {"type": "Feature", "geometry": {"type": "Polygon", "coordinates": [[[59.73791598382537, -331.2374215896455], [65.75345330131141, -326.2316402573124], [66.74281795830927, -327.4685861323003], [67.32971850247748, -327.0238782037617], [71.01059342383046, -331.5997173096962], [74.29781352379796, -335.5227299017563], [77.00670220051182, -338.83844693739223], [77.02603477656214, -338.8237982035664], [80.17585976208487, -342.7394684319659], [85.3824736331075, -349.0270832553152], [85.28116477640185, -349.11920009302037], [88.79064652759803, -353.1080216466604], [91.5022053173619, -356.4270069374308], [91.52153789361168, -356.4123582034539], [94.2211064448195, -359.76829710611446], [117.32018789908172, -387.21571438711123], [110.81420253015433, -392.79197032013565], [89.17239958681398, -367.0812192297815], [88.21797299117061, -367.92494183030476], [86.50536902176972, -364.48990894603804], [85.37218375782807, -363.974724753736], [83.5031136671752, -361.85036919601924], [83.30193761103887, -362.0104266666107], [81.69438909131632, -358.58458741189935], [80.57299691491657, -358.0747647535382], [78.7106001317057, -355.957993973211], [78.52165671705131, -356.1250218305177], [76.75993602776103, -352.5914737314075], [75.68372952288671, -352.183740623919], [73.79833779282167, -350.04083414851885], [73.59202417924895, -350.1815298261499], [72.1675624982014, -347.14586609206515], [69.08169424459237, -345.0414566090987], [67.35351099767568, -341.23576913119143], [66.07330009696746, -340.3627286316785], [64.04574717328924, -338.51914091701565], [64.02153036887427, -338.54054881291745], [62.3881180785051, -335.15514708988485], [61.191761970771154, -334.4752673573955], [60.723616516149306, -334.07620230726616], [60.357954186306756, -333.38352558855144], [60.357954186306756, -332.0596014936414], [59.73791598382537, -331.2374215896455]]]}, "properties": {"id": 31, "height_median_m": 6.0, "building_count": 13, "area_m2": 722.36664619089}}, {"type": "Feature", "geometry": {"type": "Polygon", "coordinates": [[[63.263305914987676, -295.69424593017936], [65.61227756603704, -294.025618371065], [57.86949523387241, -282.66317451586025], [61.97933469559328, -279.90837685100314], [65.81593171057887, -277.2249210980874], [65.79951986468647, -277.2005905177214], [66.09069463185332, -277.0152615173178], [66.37404733457045, -276.80055871160295], [66.50655789524248, -276.9970057698383], [70.00093451796369, -274.3492369022926], [72.63315348349373, -278.3382215968854], [73.02221828315001, -278.00656791518935], [73.06000552895087, -278.0627311905308], [73.45177588352215, -277.8400911906975], [76.39015551611523, -282.2074119854641], [76.26256658163062, -282.27991976973345], [81.73367639942781, -290.5710891632416], [84.60440744565292, -288.61339261184537], [85.19362266566654, -289.5063162344188], [89.01184570672487, -286.94698708899114], [91.55138232631847, -290.7517834378632], [86.47635343727961, -294.30144356984295], [94.09973229816795, -305.4416590773765], [94.0641150376004, -305.46696033741966], [99.57169369427399, -313.6694922063212], [105.39878252639855, -313.0985458980827], [105.49688198427131, -314.43652543816376], [118.81033529092113, -313.21262492841555], [119.00755665744697, -315.3421324968801], [119.0111573320896, -315.3419545634043], [119.03864770005353, -315.67783958434467], [119.18753924990446, -317.2855035401993], [119.275970599602, -318.24034546117224], [119.43074640418666, -320.46861145110216], [119.4615528990001, -320.84501383935265], [119.45689138990758, -320.84501383935265], [119.72432811260722, -324.695229028019], [120.2493027893801, -329.82665922614115], [113.30356668644684, -330.4937928036105], [113.49944637766157, -332.05222915734356], [100.18288773819035, -333.3329160305708], [100.389929489854, -334.62717815647744], [100.33293222659792, -334.6302630226516], [100.33293222659792, -334.9826538392525], [99.70498388584437, -334.9826538392525], [96.92602371391114, -335.235335620265], [96.82866616969066, -334.2394401911996], [92.69324884204784, -334.6870830530162], [89.04480250777661, -332.2367210276942], [91.1172814114759, -332.0981594508802], [91.08831229746654, -332.0562538393367], [91.09646767509295, -332.0562538393367], [78.641846326673, -313.6431666341755], [76.48718794352371, -315.2015898083191], [73.15474515193904, -310.2777073807897], [73.93312391005482, -309.7247742510344], [73.14570710097772, -308.6060673585863], [74.61869306944904, -307.6015637999331], [72.76118050305926, -304.8871387824786], [69.25313300341577, -299.903149525904], [67.96371321331473, -300.8452786396236], [67.06897270377482, -299.48934805598833], [66.19007758782499, -300.04431378598775], [63.263305914987676, -295.69424593017936]]]}, "properties": {"id": 32, "height_median_m": 15.0, "building_count": 73, "area_m2": 1433.2672987879894}}, {"type": "Feature", "geometry": {"type": "Polygon", "coordinates": [[[70.98484123785302, -68.28519063384789], [70.98799424681133, -68.28470471382], [70.20212159234205, -62.81379069376009], [81.99075142942141, -61.5515876697166], [75.54160325618207, -18.749623385122433], [75.33823352923403, -16.66930199432187], [75.68763014302567, -15.477945968091547], [76.54376075161628, -14.921909091536227], [78.67813929828398, -14.575351811544168], [85.34226575175282, -13.684252880112645], [90.38182882016777, -12.985729974621238], [87.34405639353518, 5.478624563386293], [88.12759710268668, 5.701264563617693], [88.12135436754087, 5.739209497882547], [88.44751465968253, 5.792167874870939], [88.8053249470473, 5.893838255913373], [88.81230710481769, 5.851398922602509], [96.940198974394, 7.17111800588984], [96.74183423775119, 8.411138258970235], [107.03116103432247, 10.081807744352568], [107.22672087568267, 8.8593214874163], [111.37701158848778, 9.558159250678479], [114.81722997905948, 10.137433015232581], [116.72653716654939, 10.458927593954279], [120.20664643976217, 11.028404403751365], [120.54314686652205, 11.08403510523833], [120.54346078461451, 11.082206534205042], [133.0522252798292, 13.08150931906511], [133.8383742817299, 10.065863981887851], [134.7498690951233, 10.180974049946698], [135.23958203842707, 7.175334050004575], [135.2432772997014, 7.175800713961808], [135.29418978787956, 6.840175998118305], [135.3522221540788, 6.483999173460584], [135.3482951518195, 6.483503243598436], [135.83800809474624, 3.2552232440133992], [133.99887751391802, 3.022964712237212], [135.351736645843, -0.0523119508324135], [135.23450229606507, -0.0721337756338096], [135.3323953858082, -0.9622436972285614], [120.56353419153353, -3.4801518685214137], [123.1126589711105, -21.168900175614887], [126.42918508843951, -20.791949053018634], [128.17116173105038, -22.11188448748791], [129.18249360748092, -21.99088829341213], [130.34710273933038, -31.85829383929846], [129.76075117288025, -31.85829383929846], [130.14741654842112, -35.04450760980416], [128.18176583693088, -35.267920366308054], [128.47578085392777, -38.16408486464319], [127.10010563338949, -38.312996363353754], [125.93712045130223, -39.96528460962405], [120.60710441558568, -40.55154384311666], [120.93624513426163, -43.619132230665876], [105.27918227739009, -45.28746696128832], [106.35477150509487, -52.62245337748614], [92.24369125201564, -54.61686967281492], [92.96604014731606, -60.37844674126997], [129.6951177343684, -56.357615435190795], [117.0607942245508, -79.86628032341757], [110.9682060864538, -76.17308592709004], [100.79078432271737, -77.14378496813751], [97.0641542632609, -77.4992223577859], [96.75092931906185, -77.52909703135495], [96.746319044776, -77.50027722403009], [87.06302284572237, -78.46329186298998], [92.00061457689989, -111.63638127951425], [94.85517516888385, -113.05214062636941], [94.52085170193277, -113.81211417472768], [92.49700189696061, -117.80732992947799], [87.38802994081445, -115.20020562117216], [86.37783788407712, -114.70813347340768], [90.87281875003579, -106.34807554518338], [78.0751171685235, -114.58147115493875], [75.7931284903454, -100.03435257110124], [75.78966859758988, -100.03487689903245], [75.73889787484329, -99.68864568739593], [75.68464551508598, -99.34280018939253], [75.68810679511677, -99.3422756512273], [73.78003483349622, -86.33016884197477], [72.75287092872695, -79.7632160268075], [72.21231378699011, -76.30727951345726], [72.1590029024678, -75.96644777125202], [72.1601523012186, -75.96627063383174], [71.09071864953597, -68.97713755298886], [71.08752976279654, -68.97762900225331], [71.03748045543541, -68.62920683006162], [70.98484123785302, -68.28519063384789]]]}, "properties": {"id": 33, "height_median_m": 21.0, "building_count": 38, "area_m2": 4204.873183511624}}, {"type": "Feature", "geometry": {"type": "Polygon", "coordinates": [[[82.91879229725956, 25.614906160529678], [82.92308354117881, 25.614906160529678], [82.3018575441236, 29.54875627105971], [81.27422856857636, 35.38869062235043], [91.54254884410558, 39.624762660599494], [94.76271855886264, 40.95320494921869], [95.08216492432506, 41.08498870548508], [95.08267686134052, 41.08372379346389], [98.9856466273406, 42.6761533695682], [99.96406907564325, 36.559826074141185], [106.6418576129328, 39.3933771780529], [106.64123770384428, 39.39690007246886], [106.90009082634894, 39.50295192766588], [107.3032299215882, 39.674013832661274], [107.30419768861462, 39.668514089043136], [115.33258158525216, 42.95773462551547], [118.49068889782403, 44.08584902708081], [118.48814496563459, 44.10052840776588], [118.77615722692515, 44.18782179158053], [119.38688003666977, 44.40597941855372], [123.20833208645287, 45.41943990157878], [126.06721533819653, 46.091721605634966], [127.89097784492897, 46.368102895219494], [130.3001853966816, 31.99219973431337], [130.43414901551708, 30.774112261294718], [127.72716400106859, 30.224698612981847], [127.92570127601586, 29.322081284326675], [121.94279115297253, 28.318790616752256], [122.33431393790092, 26.316296843534445], [109.64112420795811, 24.14081508065022], [83.92758717626288, 19.627208865163922], [83.47926276533263, 22.288236313504694], [82.98456567527347, 25.224508582351934], [82.91879229725956, 25.614906160529678]]]}, "properties": {"id": 34, "height_median_m": 15.0, "building_count": 13, "area_m2": 809.5861127787122}}, {"type": "Feature", "geometry": {"type": "Polygon", "coordinates": [[[88.63698323209431, 194.89489004106213], [92.8055624608813, 202.39663049650716], [91.8691118423657, 202.90079864920912], [93.72790995822567, 206.34780382811644], [90.10322767711294, 208.24066499498383], [93.7330211357409, 214.93077192654698], [92.16314826534756, 215.82291828706806], [95.33941109688105, 221.54926824395355], [101.92490896987526, 217.9908384973557], [99.15546929683613, 212.80638911475066], [102.30879989058009, 211.09228983373882], [99.6723832156711, 205.84839808488329], [102.80408919583658, 204.06867429699923], [100.90940776949357, 200.55512614281344], [102.51716466318162, 199.742970096599], [99.74925808666657, 194.56139070296868], [101.03995356934608, 193.82789864772215], [99.0530959733747, 190.10845939229068], [98.17561841079228, 190.55171590080488], [95.22933553040146, 184.85892826708633], [92.7994798881741, 186.23979604860398], [91.10359053867654, 183.06505547686922], [90.22839503645052, 183.61768513817225], [89.16300123042834, 181.52611369966039], [83.34412190704985, 184.6457582165729], [88.93509005477658, 194.72547828691282], [88.63698323209431, 194.89489004106213]]]}, "properties": {"id": 35, "height_median_m": 12.0, "building_count": 1, "area_m2": 363.2288055197314}}, {"type": "Feature", "geometry": {"type": "Polygon", "coordinates": [[[101.37888242420088, -351.5544885537387], [97.04994467013371, -346.3999908962248], [98.37329301197028, -345.1967134292814], [104.86448621308139, -344.96970457669704], [108.8192940067042, -344.75565828582336], [109.83821745209336, -343.92844949854157], [110.40262598682405, -344.6768636338594], [111.18027548454312, -343.90348250950973], [116.3151899089078, -350.42636431552387], [118.75633092863367, -348.36781805984316], [119.12704611667948, -348.8945043476752], [120.19275561440017, -348.5916871997621], [121.79190238575474, -350.65159417095254], [122.61104719743177, -351.4496173659409], [122.242046251741, -352.70781931859], [122.49082429959007, -353.06126582075905], [121.33813166737184, -354.0332994240875], [125.62086613989152, -358.900987813315], [125.14005706849298, -362.36202781314506], [125.36819411796421, -362.62132478193666], [125.07186850389854, -362.85287410459676], [124.32080307400321, -368.2593184709564], [124.73866883468861, -368.8292460227012], [123.71680706363193, -375.4494081762424], [122.26853521633754, -376.64655938855446], [116.46270675777528, -369.70044047446487], [109.41171645935698, -361.28569400360414], [108.53323092547421, -360.23729757514775], [101.37888242420088, -351.5544885537387]]]}, "properties": {"id": 36, "height_median_m": 6.0, "building_count": 8, "area_m2": 426.5856614188883}}]}