{"type": "FeatureCollection", "crs": {"type": "name", "properties": {"name": "EPSG:32628_local_enu_m_section_centroid", "lng0": -15.424423945409428, "lat0": 28.115565798180317}}, "features": [{"type": "Feature", "geometry": {"type": "Point", "coordinates": [-157.68904762852438, 292.74913343270924]}, "properties": {"osm_id": null, "category": "publico", "name": "Academia Ludic", "extrude": false}}, {"type": "Feature", "geometry": {"type": "Point", "coordinates": [106.22985183706871, 291.63593343275136]}, "properties": {"osm_id": null, "category": "salud", "name": "Clínica Dermatológica y Centro Capilar", "extrude": false}}, {"type": "Feature", "geometry": {"type": "Point", "coordinates": [137.35421609685443, 278.6114934328094]}, "properties": {"osm_id": null, "category": "restauracion", "name": "Restaurante A Paris", "extrude": false}}, {"type": "Feature", "geometry": {"type": "Point", "coordinates": [61.85063213535568, 248.22113343281302]}, "properties": {"osm_id": null, "category": "publico", "name": "Giros, Escuela de Baile", "extrude": false}}, {"type": "Feature", "geometry": {"type": "Point", "coordinates": [208.34133079690747, 241.20797343272258]}, "properties": {"osm_id": null, "category": "restauracion", "name": "Cafetería New York", "extrude": false}}, {"type": "Feature", "geometry": {"type": "Point", "coordinates": [-2.8526992440838495, 229.96465343302958]}, "properties": {"osm_id": null, "category": "restauracion", "name": "Churrería Cafetería Los Arenales", "extrude": false}}, {"type": "Feature", "geometry": {"type": "Point", "coordinates": [61.1633433346554, 213.711933432933]}, "properties": {"osm_id": null, "category": "publico", "name": "Latinnova, Escuela de baile", "extrude": false}}, {"type": "Feature", "geometry": {"type": "Point", "coordinates": [169.7549738439041, 196.12337343304517]}, "properties": {"osm_id": null, "category": "restauracion", "name": "El Rincón de Hilario", "extrude": false}}, {"type": "Feature", "geometry": {"type": "Point", "coordinates": [-70.10881759752807, 191.89321343265163]}, "properties": {"osm_id": null, "category": "publico", "name": "Soraya Hernández, Estudio Flamenco", "extrude": false}}, {"type": "Feature", "geometry": {"type": "Point", "coordinates": [-85.32735532707079, 162.28209343266528]}, "properties": {"osm_id": null, "category": "restauracion", "name": "Cafetería Club Las Palmas", "extrude": false}}, {"type": "Feature", "geometry": {"type": "Point", "coordinates": [-44.188211400062734, 154.15573343301247]}, "properties": {"osm_id": null, "category": "salud", "name": "Ortpedia Bentejui", "extrude": false}}, {"type": "Feature", "geometry": {"type": "Point", "coordinates": [-58.9158285577016, 127.10497343288964]}, "properties": {"osm_id": null, "category": "finanzas", "name": "Caja Rural de Canarias", "extrude": false}}, {"type": "Feature", "geometry": {"type": "Point", "coordinates": [191.65003135147876, 97.82781343285109]}, "properties": {"osm_id": null, "category": "restauracion", "name": "Café del Mar", "extrude": false}}, {"type": "Feature", "geometry": {"type": "Point", "coordinates": [52.13040481124078, 71.89025343268611]}, "properties": {"osm_id": null, "category": "restauracion", "name": "Colón, Cafetería y Club de Billar", "extrude": false}}, {"type": "Feature", "geometry": {"type": "Point", "coordinates": [-91.6111386476843, 67.43745343285468]}, "properties": {"osm_id": null, "category": "salud", "name": "José María Medina", "extrude": false}}, {"type": "Feature", "geometry": {"type": "Point", "coordinates": [-85.4255394413818, 22.57549343301065]}, "properties": {"osm_id": null, "category": "finanzas", "name": "Caixabank", "extrude": false}}, {"type": "Feature", "geometry": {"type": "Point", "coordinates": [-157.29631117093155, 21.35097343293836]}, "properties": {"osm_id": null, "category": "restauracion", "name": "Il Cafe", "extrude": false}}, {"type": "Feature", "geometry": {"type": "Point", "coordinates": [137.2560319825434, 8.437853432715343]}, "properties": {"osm_id": null, "category": "restauracion", "name": "El Obrero", "extrude": false}}, {"type": "Feature", "geometry": {"type": "Point", "coordinates": [153.7509631991757, -4.475266567112186]}, "properties": {"osm_id": null, "category": "restauracion", "name": "Los Trópicos", "extrude": false}}, {"type": "Feature", "geometry": {"type": "Point", "coordinates": [-99.66223602729121, -4.475266567112186]}, "properties": {"osm_id": null, "category": "finanzas", "name": "Caixabank", "extrude": false}}, {"type": "Feature", "geometry": {"type": "Point", "coordinates": [-190.4825418328181, -13.380866567170528]}, "properties": {"osm_id": null, "category": "salud", "name": "Albión, Clínica oftalmológica", "extrude": false}}, {"type": "Feature", "geometry": {"type": "Point", "coordinates": [182.81346105703497, -98.31802656707936]}, "properties": {"osm_id": null, "category": "restauracion", "name": "La Gran Muralla", "extrude": false}}, {"type": "Feature", "geometry": {"type": "Point", "coordinates": [208.43951491139288, -159.65534656724884]}, "properties": {"osm_id": null, "category": "restauracion", "name": "Cafetería Recreativos Carvajal", "extrude": false}}, {"type": "Feature", "geometry": {"type": "Point", "coordinates": [125.86667471392052, -171.90054656718075]}, "properties": {"osm_id": null, "category": "salud", "name": "Farmacia Lcdo. Rogelio Tenorio Hernández", "extrude": false}}, {"type": "Feature", "geometry": {"type": "Point", "coordinates": [-153.07439425241887, -211.5304665671833]}, "properties": {"osm_id": null, "category": "restauracion", "name": "Café Bar del Pino", "extrude": false}}, {"type": "Feature", "geometry": {"type": "Point", "coordinates": [-116.64808781565293, -216.31722656696255]}, "properties": {"osm_id": null, "category": "restauracion", "name": "Bar Restaurante Los Padres", "extrude": false}}, {"type": "Feature", "geometry": {"type": "Point", "coordinates": [-128.13562919876122, -222.439826567324]}, "properties": {"osm_id": null, "category": "restauracion", "name": "El Buen Comer", "extrude": false}}, {"type": "Feature", "geometry": {"type": "Point", "coordinates": [169.8531579582151, -260.39994656719205]}, "properties": {"osm_id": null, "category": "restauracion", "name": "Bonjour", "extrude": false}}, {"type": "Feature", "geometry": {"type": "Point", "coordinates": [132.8377468352343, -262.29238656715995]}, "properties": {"osm_id": null, "category": "finanzas", "name": "Cajasiete", "extrude": false}}, {"type": "Feature", "geometry": {"type": "Point", "coordinates": [165.82760926849886, -265.52066656731455]}, "properties": {"osm_id": null, "category": "restauracion", "name": "Xokolat", "extrude": false}}, {"type": "Feature", "geometry": {"type": "Point", "coordinates": [115.0664221316869, -272.97910656707177]}, "properties": {"osm_id": null, "category": "restauracion", "name": "Bar Erica", "extrude": false}}]}