{"type": "FeatureCollection", "crs": {"type": "name", "properties": {"name": "wgs84_and_EPSG:32628_local_enu_m_section_centroid", "lng0": -16.373554247835802, "lat0": 28.36281782125526}}, "features": [{"type": "Feature", "geometry": {"type": "Polygon", "coordinates": [[[-16.36862, 28.36813], [-16.36883, 28.36761], [-16.3693, 28.36642], [-16.36976, 28.36528], [-16.37007, 28.36448], [-16.37028, 28.36396], [-16.37054, 28.36328], [-16.37074, 28.36278], [-16.37089, 28.36241], [-16.37089, 28.3624], [-16.3712, 28.36161], [-16.37142, 28.36107], [-16.37157, 28.3607], [-16.37219, 28.35906], [-16.37264, 28.35751], [-16.37293, 28.35661], [-16.37305, 28.35598], [-16.37342, 28.35595], [-16.37384, 28.35619], [-16.37398, 28.35621], [-16.37408, 28.35622], [-16.37412, 28.35629], [-16.37419, 28.35657], [-16.37421, 28.35664], [-16.37424, 28.3567], [-16.37431, 28.35679], [-16.37442, 28.35688], [-16.37453, 28.35691], [-16.37464, 28.35691], [-16.37472, 28.3569], [-16.37484, 28.35688], [-16.37496, 28.35684], [-16.37505, 28.3568], [-16.37515, 28.35676], [-16.37524, 28.35669], [-16.37544, 28.35653], [-16.37554, 28.35647], [-16.37569, 28.35642], [-16.37577, 28.3564], [-16.37588, 28.35638], [-16.37604, 28.35638], [-16.37618, 28.35638], [-16.37635, 28.35641], [-16.37644, 28.35644], [-16.37659, 28.35651], [-16.37668, 28.35653], [-16.37683, 28.35653], [-16.37694, 28.35653], [-16.37706, 28.35652], [-16.37721, 28.35648], [-16.3774, 28.35639], [-16.37748, 28.35632], [-16.37764, 28.35608], [-16.37772, 28.35599], [-16.37782, 28.35591], [-16.37792, 28.35587], [-16.37806, 28.35585], [-16.37815, 28.35584], [-16.3783, 28.35588], [-16.37841, 28.35591], [-16.3786, 28.35597], [-16.37868, 28.356], [-16.37879, 28.35603], [-16.37888, 28.35599], [-16.37897, 28.35592], [-16.37912, 28.35589], [-16.3792, 28.35591], [-16.37934, 28.35595], [-16.37944, 28.35602], [-16.37956, 28.35616], [-16.37962, 28.35622], [-16.37972, 28.3562], [-16.37981, 28.35615], [-16.37995, 28.35617], [-16.38003, 28.35622], [-16.38015, 28.35631], [-16.38034, 28.35648], [-16.38033, 28.35649], [-16.38029, 28.35652], [-16.38024, 28.35655], [-16.38019, 28.35655], [-16.38016, 28.35654], [-16.38013, 28.35652], [-16.38005, 28.35649], [-16.37998, 28.35645], [-16.37992, 28.35644], [-16.37986, 28.35644], [-16.37973, 28.35644], [-16.37966, 28.35645], [-16.37961, 28.35646], [-16.37957, 28.35646], [-16.37953, 28.35647], [-16.37941, 28.35652], [-16.3793, 28.35657], [-16.37922, 28.35663], [-16.3791, 28.35673], [-16.37902, 28.35681], [-16.37884, 28.35698], [-16.37879, 28.35707], [-16.37877, 28.35715], [-16.37877, 28.3572], [-16.37878, 28.35732], [-16.37878, 28.35735], [-16.37885, 28.35791], [-16.37886, 28.3581], [-16.37884, 28.35827], [-16.37882, 28.35837], [-16.37874, 28.35852], [-16.37843, 28.35897], [-16.3783, 28.35916], [-16.37818, 28.3593], [-16.37811, 28.35936], [-16.37808, 28.35939], [-16.37797, 28.35945], [-16.37792, 28.35947], [-16.37781, 28.35951], [-16.37762, 28.35955], [-16.37749, 28.35955], [-16.37737, 28.35953], [-16.37725, 28.35947], [-16.377, 28.35936], [-16.37688, 28.35931], [-16.37674, 28.35928], [-16.37663, 28.35927], [-16.37656, 28.35927], [-16.37642, 28.3593], [-16.37633, 28.35932], [-16.37625, 28.35935], [-16.37612, 28.35941], [-16.37598, 28.35951], [-16.37586, 28.35962], [-16.37579, 28.35973], [-16.37571, 28.35989], [-16.37567, 28.36002], [-16.37566, 28.36018], [-16.37566, 28.36037], [-16.37566, 28.36056], [-16.37566, 28.36061], [-16.37566, 28.36068], [-16.37566, 28.36085], [-16.37563, 28.36101], [-16.37557, 28.36114], [-16.37552, 28.36122], [-16.3755, 28.36124], [-16.37546, 28.3613], [-16.37534, 28.36141], [-16.37533, 28.36142], [-16.37532, 28.36144], [-16.37527, 28.36152], [-16.37523, 28.36161], [-16.37521, 28.36168], [-16.3752, 28.3618], [-16.37529, 28.362], [-16.37537, 28.3621], [-16.37549, 28.36219], [-16.37557, 28.36225], [-16.3756, 28.3623], [-16.37559, 28.36235], [-16.37557, 28.36247], [-16.37551, 28.36252], [-16.37542, 28.36253], [-16.37535, 28.36252], [-16.37462, 28.36229], [-16.37446, 28.36225], [-16.37439, 28.36225], [-16.3743, 28.36227], [-16.37422, 28.36231], [-16.37418, 28.36237], [-16.37415, 28.36241], [-16.37412, 28.36247], [-16.37411, 28.36251], [-16.3741, 28.36259], [-16.37411, 28.36265], [-16.37411, 28.36268], [-16.37418, 28.36311], [-16.3742, 28.36324], [-16.37424, 28.36342], [-16.37426, 28.36354], [-16.37426, 28.36362], [-16.37424, 28.36377], [-16.37421, 28.36417], [-16.3742, 28.36429], [-16.3742, 28.36433], [-16.3742, 28.36439], [-16.3742, 28.3645], [-16.37422, 28.3646], [-16.37423, 28.36461], [-16.37426, 28.36469], [-16.37427, 28.36472], [-16.37435, 28.36487], [-16.37438, 28.36494], [-16.37441, 28.36513], [-16.37441, 28.36522], [-16.37441, 28.36526], [-16.37441, 28.36538], [-16.37441, 28.36607], [-16.37441, 28.36615], [-16.37443, 28.36628], [-16.37448, 28.36656], [-16.37451, 28.36669], [-16.37452, 28.36671], [-16.37453, 28.36678], [-16.37479, 28.36764], [-16.37505, 28.36849], [-16.37517, 28.36892], [-16.3752, 28.36902], [-16.3752, 28.36904], [-16.37521, 28.36911], [-16.37521, 28.36921], [-16.37517, 28.36936], [-16.37513, 28.36945], [-16.37503, 28.36955], [-16.37476, 28.36971], [-16.37418, 28.37005], [-16.37415, 28.37007], [-16.37359, 28.37039], [-16.37357, 28.3704], [-16.37355, 28.37042], [-16.37309, 28.37068], [-16.37282, 28.37084], [-16.37281, 28.37082], [-16.3728, 28.3708], [-16.37272, 28.37074], [-16.37271, 28.37071], [-16.37269, 28.37065], [-16.37268, 28.37062], [-16.37269, 28.37059], [-16.3727, 28.37056], [-16.3727, 28.37053], [-16.3727, 28.37043], [-16.37267, 28.37039], [-16.37253, 28.37028], [-16.37247, 28.37023], [-16.37241, 28.37017], [-16.37238, 28.37008], [-16.37234, 28.36988], [-16.37229, 28.36979], [-16.37223, 28.3697], [-16.37215, 28.36959], [-16.3721, 28.36953], [-16.37205, 28.36948], [-16.37202, 28.36946], [-16.37199, 28.36944], [-16.37196, 28.36943], [-16.37174, 28.36939], [-16.37167, 28.36937], [-16.3716, 28.36934], [-16.37154, 28.36931], [-16.37148, 28.36926], [-16.37142, 28.36922], [-16.37136, 28.36916], [-16.37131, 28.3691], [-16.37127, 28.36904], [-16.3712, 28.36894], [-16.37115, 28.36885], [-16.37109, 28.36871], [-16.37106, 28.36865], [-16.37104, 28.36863], [-16.37099, 28.36859], [-16.37093, 28.36855], [-16.37082, 28.36851], [-16.37052, 28.36844], [-16.37007, 28.3683], [-16.36979, 28.36821], [-16.36966, 28.36819], [-16.36953, 28.36817], [-16.3692, 28.36814], [-16.36911, 28.3681], [-16.36904, 28.36808], [-16.369, 28.36807], [-16.36895, 28.36807], [-16.36862, 28.36813]]]}, "properties": {"cusec": "3801101009", "mun": "011", "nmun": "Candelaria", "area_m2": 720714.0763993819, "perimeter_m": 5139.373164450363, "coords_system": "wgs84"}}, {"type": "Feature", "geometry": {"type": "Polygon", "coordinates": [[[483.34321824848286, -591.3517378646413], [462.7722864247324, -533.4653378644599], [416.7325818666325, -400.99453786472907], [371.67244549058273, -274.0897378643921], [341.3058318459822, -185.0337378645996], [320.7349000218837, -127.14733786441812], [295.26612728788217, -51.44973786451544], [275.67476364583393, 4.210262135354839], [260.9812409147328, 45.39866213537749], [260.9812409147328, 46.51186213533535], [230.61462726978422, 134.45466213556543], [209.06412726398355, 194.56746213526714], [194.37060453288237, 235.7558621352898], [133.63737724333322, 418.32066213549706], [89.55680904933368, 590.8666621352927], [61.14933176883354, 691.0546621354547], [49.394513583883, 761.1862621355681], [13.150490846633158, 764.5258621354417], [-27.99137280121575, 737.8090621352667], [-41.705327350266714, 735.5826621353509], [-51.50100917111683, 734.4694621353931], [-55.419281899665684, 726.6770621352925], [-62.276259174017156, 695.5074621352861], [-64.2353955384656, 687.7150621355811], [-67.17410008461623, 681.0358621354385], [-74.03107735931572, 671.0170621354223], [-84.80632736221604, 660.9982621354061], [-95.58157736511637, 657.6586621355325], [-106.3568273680167, 657.6586621355325], [-114.1933728247664, 658.7718621354904], [-125.94819100971694, 660.9982621354061], [-137.70300919501548, 665.451062135633], [-146.5191228338154, 669.9038621354645], [-156.31480465466552, 674.3566621352959], [-165.1309182934654, 682.1490621353963], [-184.72228193516565, 699.9602621355131], [-194.51796375601577, 706.6394621352601], [-209.21148648711696, 712.2054621354449], [-217.04803194386665, 714.4318621353607], [-227.82328194676697, 716.6582621352763], [-243.49637286026638, 716.6582621352763], [-257.21032740966535, 716.6582621352763], [-273.8629865048669, 713.3186621354027], [-282.67910014366686, 709.9790621355293], [-297.37262287511606, 702.1866621354287], [-306.18873651391596, 699.9602621355131], [-320.8822592453651, 699.9602621355131], [-331.65750924826546, 699.9602621355131], [-343.412327433216, 701.0734621354709], [-358.1058501646652, 705.5262621353023], [-376.71764562431525, 715.5450621353185], [-384.5541910807169, 723.337462135419], [-400.22728199421624, 750.0542621355941], [-408.06382745096596, 760.0730621356103], [-417.8595092718161, 768.9786621352731], [-427.6551910926662, 773.4314621354999], [-441.3691456420652, 775.6578621354157], [-450.18525928086507, 776.7710621353735], [-464.8787820119663, 772.3182621355421], [-475.65403201486663, 768.9786621352731], [-494.26582747451664, 762.2994621355259], [-502.10237293126636, 758.9598621352569], [-512.8776229341667, 755.6202621353833], [-521.6937365729666, 760.0730621356103], [-530.5098502117664, 767.8654621353153], [-545.2033729432156, 771.2050621355843], [-553.0399183999654, 768.9786621352731], [-566.7538729490162, 764.5258621354417], [-576.5495547698664, 756.7334621353411], [-588.3043729551649, 741.1486621355357], [-594.1817820474662, 734.4694621353931], [-603.9774638683164, 736.6958621353087], [-612.7935775071163, 742.2618621354935], [-626.5075320565153, 740.0354621355779], [-634.344077513265, 734.4694621353931], [-646.0988956982154, 724.4506621353769], [-664.7106911578654, 705.5262621353023], [-663.7311229758153, 704.4130621353445], [-659.8128502472665, 701.0734621354709], [-654.9150093370154, 697.7338621355973], [-650.0171684264163, 697.7338621355973], [-647.0784638802656, 698.8470621355552], [-644.1397593341151, 701.0734621354709], [-636.3032138773654, 704.4130621353445], [-629.4462366026659, 708.8658621355714], [-623.5688275100166, 709.9790621355293], [-617.6914184177153, 709.9790621355293], [-604.9570320503666, 709.9790621355293], [-598.1000547760151, 708.8658621355714], [-593.202213865416, 707.7526621356135], [-589.2839411372152, 707.7526621356135], [-585.3656684086662, 706.6394621352601], [-573.6108502237158, 701.0734621354709], [-562.8356002208154, 695.5074621352861], [-554.9990547640658, 688.828262135539], [-543.2442365791153, 677.6962621355649], [-535.4076911223656, 668.7906621355066], [-517.7754638447657, 649.8662621354321], [-512.8776229341667, 639.8474621354159], [-510.91848657006625, 630.9418621353575], [-510.91848657006625, 625.3758621355682], [-511.8980547521165, 612.0174621352829], [-511.8980547521165, 608.6778621354094], [-518.7550320268159, 546.3386621353965], [-519.7346002088661, 525.1878621354062], [-517.7754638447657, 506.2634621353317], [-515.8163274806652, 495.13146213535765], [-507.9797820239156, 478.43346213559425], [-477.613168379315, 428.33946213551326], [-464.8787820119663, 407.18866213552303], [-453.1239638270157, 391.60386213532206], [-446.26698655231627, 384.9246621355749], [-443.3282820061656, 381.58506213530586], [-432.5530320032653, 374.9058621355587], [-427.6551910926662, 372.6794621352475], [-416.8799410897659, 368.22666213541606], [-398.2681456301159, 363.77386213558464], [-385.53375926311514, 363.77386213558464], [-373.7789410778165, 366.0002621355004], [-362.024122892866, 372.6794621352475], [-337.5349183405667, 384.9246621355749], [-325.78010015561614, 390.49066213536423], [-312.0661456065652, 393.83026213563323], [-301.29089560331687, 394.9434621355911], [-294.4339183289654, 394.9434621355911], [-280.7199637795664, 391.60386213532206], [-271.9038501407665, 389.37746213540635], [-264.0673046840168, 386.0378621355328], [-251.33291831701604, 379.35866213539015], [-237.61896376761706, 368.22666213541606], [-225.86414558266657, 355.9814621354842], [-219.00716830796708, 343.73626213555224], [-211.17062285156538, 325.9250621354356], [-207.25235012301653, 311.453462135588], [-206.27278194096633, 293.64226213547124], [-206.27278194096633, 272.491462135481], [-206.27278194096633, 251.34066213549076], [-206.27278194096633, 245.774662135306], [-206.27278194096633, 237.982262135601], [-206.27278194096633, 219.05786213552645], [-203.3340773948157, 201.24666213540976], [-197.4566683021664, 186.77506213556214], [-192.55882739191534, 177.8694621355038], [-190.59969102746692, 175.64306213558808], [-186.68141829926608, 168.96386213544545], [-174.92660011431553, 156.71866213551354], [-173.94703193226533, 155.60546213555568], [-172.9674637498671, 153.37906213524448], [-168.06962283961604, 144.47346213558163], [-164.1513501110672, 134.45466213556543], [-162.1922137469668, 126.66226213546494], [-161.21264556491656, 113.30386213557517], [-170.02875920371648, 91.03986213562706], [-177.86530466046617, 79.90786213525752], [-189.62012284541672, 69.8890621356368], [-197.4566683021664, 63.20986213549418], [-200.39537284831704, 57.643862135309405], [-199.41580466626684, 52.07786213552012], [-197.4566683021664, 38.71946213563035], [-191.57925920951715, 33.15346213544558], [-182.76314557071723, 32.04026213548772], [-175.90616829636576, 33.15346213544558], [-104.39769100391628, 58.75706213526726], [-88.72460009041689, 63.20986213549418], [-81.8676228157174, 63.20986213549418], [-73.0515091772655, 60.98346213557846], [-65.2149637205158, 56.53066213535155], [-61.29669099196695, 49.85146213560441], [-58.357986445816316, 45.39866213537749], [-55.419281899665684, 38.71946213563035], [-54.439713717615476, 34.266662135403436], [-53.46014553521725, 25.361062135345094], [-54.439713717615476, 18.681862135597953], [-54.439713717615476, 15.342262135328895], [-61.29669099196695, -32.5253378644409], [-63.25582735606737, -46.996937864684014], [-67.17410008461623, -67.03453786471641], [-69.13323644871664, -80.39293786460618], [-69.13323644871664, -89.29853786466452], [-67.17410008461623, -105.99653786442786], [-64.2353955384656, -150.52453786471958], [-63.25582735606737, -163.88293786460935], [-63.25582735606737, -168.33573786444077], [-63.25582735606737, -175.0149378645834], [-63.25582735606737, -187.26013786451531], [-65.2149637205158, -198.39213786448937], [-66.19453190256601, -199.50533786444723], [-69.13323644871664, -208.41093786450557], [-70.11280463076686, -211.75053786437914], [-77.94935008751655, -228.44853786453797], [-80.88805463366718, -236.24093786463845], [-83.82675918016584, -257.3917378646287], [-83.82675918016584, -267.4105378646449], [-83.82675918016584, -271.8633378644763], [-83.82675918016584, -285.2217378643661], [-83.82675918016584, -362.0325378646221], [-83.82675918016584, -370.93813786468047], [-85.78589554426625, -385.4097378645281], [-90.6837364545173, -416.5793378645345], [-93.62244100101594, -431.05093786438215], [-94.60200918306616, -433.2773378646934], [-95.58157736511637, -441.06973786439835], [-121.05035009946589, -536.8049378647289], [-146.5191228338154, -631.4269378647061], [-158.27394101876592, -679.294537864476], [-161.21264556491656, -690.42653786445], [-161.21264556491656, -692.6529378643658], [-162.1922137469668, -700.4453378644662], [-162.1922137469668, -711.5773378644403], [-158.27394101876592, -728.2753378645991], [-154.35566829021707, -738.2941378646153], [-144.55998646936698, -749.4261378645894], [-118.11164555296723, -767.237337864706], [-61.29669099196695, -805.0861378644596], [-58.357986445816316, -807.3125378643754], [-3.502168248916448, -842.9349378646087], [-1.5430318848160272, -844.0481378645666], [0.41610447928439415, -846.2745378644822], [45.47624085533415, -875.217737864573], [71.92458177173387, -893.0289378646897], [72.90414995378408, -890.8025378643786], [73.88371813583429, -888.5761378644628], [81.72026359258399, -881.8969378647157], [82.69983177463419, -878.5573378644466], [84.65896813908263, -871.8781378646995], [85.63853632113285, -868.5385378644304], [84.65896813908263, -865.1989378645568], [83.67939995703242, -861.8593378646833], [83.67939995703242, -858.5197378644142], [83.67939995703242, -847.3877378644402], [86.61810450318305, -842.9349378646087], [100.33205905223402, -830.6897378646768], [106.20946814488329, -825.123737864492], [112.08687723753256, -818.4445378647449], [115.0255817836832, -808.4257378647287], [118.94385451188404, -786.161737864385], [123.8416954224831, -776.1429378643688], [129.7191045151324, -766.1241378647481], [137.55564997153405, -753.8789378644208], [142.45349088213314, -747.1997378646736], [147.35133179238417, -741.6337378644889], [150.29003633888283, -739.4073378645732], [153.22874088503346, -737.1809378646574], [156.1674454311841, -736.0677378646996], [177.71794543733276, -731.6149378644727], [184.57492271168422, -729.388537864557], [191.4318999863837, -726.0489378646834], [197.309309079033, -722.7093378644144], [203.1867181716823, -717.143337864625], [209.06412726398355, -712.6905378643982], [214.9415363566328, -706.011337864651], [219.83937726688387, -699.3321378645084], [223.75764999543273, -692.6529378643658], [230.61462726978422, -681.5209378643917], [235.51246818038328, -671.5021378643755], [241.38987727303254, -655.91733786457], [244.3285818191832, -649.2381378644274], [246.28771818328357, -647.0117378645116], [251.18555909388263, -642.5589378646803], [257.0629681861839, -638.1061378644533], [267.83821818943227, -633.6533378646219], [297.22526365198263, -625.8609378645214], [341.3058318459822, -610.2761378647159], [368.7337409444321, -600.2573378646997], [381.46812731143285, -598.0309378643885], [394.2025136784336, -595.8045378644728], [426.5282636874826, -592.4649378645993], [435.3443773262825, -588.0121378643723], [442.20135460098203, -585.7857378644566], [446.11962732918283, -584.6725378644987], [451.01746823943387, -584.6725378644987], [483.34321824848286, -591.3517378646413]]]}, "properties": {"cusec": "3801101009", "mun": "011", "nmun": "Candelaria", "area_m2": 720714.0763993819, "perimeter_m": 5139.373164450363, "coords_system": "local_m_enu"}}]}