{"type": "FeatureCollection", "crs": {"type": "name", "properties": {"name": "EPSG:32628_local_enu_m_section_centroid", "lng0": -16.545282379849585, "lat0": 28.37760787559801}}, "features": [{"type": "Feature", "geometry": {"type": "LineString", "coordinates": [[410.11988899534197, 994.9643115706293], [410.6149471697207, 993.6284715704426], [453.70993933104427, 933.6269915704598], [482.11345689181366, 905.3517115702647], [516.7853369485922, 884.3122315703888], [503.0732939883767, 803.3825915702492]]}, "properties": {"osm_id": null, "type": "track", "width_m": 3, "extrude": false}}, {"type": "Feature", "geometry": {"type": "LineString", "coordinates": [[477.41218501971997, 666.236351570458], [478.9792756436352, 671.2457515704662], [487.59827407603905, 677.4796715705465], [495.33578403220787, 682.711711570388], [499.8411695764427, 682.3777515704403], [503.26918031623563, 684.3815115705227], [508.4601680084987, 691.0607115702697], [510.5169744525832, 712.6567915703222], [514.9244168327147, 743.9377115704431], [519.9195181967707, 770.9884715705659], [522.2701541328175, 785.4600715704136], [524.1310742490432, 804.9410715702693], [526.0899375290243, 821.973031570376], [525.8940512011653, 829.9880715703098]]}, "properties": {"osm_id": null, "type": "track", "width_m": 3, "extrude": false}}, {"type": "Feature", "geometry": {"type": "LineString", "coordinates": [[679.0771597013224, 480.8885515705539], [721.2906633864109, 482.1130715702307], [787.6961285806922, 487.6753939085046]]}, "properties": {"osm_id": null, "type": "residential", "width_m": 5, "extrude": false}}, {"type": "Feature", "geometry": {"type": "LineString", "coordinates": [[356.1585479842287, 414.65315157049076], [357.529752280285, 424.22667157044475], [363.0145694645104, 443.2623915702382], [369.9685341085476, 468.9773115705698]]}, "properties": {"osm_id": null, "type": "track", "width_m": 3, "extrude": false}}, {"type": "Feature", "geometry": {"type": "LineString", "coordinates": [[106.30553661314313, 457.84531157059575], [107.67674090919948, 446.3793515702784], [102.09398056121861, 418.4380315704266], [101.31043524908699, 407.75131157051476], [92.88732314489, 403.8551115704645], [82.99506358053323, 404.30039157052676]]}, "properties": {"osm_id": null, "type": "residential", "width_m": 5, "extrude": false}}, {"type": "Feature", "geometry": {"type": "LineString", "coordinates": [[635.6883380480366, 857.3727915703805], [638.3328034760458, 853.9218715703925], [648.6168356964685, 847.1313515705309], [682.6031136055668, 831.8805115702777], [689.5570782496039, 824.3107515704061], [691.9077141856509, 813.6240315704943], [688.283817117651, 799.7090315704279], [682.8969430975291, 792.9185115705662], [661.8391628368626, 781.2299115704155], [657.4317204567312, 776.7771115705841], [657.6276067845902, 771.3224315705138], [661.8391628368626, 766.9809515704013], [675.1594331413603, 761.6375915704454], [675.6491489611815, 757.5187515705618], [673.396456189238, 752.9546315702204], [665.3651167411069, 746.9433515703689], [664.0918556088061, 738.4830315703728], [665.1692304129, 712.100191570541], [664.1897987729095, 705.309671570284], [656.3543456526372, 686.0513115702616], [652.0448464366093, 683.6022715705126], [626.2857943038491, 684.0475515705748], [614.4346714595112, 677.5909915702655], [608.0683657993987, 659.2231915703677], [588.1859035069297, 621.708351570562], [584.1702337825161, 605.4556315704654], [584.4640632748265, 589.5368715703165], [593.2789480350893, 572.7275515704388], [594.3563228388352, 563.710631570266], [589.0673919828167, 555.3616315703844], [584.6599496026854, 545.8994315705447], [583.5825747985914, 536.5485515704243], [592.4954027229577, 507.2713915703856], [592.4954027229577, 459.0698315702725], [589.2632783106757, 435.6926315703666], [596.021356626854, 419.32859157055105], [580.7422230427233, 411.20223157050276], [569.1849296903478, 402.29663157044445], [561.9371355540002, 394.3929115702295], [559.4885564538499, 388.49295157049244], [554.983170909963, 339.06687157030706], [554.983170909963, 331.8310715703832], [561.6433060620378, 311.6821515702364], [563.5042261779155, 287.63703157043483], [564.6795441461129, 284.07479157033237], [579.6648482386292, 275.28051157038846], [591.2221415910047, 274.05599157031617], [596.021356626854, 268.26735157029805], [597.8822767430795, 261.14287157048864], [596.3151861191643, 252.79387157060697], [587.402358194798, 239.54679157043614], [581.2319388625446, 226.41103157037975], [573.6903152342346, 222.06955157026727], [562.2309650459625, 221.40163157037165], [544.7970818536439, 227.07895157027536], [539.7040373254843, 225.18651157030746], [536.17808342124, 211.04887157040764], [535.2965949453529, 196.7999115703934], [540.0958099815501, 170.30575157044723], [539.8999236533432, 147.3738315706035], [544.405309197578, 117.76271157022165], [543.9155933774088, 108.96843157027774], [532.0644705330709, 86.9270715705585], [530.4973799091557, 78.68939157039577], [533.2397885012683, 56.98199157022884], [543.4258775575875, 31.155751570573784], [552.7304781376715, 0.5427515703485142], [552.4366486457093, -7.3609684294709155], [544.1114797056157, -39.08716842965404], [545.2867976734651, -53.78140842973053], [516.9812232767991, -91.74152842959856], [516.3935642928743, -102.65088842973924]]}, "properties": {"osm_id": null, "type": "residential", "width_m": 5, "extrude": false}}, {"type": "Feature", "geometry": {"type": "LineString", "coordinates": [[787.6961285806922, 389.7589572841193], [776.2367783920722, 404.0777515702979], [739.5080918912091, 413.53995157053293], [688.283817117651, 412.31543157046065], [679.0771597013224, 480.8885515705539], [677.5100690774071, 488.12435157047776], [698.4699061739702, 491.24131157051795], [673.2985130251346, 557.4767115705811]]}, "properties": {"osm_id": null, "type": "residential", "width_m": 5, "extrude": false}}, {"type": "Feature", "geometry": {"type": "LineString", "coordinates": [[-835.2220989455661, 823.6341346949392], [-830.6187702372279, 840.2295115705549], [-825.8195552010305, 879.5254715706096]]}, "properties": {"osm_id": null, "type": "residential", "width_m": 5, "extrude": false}}, {"type": "Feature", "geometry": {"type": "LineString", "coordinates": [[-736.9851054507224, 193.01503157045758], [-727.2887322142245, 287.8596715702682], [-731.5002882664969, 308.8991515705395], [-737.8665939266095, 329.9386315704153], [-738.9439687307034, 548.014511570346], [-743.5472974386938, 707.0907915705329], [-737.1809917785813, 830.8786315704343], [-741.5884341587126, 839.6729115703782], [-762.3523849274168, 850.2483115705711]]}, "properties": {"osm_id": null, "type": "residential", "width_m": 5, "extrude": false}}, {"type": "Feature", "geometry": {"type": "LineString", "coordinates": [[-727.2887322142245, 287.8596715702682], [-802.5090821684206, 299.54827157041893], [-835.2220989455661, 294.20947854468267]]}, "properties": {"osm_id": null, "type": "residential", "width_m": 5, "extrude": false}}, {"type": "Feature", "geometry": {"type": "LineString", "coordinates": [[-643.0576111719066, 278.39747157042865], [-727.2887322142245, 287.8596715702682]]}, "properties": {"osm_id": null, "type": "service", "width_m": 3.5, "extrude": false}}, {"type": "Feature", "geometry": {"type": "LineString", "coordinates": [[-129.2058936673374, 994.9643115706293], [-136.2996806215949, 981.8285515705729]]}, "properties": {"osm_id": null, "type": "track", "width_m": 3, "extrude": false}}, {"type": "Feature", "geometry": {"type": "LineString", "coordinates": [[-302.7483010792171, 994.9643115706293], [-237.08319638034436, 948.7665115705986], [-212.00974639561235, 919.48935157056], [-196.24089699131233, 912.9214715705318], [-191.2457956272562, 912.2535515702407], [-166.76000462644888, 908.8026315702527], [-147.07342866183876, 915.9271115704576], [-36.201767010873525, 972.9229515705146], [-28.4642570547047, 985.9473915704565], [-23.371212526545126, 992.0699915704224], [-16.613134210366844, 993.1831915703804], [-11.128317026141461, 992.1813115705369], [-5.153784022094794, 989.1756715702156], [0.7228058181963952, 983.7209915705408], [11.202724366477907, 969.0267515704643], [47.24580871966073, 948.4325515702552], [68.9891911280074, 937.9684715705723], [79.6649960044958, 926.0572315705882], [101.21249208498355, 901.0102315705477], [149.69435826642896, 866.5010315702722], [223.3476175963619, 835.2201115705468], [263.6022580014693, 826.5371515703218], [303.85689840692453, 829.7654315704765], [319.6257478112246, 826.8711115702696], [382.2114296089513, 787.4638315704959], [423.05372899798334, 772.4356315704716]]}, "properties": {"osm_id": null, "type": "tertiary", "width_m": 7, "extrude": false}}, {"type": "Feature", "geometry": {"type": "LineString", "coordinates": [[-147.2913522020298, 994.9643115706293], [-146.77959916987638, 993.739791570557], [-146.97548549808326, 987.8398315704244], [-148.54257612199854, 982.8304315704163], [-149.42406459788563, 978.9342315703661], [-144.91867905399874, 981.3832715705107], [-137.67088491765122, 984.8341915704987], [-136.2996806215949, 981.8285515705729], [-144.2330769059706, 947.3193515702974], [-156.96568822619554, 930.3987115703052], [-171.26539017068373, 921.2704715704135], [-176.7502073549091, 919.0440715704977], [-184.38977414697447, 918.8214315702689], [-189.87459133119987, 915.7044715702286], [-191.2457956272562, 912.2535515702407]]}, "properties": {"osm_id": null, "type": "track", "width_m": 3, "extrude": false}}, {"type": "Feature", "geometry": {"type": "LineString", "coordinates": [[-36.201767010873525, 972.9229515705146], [-34.340846894647925, 966.1324315702575], [-39.72772091476986, 942.7552315703515], [-47.46523087128665, 931.4005915705441], [-62.54847812755848, 921.1591515702991], [-84.87951952017785, 904.3498315704212], [-93.59646111633721, 893.6631115705095], [-106.72084509297594, 868.8387515703023], [-121.02054703711616, 807.9467115705905], [-132.96961304555745, 779.7827515705098], [-139.92357768959465, 768.5394315704214], [-165.48674349449598, 744.3829915705054], [-168.3270952507121, 735.477391570447], [-164.31142552629854, 710.6530315702399], [-170.09007220248628, 693.3984315702999], [-183.60622883484285, 679.2607915704001], [-194.08614738312437, 643.1931115704999], [-206.4269860476315, 617.255551570335]]}, "properties": {"osm_id": null, "type": "residential", "width_m": 5, "extrude": false}}, {"type": "Feature", "geometry": {"type": "LineString", "coordinates": [[-439.23788688211613, 575.5105515705311], [-435.1242739939471, 581.9671115704449], [-434.1448423539566, 598.9990715705516], [-431.5983200900507, 604.7877115705696], [-417.396561309666, 621.8196715702809], [-414.7520958816568, 629.1667915703191], [-413.4788347493559, 649.8723115702471], [-410.93231248545015, 656.3288715705563], [-407.7981312372716, 659.8911115702633], [-401.8235982332249, 681.9324715703781], [-382.822624416643, 721.7850315706095]]}, "properties": {"osm_id": null, "type": "residential", "width_m": 5, "extrude": false}}, {"type": "Feature", "geometry": {"type": "LineString", "coordinates": [[-363.4298779439952, 630.6139515702248], [-410.93231248545015, 656.3288715705563]]}, "properties": {"osm_id": null, "type": "residential", "width_m": 5, "extrude": false}}, {"type": "Feature", "geometry": {"type": "LineString", "coordinates": [[-439.23788688211613, 575.5105515705311], [-427.974423021703, 572.0596315705432], [-381.1575906286243, 542.7824715705046]]}, "properties": {"osm_id": null, "type": "residential", "width_m": 5, "extrude": false}}, {"type": "Feature", "geometry": {"type": "LineString", "coordinates": [[-643.0576111719066, 278.39747157042865], [-641.8822932040572, 283.40687157043675], [-640.119316251935, 290.97663157030837], [-631.9900336397004, 339.62347157048373], [-626.4072732913716, 373.01947157040587], [-626.4072732913716, 446.4906715703928], [-617.9841611871745, 507.494031570219], [-613.3808324791843, 549.5729915703662], [-612.7931734949116, 554.8050315706031], [-610.6384238870714, 595.7707915703969], [-627.4846480954656, 618.9253515704695], [-659.0223469044136, 632.5063915705881], [-666.3680842045165, 636.7365515705862], [-662.156528152592, 656.6628315705042], [-648.542428356132, 670.3551915703417], [-617.004729547184, 667.2382315703015], [-591.7353932345931, 652.543991570225], [-565.4866252816635, 643.0817915703856]]}, "properties": {"osm_id": null, "type": "service", "width_m": 3.5, "extrude": false}}, {"type": "Feature", "geometry": {"type": "LineString", "coordinates": [[787.6961285806922, 831.3758051043636], [779.3709596402507, 833.4389915702978], [701.3102579298384, 873.4028715702482], [684.8558063775102, 886.8725915702523], [675.0614899772568, 888.2084315704391], [666.5404347089565, 883.978271570441], [653.1222212407033, 862.3821915703886], [646.2661997604216, 858.9312715704006], [635.6883380480366, 857.3727915703805], [573.2005994144133, 853.3652715702158], [543.7197070495499, 844.4596715705529], [529.4200051050617, 833.9955915704745], [525.8940512011653, 829.9880715703098], [503.0732939883767, 803.3825915702492], [490.8303984879731, 790.3581515703072], [456.9420637429782, 770.0979115704415], [440.9773280104713, 769.4299915705459], [423.05372899798334, 772.4356315704716]]}, "properties": {"osm_id": null, "type": "tertiary", "width_m": 7, "extrude": false}}, {"type": "Feature", "geometry": {"type": "LineString", "coordinates": [[-664.4092209245355, 189.675431570584], [-736.9851054507224, 193.01503157045758]]}, "properties": {"osm_id": null, "type": "residential", "width_m": 5, "extrude": false}}, {"type": "Feature", "geometry": {"type": "LineString", "coordinates": [[-740.804888846581, 155.94547157031855], [-702.2152822294923, 153.71907157040283]]}, "properties": {"osm_id": null, "type": "residential", "width_m": 5, "extrude": false}}, {"type": "Feature", "geometry": {"type": "LineString", "coordinates": [[-666.46602736862, 151.49267157048712], [-702.2152822294923, 153.71907157040283]]}, "properties": {"osm_id": null, "type": "residential", "width_m": 5, "extrude": false}}, {"type": "Feature", "geometry": {"type": "LineString", "coordinates": [[-744.5267290786843, 120.21175157036623], [-706.5247814458684, 115.20235157035813], [-668.8166633046668, 110.7495515705267]]}, "properties": {"osm_id": null, "type": "residential", "width_m": 5, "extrude": false}}, {"type": "Feature", "geometry": {"type": "LineString", "coordinates": [[-702.2152822294923, 153.71907157040283], [-706.5247814458684, 115.20235157035813], [-714.1643482379337, 47.408471570274884]]}, "properties": {"osm_id": null, "type": "residential", "width_m": 5, "extrude": false}}, {"type": "Feature", "geometry": {"type": "LineString", "coordinates": [[-672.6364467008735, 10.895511570312522], [-671.461128732676, 48.63299157034717], [-668.8166633046668, 110.7495515705267], [-666.46602736862, 151.49267157048712], [-664.4092209245355, 189.675431570584]]}, "properties": {"osm_id": null, "type": "residential", "width_m": 5, "extrude": false}}, {"type": "Feature", "geometry": {"type": "LineString", "coordinates": [[-756.1819655951632, 5.106871570294373], [-754.5169318071446, 19.467151570423056], [-751.4806937230695, 46.29527157031703], [-744.5267290786843, 120.21175157036623], [-740.804888846581, 155.94547157031855], [-736.9851054507224, 193.01503157045758]]}, "properties": {"osm_id": null, "type": "residential", "width_m": 5, "extrude": false}}, {"type": "Feature", "geometry": {"type": "LineString", "coordinates": [[-835.2220989455661, 72.6338690064317], [-821.0203401648333, 69.11587157044181], [-819.8450221969839, 62.993271570475855], [-832.9694061732747, 21.8048715704532]]}, "properties": {"osm_id": null, "type": "residential", "width_m": 5, "extrude": false}}, {"type": "Feature", "geometry": {"type": "LineString", "coordinates": [[-835.2220989455661, 22.730302895771786], [-832.9694061732747, 21.8048715704532], [-825.2318962171058, 18.576591570298575], [-790.1682435039136, 7.778551570272327], [-766.4659978155859, 5.997431570418854], [-756.1819655951632, 5.106871570294373], [-713.9684619100748, 3.3257515704409]]}, "properties": {"osm_id": null, "type": "secondary", "width_m": 9, "extrude": false}}, {"type": "Feature", "geometry": {"type": "LineString", "coordinates": [[-751.4806937230695, 46.29527157031703], [-714.1643482379337, 47.408471570274884], [-671.461128732676, 48.63299157034717]]}, "properties": {"osm_id": null, "type": "residential", "width_m": 5, "extrude": false}}, {"type": "Feature", "geometry": {"type": "LineString", "coordinates": [[-717.4944158139712, -36.638128429509464], [-735.0262421703933, -37.19472842968614], [-770.4816675396513, -35.858888429499416], [-835.2220989455661, -21.607328923862497]]}, "properties": {"osm_id": null, "type": "secondary", "width_m": 9, "extrude": false}}, {"type": "Feature", "geometry": {"type": "LineString", "coordinates": [[-672.6364467008735, 10.895511570312522], [-646.6815082399064, 23.02939157052549], [-610.1487080669024, 39.950031570517694], [-601.9214822909122, 44.514151570463554]]}, "properties": {"osm_id": null, "type": "residential", "width_m": 5, "extrude": false}}, {"type": "Feature", "geometry": {"type": "LineString", "coordinates": [[-672.6364467008735, 10.895511570312522], [-680.5698429849012, 5.329511570523238], [-686.5443759892959, 4.995551570575429], [-713.9684619100748, 3.3257515704409]]}, "properties": {"osm_id": null, "type": "residential", "width_m": 5, "extrude": false}}, {"type": "Feature", "geometry": {"type": "LineString", "coordinates": [[-630.4229430154371, -11.702448429583399], [-646.6815082399064, 23.02939157052549]]}, "properties": {"osm_id": null, "type": "residential", "width_m": 5, "extrude": false}}, {"type": "Feature", "geometry": {"type": "LineString", "coordinates": [[-835.2220989455661, 11.07980801379071], [-832.9694061732747, 21.8048715704532]]}, "properties": {"osm_id": null, "type": "pedestrian", "width_m": 4, "extrude": false}}, {"type": "Feature", "geometry": {"type": "LineString", "coordinates": [[-686.5443759892959, 4.995551570575429], [-669.9919812728643, -31.294768429553557]]}, "properties": {"osm_id": null, "type": "footway", "width_m": 2, "extrude": false}}, {"type": "Feature", "geometry": {"type": "LineString", "coordinates": [[-713.9684619100748, 3.3257515704409], [-716.7108705021875, -27.732528429451122], [-717.4944158139712, -36.638128429509464]]}, "properties": {"osm_id": null, "type": "secondary", "width_m": 9, "extrude": false}}, {"type": "Feature", "geometry": {"type": "LineString", "coordinates": [[-735.0262421703933, -37.19472842968614], [-722.3915740142719, -43.09468842942323], [-655.3005066723103, -64.13416842969454], [-635.2221580516343, -74.15296842971074]]}, "properties": {"osm_id": null, "type": "tertiary", "width_m": 7, "extrude": false}}, {"type": "Feature", "geometry": {"type": "LineString", "coordinates": [[-635.2221580516343, -74.15296842971074], [-611.1281397068929, -84.17176842972694]]}, "properties": {"osm_id": null, "type": "tertiary", "width_m": 7, "extrude": false}}, {"type": "Feature", "geometry": {"type": "LineString", "coordinates": [[-687.5238076292865, -531.0102484295003], [-656.6717109683666, -535.5743684294462]]}, "properties": {"osm_id": null, "type": "residential", "width_m": 5, "extrude": false}}, {"type": "Feature", "geometry": {"type": "LineString", "coordinates": [[-757.0634540710503, -570.0835684297216], [-700.4523052777183, -570.306208429555]]}, "properties": {"osm_id": null, "type": "residential", "width_m": 5, "extrude": false}}, {"type": "Feature", "geometry": {"type": "LineString", "coordinates": [[-833.2632356652371, -526.7800884295023], [-835.2220989455661, -540.6749703591362]]}, "properties": {"osm_id": null, "type": "residential", "width_m": 5, "extrude": false}}, {"type": "Feature", "geometry": {"type": "LineString", "coordinates": [[-694.575715437427, -664.48292842947], [-701.4317369177088, -627.5246884294454], [-704.8597476578497, -605.2606884294972], [-709.4630763658399, -598.0248884295735]]}, "properties": {"osm_id": null, "type": "residential", "width_m": 5, "extrude": false}}, {"type": "Feature", "geometry": {"type": "LineString", "coordinates": [[-786.2081387544506, -870.206347986031], [-782.920449367914, -861.7419684297538], [-779.4924386277731, -852.8363684296954], [-775.1829394117452, -841.7043684297214], [-737.768650762506, -777.0274484296783], [-728.8558228384877, -708.7882884295328], [-729.7373113143748, -696.5430884296009], [-731.4023451023936, -665.26216842948], [-709.4630763658399, -598.0248884295735], [-700.4523052777183, -570.306208429555], [-687.5238076292865, -531.0102484295003], [-678.5130365408168, -495.1652084294335], [-674.1055941606854, -471.0087684295175], [-666.5639705327234, -386.96216842973314], [-649.8156894880849, -172.89380842957158], [-642.3720090238784, -93.18868842950423], [-635.2221580516343, -74.15296842971074]]}, "properties": {"osm_id": null, "type": "tertiary", "width_m": 7, "extrude": false}}, {"type": "Feature", "geometry": {"type": "LineString", "coordinates": [[-694.575715437427, -664.48292842947], [-683.116365249155, -663.8150084295744]]}, "properties": {"osm_id": null, "type": "residential", "width_m": 5, "extrude": false}}, {"type": "Feature", "geometry": {"type": "LineString", "coordinates": [[-731.4023451023936, -665.26216842948], [-694.575715437427, -664.48292842947]]}, "properties": {"osm_id": null, "type": "residential", "width_m": 5, "extrude": false}}, {"type": "Feature", "geometry": {"type": "LineString", "coordinates": [[-835.2220989455661, -666.1063450959928], [-760.883237467257, -667.5998884295102], [-737.768650762506, -668.0451684295724], [-731.4023451023936, -665.26216842948]]}, "properties": {"osm_id": null, "type": "residential", "width_m": 5, "extrude": false}}, {"type": "Feature", "geometry": {"type": "LineString", "coordinates": [[-729.7373113143748, -696.5430884296009], [-679.9821840009765, -693.3148084294463]]}, "properties": {"osm_id": null, "type": "residential", "width_m": 5, "extrude": false}}, {"type": "Feature", "geometry": {"type": "LineString", "coordinates": [[-777.0438595276229, -762.6671684295496], [-766.3680546514823, -722.3693284296514], [-760.9811806313604, -673.165888429695], [-760.883237467257, -667.5998884295102]]}, "properties": {"osm_id": null, "type": "residential", "width_m": 5, "extrude": false}}, {"type": "Feature", "geometry": {"type": "LineString", "coordinates": [[-835.2220989455661, -727.6238084298615], [-830.031111253303, -728.6032484297318], [-797.5139808043646, -754.8747684294492], [-777.0438595276229, -762.6671684295496]]}, "properties": {"osm_id": null, "type": "residential", "width_m": 5, "extrude": false}}, {"type": "Feature", "geometry": {"type": "LineString", "coordinates": [[-737.768650762506, -777.0274484296783], [-777.0438595276229, -762.6671684295496]]}, "properties": {"osm_id": null, "type": "residential", "width_m": 5, "extrude": false}}, {"type": "Feature", "geometry": {"type": "LineString", "coordinates": [[-779.4924386277731, -852.8363684296954], [-788.8949823719606, -847.2703684295107], [-799.4728440843456, -832.2421684294864], [-824.8162843056897, -823.6007329781642]]}, "properties": {"osm_id": null, "type": "service", "width_m": 3.5, "extrude": false}}, {"type": "Feature", "geometry": {"type": "LineString", "coordinates": [[-752.3052809015975, -883.7796138519132], [-747.6609103268628, -865.3042084294607]]}, "properties": {"osm_id": null, "type": "residential", "width_m": 5, "extrude": false}}, {"type": "Feature", "geometry": {"type": "LineString", "coordinates": [[41.95687786329427, 841.8993115702939], [38.03915130333212, 807.1674715705806], [41.95687786329427, 796.0354715706064], [52.534739575679225, 787.5751515706104], [59.78253371202676, 759.5225115702486], [57.333954611876436, 749.7263515704612], [-73.22428300369891, 589.648191570431], [-94.67383592043119, 556.4748315703422], [-107.8961630608254, 521.0750715703376], [-129.9333749614824, 473.3187915702868], [-145.89811069398928, 407.8626315702337], [-171.46127649854265, 315.68967157040106], [-181.25559289879598, 294.53887157041083], [-188.40544387104006, 266.2635915702157], [-209.46322413170654, 217.8393915702692], [-205.64344073549987, 202.69987157052597], [-183.80211516304973, 157.7265915705675], [-166.17234564252414, 134.12675157043267], [-149.81583725395143, 116.76083157037823], [-142.372156789745, 102.17791157041617]]}, "properties": {"osm_id": null, "type": "residential", "width_m": 5, "extrude": false}}, {"type": "Feature", "geometry": {"type": "LineString", "coordinates": [[4.150816558337259, 521.1863915704521], [-1.4319437899915657, 508.0506315703957], [-11.520089682207269, 497.47523157059834], [-16.711077374122322, 488.56963157053997], [-20.33497444247007, 467.9754315703309], [-26.113621118657818, 450.49819157055754], [-28.268370726497814, 413.317311570304], [-38.748289274779324, 395.0608315705206], [-41.78452735885438, 373.7987115704159], [-44.91870860703288, 329.60467157046753], [-70.18804491962386, 253.57311157022153], [-73.51811249600925, 235.76191157050033], [-83.7042015523284, 197.57915157040344]]}, "properties": {"osm_id": null, "type": "residential", "width_m": 5, "extrude": false}}, {"type": "Feature", "geometry": {"type": "LineString", "coordinates": [[-601.9214822909122, 44.514151570463554], [-597.9058125664986, 51.41599157043956], [-595.4572334666963, 59.98763157055009], [-587.5238371823204, 180.76983157052567], [-578.4151229300953, 256.57875157054275], [-498.5914442679089, 262.14475157033206], [-486.64237825946765, 347.41587157058416], [-476.8480618592142, 406.415471570328], [-471.65707416695125, 495.3601515704015], [-439.23788688211613, 575.5105515705311]]}, "properties": {"osm_id": null, "type": "residential", "width_m": 5, "extrude": false}}, {"type": "Feature", "geometry": {"type": "LineString", "coordinates": [[-206.4269860476315, 617.255551570335], [-210.54059893580052, 573.0615115703865], [-211.8138600677534, 545.3428315703682], [-236.9852532165889, 428.902111570505], [-237.6708553646171, 406.63811157055693], [-254.6150227371145, 370.6817515703757], [-277.3378367857997, 348.9743515706043], [-297.9059012262969, 347.30455157046976], [-324.2526123429819, 328.9367515705719], [-342.17621135546983, 294.20491157046297], [-345.11450627544144, 272.3861915705771], [-346.28982424363886, 246.44863157041215], [-358.0430039238733, 221.06767157042384], [-355.88825431568534, 182.1056715703169], [-350.6972666237703, 157.50395157033864], [-348.05280119576105, 136.6871115702962], [-324.056726014775, 82.80823157027939], [-314.06652328666274, 68.67059157037957], [-305.4475248542588, 34.38403157033292], [-309.16936508636206, 9.003071570344616], [-308.8755355943997, -49.217288429784674], [-291.9313682219023, -79.94160842972889]]}, "properties": {"osm_id": null, "type": "residential", "width_m": 5, "extrude": false}}, {"type": "Feature", "geometry": {"type": "LineString", "coordinates": [[-142.372156789745, 102.17791157041617], [-111.32417380096626, 130.67583157044467], [-105.83935661674087, 146.1493115705312], [-98.78744880860023, 189.56411157046958], [-90.75610936046904, 197.24519157045563], [-83.7042015523284, 197.57915157040344], [-76.84818007204667, 198.02443157046568], [-44.91870860703288, 183.3301915703892], [-31.500495138779755, 184.3320715702326], [-22.097951394592226, 189.23015157052177], [2.779612262280913, 235.20531157032366], [2.3878396062151053, 243.33167157037195], [-1.5298869537470448, 251.56935157053468], [-1.1381142976812368, 262.59003157039433], [5.913793510459412, 284.18611157044677], [10.321235890590813, 314.910431570391], [18.352575338721998, 333.50087157051775], [26.383914786853186, 338.84423157047365], [55.375091331895355, 416.9908715705209]]}, "properties": {"osm_id": null, "type": "residential", "width_m": 5, "extrude": false}}, {"type": "Feature", "geometry": {"type": "LineString", "coordinates": [[-314.06652328666274, 68.67059157037957], [-302.50922993428725, 84.03275157035168], [-294.7717199781184, 97.72511157058474], [-290.1683912701281, 125.22115157037433], [-290.75605025405287, 131.1211115705069], [-303.29277524641884, 152.7171915705594], [-326.5053051149253, 182.99623157044138], [-329.6394863631038, 191.12259157048967], [-330.71686116719775, 208.3771915704297], [-316.710988714672, 230.41855157054442], [-292.12725455010917, 259.47307157035414], [-287.2300963498085, 267.48811157028797], [-278.51315475364913, 274.05599157031617]]}, "properties": {"osm_id": null, "type": "residential", "width_m": 5, "extrude": false}}, {"type": "Feature", "geometry": {"type": "LineString", "coordinates": [[-166.17234564252414, 134.12675157043267], [-157.06363139029898, 156.1681115705474], [-151.28498471411123, 188.78487157045953], [-143.25364526598005, 196.91123157050782]]}, "properties": {"osm_id": null, "type": "residential", "width_m": 5, "extrude": false}}, {"type": "Feature", "geometry": {"type": "LineString", "coordinates": [[-163.72376654237382, 8.001191570501192], [-130.22720445344476, 48.299031570399364], [-126.21153472937917, 61.43479157045576], [-127.87656851739789, 83.36483157045606], [-142.372156789745, 102.17791157041617]]}, "properties": {"osm_id": null, "type": "residential", "width_m": 5, "extrude": false}}, {"type": "Feature", "geometry": {"type": "LineString", "coordinates": [[-463.13601889899877, 73.23471157032543], [-483.9979128314583, 93.4949515705867], [-514.16440734435, 95.94399157033578], [-522.4895762844435, 90.04403157059869], [-538.7481415089128, 66.221551570235], [-538.8460846730162, 58.98575157031118], [-531.6962337007722, -6.359088429627491], [-533.0674379968284, -12.704328429426823]]}, "properties": {"osm_id": null, "type": "residential", "width_m": 5, "extrude": false}}, {"type": "Feature", "geometry": {"type": "LineString", "coordinates": [[-601.9214822909122, 44.514151570463554], [-601.0399938146771, 39.170791570507646], [-603.8803455708933, -0.4591284294949105]]}, "properties": {"osm_id": null, "type": "footway", "width_m": 2, "extrude": false}}, {"type": "Feature", "geometry": {"type": "LineString", "coordinates": [[399.35148330930764, 408.97583157058705], [356.1585479842287, 414.65315157049076], [354.6894005240689, 403.4098315704023], [351.9469919319562, 385.7099515704], [351.6531624399938, 369.79119157025127], [351.1634466201726, 343.40835157041954], [350.96756029196564, 327.4895915702707], [348.51898119216327, 327.37827157055176]]}, "properties": {"osm_id": null, "type": "track", "width_m": 3, "extrude": false}}, {"type": "Feature", "geometry": {"type": "LineString", "coordinates": [[289.3613101342295, 716.330351570539], [289.9489691185022, 711.7662315705933], [316.5895097271495, 653.7685115702973], [316.5895097271495, 648.9817515705181], [312.0841241829147, 635.9573115705762], [307.5787386390278, 631.5045115703492], [273.88629022189184, 623.4894715704154], [248.02929492502815, 614.6951915704715], [239.70412598493462, 602.4499915705395], [240.19384180510386, 584.9727515703706], [239.0185238369064, 573.3954715703344], [214.82656232840944, 513.2826715702372], [212.76975588432492, 503.0412315703876], [202.09395100783652, 467.86411157021644], [200.037144563752, 457.9566315703147], [187.01070375156468, 296.7652715703265], [187.89219222745177, 290.30871157041275], [190.7325439836679, 285.0766715705713], [199.5474287439307, 276.50503157046074], [221.19286798852193, 265.7069915704345], [224.22910607259698, 185.5565915703049], [225.99208302471914, 18.242631570350767], [230.39952540485055, 5.329511570523238], [261.5454515577327, 6.442711570481094], [296.0214452866523, 0.6540715704629463]]}, "properties": {"osm_id": null, "type": "track", "width_m": 3, "extrude": false}}, {"type": "Feature", "geometry": {"type": "LineString", "coordinates": [[98.95979931304012, 478.996111570586], [89.45931240474914, 452.9472315703066], [89.45931240474914, 436.6945115706055], [82.99506358053323, 404.30039157052676], [80.15471182431709, 390.0514315705125], [80.25265498842053, 381.3684715702875], [68.69536163604504, 329.27071157051967], [66.93238468392289, 272.60883157041053], [69.47890694817666, 249.89955157040015], [62.818771796101814, 224.0733115703496], [68.40153214408268, 217.28279157048803], [122.75998816581928, 218.95259157022707], [127.55920320166852, 213.60923157027116], [128.53863484165905, 204.59231157049388], [147.63755182234445, 201.36403157033925]]}, "properties": {"osm_id": null, "type": "residential", "width_m": 5, "extrude": false}}, {"type": "Feature", "geometry": {"type": "LineString", "coordinates": [[26.383914786853186, 338.84423157047365], [50.869705787660514, 334.72539157059003], [68.69536163604504, 329.27071157051967]]}, "properties": {"osm_id": null, "type": "residential", "width_m": 5, "extrude": false}}, {"type": "Feature", "geometry": {"type": "LineString", "coordinates": [[397.2946768652231, -124.02432842956287], [394.06255245328913, -109.21876842976744], [393.37695030526095, -88.40192842972499], [394.1604956173926, -71.48128842973279], [395.1399272573831, -53.89272842944948], [398.8617674894863, -2.9081684296394883], [400.8206307694674, 46.18395157059808], [401.11446026142977, 85.81387157060064], [400.13502862143923, 133.79279157048487], [397.1967337014676, 183.664151570337], [393.4748934693644, 215.2790315704057], [387.89213312103556, 260.474951570593], [386.912701481045, 287.4143915706014], [387.69624679317667, 313.35195157037094], [388.9695079251295, 340.06875157054594], [394.3563819452515, 385.9325915702334], [399.35148330930764, 408.97583157058705], [400.8206307694674, 415.7663515704486], [406.20750478958934, 444.0416315702482], [409.145799709561, 459.181151570387], [414.4347305659274, 473.54143157051567], [425.8940807541994, 505.15631157058436], [438.13697625460316, 543.4503915704001], [451.9469623789221, 586.7538715702242], [464.679573699147, 619.2593115704174], [474.76771959171066, 654.3251115704741], [477.41218501971997, 666.236351570458]]}, "properties": {"osm_id": null, "type": "residential", "width_m": 5, "extrude": false}}, {"type": "Feature", "geometry": {"type": "LineString", "coordinates": [[320.50723628711165, -142.16948842962736], [330.1056663595061, -10.92320842957335], [304.0527847347835, -7.917568429647588], [296.0214452866523, 0.6540715704629463], [295.82555895844536, 179.21135157050557], [292.0057755625867, 223.62803157028736], [287.304503690145, 274.389951570264], [280.4484822102112, 314.3538315706098], [279.6649368980796, 366.00631157031546], [290.1448554463611, 442.0378715705614], [302.28980778266134, 492.6884715704236], [335.7863698715904, 578.8501515704047], [330.20360952360954, 585.6406715702662]]}, "properties": {"osm_id": null, "type": "residential", "width_m": 5, "extrude": false}}, {"type": "Feature", "geometry": {"type": "LineString", "coordinates": [[696.2172134016788, 147.26251157048907], [702.8773485541016, 156.27943157026635], [711.4963469861575, 164.8510715703769], [715.70790303843, 169.19255157048937], [718.7441411225051, 178.54343157060995], [719.0379706144674, 187.115071570325], [718.4503116305426, 189.78675157030295]]}, "properties": {"osm_id": null, "type": "track", "width_m": 3, "extrude": false}}, {"type": "Feature", "geometry": {"type": "LineString", "coordinates": [[330.1056663595061, -10.92320842957335], [328.9303483913086, 4.884231570460997], [330.88921167163767, 87.59499157045411], [331.47687065556244, 151.27003157025825], [359.5865587243695, 153.05115157050722], [362.1330809882753, 159.8416715703688], [354.5914573603134, 230.75251157049223], [348.51898119216327, 327.37827157055176]]}, "properties": {"osm_id": null, "type": "track", "width_m": 3, "extrude": false}}, {"type": "Feature", "geometry": {"type": "LineString", "coordinates": [[727.9507985388336, -38.307928429643994], [720.898890730693, -33.18720842952146], [699.5472809780642, -19.049568429621644], [697.0007587138105, -15.821288429467018], [698.2740198457633, -11.81376842969783], [710.321029018308, 9.559671570521289], [716.6873346784205, 42.17643157043341], [717.5688231543076, 49.52355157047165], [715.6099598743266, 67.66871157053615], [715.9037893662888, 79.35731157029139], [714.3366987423736, 87.03839157027744], [709.2436542142141, 101.06471157045831], [698.7637356659325, 128.2267915703001], [697.9801903538009, 136.24183157023396], [696.2172134016788, 147.26251157048907], [689.361191921745, 155.27755157042293], [684.0722610653786, 161.95675157056556], [684.8558063775102, 167.30011157052147], [686.4228970014254, 178.43211157049552], [685.0516927053691, 184.55471157046148], [680.4483639973788, 194.3508715702488], [678.6853870452567, 205.2602315703895], [681.2319093095103, 217.06015157025917], [689.1653055935382, 223.07143157050618], [691.0262257097637, 228.19215157023322], [691.3200552017261, 237.5430315703538], [690.6344530536979, 249.78823157028572], [687.9899876256887, 263.03531157045654], [685.1496358694725, 274.8352315703262], [682.7989999334256, 278.28615157031425], [677.020353257238, 281.9597115705311], [674.86560364905, 287.52571157032037], [674.669717321191, 299.21431157047107], [677.020353257238, 303.2218315702403], [681.7216251293316, 307.0067115705716]]}, "properties": {"osm_id": null, "type": "residential", "width_m": 5, "extrude": false}}, {"type": "Feature", "geometry": {"type": "LineString", "coordinates": [[493.08309126026444, 322.81415157060593], [486.5208992719451, 308.78783157042506], [483.28877485966314, 273.05411157047274], [467.8137549473255, 182.32831157054576], [468.4014139312502, 166.1869115705636], [476.5306965434849, 140.471991570232], [491.32011430814225, 108.63447157032994], [498.56790844414195, 64.77439157032933], [498.07819262432054, 47.965071570451556], [492.8872049320576, 3.214431570326468], [484.0723201717948, -35.63624842966604], [474.9636059195696, -68.36432842969259], [471.04587935960745, -72.70580842940959], [447.7354063266496, -73.59636842953407], [445.7765430466685, -77.60388842969874], [444.4053387506122, -80.2755684296767], [445.7765430466685, -112.558368429641]]}, "properties": {"osm_id": null, "type": "residential", "width_m": 5, "extrude": false}}, {"type": "Feature", "geometry": {"type": "LineString", "coordinates": [[615.0223304434359, 153.16247157022616], [611.8881491956054, 143.03235157049102], [603.4650370910604, 121.9928715702197], [601.7020601392862, 116.42687157043042], [601.5061738110794, 108.8571115705588], [604.3465255672955, 87.48367157033968], [605.2280140431826, 77.01959157026124], [605.4239003713895, 67.89135157036952], [606.5012751751356, 58.874431570592236], [611.6922628673985, 45.18207157035917]]}, "properties": {"osm_id": null, "type": "track", "width_m": 3, "extrude": false}}, {"type": "Feature", "geometry": {"type": "LineString", "coordinates": [[754.1995664914152, 140.36067157051306], [753.4160211792836, 101.39867157040612], [748.6168061434344, 18.910551570246383], [774.1799719479877, 7.110631570376711], [786.7166969403537, 4.216311570565381]]}, "properties": {"osm_id": null, "type": "residential", "width_m": 5, "extrude": false}}, {"type": "Feature", "geometry": {"type": "LineString", "coordinates": [[18.156689010863076, 152.60587157044498], [25.012710490796838, 60.54423157033128], [21.486756586900498, 30.93311157034492], [17.37314369873146, -13.706208429665736], [17.177257370524575, -27.398568429503314]]}, "properties": {"osm_id": null, "type": "residential", "width_m": 5, "extrude": false}}, {"type": "Feature", "geometry": {"type": "LineString", "coordinates": [[679.6648186852472, -179.68432842943315], [681.5257388014728, -163.2089684295032], [675.3553194692192, -108.7734884297052], [673.9841151731629, -88.51324842944393], [675.747092125285, -81.38876842963455], [707.6765635902988, -71.8152484296806], [717.4708799905521, -61.462488429716586], [727.9507985388336, -38.307928429643994], [748.9106356353966, -22.61180842972408], [770.5560748799878, -7.3609684294709155], [784.0722315123445, -3.3534484297017286], [786.7166969403537, 4.216311570565381], [785.3454926442973, 100.95339157034388], [786.3249242842879, 155.27755157042293], [787.6961285806922, 170.48616674604673]]}, "properties": {"osm_id": null, "type": "residential", "width_m": 5, "extrude": false}}, {"type": "Feature", "geometry": {"type": "LineString", "coordinates": [[787.6961285806922, 188.19068299870779], [781.6236524121941, 194.016911570301], [787.6961285806922, 232.39908653629328]]}, "properties": {"osm_id": null, "type": "residential", "width_m": 5, "extrude": false}}, {"type": "Feature", "geometry": {"type": "LineString", "coordinates": [[-25.330075806526203, -9.030768429605445], [-6.133215662085331, 39.39343157034102], [21.486756586900498, 30.93311157034492]]}, "properties": {"osm_id": null, "type": "residential", "width_m": 5, "extrude": false}}, {"type": "Feature", "geometry": {"type": "LineString", "coordinates": [[554.983170909963, -130.59220842959107], [572.0252814462159, -108.66216842959076], [581.8195978464692, -89.0698484296206], [594.7480954949011, -45.54372842956781], [604.5424118951544, -11.034528429687782], [608.2642521272576, 6.776671570428903], [612.5737513436335, 19.912431570485296], [614.6305577873701, 29.931231570501495], [615.5120462636052, 34.71799157028073], [614.4346714595112, 38.3915515704976], [611.6922628673985, 45.18207157035917]]}, "properties": {"osm_id": null, "type": "residential", "width_m": 5, "extrude": false}}, {"type": "Feature", "geometry": {"type": "LineString", "coordinates": [[-57.35749043529547, -44.87580842967219], [13.749246630731676, -75.37748842978303]]}, "properties": {"osm_id": null, "type": "residential", "width_m": 5, "extrude": false}}, {"type": "Feature", "geometry": {"type": "LineString", "coordinates": [[394.1604956173926, -71.48128842973279], [445.7765430466685, -77.60388842969874]]}, "properties": {"osm_id": null, "type": "track", "width_m": 3, "extrude": false}}, {"type": "Feature", "geometry": {"type": "LineString", "coordinates": [[202.5836668280058, -147.06756842952103], [273.0048017460048, -150.0732084294468]]}, "properties": {"osm_id": null, "type": "residential", "width_m": 5, "extrude": false}}, {"type": "Feature", "geometry": {"type": "LineString", "coordinates": [[190.3407713276021, -146.6222884294588], [202.5836668280058, -147.06756842952103], [208.55819983205245, -153.8580884297781], [209.43968830793955, -160.98256842958747]]}, "properties": {"osm_id": null, "type": "residential", "width_m": 5, "extrude": false}}, {"type": "Feature", "geometry": {"type": "LineString", "coordinates": [[-163.72376654237382, 8.001191570501192], [-173.2242534506648, -3.910048429482913], [-176.3584346988433, -69.81148842959826]]}, "properties": {"osm_id": null, "type": "residential", "width_m": 5, "extrude": false}}, {"type": "Feature", "geometry": {"type": "LineString", "coordinates": [[-146.38782651381058, -71.48128842973279], [-135.4181921457078, -13.149608429489064], [-163.72376654237382, 8.001191570501192]]}, "properties": {"osm_id": null, "type": "residential", "width_m": 5, "extrude": false}}, {"type": "Feature", "geometry": {"type": "LineString", "coordinates": [[-433.65512653413526, -84.17176842972694], [-465.3887116709422, -54.226688429397285], [-497.9058421198807, -26.39668842965989], [-502.80300031983336, -24.615568429410928], [-533.0674379968284, -12.704328429426823], [-556.1820247015794, -3.687408429649537], [-575.7706575020861, 2.2125515704830434], [-593.7921996786775, 2.991791570493092], [-603.8803455708933, -0.4591284294949105], [-630.4229430154371, -11.702448429583399], [-669.9919812728643, -31.294768429553557], [-672.0487877166008, -31.740048429615797], [-688.6991255971359, -35.858888429499416], [-717.4944158139712, -36.638128429509464]]}, "properties": {"osm_id": null, "type": "secondary", "width_m": 9, "extrude": false}}, {"type": "Feature", "geometry": {"type": "LineString", "coordinates": [[-603.8803455708933, -0.4591284294949105], [-607.8960152949589, -59.79268842958206], [-611.1281397068929, -84.17176842972694]]}, "properties": {"osm_id": null, "type": "residential", "width_m": 5, "extrude": false}}, {"type": "Feature", "geometry": {"type": "LineString", "coordinates": [[-266.07437292538657, -24.949528429754224], [-263.136078005067, -73.59636842953407]]}, "properties": {"osm_id": null, "type": "residential", "width_m": 5, "extrude": false}}, {"type": "Feature", "geometry": {"type": "LineString", "coordinates": [[-556.1820247015794, -3.687408429649537], [-560.1976944256451, -62.46436842956001], [-563.429818837579, -95.97168842959661]]}, "properties": {"osm_id": null, "type": "residential", "width_m": 5, "extrude": false}}, {"type": "Feature", "geometry": {"type": "LineString", "coordinates": [[-435.320160322154, -25.283488429702032], [-432.7736380579002, -40.868288429507516], [-429.6394568100697, -85.6189284296326]]}, "properties": {"osm_id": null, "type": "residential", "width_m": 5, "extrude": false}}, {"type": "Feature", "geometry": {"type": "LineString", "coordinates": [[-499.9626485639652, -95.74904842976323], [-501.3338528600216, -65.69264842971464], [-502.80300031983336, -24.615568429410928]]}, "properties": {"osm_id": null, "type": "residential", "width_m": 5, "extrude": false}}, {"type": "Feature", "geometry": {"type": "LineString", "coordinates": [[-501.3338528600216, -65.69264842971464], [-560.1976944256451, -62.46436842956001], [-607.8960152949589, -59.79268842958206]]}, "properties": {"osm_id": null, "type": "residential", "width_m": 5, "extrude": false}}, {"type": "Feature", "geometry": {"type": "LineString", "coordinates": [[-266.7599750734147, -89.51512842968285], [-250.1096371928797, -88.62456842955837], [-251.87261414500182, -82.1680084296446], [-263.03813484131155, -81.27744842952012], [-269.6003268292829, -81.61140842946793], [-271.46124694550855, -83.61516842955027], [-271.16741745354614, -87.28872842976713], [-266.7599750734147, -87.28872842976713], [-266.7599750734147, -89.51512842968285]]}, "properties": {"osm_id": null, "type": "pedestrian", "width_m": 4, "extrude": false}}, {"type": "Feature", "geometry": {"type": "LineString", "coordinates": [[-155.20271127407338, -71.59260842945173], [-141.98038413367917, -96.08300842971104], [-137.8667712458581, -110.10932842949643]]}, "properties": {"osm_id": null, "type": "residential", "width_m": 5, "extrude": false}}, {"type": "Feature", "geometry": {"type": "LineString", "coordinates": [[-611.1281397068929, -84.17176842972694], [-567.6413748898515, -94.85848842963875], [-563.429818837579, -95.97168842959661], [-536.4954487369694, -102.31692842939594], [-499.9626485639652, -95.74904842976323], [-433.65512653413526, -84.17176842972694]]}, "properties": {"osm_id": null, "type": "tertiary", "width_m": 7, "extrude": false}}, {"type": "Feature", "geometry": {"type": "LineString", "coordinates": [[-252.75410262088894, -73.48504842941963], [-241.09886610475797, -61.462488429716586], [-229.63951591613798, -57.78892842949972], [-215.92747295592247, -59.45872842963425], [-200.74628253554718, -65.35868842976683], [-197.12238546719942, -68.03036842974478], [-176.3584346988433, -69.81148842959826], [-155.20271127407338, -71.59260842945173], [-146.38782651381058, -71.48128842973279], [-129.83543179737896, -71.25864842950392], [-107.30850407690066, -76.8246484296887], [-77.4358390559714, -92.1868084296608], [-52.558275399446224, -102.09428842956257], [-2.2154891017752174, -118.01304842971135], [25.698312638825012, -126.80732842965526], [96.60916337699324, -144.39588842954308], [127.65714636577196, -145.0638084294387], [190.3407713276021, -146.6222884294588]]}, "properties": {"osm_id": null, "type": "residential", "width_m": 5, "extrude": false}}, {"type": "Feature", "geometry": {"type": "LineString", "coordinates": [[-18.376111162488996, -207.84828842951384], [-8.092078942066406, -157.6429684297139], [-2.2154891017752174, -118.01304842971135], [13.749246630731676, -75.37748842978303], [20.311438618703075, -57.90024842961415], [17.177257370524575, -27.398568429503314], [-25.330075806526203, -9.030768429605445], [-31.402551974676314, -6.581728429460867], [-42.568072670986, -9.142088429719877], [-57.35749043529547, -44.87580842967219], [-77.4358390559714, -92.1868084296608]]}, "properties": {"osm_id": null, "type": "residential", "width_m": 5, "extrude": false}}, {"type": "Feature", "geometry": {"type": "LineString", "coordinates": [[-403.3906888571402, -89.73776842951622], [-409.3652218611869, -143.72796842964746]]}, "properties": {"osm_id": null, "type": "residential", "width_m": 5, "extrude": false}}, {"type": "Feature", "geometry": {"type": "LineString", "coordinates": [[-184.87948996714374, -128.03184842972755], [-164.6052550186089, -132.2620084297256], [-154.90888178211102, -131.0374884296533], [-144.6248495620364, -122.5771684296572], [-137.8667712458581, -110.10932842949643]]}, "properties": {"osm_id": null, "type": "residential", "width_m": 5, "extrude": false}}, {"type": "Feature", "geometry": {"type": "LineString", "coordinates": [[-491.53953645976816, -151.18640842940465], [-499.9626485639652, -95.74904842976323]]}, "properties": {"osm_id": null, "type": "residential", "width_m": 5, "extrude": false}}, {"type": "Feature", "geometry": {"type": "LineString", "coordinates": [[-154.90888178211102, -131.0374884296533], [-144.4289632338295, -131.14880842976774], [-136.39762378569833, -137.6053684296815]]}, "properties": {"osm_id": null, "type": "residential", "width_m": 5, "extrude": false}}, {"type": "Feature", "geometry": {"type": "LineString", "coordinates": [[-573.1261920740768, -176.01076842961177], [-571.9508741058795, -158.31088842960952], [-567.6413748898515, -94.85848842963875]]}, "properties": {"osm_id": null, "type": "residential", "width_m": 5, "extrude": false}}, {"type": "Feature", "geometry": {"type": "LineString", "coordinates": [[-165.1929140025336, -146.9562484294066], [-161.47107377043037, -136.0468884296614], [-154.90888178211102, -131.0374884296533]]}, "properties": {"osm_id": null, "type": "residential", "width_m": 5, "extrude": false}}, {"type": "Feature", "geometry": {"type": "LineString", "coordinates": [[-409.3652218611869, -143.72796842964746], [-362.2545599761458, -141.39024842961732]]}, "properties": {"osm_id": null, "type": "residential", "width_m": 5, "extrude": false}}, {"type": "Feature", "geometry": {"type": "LineString", "coordinates": [[-137.8667712458581, -110.10932842949643], [-136.39762378569833, -137.6053684296815], [-136.8873396055196, -150.85244842945684], [-131.99018140556691, -168.8862884294069], [-127.09302320526626, -183.24656842953559]]}, "properties": {"osm_id": null, "type": "residential", "width_m": 5, "extrude": false}}, {"type": "Feature", "geometry": {"type": "LineString", "coordinates": [[-409.3652218611869, -143.72796842964746], [-491.53953645976816, -151.18640842940465], [-571.9508741058795, -158.31088842960952], [-586.6423487064335, -159.75804842951518]]}, "properties": {"osm_id": null, "type": "residential", "width_m": 5, "extrude": false}}, {"type": "Feature", "geometry": {"type": "LineString", "coordinates": [[-68.03329531178386, -146.9562484294066], [-42.76395899884492, -155.19392842956933], [-8.092078942066406, -157.6429684297139], [6.4035093302806985, -161.53916842976415]]}, "properties": {"osm_id": null, "type": "residential", "width_m": 5, "extrude": false}}, {"type": "Feature", "geometry": {"type": "LineString", "coordinates": [[-136.8873396055196, -150.85244842945684], [-146.2898833500551, -156.86372842970385], [-155.39859760228026, -157.75428842943285]]}, "properties": {"osm_id": null, "type": "residential", "width_m": 5, "extrude": false}}, {"type": "Feature", "geometry": {"type": "LineString", "coordinates": [[-487.4259235715992, -178.12584842941305], [-491.53953645976816, -151.18640842940465]]}, "properties": {"osm_id": null, "type": "residential", "width_m": 5, "extrude": false}}, {"type": "Feature", "geometry": {"type": "LineString", "coordinates": [[-275.77074616153647, -74.93220842972079], [-269.69826999338636, -112.00176842946433], [-267.44557722144293, -140.94496842955508], [-264.017566481302, -168.99760842952134], [-266.9558614012737, -189.03520842955373], [-264.8011117934337, -222.31988842975696], [-274.10571237351775, -279.87232842959514]]}, "properties": {"osm_id": null, "type": "residential", "width_m": 5, "extrude": false}}, {"type": "Feature", "geometry": {"type": "LineString", "coordinates": [[-354.61499318373245, -236.68016842949015], [-369.40441094838985, -240.9103284294882], [-385.56503300875573, -242.69144842973716], [-400.74622342913096, -237.57072842961463], [-412.6952894375723, -227.7745684294318], [-417.88627712948727, -212.52372842957413], [-409.3652218611869, -143.72796842964746]]}, "properties": {"osm_id": null, "type": "residential", "width_m": 5, "extrude": false}}, {"type": "Feature", "geometry": {"type": "LineString", "coordinates": [[-89.87462088423398, -182.80128842947335], [-65.29088671967118, -194.71252842945745], [-32.675813106629214, -205.1766084295359], [-18.376111162488996, -207.84828842951384], [-5.447613514057159, -209.18412842970056], [23.34767670277813, -209.6294084297628]]}, "properties": {"osm_id": null, "type": "residential", "width_m": 5, "extrude": false}}, {"type": "Feature", "geometry": {"type": "LineString", "coordinates": [[-321.2163742589068, -456.87112842961767], [-248.93431922468227, -437.8354084294287]]}, "properties": {"osm_id": null, "type": "residential", "width_m": 5, "extrude": false}}, {"type": "Feature", "geometry": {"type": "LineString", "coordinates": [[190.3407713276021, -146.6222884294588], [197.19679280788384, -153.41280842971585], [199.05771292376147, -162.76368842944095]]}, "properties": {"osm_id": null, "type": "residential", "width_m": 5, "extrude": false}}, {"type": "Feature", "geometry": {"type": "LineString", "coordinates": [[165.95292349089823, -180.24092842960982], [182.9950340274991, -151.74300842958132], [190.3407713276021, -146.6222884294588]]}, "properties": {"osm_id": null, "type": "residential", "width_m": 5, "extrude": false}}, {"type": "Feature", "geometry": {"type": "LineString", "coordinates": [[787.6961285806922, -207.25695721608048], [721.3886065505143, -190.37104842974045], [679.6648186852472, -179.68432842943315], [603.367093927305, -160.20332842957743], [572.8088267583475, -145.95436842956317], [554.983170909963, -130.59220842959107], [533.7295043210896, -110.6659284296731], [516.3935642928743, -102.65088842973924], [487.59827407603905, -101.31504842955252], [445.7765430466685, -112.558368429641], [397.2946768652231, -124.02432842956287], [320.50723628711165, -142.16948842962736], [273.0048017460048, -150.0732084294468], [209.43968830793955, -160.98256842958747], [199.05771292376147, -162.76368842944095], [187.59836273548942, -164.65612842940885], [165.95292349089823, -180.24092842960982], [124.32707878973454, -234.23112842974106], [105.42404813725604, -243.02540842968497], [85.14981318872118, -248.03480842969307], [-33.45935841876083, -238.6839284295725], [-60.78550117543633, -233.34056842961658], [-85.56512166820603, -219.3142484294357], [-127.09302320526626, -183.24656842953559], [-155.39859760228026, -157.75428842943285], [-165.1929140025336, -146.9562484294066], [-184.87948996714374, -128.03184842972755], [-226.21150517634507, -87.62268842971494], [-242.95978622063558, -76.49068842974089], [-252.75410262088894, -73.48504842941963], [-263.136078005067, -73.59636842953407], [-275.77074616153647, -74.93220842972079], [-291.9313682219023, -79.94160842972889], [-329.24771370703803, -91.51888842976518], [-350.7952097875258, -91.18492842942189], [-403.3906888571402, -89.73776842951622], [-407.2104722533469, -89.62644842940179], [-421.9019468535529, -88.29060842961056], [-429.6394568100697, -85.6189284296326], [-433.65512653413526, -84.17176842972694]]}, "properties": {"osm_id": null, "type": "secondary", "width_m": 9, "extrude": false}}, {"type": "Feature", "geometry": {"type": "LineString", "coordinates": [[122.46615867350894, -213.74824842964642], [127.65714636577196, -145.0638084294387]]}, "properties": {"osm_id": null, "type": "residential", "width_m": 5, "extrude": false}}, {"type": "Feature", "geometry": {"type": "LineString", "coordinates": [[787.6961285806922, -185.89372029396884], [745.7764543872182, -180.24092842960982], [729.0281733425797, -181.24280842945325], [721.3886065505143, -190.37104842974045]]}, "properties": {"osm_id": null, "type": "residential", "width_m": 5, "extrude": false}}, {"type": "Feature", "geometry": {"type": "LineString", "coordinates": [[395.2882470660646, -885.2304884297741], [437.84314676264074, -752.3144084295857], [463.5042557312976, -672.1640084294561], [522.759869952987, -487.2614884296141]]}, "properties": {"osm_id": null, "type": "residential", "width_m": 5, "extrude": false}}, {"type": "Feature", "geometry": {"type": "LineString", "coordinates": [[208.63442759765033, -885.2304884297741], [227.65711681273785, -787.7141684295901]]}, "properties": {"osm_id": null, "type": "residential", "width_m": 5, "extrude": false}}, {"type": "Feature", "geometry": {"type": "LineString", "coordinates": [[260.20363021052464, -885.2304884297741], [262.6228263614787, -874.3211284296335], [265.1693486257325, -797.8442884297208], [259.68453144150715, -708.4543284295851]]}, "properties": {"osm_id": null, "type": "residential", "width_m": 5, "extrude": false}}, {"type": "Feature", "geometry": {"type": "LineString", "coordinates": [[710.7128016743738, -729.159848429513], [703.4650075380264, -772.0180484296702], [695.6295544177541, -818.4384884295343], [695.0418954338293, -828.0120084294883], [682.9605037744657, -885.2304884297741]]}, "properties": {"osm_id": null, "type": "residential", "width_m": 5, "extrude": false}}, {"type": "Feature", "geometry": {"type": "LineString", "coordinates": [[549.7921832177, -745.3012484294952], [546.8538882977284, -775.1350084297104], [544.1114797056157, -789.2726484296102], [541.9567300974277, -808.3083684294037], [543.327934393484, -825.5629684297392], [540.6834689654748, -869.5343684294587], [543.2299912293805, -881.1116484294951], [544.0242700390102, -885.2304884297741]]}, "properties": {"osm_id": null, "type": "residential", "width_m": 5, "extrude": false}}, {"type": "Feature", "geometry": {"type": "LineString", "coordinates": [[-350.7952097875258, -91.18492842942189], [-362.2545599761458, -141.39024842961732], [-365.87845704414553, -202.17096842961013], [-354.61499318373245, -236.68016842949015], [-340.902950223517, -326.96068842975035], [-324.64438499904765, -381.61880842977723], [-327.28885042705696, -393.0847684296991], [-333.55721292306595, -415.2374484295328], [-321.2163742589068, -456.87112842961767], [-309.5611377424279, -495.1652084294335], [-298.787389702184, -517.9858084295583], [-283.60619928180876, -539.8045284294442], [-278.51315475364913, -554.2761284296873], [-276.45634830956465, -576.5401284296354], [-272.04890592943326, -589.453248429463], [-253.73353426087945, -614.2776084296701], [-244.7227631727577, -623.4058484295617], [-228.8559706043543, -637.2095284295137], [-217.88633623590354, -649.6773684296745], [-215.73158662806352, -652.1264084294237], [-186.446580591059, -688.4167284295527], [-175.18311673064588, -780.4783684296663], [-153.53767748605466, -841.9270084295547], [-130.23774426895056, -885.2304884297741]]}, "properties": {"osm_id": null, "type": "residential", "width_m": 5, "extrude": false}}, {"type": "Feature", "geometry": {"type": "LineString", "coordinates": [[-217.88633623590354, -649.6773684296745], [-206.32904288352805, -641.2170484296785], [-198.88536241932158, -641.3283684293974], [-168.22915208660865, -646.2264484296866], [-161.07930111436457, -646.2264484296866], [-125.03621676118175, -635.5397284297748], [-115.92750250895658, -632.8680484294013], [-108.48382204475013, -629.0831684294654], [-93.79234744454409, -616.5040084295857], [-80.76590663200882, -607.2644484295796], [-58.9245810595587, -599.1380884295313], [-43.35161798311761, -598.3588484295212], [-29.24780236648835, -600.1399684297702], [-15.92753206233867, -605.2606884294972], [4.640532378158546, -621.9586884296561], [17.569030026590383, -633.7586084295258]]}, "properties": {"osm_id": null, "type": "residential", "width_m": 5, "extrude": false}}, {"type": "Feature", "geometry": {"type": "LineString", "coordinates": [[-285.07534674196853, -637.3208484296282], [-288.2095279897991, -655.1320484297448], [-335.516076203395, -752.8710084297622], [-356.47591329995805, -807.5291284293937], [-366.95583184823954, -856.8438884294646], [-360.91641458172285, -885.2304884297741]]}, "properties": {"osm_id": null, "type": "track", "width_m": 3, "extrude": false}}]}