{"type": "FeatureCollection", "crs": {"type": "name", "properties": {"name": "EPSG:32628_local_enu_m_section_centroid", "lng0": -16.48700049812125, "lat0": 28.43116361497632}}, "features": [{"type": "Feature", "geometry": {"type": "Point", "coordinates": [-347.2779663483996, 742.6841791638888]}, "properties": {"osm_id": null, "category": "restauracion", "name": "Bodegón Nuevo Paso", "extrude": false}}, {"type": "Feature", "geometry": {"type": "Point", "coordinates": [-627.4496402925512, 733.4446191638825]}, "properties": {"osm_id": null, "category": "restauracion", "name": "Bodegón mojo picón", "extrude": false}}, {"type": "Feature", "geometry": {"type": "Point", "coordinates": [-540.8137453098077, 695.3731791639001]}, "properties": {"osm_id": null, "category": "restauracion", "name": "Café Bar Tijarafe", "extrude": false}}, {"type": "Feature", "geometry": {"type": "Point", "coordinates": [-444.19269632887756, 670.3261791638596]}, "properties": {"osm_id": null, "category": "publico", "name": "Ayuntamiento de Santa Úrsula", "extrude": false}}, {"type": "Feature", "geometry": {"type": "Point", "coordinates": [-426.4739426659638, 662.8677391641024]}, "properties": {"osm_id": null, "category": "publico", "name": "", "extrude": false}}, {"type": "Feature", "geometry": {"type": "Point", "coordinates": [-404.93733600336486, 659.7507791640622]}, "properties": {"osm_id": null, "category": "finanzas", "name": "Caixabank", "extrude": false}}, {"type": "Feature", "geometry": {"type": "Point", "coordinates": [-370.47876534362393, 656.5224991639076]}, "properties": {"osm_id": null, "category": "restauracion", "name": "Âgora Café Bar", "extrude": false}}, {"type": "Feature", "geometry": {"type": "Point", "coordinates": [-293.6322370255717, 653.8508191639296]}, "properties": {"osm_id": null, "category": "finanzas", "name": "Banca March", "extrude": false}}, {"type": "Feature", "geometry": {"type": "Point", "coordinates": [-241.552806369317, 650.0659391639938]}, "properties": {"osm_id": null, "category": "finanzas", "name": "Cajasiete", "extrude": false}}, {"type": "Feature", "geometry": {"type": "Point", "coordinates": [-384.9670280073391, 623.3491391638188]}, "properties": {"osm_id": null, "category": "salud", "name": "C.B. Gómez Domínguez", "extrude": false}}, {"type": "Feature", "geometry": {"type": "Point", "coordinates": [-363.62620867858357, 621.5680191639653]}, "properties": {"osm_id": null, "category": "finanzas", "name": "Cajamar", "extrude": false}}, {"type": "Feature", "geometry": {"type": "Point", "coordinates": [-354.3263103469356, 620.9000991640697]}, "properties": {"osm_id": null, "category": "finanzas", "name": "Banco Santander", "extrude": false}}, {"type": "Feature", "geometry": {"type": "Point", "coordinates": [-240.47597603648265, 613.441659163917]}, "properties": {"osm_id": null, "category": "finanzas", "name": "BBVA", "extrude": false}}, {"type": "Feature", "geometry": {"type": "Point", "coordinates": [-294.9048546922494, 585.7229791638986]}, "properties": {"osm_id": null, "category": "publico", "name": "Biblioteca Municipal", "extrude": false}}, {"type": "Feature", "geometry": {"type": "Point", "coordinates": [-473.658689989699, 560.0080591639625]}, "properties": {"osm_id": null, "category": "restauracion", "name": "La Bodega de Arturo", "extrude": false}}, {"type": "Feature", "geometry": {"type": "Point", "coordinates": [-268.0819900308354, 556.2231791640266]}, "properties": {"osm_id": null, "category": "publico", "name": "Sala de Estudios", "extrude": false}}, {"type": "Feature", "geometry": {"type": "Point", "coordinates": [-259.3694536993263, 545.7590991639482]}, "properties": {"osm_id": null, "category": "salud", "name": "", "extrude": false}}, {"type": "Feature", "geometry": {"type": "Point", "coordinates": [-278.0671440286744, 531.0648591638717]}, "properties": {"osm_id": null, "category": "salud", "name": "", "extrude": false}}, {"type": "Feature", "geometry": {"type": "Point", "coordinates": [49.387170905960126, 472.51053916379465]}, "properties": {"osm_id": null, "category": "restauracion", "name": "Safran", "extrude": false}}, {"type": "Feature", "geometry": {"type": "Point", "coordinates": [-134.65292239065232, 436.77681916384233]}, "properties": {"osm_id": null, "category": "salud", "name": "", "extrude": false}}, {"type": "Feature", "geometry": {"type": "Point", "coordinates": [225.9873455373933, 292.50609916384633]}, "properties": {"osm_id": null, "category": "restauracion", "name": "Guachinche Tajinaste", "extrude": false}}, {"type": "Feature", "geometry": {"type": "Point", "coordinates": [269.06055886189563, 280.4835391641433]}, "properties": {"osm_id": null, "category": "restauracion", "name": "Bodegón El Capitán", "extrude": false}}, {"type": "Feature", "geometry": {"type": "Point", "coordinates": [258.0964681976223, 240.63097916391186]}, "properties": {"osm_id": null, "category": "publico", "name": "Asociación Músico-Cultural Ernesto Beteta", "extrude": false}}, {"type": "Feature", "geometry": {"type": "Point", "coordinates": [239.20299053477865, 221.26129916417057]}, "properties": {"osm_id": null, "category": "restauracion", "name": "El Bodegón de Ana", "extrude": false}}, {"type": "Feature", "geometry": {"type": "Point", "coordinates": [281.4930545263421, 215.6952991639858]}, "properties": {"osm_id": null, "category": "publico", "name": "CEAF", "extrude": false}}, {"type": "Feature", "geometry": {"type": "Point", "coordinates": [303.6170231883843, 207.9028991638853]}, "properties": {"osm_id": null, "category": "restauracion", "name": "El Cañón", "extrude": false}}, {"type": "Feature", "geometry": {"type": "Point", "coordinates": [262.79536419664623, 197.43881916380687]}, "properties": {"osm_id": null, "category": "restauracion", "name": "La Farola", "extrude": false}}, {"type": "Feature", "geometry": {"type": "Point", "coordinates": [102.24975089515364, 143.22597916384225]}, "properties": {"osm_id": null, "category": "restauracion", "name": "Cafeteria Comelon", "extrude": false}}, {"type": "Feature", "geometry": {"type": "Point", "coordinates": [187.41724087841945, -86.98378083590597]}, "properties": {"osm_id": null, "category": "restauracion", "name": "Bodegón Casa Fernando", "extrude": false}}, {"type": "Feature", "geometry": {"type": "Point", "coordinates": [398.5738798363414, 679.8996991638136]}, "properties": {"osm_id": null, "category": "salud", "name": "Farmacia Cuatro Caminos", "extrude": false}}, {"type": "Feature", "geometry": {"type": "Point", "coordinates": [945.0163270603726, 660.3073791638434]}, "properties": {"osm_id": null, "category": "restauracion", "name": "", "extrude": false}}, {"type": "Feature", "geometry": {"type": "Point", "coordinates": [887.9443194051984, 293.17401916413746]}, "properties": {"osm_id": null, "category": "restauracion", "name": "Café Marabú", "extrude": false}}, {"type": "Feature", "geometry": {"type": "Point", "coordinates": [908.3062020678674, 252.87617916384377]}, "properties": {"osm_id": null, "category": "salud", "name": "Farmacia Puente de Hierro", "extrude": false}}, {"type": "Feature", "geometry": {"type": "Point", "coordinates": [1000.6199297160691, 246.41961916393]}, "properties": {"osm_id": null, "category": "restauracion", "name": "Bar Ruperto", "extrude": false}}]}