{"type": "FeatureCollection", "crs": {"type": "name", "properties": {"name": "EPSG:32628_local_enu_m_section_centroid", "lng0": -16.718979523488844, "lat0": 28.054697060411474}}, "features": [{"type": "Feature", "geometry": {"type": "Polygon", "coordinates": [[[-45.592719251, 216.202218738], [-45.466999162, 216.534623501], [-45.348997423, 216.858506508], [-45.340057023, 216.85534064], [-41.712169051, 226.769926428], [-10.319802494, 215.208985297], [-9.797063655, 216.124418746], [-8.633514204, 215.391934797], [-8.352278814, 215.285707902], [-4.699546815, 213.383969491], [3.021980624, 209.367752075], [8.001476266, 206.07629707], [8.042495673, 206.135366632], [8.316566323, 205.896472793], [8.603425796, 205.715887465], [8.57338029, 205.672620752], [10.889649131, 203.653643691], [11.810503045, 202.871047421], [11.863620939, 202.825904684], [12.070429177, 202.650146779], [12.07042918, 202.650146776], [13.082526367, 201.742220994], [14.43136287, 200.532215222], [19.206403413, 196.269147386], [21.99915732, 201.265879813], [23.100621524, 202.201969419], [23.361329139, 202.448152522], [23.4282612, 202.369862168], [27.111885422, 205.748881829], [27.5440479, 206.238584901], [30.023552907, 205.472319298], [31.939316638, 203.094733159], [31.943524689, 203.097958798], [32.155346922, 202.826625667], [32.356063949, 202.577522913], [33.002702352, 201.775003021], [34.417483334, 199.928947995], [34.63801566, 199.646457693], [34.635435109, 199.644557002], [37.659396407, 195.698787995], [39.693428067, 193.093300505], [40.037372644, 193.385605005], [40.659515423, 193.385605005], [44.745795925, 188.314267804], [43.959877604, 187.646347803], [43.967239286, 187.637211481], [43.951961995, 187.625093503], [47.279590193, 183.351647407], [47.642014412, 182.940967948], [45.614805228, 181.65457881], [42.378507217, 179.600948313], [40.63963723, 178.497528163], [40.512701359, 178.353691321], [40.3707053, 178.326874282], [36.281336165, 177.554565744], [33.213517317, 176.736616127], [33.213517317, 175.987605005], [33.205466661, 175.987605005], [32.833091178, 165.227734814], [32.862015544, 165.228216807], [32.819892917, 164.846368205], [32.808848371, 164.52723365], [32.766806953, 164.526533076], [32.61925119, 160.848085005], [32.611445335, 160.848085005], [32.449934487, 156.455717064], [32.427598997, 154.405658428], [32.427598997, 154.057565005], [32.423806502, 154.057565005], [32.367886542, 148.924962375], [32.329195661, 145.373727444], [32.325566711, 145.040645005], [32.322983467, 145.040645005], [32.028264097, 129.010565005], [31.378914665, 129.010565005], [26.53038168, 129.315792479], [26.526636509, 129.113503501], [26.178993046, 129.121885005], [21.915941459, 129.121885005], [21.915941459, 126.553662134], [16.205712166, 126.680535115], [16.205712166, 133.789416428], [14.174454257, 133.022179343], [15.465898537, 140.339152278], [16.324350145, 139.220488874], [16.402564624, 145.646048219], [16.402564625, 145.646048223], [16.406523594, 145.971289677], [16.500431536, 145.969139952], [16.500431536, 153.68611508], [16.509775045, 154.453712997], [16.28696895, 154.285398478], [16.104130966, 154.291153536], [16.180669152, 162.096756337], [15.235823788, 161.411541935], [16.195271308, 163.585929681], [16.209127281, 164.999005005], [16.839367158, 164.999005005], [18.861469503, 170.787645005], [20.626502719, 170.787645005], [20.626502719, 176.687605005], [26.165709408, 176.687605005], [23.226901725, 187.047908082], [25.356502191, 188.65667322], [18.380956275, 196.560983385], [16.249419512, 192.937970662], [16.248999503, 192.938340831], [13.975886361, 190.362572349], [13.766112862, 190.095155407], [13.750618228, 190.107310723], [11.120228573, 187.12669588], [7.297463044, 182.794945391], [5.503274525, 183.811483935], [0.361670194, 180.125528853], [2.978931451, 176.665500657], [3.207275404, 176.386850065], [3.196029571, 176.378496211], [5.552073717, 173.263797915], [4.377760326, 172.376685768], [8.213436486, 167.473077434], [5.765263162, 165.697629637], [8.780854974, 161.629647462], [11.154120317, 158.451436389], [6.240039991, 154.887680096], [8.200800634, 152.221487004], [7.02761564, 151.335227282], [8.992411442, 148.774867281], [8.409491315, 148.334511641], [13.376390406, 132.720738458], [10.650521645, 131.691136262], [9.862524881, 131.579521865], [7.138082431, 130.587210676], [1.418489115, 128.819628997], [0.930702435, 130.035642477], [0.888288622, 130.021224167], [0.798966052, 130.364050826], [0.669715322, 130.686262638], [0.711328855, 130.700408897], [-2.249204797, 142.063157005], [-2.579335776, 143.060721041], [-2.579335776, 143.060721042], [-2.53775913, 143.170649973], [-2.53775913, 143.170649974], [-1.70788232, 145.364849849], [-8.120129253, 153.369776474], [-4.362600542, 155.946882694], [-6.91298681, 159.726060298], [-3.57176939, 162.117272697], [-6.91883368, 167.569295702], [-7.121224424, 167.840331768], [-7.096350025, 167.858451545], [-10.06114061, 172.687790055], [-14.767722167, 178.798797497], [-17.718213335, 182.810801309], [-22.441384396, 189.364321128], [-24.712537673, 190.878172699], [-23.651465564, 195.031743162], [-26.740088514, 196.047831534], [-26.738824257, 196.050995164], [-40.831765266, 200.830939201], [-44.763668855, 202.167565147], [-50.008516261, 204.069381631], [-45.58863287, 216.200771717], [-45.592719251, 216.202218738]]]}, "properties": {"id": 0, "height_median_m": 9.0, "building_count": 58, "area_m2": 3627.1193590448565}}, {"type": "Feature", "geometry": {"type": "Polygon", "coordinates": [[[-39.180461327164736, 238.68509020661327], [-38.10069437818934, 241.6883083619662], [-35.59788785441237, 248.81674468929648], [-35.04401787393756, 250.4031242408704], [-34.34832902363915, 252.37821245322704], [-34.34698747065635, 252.37770572820978], [-32.14720679155039, 258.6093860148853], [-36.59917970100677, 260.1616119085596], [-37.366131293622736, 260.37887889199334], [-38.71945066514254, 260.685580508975], [-36.04537955359148, 268.49394681750067], [-35.900186992009225, 269.15204415149105], [-33.51227481047548, 269.53859451264805], [-32.47419155368951, 269.15914302096485], [-32.47419155368947, 269.15914302096485], [-27.911584568301024, 267.49136925113197], [-27.863161325941814, 267.6285457284995], [-27.538048544985894, 267.50574567382176], [-27.201331668809836, 267.40049069584137], [-27.23406919991332, 267.3077497108166], [-22.78248707079308, 265.836498068987], [-22.878987863727463, 265.5631244121857], [5.967102762336468, 255.5991108980327], [9.209352046720465, 254.47917349976825], [9.541892608887167, 254.36430737463587], [9.541473475583594, 254.36317482750601], [24.854741918407047, 249.01565229215026], [25.681806228323513, 248.54706009057847], [27.45926984690248, 247.31620571955864], [30.000291481684656, 245.6550434984056], [30.786800625038186, 245.2094287540363], [36.1986343204463, 241.6414890775572], [38.26162084206073, 240.30568085068748], [40.09801340463063, 239.09585502735365], [43.07784507084359, 237.18811640310903], [43.37682945399874, 237.01871996247408], [43.36484537952503, 236.99985926388442], [46.31662730254218, 235.07406582934266], [49.56390655642592, 232.97141401966408], [50.088984563842914, 233.56640392793614], [54.94759939574529, 230.48331344564258], [55.415709872738205, 231.27896953767376], [55.415709872738205, 230.53451795722188], [63.13603445125619, 225.43938163056026], [63.5714080281326, 226.42606506273944], [65.75095312820304, 224.9962142841271], [69.00733831135356, 222.86468529758184], [69.00455789082686, 222.8603173902446], [73.42305179311231, 219.9396854802425], [73.81743342544135, 219.71623954616618], [77.76161235176862, 217.05592432944982], [77.89317899855821, 217.20500851530088], [84.02925489810589, 213.2106926891521], [84.05954128194995, 213.25844070577153], [84.34950073544306, 213.0237504768424], [87.5650690099116, 210.97416500536542], [87.63836101534238, 210.97416500536542], [87.63836101534238, 210.74742881336212], [87.71878741816505, 210.69426682566106], [87.71133923406809, 210.68582694755156], [92.09729290921187, 207.80006419516138], [92.38912005570242, 207.61009754404404], [92.38819290677223, 207.60866491468389], [98.48361310578493, 203.5981491014039], [96.12692329613355, 200.07798011102764], [91.8838477912649, 193.61719927264053], [91.96230313788108, 193.5727486015877], [91.85765050371917, 193.45416191501874], [93.68395852577716, 192.3649655139632], [92.40880827633382, 190.5259623238518], [92.24494260593902, 190.15459494988787], [87.9257381643505, 189.57194160125454], [75.94131718754663, 187.8744296481693], [79.6053964817941, 193.87167033280855], [74.917269198038, 196.82296559842507], [77.92518522045948, 201.55075628478372], [71.3852479887414, 205.90051617738393], [70.3073434310496, 204.12390095936175], [70.25798026358227, 204.15570751290147], [69.9744491083207, 203.83442539104897], [69.62019933749134, 204.03513370127624], [67.64771548986391, 201.01773293797922], [64.52829308410146, 202.9618510599526], [63.91675292247116, 202.02139973879892], [60.26560905809963, 204.25776629571857], [59.75684473023037, 203.56596133621653], [56.9072236065916, 205.67725413666295], [54.33147861558452, 207.9878872616952], [55.248457753920775, 209.67637764959335], [57.974064841744905, 214.8238944347039], [57.93197450282292, 214.85039137271178], [58.131125814165415, 215.18889256357576], [49.84796453098923, 220.58585921168307], [46.810709692060854, 215.99698935325515], [46.181169606181435, 215.0458417952325], [46.181169606181435, 210.27859371072955], [45.02571734017029, 208.4900399762692], [40.53490239471559, 211.30842339641012], [40.48778373248811, 211.24887043351532], [39.87318129204622, 211.723711892412], [35.71199416738869, 214.3352247119524], [35.11591106303994, 213.4835715837937], [28.737814319610926, 217.70877005777575], [26.96663887137609, 215.03277016337782], [21.29340818361846, 218.91209606491424], [21.23497300576224, 218.80615114800057], [16.497018213149868, 221.6023976627621], [16.48803623497776, 221.58543451219126], [15.287313258594317, 222.3791144216743], [12.97162570467194, 218.66176480241785], [-10.575250189260673, 226.88028413036116], [-39.79426667029936, 237.01581601820442], [-39.180461327164736, 238.68509020661327]]]}, "properties": {"id": 1, "height_median_m": 9.0, "building_count": 65, "area_m2": 3653.445870972754}}, {"type": "Feature", "geometry": {"type": "Polygon", "coordinates": [[[47.78607400401534, 204.10537831170075], [52.116730888326714, 199.95307680509023], [49.07155441177223, 196.63516453179872], [44.959228886239984, 201.1690864237436], [47.78607400401534, 204.10537831170075]]]}, "properties": {"id": 2, "height_median_m": 12.0, "building_count": 1, "area_m2": 25.95245677262089}}, {"type": "Feature", "geometry": {"type": "Polygon", "coordinates": [[[75.50813298680488, 187.1654084442041], [81.57315131332366, 183.23823718457837], [79.66041674032179, 180.0441636512598], [82.95309196137569, 177.97134092174161], [84.4319705744775, 177.07758891856398], [86.40022016921093, 175.73940072782094], [87.96873973031681, 174.73963501637877], [89.63028738515641, 173.6637632143013], [84.7483564179612, 165.60637336829058], [82.68689298185217, 166.9411953788461], [80.83103425586545, 163.8420987644853], [79.74291409317975, 164.45859813009406], [78.46056520232388, 165.24103023132665], [76.10072311691336, 166.68947128125197], [73.44952528440008, 168.35846769264668], [70.30393598356576, 170.25206110449665], [69.6201373935029, 170.69482879713917], [69.23038017516569, 170.9156546635029], [63.82028850916401, 174.25952139771653], [61.758764005109946, 175.55730346303037], [65.67005960433731, 181.97213867038204], [66.45659449441739, 183.30902666469086], [70.57964646188447, 189.96665343930658], [75.28529216150064, 186.80067014123904], [75.50813298680488, 187.1654084442041]]]}, "properties": {"id": 3, "height_median_m": 9.0, "building_count": 3, "area_m2": 366.1477938216356}}, {"type": "Feature", "geometry": {"type": "Polygon", "coordinates": [[[-53.58297297310891, 256.8187001741395], [-61.68509726160332, 259.0267617616636], [-57.859929812838125, 272.26447420071054], [-57.045064679277786, 272.0798020089874], [-52.81619450519915, 271.07684070319056], [-48.88660290223832, 270.07496070295167], [-44.67747813440227, 269.07668241593143], [-42.90503441711896, 268.7897628364156], [-47.56659823317594, 255.17334463691253], [-53.190055442900366, 256.7073919672741], [-53.58297297310891, 256.8187001741395]]]}, "properties": {"id": 4, "height_median_m": 6.0, "building_count": 1, "area_m2": 209.86990929861156}}, {"type": "Feature", "geometry": {"type": "Polygon", "coordinates": [[[5.105652446366646, 113.94660878533041], [5.803343859910587, 114.05954965056287], [5.520342941242109, 115.12848727240204], [11.07733890125035, 116.76567771582951], [11.467746206277372, 115.65970677581234], [17.982070418425593, 117.57347534212272], [17.97843319907895, 117.58512305844722], [18.329270888190127, 117.67547538443011], [18.653784211027414, 117.77081043014933], [18.686962639724545, 117.6645608783004], [24.02250179630612, 119.34398962466206], [26.022882342630428, 119.87733614292956], [28.489638691384066, 112.0994037389841], [28.219003056377538, 112.01480522371462], [32.12464481237876, 99.74365334589714], [31.878504826701214, 99.6661776578257], [35.567488144593376, 87.69573165900049], [35.47882817362183, 87.67458120241798], [40.68284701053715, 71.00939569204571], [44.10170676636609, 72.0200217045826], [46.26397700366437, 64.7920281203291], [46.00557049861306, 64.70662455283585], [51.5922469719736, 48.08901304785719], [54.711319530260134, 48.97260399665101], [56.97469239670195, 41.522670132096884], [56.898943849384224, 41.4986365717771], [60.71084554577724, 28.932992401982954], [58.79597838746393, 28.390536509692037], [56.831182585177565, 27.8339365093365], [55.268041788613985, 27.39111992404593], [53.29837395659126, 26.72154370788923], [51.53005773527626, 26.276263707826974], [49.57492265228404, 25.61162780848308], [46.36655909212696, 24.601754610471062], [46.37272547670169, 24.581790574940065], [46.02476520401431, 24.494170641143], [45.69884503770026, 24.39158312745236], [45.666515414445755, 24.49625219885643], [41.7968650174048, 23.268486392907903], [40.819299771196455, 23.046941613122065], [39.548425546343424, 22.603838315287582], [37.86829452452009, 22.155877534840442], [36.36499205067047, 21.730012334824817], [35.27940751059537, 25.174363738494396], [29.206224717660973, 45.81976743952513], [25.650043607609188, 44.88984324863481], [18.455847158461577, 68.93845885704779], [18.383930908521343, 68.91517554489104], [11.212635441828528, 93.43127525113225], [11.116476023710481, 93.39774828639368], [5.105652446366646, 113.94660878533041]]]}, "properties": {"id": 5, "height_median_m": 12.0, "building_count": 20, "area_m2": 2274.6003215748897}}, {"type": "Feature", "geometry": {"type": "Polygon", "coordinates": [[[55.17187006269957, 163.98207821239913], [55.353612759229414, 164.27039556059643], [55.52735359975507, 164.58539347114223], [55.54514915766262, 164.57424967706956], [56.529574752179954, 166.13594641827632], [62.03016219937317, 162.6078517452896], [65.67648582145806, 160.37443764103395], [66.55824928417175, 159.70832663109027], [69.00800199452003, 158.26484466539463], [70.77386987025712, 157.04202009066032], [71.35662962152003, 156.7118442247255], [72.26026988311209, 156.14297971531437], [72.55809672137946, 155.91799223930965], [74.0154518825041, 154.95467802381302], [66.79804976506902, 143.67416975943854], [69.74292945975347, 134.1399472097033], [71.99654472496371, 126.94322803450075], [71.97330020104036, 126.93269226115761], [77.31256506717234, 110.32991317967092], [77.106755764803, 110.25782949065989], [80.74456923528673, 98.96666037738396], [83.76045822444327, 89.69074699614193], [83.79830538122918, 89.69932426506209], [85.95142770732822, 82.37992006520702], [86.1467867506198, 81.82649439488972], [88.86696711025671, 73.19588416226635], [94.69380803309797, 70.79491689218207], [101.49052145535308, 67.87761882882332], [100.28469846645356, 64.7722252207342], [98.11738468637408, 59.860460449474985], [97.6275095747471, 58.861280633214584], [94.58590986993873, 51.63458952316325], [93.36751584936665, 48.74784279822554], [92.24807019718665, 49.235725520071476], [91.76346045327928, 49.44693070044817], [90.28812814075167, 50.11563731261131], [75.09075165166684, 56.93688011635389], [71.16034632126424, 61.390602187962344], [66.42246322499629, 76.378256704775], [58.940020845860104, 100.14092272836035], [58.940020845860104, 102.82941310143471], [57.935975362495846, 103.39827803553182], [57.78281961193048, 103.74537360873437], [50.211836609474624, 128.14546964445074], [45.47497315718406, 143.46537094508344], [46.18036662508685, 149.5173168186936], [50.3483033910492, 156.1518384526519], [55.2198278510435, 163.9520464640122], [55.17187006269957, 163.98207821239913]]]}, "properties": {"id": 6, "height_median_m": 12.0, "building_count": 10, "area_m2": 2449.94596214653}}, {"type": "Feature", "geometry": {"type": "Polygon", "coordinates": [[[111.35144262000183, 151.1910439452307], [103.22167770968413, 137.8974772386003], [98.39755113604528, 140.82138620079854], [106.52253719109676, 153.99059696716506], [111.35144262000183, 151.1910439452307]]]}, "properties": {"id": 7, "height_median_m": 3.0, "building_count": 1, "area_m2": 87.11987175871784}}, {"type": "Feature", "geometry": {"type": "Polygon", "coordinates": [[[225.88613491516494, 229.828751249339], [232.86839352244456, 228.96338536862828], [232.76578614476443, 227.91696335005327], [236.70362348974385, 227.402100623827], [235.62968950284272, 217.66671080422128], [229.18805138130858, 218.85038347837636], [225.03426252060174, 219.453825551081], [225.09916941208283, 220.15254074607932], [225.3601314622601, 223.467225966117], [225.53613320433675, 226.2593247126674], [225.75238937822965, 228.4647725774387], [225.7780397503783, 228.82809270309923], [225.787895124995, 228.82687124949595], [225.88613491516494, 229.828751249339]]]}, "properties": {"id": 8, "height_median_m": 12.0, "building_count": 4, "area_m2": 111.05246336215501}}, {"type": "Feature", "geometry": {"type": "Polygon", "coordinates": [[[235.78542946848938, 216.88661516430267], [247.06236780167032, 227.74826763904568], [252.97661650864868, 224.6913492265123], [255.38464210012927, 220.4846898033263], [255.7329467763887, 219.8926698617929], [254.9600399968369, 219.26708698467837], [257.7551681255474, 214.4407440625828], [260.6984904904959, 209.4647938425025], [261.4878930706175, 210.02386145129043], [264.84685393942874, 203.87539710757787], [271.72146437956377, 208.16550654715456], [274.6881120948847, 205.5242146506389], [276.076886253388, 203.83812515734283], [277.439026788051, 202.2946214078727], [276.88144770386606, 201.97871222592448], [273.34373344294556, 199.51179169744572], [273.34975895619624, 199.5026879845201], [273.0590040324245, 199.31324405451284], [272.4935168554047, 198.91891827727534], [267.95818097040035, 195.86752032292472], [263.9514010440864, 192.84067657515232], [268.320970290714, 184.70630141256072], [268.40072207331497, 184.75779152021113], [268.4994952598604, 184.5339426887146], [283.340542724023, 194.0488637423478], [283.9382203155891, 193.37160792323027], [290.023367561664, 185.69774097955883], [291.29104281489776, 184.40492624362832], [288.68787457467175, 182.69716523655816], [295.13562218924585, 175.22856662981286], [297.0030940058158, 173.00107427091834], [302.23742114447737, 166.83722049641008], [288.78420147570637, 155.23322961446974], [288.1048286853393, 154.84831542150107], [286.8660216054346, 156.36004508134417], [282.12604483616684, 152.35806055010727], [274.87469856268365, 146.34009896251143], [273.57314987303994, 147.97881491558147], [274.35187888389873, 148.7509266967629], [271.9774250276812, 151.55363740616832], [273.0939612108221, 152.50253607443443], [270.816788889682, 155.4515282159326], [271.7915134550334, 156.335132210265], [269.0338967646076, 159.68311251349522], [269.81689658315645, 160.348552197895], [264.34396714598404, 166.84549445270625], [259.45997966117733, 163.64599482203184], [250.52371723829665, 172.32549859118845], [249.51421577026267, 171.6391512160814], [244.6972608070388, 177.4458661258426], [243.1609173376284, 179.1867671898753], [245.54319079217413, 180.8064450052024], [245.64143058234407, 180.8064450052024], [246.5375328216351, 181.41569366827045], [256.04065898931935, 187.61334947897703], [252.1375865659726, 193.51034935367645], [251.36993453397596, 194.670164863993], [252.89746131600836, 195.8684874986655], [255.21236693989763, 197.78538686977646], [255.19622895202437, 197.81124046919675], [256.1867169442429, 198.48466082118568], [251.76217398529616, 206.06084610040207], [252.5769761841978, 206.58844018291936], [251.6176151583355, 207.67553604625476], [247.50706136199082, 215.12810650924075], [245.99095370184455, 214.39183324833047], [245.72526435232527, 214.893607840898], [243.45761350081, 213.72561742729698], [242.04328271465985, 216.06280500538358], [235.76119574673973, 216.06280500538358], [235.78542946848938, 216.88661516430267]]]}, "properties": {"id": 9, "height_median_m": 12.0, "building_count": 25, "area_m2": 1838.0857713851842}}, {"type": "Feature", "geometry": {"type": "Polygon", "coordinates": [[[213.16182448149962, 229.7789055067173], [218.6735708591957, 229.90636697521177], [218.88742124141402, 225.4233794462721], [218.689283506962, 223.06593067837665], [218.47111725612493, 219.7285395348298], [213.06488997778445, 219.8561654397766], [213.27473104413124, 225.32511720228635], [213.27473104413124, 227.09217409086756], [213.16182448149962, 229.7789055067173]]]}, "properties": {"id": 10, "height_median_m": 6.0, "building_count": 1, "area_m2": 55.45717961368822}}, {"type": "Feature", "geometry": {"type": "Polygon", "coordinates": [[[214.88270840255984, 236.57323848254669], [216.77011334928446, 239.42484499211406], [220.68927932989078, 245.50198407194284], [228.72620935918573, 240.46916106719792], [227.4032305631907, 238.01604286219336], [214.88270840255984, 236.57323848254669]]]}, "properties": {"id": 11, "height_median_m": 3.0, "building_count": 1, "area_m2": 64.74728270082099}}, {"type": "Feature", "geometry": {"type": "Polygon", "coordinates": [[[278.3304437605193, 134.770448007779], [279.5543636783192, 136.93744745403262], [279.55436367831925, 136.93744745403265], [280.21182764306394, 138.10151384989172], [281.1246210390733, 137.48091707795174], [283.43446730993895, 139.4439614313846], [284.37626817501706, 138.16332426128002], [285.59740409122423, 140.29213190163705], [285.59985184455064, 140.2908375263806], [286.69275742875305, 142.0796683087425], [317.1396666734388, 124.48880721657063], [316.20473479679765, 122.6348325822868], [314.8105918533508, 119.88152413353559], [305.97946486552485, 124.55143598188708], [305.96018502753145, 124.52792385142342], [312.8689330683598, 116.0469205425363], [312.86893306835975, 116.04692054253618], [313.0732930141742, 115.79605347278435], [312.69394769807394, 115.70133998303872], [312.5228480910797, 115.36343346080616], [312.3230262067867, 115.60872972170058], [310.092662386611, 115.05186100118262], [306.731615873031, 114.21268774402718], [306.3983890464168, 114.1294889426028], [306.39786513569925, 114.13171519460128], [301.11214480347763, 112.84825273058296], [294.5076249743899, 116.25001797377679], [293.03484041641315, 113.6274929613138], [289.58186961124, 115.6513132221513], [291.1000555918946, 118.3546826232739], [283.7135611579131, 122.68913382333704], [282.1211043315, 120.09518566513115], [280.35836677486765, 121.09390494490431], [280.35836677486765, 121.0939049449043], [279.91529890864405, 121.34493517829357], [279.7923752409174, 122.04138733235428], [276.8057915590152, 131.51724417923336], [278.54358744857586, 134.52892514481493], [278.3304437605193, 134.770448007779]]]}, "properties": {"id": 12, "height_median_m": 9.0, "building_count": 9, "area_m2": 651.9690595395729}}, {"type": "Feature", "geometry": {"type": "Polygon", "coordinates": [[[300.7114972339971, 106.63855758857613], [301.985100929751, 102.06849199949572], [305.32493523827617, 89.71315045328899], [306.5037578445963, 85.59450217816138], [308.47163191348307, 78.34736576823963], [309.80149006513386, 75.56535388274655], [311.14454744393703, 74.0434741301194], [311.3410270236736, 73.82083413057443], [314.66435513057536, 70.05501903143525], [315.34197858661076, 70.8228651668149], [319.3825331777354, 68.10049167441525], [321.0099594229083, 67.70532500521287], [322.1910958599795, 67.70532500521287], [323.545845492941, 68.42171843614068], [324.8893810131209, 69.69040306670186], [337.75299519429154, 61.411036459605775], [332.45908782399846, 55.76513659570903], [332.3137227975506, 55.600416834675286], [325.399976749661, 52.534828261780305], [317.85975737953896, 52.422405005250816], [317.59677163113025, 52.422405005250816], [310.7277962946468, 55.01692172765279], [308.1415896358168, 56.594909687509194], [308.14158963581633, 56.5949096875095], [306.8233344166827, 57.39925022878388], [306.7219301687953, 57.51415602069253], [305.37887004625065, 58.383803370337816], [304.3557340075546, 59.129107672302275], [303.5086183836298, 59.60906040465651], [299.43652205619816, 63.0979052166301], [299.20860608740355, 63.356167226181675], [295.7341759277444, 68.53055706640744], [293.5258866034282, 74.48844670803247], [293.5499604589513, 74.49543017988582], [292.6865804081818, 77.4304364696229], [292.6925621992101, 77.43382559014931], [289.4105683477033, 89.68457455558594], [289.4105683477033, 89.79417639252127], [285.891594533499, 102.44028017120013], [300.7114972339971, 106.63855758857613]]]}, "properties": {"id": 13, "height_median_m": 15.0, "building_count": 4, "area_m2": 1059.3950171171666}}, {"type": "Feature", "geometry": {"type": "Polygon", "coordinates": [[[320.5337351216172, 116.85511826312586], [321.476010652504, 118.72365540087638], [327.47067994621517, 129.97080677221376], [330.64231954423593, 135.89022074466098], [324.6798819992821, 138.93056057164657], [321.6290511886342, 133.33345474890695], [319.7826784683055, 134.37955944376935], [319.75787186557625, 134.335245649596], [319.4655654422189, 134.50344624077024], [319.13395356370336, 134.65375207638593], [319.151106658577, 134.68439386655623], [306.87722212193313, 141.74710090992545], [305.6993611393163, 142.41444498961454], [298.42961667650457, 146.5332849885117], [297.925940927361, 146.81865400373292], [299.96648641758725, 150.347855461499], [301.51670389397276, 153.23373501250606], [302.33418889015104, 152.71910743255273], [304.3633963927318, 156.33243118926367], [304.58663719866234, 156.20594900470923], [306.8681351519605, 158.01563779167512], [307.2791066484497, 158.71417369512773], [307.66662173842496, 158.60439592630297], [308.39122778557913, 159.89467118948278], [308.88462801404086, 159.61512400477], [309.867025914604, 160.39436400470885], [312.2274650817805, 159.05700320689436], [314.3994275270218, 157.93829866119702], [315.58413431507614, 157.15520547917177], [328.30683481114784, 149.9468685198449], [328.3300149864386, 149.9893952616154], [328.6258783000381, 149.8217671343222], [328.9546523656732, 149.67274756120713], [328.9391371849825, 149.64428314821274], [330.320482438707, 148.8616504006438], [327.4140358342226, 143.77180774680446], [337.0804834734521, 138.68625696093534], [359.2813396250308, 126.66442062806496], [362.52413600444925, 124.99416566615498], [368.81281491600777, 121.54251438426196], [374.62208005345724, 118.48624035376322], [371.9347349543643, 113.41098425100739], [369.6736977923251, 114.63632907753768], [366.50082717776684, 108.7146175879019], [359.6546244614932, 95.4808164920776], [356.11169484476454, 97.4881443001743], [354.5441023476747, 94.60163930453623], [321.80829884042134, 112.07119040055788], [323.47777335157474, 115.29830688095106], [320.5337351216172, 116.85511826312586]]]}, "properties": {"id": 14, "height_median_m": 15.0, "building_count": 12, "area_m2": 1850.1867942694512}}, {"type": "Feature", "geometry": {"type": "Polygon", "coordinates": [[[321.41596016232967, 79.68355985207717], [321.4172035404403, 79.68592187945947], [320.23251228698643, 80.35713580531294], [323.8377046823834, 86.89346927546633], [330.87241143226646, 99.7615024973549], [332.0530747209861, 99.20405933906378], [332.06669295807694, 99.22861924830572], [332.362593257806, 99.05792200053295], [332.68741440819616, 98.90455962390683], [332.6731228847108, 98.87878547139432], [337.77480019507544, 95.93575947006424], [348.8599910625524, 89.87176236913083], [348.86251439572146, 89.87637810311982], [349.1694237884629, 89.7024915667344], [349.4741092875045, 89.53581766774853], [349.47162466654703, 89.5312727469494], [352.03147604396264, 88.08093040068967], [349.6976222052688, 83.9938266508109], [346.47946412556155, 78.11454647940714], [344.88268309713004, 75.19737373462233], [344.70822181934574, 74.87864895300798], [344.70721221702956, 74.87927296749963], [341.2688195646168, 68.64535296790032], [339.8810018153199, 69.5031346636874], [338.5137217732461, 70.27779844389663], [330.1801291432723, 74.83657259155578], [327.1093246138183, 76.51641283849065], [324.8167872988632, 77.77051299769104], [324.26895221046163, 78.07019844538172], [321.71363950966406, 79.51796930102458], [321.41596016232967, 79.68355985207717]]]}, "properties": {"id": 15, "height_median_m": 12.0, "building_count": 14, "area_m2": 534.1770081105797}}]}