{"type": "FeatureCollection", "crs": {"type": "name", "properties": {"name": "wgs84_and_EPSG:32628_local_enu_m_section_centroid", "lng0": -16.504015802892916, "lat0": 28.415164232127623}}, "features": [{"type": "Feature", "geometry": {"type": "Polygon", "coordinates": [[[-16.49834, 28.41694], [-16.49835, 28.4168], [-16.49842, 28.41668], [-16.4985, 28.41662], [-16.49854, 28.4166], [-16.49876, 28.41647], [-16.49887, 28.41631], [-16.49884, 28.41616], [-16.49873, 28.41595], [-16.49884, 28.41593], [-16.49903, 28.41597], [-16.49909, 28.41583], [-16.49904, 28.41562], [-16.499, 28.41532], [-16.49917, 28.415], [-16.49935, 28.41466], [-16.4996, 28.4144], [-16.49983, 28.41412], [-16.49996, 28.41389], [-16.50006, 28.41379], [-16.50018, 28.41377], [-16.50025, 28.41381], [-16.5003, 28.41382], [-16.50055, 28.4138], [-16.50092, 28.41379], [-16.50099, 28.41379], [-16.50107, 28.41378], [-16.50116, 28.41374], [-16.50128, 28.41367], [-16.50133, 28.41364], [-16.50055, 28.41277], [-16.50085, 28.4125], [-16.50124, 28.41234], [-16.50198, 28.41321], [-16.50262, 28.41273], [-16.50326, 28.41224], [-16.50383, 28.41184], [-16.50431, 28.41148], [-16.50475, 28.41107], [-16.50516, 28.41071], [-16.50557, 28.41022], [-16.50574, 28.41008], [-16.50582, 28.40971], [-16.5059, 28.40934], [-16.50588, 28.40927], [-16.50568, 28.40911], [-16.50544, 28.4091], [-16.50538, 28.40909], [-16.50532, 28.40905], [-16.5053, 28.40899], [-16.50532, 28.40893], [-16.50542, 28.40877], [-16.50557, 28.4085], [-16.50564, 28.40834], [-16.50572, 28.408], [-16.50565, 28.4077], [-16.50562, 28.40761], [-16.50545, 28.40753], [-16.50526, 28.40755], [-16.50509, 28.40758], [-16.50504, 28.40755], [-16.50502, 28.40751], [-16.50505, 28.40741], [-16.50507, 28.40741], [-16.50511, 28.40739], [-16.50519, 28.40737], [-16.5053, 28.40735], [-16.50545, 28.40734], [-16.50549, 28.40734], [-16.50555, 28.40734], [-16.50565, 28.40733], [-16.50572, 28.40732], [-16.50575, 28.40731], [-16.50579, 28.40729], [-16.50584, 28.40725], [-16.50586, 28.40723], [-16.50588, 28.4072], [-16.50592, 28.40719], [-16.50641, 28.40795], [-16.50659, 28.40822], [-16.507, 28.40886], [-16.50718, 28.40913], [-16.50767, 28.40987], [-16.50794, 28.41032], [-16.50836, 28.4104], [-16.50875, 28.41046], [-16.50893, 28.41128], [-16.50896, 28.41166], [-16.5087, 28.41217], [-16.50833, 28.4128], [-16.50832, 28.41281], [-16.50799, 28.41303], [-16.50777, 28.41315], [-16.50737, 28.41356], [-16.50697, 28.41397], [-16.50676, 28.41418], [-16.50748, 28.41477], [-16.50808, 28.41526], [-16.50767, 28.41658], [-16.50752, 28.41701], [-16.50734, 28.41752], [-16.50732, 28.41756], [-16.50658, 28.41854], [-16.50587, 28.4195], [-16.50564, 28.41981], [-16.50478, 28.42063], [-16.50449, 28.42091], [-16.50427, 28.42066], [-16.5041, 28.42017], [-16.50399, 28.41987], [-16.50363, 28.41964], [-16.50278, 28.42064], [-16.50217, 28.42008], [-16.50228, 28.41996], [-16.50206, 28.41984], [-16.50188, 28.41962], [-16.50152, 28.41954], [-16.50122, 28.41955], [-16.50104, 28.41937], [-16.50079, 28.41927], [-16.50053, 28.41922], [-16.50018, 28.41914], [-16.49989, 28.41909], [-16.49956, 28.41879], [-16.49907, 28.41836], [-16.49886, 28.41797], [-16.49864, 28.41769], [-16.49837, 28.41734], [-16.49836, 28.41708], [-16.49834, 28.41694]]]}, "properties": {"cusec": "3803901004", "mun": "039", "nmun": "Santa Úrsula", "area_m2": 774580.0375830793, "perimeter_m": 4758.45501402975, "coords_system": "wgs84"}}, {"type": "Feature", "geometry": {"type": "Polygon", "coordinates": [[[555.7091351458703, -197.67847955306806], [554.7300505201191, -182.0936795528671], [547.8764581395137, -168.73527955297732], [540.043781133157, -162.05607955323018], [536.1274426301527, -159.82967955291898], [514.587580862585, -145.35807955307135], [503.81764997897517, -127.54687955295466], [506.7549038562284, -110.84887955319132], [517.5248347401862, -87.47167955288987], [506.7549038562284, -85.24527955297415], [488.15229596626193, -89.69807955320107], [482.2777882117554, -74.1132795530001], [487.1732113405109, -50.73607955309413], [491.0895498438631, -17.34007955317196], [474.4451112053988, 18.28232044706141], [456.8215879411834, 56.131120446815004], [432.3444722963625, 85.07432044690574], [409.82552590339156, 116.2439204469122], [397.09742576793167, 141.84752044712937], [387.3065795100729, 152.97952044710343], [375.5575640007119, 155.20592044701914], [368.7039716201064, 150.75312044679222], [363.80854849135096, 149.63992044683437], [339.33143284653, 151.86632044714557], [303.1053016923481, 152.97952044710343], [296.2517093117426, 152.97952044710343], [288.4190323057339, 154.09272044706128], [279.60727067362615, 158.5455204468927], [267.85825516391736, 166.3379204469932], [262.9628320351619, 169.67752044686677], [339.33143284653, 266.52592044715516], [309.9588940729536, 296.5823204468083], [271.7745936672696, 314.393520446925], [199.32233135890579, 217.54512044703205], [136.6609153084008, 270.9787204469866], [73.99949925789583, 325.525520446899], [18.191675587996357, 370.05352044679523], [-28.80438644979542, 410.12872044686003], [-71.88410998458282, 455.7699204471096], [-112.02657964176909, 495.84512044677894], [-152.16904929895534, 550.3919204470868], [-168.81348793741967, 565.9767204468924], [-176.64616494377626, 607.165120446915], [-184.47884195013285, 648.3535204469376], [-182.52067269863068, 656.1459204470382], [-162.93898018291307, 673.9571204471548], [-139.44094916384327, 675.0703204471126], [-133.56644140898885, 676.1835204470706], [-127.69193365448228, 680.6363204469019], [-125.73376440263226, 687.3155204470446], [-127.69193365448228, 693.9947204467917], [-137.48277991234107, 711.8059204469084], [-152.16904929895534, 741.862320446957], [-159.02264167956085, 759.6735204470737], [-166.85531868591747, 797.5223204468273], [-160.00172630531196, 830.9183204471449], [-157.06447242805868, 840.9371204471611], [-140.42003378959436, 849.8427204468239], [-121.81742589962788, 847.6163204469083], [-105.17298726116357, 844.2767204470347], [-100.2775641324081, 847.6163204469083], [-98.31939488055806, 852.0691204471352], [-101.2566487581592, 863.2011204471092], [-103.21481800966139, 863.2011204471092], [-107.13115651266577, 865.427520447025], [-114.96383351902237, 867.6539204469407], [-125.73376440263226, 869.8803204468563], [-140.42003378959436, 870.9935204468143], [-144.33637229294658, 870.9935204468143], [-150.21088004745317, 870.9935204468143], [-160.00172630531196, 872.1067204467721], [-166.85531868591747, 873.2199204471254], [-169.79257256317075, 874.3331204470833], [-173.70891106652297, 876.559520446999], [-178.60433419527845, 881.0123204468305], [-180.56250344678062, 883.2387204471416], [-182.52067269863068, 886.5783204470152], [-186.43701120163504, 887.6915204469731], [-234.41215786517796, 803.088320447012], [-252.03568112939334, 773.0319204469635], [-292.17815078692746, 701.7871204468922], [-309.80167405114287, 671.7307204468436], [-357.7768207146857, 589.3539204467983], [-384.21210561100884, 539.2599204471128], [-425.3336598939461, 530.3543204470544], [-463.51796029963026, 523.6751204469118], [-481.1414835638456, 432.3927204468082], [-484.07873744109895, 390.09112044682763], [-458.6225371708748, 333.31792044699955], [-422.3964060166929, 263.18632044688616], [-421.41732139094177, 262.07312044692827], [-389.1075287397643, 237.58272044706445], [-367.5676669725445, 224.2243204467792], [-328.40428194110933, 178.5831204469251], [-289.2408969093263, 132.94192044707103], [-268.6801197678576, 109.56472044676957], [-339.1742128247192, 43.88592044688309], [-397.91929037187197, -10.660879553029332], [-357.7768207146857, -157.60327955300326], [-343.0905513277236, -205.47087955316854], [-325.46702806350817, -262.2440795529967], [-323.508858812006, -266.6968795532236], [-251.05659650364223, -375.79047955304844], [-181.54158807287956, -482.6576795529576], [-159.02264167956085, -517.1668795528376], [-74.8213638618361, -608.4492795529412], [-46.427909714010816, -639.6188795529476], [-24.88804794679104, -611.7888795532103], [-8.243609308326738, -557.2420795529024], [2.5263215752831503, -523.8460795529802], [37.77336810371394, -498.24247955315855], [120.99556129568761, -609.562479552899], [180.7197234689393, -547.2232795528862], [169.94979258532942, -533.8648795529964], [191.4896543525492, -520.5064795531066], [209.1131776167646, -496.0160795528474], [244.3602241451954, -487.1104795531845], [273.73276291877175, -488.22367955314235], [291.3562861829871, -468.18607955310995], [315.8334018278081, -457.0540795531359], [341.2896020980322, -451.48807955295115], [375.5575640007119, -442.5824795528928], [403.95101814853723, -437.0164795531035], [436.2608107997147, -403.6204795531813], [484.23595746325753, -355.75287955301604], [504.7967346047263, -312.3380795530777], [526.336596371946, -281.1684795530712], [552.7718812682691, -242.20647955296428], [553.7509658940202, -213.26327955287354], [555.7091351458703, -197.67847955306806]]]}, "properties": {"cusec": "3803901004", "mun": "039", "nmun": "Santa Úrsula", "area_m2": 774580.0375830793, "perimeter_m": 4758.45501402975, "coords_system": "local_m_enu"}}]}